{"type":"FeatureCollection","features":[{"type":"Feature","properties":{"kind":"province","id":"gubernia-1897-24","name":"Лифляндская губерния"},"geometry":{"type":"MultiPolygon","coordinates":[[[[25.674220031267527,56.615100160996036],[25.6362808474517,56.58971924360052],[25.5767943223063,56.58733978259353],[25.506600222634216,56.59447816561173],[25.507789953137486,56.615893314663495],[25.47090830754694,56.62898035019681],[25.453062350002945,56.64206738572834],[25.414990973909838,56.64325711623135],[25.385247711336692,56.633739272208025],[25.37691959781673,56.61946250617349],[25.31029468965295,56.59923708762287],[25.281741157583163,56.606375470640174],[25.26627466104571,56.60042681812685],[25.256756817022477,56.59209870460653],[25.234151937466823,56.60161654862985],[25.199649752882017,56.61232412315529],[25.148491341256488,56.62898035019681],[25.10566104315181,56.63017008069981],[25.050933440017978,56.6170830451665],[25.01286206392487,56.613513853658375],[24.980739340345984,56.62065223667649],[24.943857694755348,56.63135981120281],[24.89745820514148,56.58971924360052],[24.776105693844755,56.583770591085326],[24.765398119318164,56.59685762661685],[24.782054346358887,56.6170830451665],[24.812987339434592,56.62184196717949],[24.820125722451994,56.645636577236466],[24.832023027481057,56.66110307377498],[24.880801978100756,56.67419010930643],[24.9034068576565,56.67537983980944],[24.896268474639008,56.69203606685096],[24.85343817653424,56.70750256338938],[24.826074374966925,56.717020407412704],[24.79276192088548,56.722969059926044],[24.760639197306503,56.727727981939125],[24.727326743225056,56.74795340048699],[24.708291055178503,56.76579935803241],[24.676168331599616,56.77293774104874],[24.64642506902647,56.78364531557507],[24.617871536956685,56.776506932556956],[24.59288719639511,56.76936854954053],[24.58574881337771,56.75509178350599],[24.54648770678204,56.75152259199601],[24.53696986275881,56.76341989702542],[24.469155224092557,56.776506932556956],[24.501277947670733,56.83123453569168],[24.463206571577626,56.84908049323531],[24.421566003975418,56.8455113017271],[24.400150854923034,56.843131840720204],[24.366838400841587,56.84908049323531],[24.345423251789203,56.8455113017271],[24.369217861847417,56.80149127311871],[24.397771393917203,56.74676366998577],[24.33471567726261,56.75628151400909],[24.296644301169593,56.7539020530021],[24.262142116584787,56.75271232249909],[24.202655591439296,56.75509178350599],[24.17172259836368,56.7539020530021],[24.143169066293805,56.77769666306085],[24.12532310874981,56.77888639356385],[24.108666881709087,56.771748010545735],[24.092010654668364,56.77055828004362],[24.069503802628702,56.77139186715549],[24.05988793108939,56.771748010545735],[24.043231704048665,56.77412747155175],[24.01824736348718,56.77055828004362],[23.993263022926495,56.780076124066944],[23.980175987394073,56.780076124066944],[23.97184787387411,56.77293774104874],[23.934966228283564,56.771748010545735],[23.85525428458825,56.797922081610494],[23.727953120776505,56.840752379715],[23.662517943116082,56.86216752876685],[23.635154141548767,56.88239294731649],[23.625636297525535,56.89072106083681],[23.611359531490642,56.878823755808284],[23.59470330444992,56.85740860675652],[23.518560552262905,56.920464323409774],[23.49000702019312,56.947828124977626],[23.456694566111672,56.9811405790588],[23.426951303538527,56.99303788408902],[23.404346423983583,57.01564276364388],[23.378172352918828,57.037057912695644],[23.36399220321798,57.05818260635229],[23.48758015289986,57.04490456217168],[23.517323415472738,57.009212647084496],[23.557774252571676,56.98660776752875],[23.618450508220437,56.97471046250031],[23.67079865034897,56.96519261847699],[23.725526253482535,56.97233100149332],[23.76359762957644,56.97114127099121],[23.857586339306028,56.990176959038735],[23.98131831160938,57.03300725714235],[24.017010226696748,57.06037105870922],[24.09077351787802,57.07702728574986],[24.18119303609895,57.11628839234615],[24.266853632309108,57.163877612462755],[24.363221803045235,57.20194898855692],[24.40129317913843,57.223364137608776],[24.425087789196912,57.26619443571417],[24.423898058694085,57.298317159293234],[24.4179494061796,57.34828584041584],[24.410811023162285,57.37683937248492],[24.413190484168204,57.40420317405277],[24.395344526623944,57.461310238192695],[24.381067760589318,57.545781103898605],[24.387016413103805,57.58623194099799],[24.40129317913843,57.63144170010948],[24.382257491092233,57.65285684916124],[24.357273150530837,57.72305094883359],[24.357273150530837,57.746845558891444],[24.354893689525095,57.79205531800284],[24.346565576004867,57.83369588560434],[24.364411533548505,57.88485429723093],[24.39058560461246,57.94672028338119],[24.4120007536652,57.98836085098446],[24.448882399255393,58.02286303556776],[24.469107817804506,58.05022683713463],[24.48695377534859,58.091867404737904],[24.485764044845673,58.1358874333455],[24.48695377534859,58.165630695918466],[24.469107817804506,58.20013288050176],[24.49171269736007,58.226306951566514],[24.492902427862987,58.246532370116256],[24.47029754830742,58.2655680581629],[24.57142464105583,58.30125997325097],[24.591650059604945,58.33933134934337],[24.548819761500265,58.378592455940634],[24.505989463395498,58.39048976096819],[24.448882399255393,58.40476652700539],[24.369170455559722,58.401197335494516],[24.3168223134319,58.400007604992396],[24.2977866253849,58.388110299963955],[24.28707905085893,58.36431568990423],[24.288268781361847,58.33933134934337],[24.27399201532642,58.306018895262184],[24.259715249291794,58.28936266822164],[24.216884951187115,58.28579347671254],[24.18952114961989,58.27984482419743],[24.177623844590293,58.28341401570644],[24.15977788704701,58.28460374621042],[24.14907031252024,58.27389617168312],[24.139552468497186,58.27627563268922],[24.134793546485614,58.25961940564868],[24.11694758894153,58.24891183112226],[24.10386055340973,58.25605021413958],[24.063409716310883,58.269137249672],[24.059840524802137,58.28103455470044],[24.044374028263885,58.28579347671254],[24.032476723235,58.306018895262184],[24.014630765690917,58.31791620029072],[24.00273346066212,58.33457242733127],[23.990836155633236,58.32862377481793],[23.999164269153464,58.309588086770404],[23.986077233620954,58.308398356268285],[23.97417992859207,58.322675122302826],[23.958713432054527,58.322675122302826],[23.9444366660191,58.33695188833736],[23.917072864451875,58.33814161884125],[23.889709062884737,58.33814161884125],[23.868293913832797,58.34409027135459],[23.862919532883456,58.35041307247219],[23.88940599811457,58.37310502749282],[23.938184948734268,58.38976125453337],[23.969117941809884,58.41950451710633],[23.960789828289123,58.433781283142736],[23.969117941809884,58.44448885766728],[23.961979558792393,58.46709373722392],[23.94651306225423,58.47661158124724],[23.9441336012484,58.496836999795995],[23.928667104710946,58.50635484381932],[23.94651306225423,58.52301107086075],[23.961979558792393,58.56108244695315],[23.984584438347337,58.60629220606464],[24.017896892429583,58.600343553549436],[24.014327700920393,58.56346190796013],[24.029794197458646,58.55275433343381],[24.058347729528432,58.55632352494193],[24.10712668014813,58.55989271645014],[24.139249403726307,58.61818951109308],[24.079762878580816,58.669347922719666],[24.134490481714646,58.69790145478963],[24.178510510322685,58.672917114227886],[24.21182296440413,58.670537653222674],[24.21182296440413,58.658640348192456],[24.227289460942384,58.65626088718636],[24.237997035468975,58.662209539701465],[24.455717717501738,58.676486305736006],[24.536619391700413,58.747870135912336],[24.57825995930262,58.74430094440235],[24.530670739185393,58.70741929881295],[24.608003221874966,58.70979875981905],[24.636556753945552,58.72407552585261],[24.6999209192489,58.7530696988497],[24.709438763272132,58.744741585330274],[24.733233373330346,58.74236212432338],[24.785581515458347,58.73641347181004],[24.814135047528133,58.73879293281516],[24.84982696261621,58.7530696988497],[24.881949686194385,58.77924376991356],[24.893846991223537,58.782812961422664],[24.91407240977336,58.77924376991356],[24.936677289329015,58.791141074942985],[24.925969714802424,58.800658918966306],[24.942625941843147,58.82564325952806],[24.981887048439614,58.84705840858079],[25.02352761604182,58.86371463562134],[25.078255219175563,58.874422210147756],[25.098480637725476,58.876801671152876],[25.140121205326885,58.873232479643775],[25.15915689337344,58.872042749140775],[25.184141233934923,58.881560593164096],[25.21150503550224,58.88394005417108],[25.227985006172418,58.880767439495656],[25.24345150270987,58.85459336843179],[25.212518509634165,58.8177117228424],[25.224415814663317,58.792727382280646],[25.18158551655855,58.73681004864284],[25.19229309108434,58.71658463009319],[25.24702069421897,58.709446247076855],[25.29817910584441,58.705877055567754],[25.28271260930616,58.67256460148657],[25.258917999248034,58.641631608410506],[25.325542907411016,58.67494406249169],[25.39216781557471,58.697548942046545],[25.436187844181948,58.704687325064654],[25.483777064299087,58.705877055567754],[25.523038170894754,58.702307864059534],[25.567058199502792,58.709446247076855],[25.65390852621551,58.74156897065583],[25.625354994145724,58.790347921274545],[25.620596072134063,58.80938360932217],[25.647959873701378,58.81890145334549],[25.719343703875932,58.8177117228424],[25.735999930916655,58.79748630429275],[25.832368101652694,58.80462468730909],[25.839506484670185,58.784399268759444],[25.86924974724324,58.7713122332279],[25.897803279313116,58.77607115523912],[25.928736272388733,58.783209538257324],[25.953720612950217,58.792727382280646],[25.946582229932815,58.80938360932217],[25.96680764848264,58.82128091435061],[25.994171450049155,58.8177117228424],[26.007258485581488,58.82841929736881],[26.02272498211974,58.82603983636271],[26.047709322680515,58.83436794988214],[26.07745258525357,58.83793714139213],[26.116713691850038,58.83555768038515],[26.12742126637583,58.84626525491236],[26.110765039335018,58.859352290443894],[26.133369918890672,58.866490673462096],[26.17025156448051,58.880767439495656],[26.204195603891048,58.891166565374114],[26.22442102244095,58.87332060783048],[26.263682129037328,58.86975141632049],[26.307702157644567,58.87926926034381],[26.31484054066197,58.89592548738524],[26.307702157644567,58.90544333140856],[26.336255689715152,58.90544333140856],[26.389793562345623,58.89235629587712],[26.442141704474512,58.8745103383326],[26.458797931515235,58.848336267269616],[26.48140281107009,58.86142330280106],[26.4742644280526,58.89592548738524],[26.495679577105783,58.90544333140856],[26.506387151631575,58.922099558450086],[26.58847855633272,58.94232497699885],[26.667000769525565,58.96611958705671],[26.718159181150206,58.95898120404037],[26.765748401267345,58.97682716158303],[26.802630046857182,58.98277581409823],[26.810958160377943,59.02798557320963],[26.85378845848271,59.04345206974628],[26.884721451558327,59.069626140811124],[26.90018794809658,59.072005601816244],[26.94896689871628,59.05772883578268],[26.972761508774404,59.03036503421484],[27.00369450185002,59.02679584270662],[27.05128372196645,59.02798557320963],[27.089355098060267,59.02203692069452],[27.140513509685796,58.974447700577024],[27.226174105895243,58.841197884251415],[27.28893599230165,58.73306817393588],[27.369837666500235,58.58435186107184],[27.448677336938534,58.44867428868905],[27.472154489750405,58.408271746639954],[27.49475936930615,58.36901064004357],[27.49713883031198,58.34283656897882],[27.476913411762066,58.32023168942485],[27.475723681259506,58.29048842685188],[27.463826376230443,58.278591121822465],[27.480482603271167,58.267883547295256],[27.514984787855173,58.18817160360145],[27.564953468978143,58.14415157499296],[27.579230235013036,58.11321858191788],[27.55566091105827,58.096328669219474],[27.542573875526646,58.07729298117283],[27.503312768930268,58.05468810161797],[27.503312768930268,58.004719420496244],[27.485466811386274,57.99282211546692],[27.480707889374614,57.96902750540808],[27.491415463901117,57.952371278368425],[27.50807169094193,57.952371278368425],[27.542573875526646,57.95950966138476],[27.55923010256737,57.938094512332114],[27.573506868602262,57.91192044126913],[27.541384145023375,57.89883340573582],[27.549712258544137,57.88336690919917],[27.56398902457903,57.87741825668397],[27.573506868602262,57.865520951655526],[27.56279929407576,57.85243391612222],[27.56398902457903,57.83815715008768],[27.51877926546852,57.83815715008768],[27.503312768930268,57.84410580260279],[27.474759236860482,57.8429160720989],[27.433118669258274,57.83339822807558],[27.40932405920006,57.82507011455615],[27.390288371153506,57.8048446960065],[27.40218567618257,57.792947390976195],[27.40575486769096,57.77153224192443],[27.387908910147676,57.75487601488291],[27.387908910147676,57.72751221331693],[27.4117035202058,57.709666255773286],[27.430739208252444,57.709666255773286],[27.45215435730474,57.701338142252084],[27.433118669258274,57.67873326269732],[27.387908910147676,57.6620770356558],[27.35459645606623,57.657318113645466],[27.341509420533807,57.64185161710704],[27.340319690031247,57.61448781553919],[27.318904540978153,57.59664185799555],[27.30938669695483,57.58474455296622],[27.318904540978153,57.57641643944591],[27.346268342545468,57.57760616994891],[27.35935537807789,57.57641643944591],[27.376011605118524,57.563329403914366],[27.374821874615254,57.550242368382925],[27.386719179644405,57.547862907375944],[27.41408298121163,57.546673176872936],[27.425980286240783,57.53239641083928],[27.42003163372665,57.50384287876844],[27.422411094732393,57.485996921224796],[27.40932405920006,57.46815096368027],[27.4009959456793,57.45268446714361],[27.397426754170997,57.43959743161032],[27.390472377861332,57.3894825261159],[27.414266987919547,57.34070357549629],[27.402369682890395,57.29668354688879],[27.346452349253294,57.27169920632694],[27.315519356177678,57.259801901296726],[27.298863129136954,57.26337109280574],[27.286965824107803,57.24790459626908],[27.252463639523086,57.24314567425698],[27.209633341418318,57.225299716712456],[27.188218192366023,57.225299716712456],[27.17037223482194,57.21697160319222],[27.16323385180445,57.19793591514558],[27.145387894261166,57.193176993134365],[27.12159328420304,57.17176184408251],[27.094229482635726,57.16819265257253],[27.078762986097473,57.14320831201255],[27.06686568106841,57.128931545976236],[27.033553226986964,57.1146547799417],[27.00618942541965,57.10037801390627],[26.990722928882196,57.07182448183631],[26.95741047479995,57.044460680270326],[26.938374786753396,57.03851202775513],[26.91814936820437,57.03970175825822],[26.91101098518688,57.031373644737016],[26.887216375128755,57.025424992223684],[26.897923949654547,57.01590714820036],[26.890785566637057,56.99925092115884],[26.911539754298666,57.00057284394012],[26.92819598134019,56.9827268863956],[26.92819598134019,56.96963985086406],[26.915108945807766,56.96131173734375],[26.93295490335185,56.94703497130921],[26.975785201456617,56.93513766627899],[26.969836548941686,56.92205063074746],[26.982923584474108,56.90182521219781],[27.001959272520573,56.897066290185705],[27.005528464029673,56.88635871566116],[26.98768250648568,56.87684087163784],[26.951990591398403,56.86137437509932],[26.93414463385441,56.84590787856089],[26.904401371281264,56.82568246001124],[26.89131433574964,56.77809323989463],[26.792566704007772,56.77333431788342],[26.750926136405564,56.761437012854884],[26.658127157177827,56.826872190514244],[26.634332547119612,56.81735434649092],[26.645040121646204,56.81021596347459],[26.603399554043996,56.79474946693518],[26.596261171026505,56.80069811945127],[26.56889736945928,56.79118027542795],[26.57365629147085,56.77333431788342],[26.559379525435958,56.76857539587131],[26.557000064430127,56.7578678213449],[26.546292489904335,56.75072943832856],[26.532015723869442,56.736452672292245],[26.51416976632536,56.73526294179013],[26.491564886769794,56.7233656367616],[26.47847785123817,56.71265806223528],[26.454683241179957,56.703140218211956],[26.42018105659524,56.701950487708956],[26.40828375156609,56.681725069159306],[26.41304267357775,56.65198180658536],[26.36783291446715,56.6269974660245],[26.328571807870507,56.607961777977856],[26.30239773680673,56.61985908300727],[26.273844204736942,56.61510016099606],[26.235772828643036,56.60915150848086],[26.21316794908818,56.64127423205903],[26.190563069532526,56.65674072859747],[26.177476034000104,56.67815587764932],[26.15487115444525,56.67458668614199],[26.127507352877934,56.66506884211778],[26.078728402258236,56.648412615077234],[26.060882444714952,56.63056665753271],[26.00020618906619,56.62461800501938],[26.00139591956875,56.63770504055083],[25.976411579007976,56.669827764128996],[25.932391550400027,56.66744830312388],[25.919304514867605,56.6769661471472],[25.853869337207183,56.668638033625996],[25.801521195079182,56.66387911161567],[25.78486496803846,56.660309920105675],[25.753931974962843,56.62461800501938],[25.674220031267527,56.615100160996036]]],[[[22.631849806273806,58.24627349070124],[22.65047513024521,58.25256697916647],[22.65112344042126,58.25127035881451],[22.631849806273806,58.24627349070124]]],[[[22.60115475929871,58.262691771642494],[22.56474900590905,58.2298552097609],[22.546189210064085,58.23770743108071],[22.546189210064085,58.254839550322686],[22.52406022270975,58.2591225801325],[22.507641941769236,58.21843379693382],[22.49479285233815,58.21914763523455],[22.47266386498376,58.24912884390869],[22.458387098948435,58.25769490352923],[22.43340275838716,58.224144503346906],[22.405563064619002,58.222716826743635],[22.387003268774095,58.2298552097609],[22.36344660481626,58.2298552097609],[22.32061630671103,58.221289150140365],[22.27849984690829,58.201301677691845],[22.252801668045322,58.1713204690177],[22.263509242571217,58.149191481663365],[22.245663285027263,58.11135805167123],[22.247090961630704,58.104933506954694],[22.22424813597462,58.078521489791456],[22.23495571050131,58.06281704715184],[22.193553088999522,58.02998048527115],[22.20140531031933,57.991433216977384],[22.169282586739996,57.97644261264031],[22.125024612032064,57.96145200830324],[22.10503713958292,57.9450337273629],[22.07505593090957,57.93718150604491],[22.06648987128807,57.92290474000856],[22.035794824312973,57.910055650577306],[22.007241292243066,57.91719403359457],[21.99581987941542,57.940750697553995],[21.968694023948956,57.95645514019088],[22.018662705071506,57.98715018716757],[22.038650177519855,58.01070685112518],[22.0600653265725,58.02926664697043],[22.067917547892307,58.0442572513075],[22.078625122418202,58.05139563432476],[22.07933896071995,58.063530885454384],[22.085049667133774,58.077093813186366],[22.10789249278986,58.08994290261944],[22.115030875807122,58.10065047714579],[22.135018348256267,58.089229064316896],[22.150722790895088,58.07209694507401],[22.172137939946936,58.07138310677237],[22.172851778249424,58.09636744733416],[22.209971369940092,58.13634239223211],[22.222820459371178,58.13777006883538],[22.227103489182298,58.14847764336264],[22.214968238052165,58.169178954113704],[22.187128544284008,58.15918521788899],[22.15500582070547,58.17417582222424],[22.129307641842445,58.18416955844896],[22.114317037505373,58.18060036694078],[22.092188050151037,58.18988026486295],[22.07291441600438,58.178458852034964],[22.06363451808113,58.20201551599257],[22.06934522449575,58.20558470750257],[22.047930075443105,58.221289150140365],[22.0293702795974,58.233424401270895],[22.01009664544995,58.251984197115235],[21.98653998149217,58.2569810652285],[21.970121700552454,58.26483328654649],[21.98082927507835,58.244131975797245],[21.971549377155895,58.24056278428816],[21.94585119829287,58.24912884390869],[21.907303929998022,58.265547124849036],[21.89516867886863,58.27839621428029],[21.85376605736684,58.2883899505041],[21.83020939340986,58.29695601012645],[21.837347776427123,58.305522069746075],[21.81664646567623,58.32051267408315],[21.853052219065148,58.3155158059717],[21.85447989566859,58.324081865592234],[21.866615146798722,58.32265418898896],[21.875181206419484,58.31123277616098],[21.905162415092832,58.30266671654044],[21.920153019429904,58.31051893785843],[21.891599487359997,58.3447831763433],[21.89945170867901,58.346924691249114],[21.917297666222964,58.33835863162676],[21.936571300370417,58.3155158059717],[21.960127964327455,58.31694348257497],[21.9801154367766,58.32336802728969],[21.961555640931692,58.33407560181604],[21.940854330180798,58.34978004445475],[21.955131096215382,58.35263539766311],[21.970121700552454,58.3447831763433],[22.005099777337875,58.33835863162676],[22.011524322053447,58.34264166143748],[21.998675232622304,58.35263539766311],[22.022945734881887,58.35691842747201],[22.009382807148256,58.36334297218946],[22.007955130544815,58.37262287011163],[22.030797956200843,58.36762600199836],[22.037222500916414,58.369767516904176],[21.998675232622304,58.386899636146154],[21.979401598474908,58.40474559368977],[21.99082301130335,58.412597815009576],[21.97654624526797,58.41830852142357],[21.968694023948956,58.43615447896627],[21.94299584508599,58.44900356839844],[21.940854330180798,58.45899730462315],[21.911586959809142,58.473987908960225],[21.895882517170378,58.47041871745023],[21.878036559626366,58.47684326216677],[21.888744134153114,58.48255396858076],[21.890885649058248,58.493975381407836],[21.911586959809142,58.48255396858076],[21.94513735999118,58.47969861537331],[21.96226947923344,58.49468921970947],[21.94513735999118,58.50539679423582],[21.96226947923344,58.521815075176164],[21.998675232622304,58.51182133895236],[22.050785428650045,58.503255279331825],[22.06434835638288,58.47041871745023],[22.081480475625142,58.43187144915737],[22.101467948074287,58.41473932991448],[22.126452288635562,58.41188397670703],[22.125024612032064,58.45043124500171],[22.131449156747635,58.47827093877004],[22.147153599386456,58.493975381407836],[22.167854910136555,58.495403058012016],[22.168568748438304,58.50682447084091],[22.206402178431404,58.515390530461445],[22.197836118809903,58.52966729649597],[22.206402178431404,58.54679941573795],[22.221392782767737,58.54537173913377],[22.23638338710481,58.53323648800415],[22.23923874031169,58.501827602727644],[22.253515506347014,58.49683073461529],[22.262081565967776,58.484695483486576],[22.294204289546315,58.48969235159802],[22.307767217279945,58.51753204536635],[22.324185498219663,58.52110123687544],[22.30348418746877,58.54251638592723],[22.286352068227302,58.536805679513236],[22.28349671502042,58.563217696678294],[22.30348418746877,58.573925271204644],[22.325613174823104,58.56821456478974],[22.390572460282726,58.5732114329021],[22.418412154050884,58.57035607969556],[22.47694689479414,58.57249759460137],[22.516921839692486,58.58177749252445],[22.548330724969276,58.60176496497297],[22.56617668251249,58.62460779062803],[22.596157891186635,58.639598394965105],[22.61043465722122,58.63388768855202],[22.636132836084187,58.586060522333355],[22.670397074567916,58.57892213931609],[22.69252606192225,58.58106365422191],[22.693239900224,58.59034355214408],[22.709658181164514,58.58962971384244],[22.73535636002748,58.57249759460137],[22.758199185683566,58.573925271204644],[22.773189790019842,58.59248506704989],[22.76747908360602,58.60533415648115],[22.784611202848282,58.61532789270677],[22.81673392642682,58.61746940761077],[22.85242584151399,58.610331024593506],[22.889545433205456,58.62175243742149],[22.921668156783994,58.61175870119769],[22.967353808096107,58.6160417310075],[23.000904208278143,58.6003372883697],[23.03088541695149,58.59462658195571],[23.042306829779136,58.58249133082518],[23.070146523547294,58.57749446271282],[23.091561672599937,58.588915875541716],[23.086564804487807,58.61247253949841],[23.11012146844564,58.62389395232731],[23.145099545231062,58.62460779062803],[23.15723479636125,58.64031223326674],[23.162231664473325,58.670293441940885],[23.175080753904467,58.68171485476796],[23.1872160050346,58.67885950156142],[23.212914183897567,58.688853237785224],[23.23718468615715,58.67885950156142],[23.2771596310547,58.670293441940885],[23.327842150478943,58.656730514207084],[23.367817095377234,58.64673677798237],[23.384235376317008,58.63103233534457],[23.373527801791056,58.62175243742149],[23.38709072952389,58.60676183308442],[23.375669316696246,58.59890961176643],[23.409219716878283,58.568928403092286],[23.42635183612049,58.54822709234122],[23.3849492146187,58.5282396198927],[23.341405078212517,58.53466416460924],[23.30214397161592,58.53466416460924],[23.28429801407276,58.5439440625305],[23.262882865020117,58.53966103272069],[23.246464584079604,58.51681820706381],[23.220052566914887,58.50967982404654],[23.23004630313983,58.50039992612437],[23.267165894830498,58.495403058012016],[23.27002124803738,58.48255396858076],[23.282870337468523,58.48255396858076],[23.288581043883084,58.47327407065768],[23.26787973313219,58.46899104084696],[23.26645205652875,58.460424981226424],[23.19078519654323,58.44900356839844],[23.156520958059502,58.44900356839844],[23.125825911084462,58.42758841934665],[23.080854098073985,58.421877712932655],[23.077998744867102,58.409742461803035],[23.100841570523187,58.40474559368977],[22.65047513024521,58.25256697916647],[22.64541273400664,58.262691771642494],[22.60115475929871,58.262691771642494]]]]}},{"type":"Feature","properties":{"kind":"district","id":"uyezd-1897-79","name":"Юрьевский","provinceId":"gubernia-1897-24"},"geometry":{"type":"MultiPolygon","coordinates":[[[[27.28893599230165,58.73306817393588],[27.226174105895243,58.841197884251415],[27.140513509685796,58.974447700577024],[27.089355098060267,59.02203692069452],[27.05128372196645,59.02798557320963],[27.00369450185002,59.02679584270662],[26.972761508774404,59.03036503421484],[26.94896689871628,59.05772883578268],[26.90018794809658,59.072005601816244],[26.884721451558327,59.069626140811124],[26.85378845848271,59.04345206974628],[26.810958160377943,59.02798557320963],[26.802630046857182,58.98277581409823],[26.765748401267345,58.97682716158303],[26.718159181150206,58.95898120404037],[26.667000769525565,58.96611958705671],[26.58847855633272,58.94232497699885],[26.506387151631575,58.922099558450086],[26.495679577105783,58.90544333140856],[26.4742644280526,58.89592548738524],[26.48140281107009,58.86142330280106],[26.458797931515235,58.848336267269616],[26.442141704474512,58.8745103383326],[26.389793562345623,58.89235629587712],[26.336255689715152,58.90544333140856],[26.307702157644567,58.90544333140856],[26.31484054066197,58.89592548738524],[26.307702157644567,58.87926926034381],[26.263682129037328,58.86975141632049],[26.22442102244095,58.87332060783048],[26.204195603891037,58.89116656537412],[26.17025156448051,58.880767439495656],[26.133369918890672,58.866490673462096],[26.110765039335018,58.859352290443894],[26.12742126637583,58.84626525491236],[26.116713691850038,58.83555768038515],[26.133006123162463,58.83294390263926],[26.182974804284633,58.79130333503785],[26.231753754904332,58.78892387403265],[26.26506620898578,58.769888185986005],[26.257927825968288,58.70802219983308],[26.232943485406892,58.70088381681674],[26.2258051023894,58.63663836965861],[26.181785073782162,58.61165402909687],[26.16155965523225,58.591428610548995],[26.127057470647532,58.57477238350747],[26.128247201150803,58.56525453948415],[26.15442127221476,58.56287507847903],[26.16869803824974,58.55454696495782],[26.16512884674064,58.54383939043239],[26.146093158694086,58.5402701989224],[26.125867740144972,58.517665319367545],[26.127057470647532,58.499819361823015],[26.142523967185696,58.46412744673672],[26.17107749925557,58.45341987221039],[26.185354265290464,58.424866340140426],[26.16274938573481,58.421297148630444],[26.134195853664934,58.415348496117105],[26.128247201150803,58.39988199957859],[26.15680073322059,58.38084631153195],[26.16274938573481,58.3677592760005],[26.15799046372315,58.353482509965964],[26.147282889197356,58.32730843890112],[26.148472619699916,58.26187326124088],[26.129436931653363,58.23569919017612],[26.11278070461255,58.205955927603064],[26.097314208075186,58.18929970056341],[26.087796364051066,58.16193589899645],[26.093745016566086,58.142900210948916],[26.084227172542764,58.115536409382045],[26.06638121499877,58.108398026363844],[26.05567364047298,58.066757458762346],[26.07114013701043,58.054860153733905],[26.05686337097545,58.04296284870449],[26.06043256248464,58.027496352166054],[26.048535257455487,58.01440931663453],[26.049724987958047,57.98823524556977],[26.048535257455487,57.9573022524946],[26.06043256248464,57.93945629495007],[26.06757094550204,57.91804114589831],[26.094934747068557,57.893056805336556],[26.11516016561838,57.88472869181713],[26.133006123162463,57.86212381226049],[26.15918019422642,57.84903677672905],[26.144903428191526,57.837139471700524],[26.17583642126723,57.82286270566421],[26.21271806685778,57.803827017617564],[26.21628725836608,57.816914053150875],[26.206769414342848,57.837139471700524],[26.22818456339523,57.84546758522084],[26.232943485406892,57.83594974119752],[26.247220251441696,57.837139471700524],[26.255548364962547,57.85855462075237],[26.297188932564755,57.87045192578081],[26.351916535698496,57.85855462075237],[26.392367372797523,57.847847046226846],[26.413782521849818,57.84308812421385],[26.441146323417133,57.84189839371085],[26.460182011463687,57.847847046226846],[26.463751202972787,57.86093408175749],[26.438766862411303,57.87640057829681],[26.42449009637641,57.88591842232013],[26.42567982687977,57.90019518835378],[26.447094975932064,57.92517952891651],[26.48278689101934,57.93588710344194],[26.548222068679763,57.97157901853002],[26.550601529685594,57.98585578456456],[26.53394530264487,57.99775308959309],[26.53275557214151,58.01916823864574],[26.576775600749638,58.02987581317304],[26.5886729057787,58.04296284870449],[26.5886729057787,58.08103422479688],[26.555360451697165,58.09293152982719],[26.558929643205555,58.11196721787383],[26.57320640924045,58.109587756866844],[26.594621558293632,58.12505425340537],[26.597001019299462,58.139331019439815],[26.613657246340185,58.14408994145201],[26.626744281871808,58.13576182793169],[26.626744281871808,58.11196721787383],[26.68742053752057,58.115536409382045],[26.712404878082054,58.110777487370825],[26.69812811204716,58.09293152982719],[26.656487544444953,58.08698287731208],[26.63269293438674,58.08460341630598],[26.618416168351846,58.066757458762346],[26.623175090363418,58.05248069272781],[26.660056735954054,58.05604988423602],[26.73976867964937,58.03106554367427],[26.78497843875988,58.01559904713761],[26.78973736077154,58.03106554367427],[26.776650325239117,58.06199853675113],[26.74809679316933,58.07746503328876],[26.762373559204224,58.0881726078142],[26.779029786244948,58.10482883485563],[26.802824396303162,58.115536409382045],[26.83851631139124,58.119105600890165],[26.861121190946093,58.12505425340537],[26.8956233755309,58.12862344491349],[26.920607716092295,58.141710480446804],[26.925366638103956,58.16669482100677],[26.961058553191233,58.15479751597833],[26.965817475202893,58.13576182793169],[26.978904510734516,58.13576182793169],[26.99318127677021,58.14884886346314],[27.00150939029017,58.151228324470125],[27.00507858179927,58.160746168493446],[27.020545078336724,58.16193589899645],[27.039580766383278,58.15241805497224],[27.04790887990404,58.14646940245713],[27.062185645938932,58.14527967195501],[27.069324028956423,58.140520749943796],[27.069324028956423,58.13219263642348],[27.077652142477184,58.110777487370825],[27.10382621354123,58.117915870387165],[27.133569476113486,58.12981317541747],[27.130000284605185,58.15955643799044],[27.122861901587694,58.18692023955642],[27.128810554101825,58.213094310621265],[27.15617435566914,58.215473771626385],[27.172830582709953,58.205955927603064],[27.221609533329563,58.20238673609494],[27.218040341820462,58.19048943106641],[27.235886299364456,58.17859212603708],[27.26919875344599,58.17859212603708],[27.31321878205394,58.17502293452709],[27.347720966638747,58.20714565810616],[27.356049080158797,58.23212999866791],[27.348910697141307,58.2713911052642],[27.346531236135476,58.29280625431605],[27.3667566546853,58.339205743930535],[27.300131746521608,58.376087389520734],[27.342962044627175,58.4022614605838],[27.448677336938534,58.44867428868905],[27.369837666500235,58.58435186107184],[27.28893599230165,58.73306817393588]]]]}},{"type":"Feature","properties":{"kind":"district","id":"uyezd-1897-81","name":"Перновский","provinceId":"gubernia-1897-24"},"geometry":{"type":"MultiPolygon","coordinates":[[[[24.6999209192489,58.7530696988497],[24.636556753945552,58.72407552585261],[24.608003221874966,58.70979875981905],[24.530670739185393,58.70741929881295],[24.57825995930262,58.74430094440235],[24.536619391700413,58.747870135912336],[24.455717717501738,58.676486305736006],[24.237997035468975,58.662209539701465],[24.227289460942384,58.65626088718636],[24.21182296440413,58.658640348192456],[24.21182296440413,58.670537653222674],[24.178510510322685,58.672917114227886],[24.134490481714646,58.69790145478963],[24.079762878580816,58.669347922719666],[24.139249403726307,58.61818951109308],[24.10712668014813,58.55989271645014],[24.058347729528432,58.55632352494193],[24.029794197458646,58.55275433343381],[24.014327700920393,58.56346190796013],[24.017896892429583,58.600343553549436],[23.984584438347337,58.60629220606464],[23.961979558792393,58.56108244695315],[23.94651306225423,58.52301107086075],[23.928667104710946,58.50635484381932],[23.9441336012484,58.496836999795995],[23.94651306225423,58.47661158124724],[23.961979558792393,58.46709373722392],[23.969117941809884,58.44448885766728],[23.960789828289123,58.433781283142736],[23.969117941809884,58.41950451710633],[23.938184948734268,58.38976125453337],[23.88940599811457,58.37310502749282],[23.862919532883456,58.35041307247219],[23.868293913832797,58.34409027135459],[23.889709062884737,58.33814161884125],[23.917072864451875,58.33814161884125],[23.9444366660191,58.33695188833736],[23.958713432054527,58.322675122302826],[23.97417992859207,58.322675122302826],[23.986077233620954,58.308398356268285],[23.999164269153464,58.309588086770404],[23.990836155633236,58.32862377481793],[24.00273346066212,58.33457242733127],[24.014630765690917,58.31791620029072],[24.032476723235,58.306018895262184],[24.044374028263885,58.28579347671254],[24.059840524802137,58.28103455470044],[24.063409716310883,58.269137249672],[24.10386055340973,58.25605021413958],[24.11694758894153,58.24891183112226],[24.134793546485614,58.25961940564868],[24.139552468497186,58.27627563268922],[24.14907031252024,58.27389617168312],[24.15977788704701,58.28460374621042],[24.177623844590293,58.28341401570644],[24.18952114961989,58.27984482419743],[24.216884951187115,58.28579347671254],[24.259715249291794,58.28936266822164],[24.27399201532642,58.306018895262184],[24.288268781361847,58.33933134934337],[24.28707905085893,58.36431568990423],[24.2977866253849,58.388110299963955],[24.3168223134319,58.400007604992396],[24.369170455559722,58.401197335494516],[24.448882399255393,58.40476652700539],[24.505989463395498,58.39048976096819],[24.548819761500265,58.378592455940634],[24.591650059604945,58.33933134934337],[24.57142464105583,58.30125997325097],[24.47029754830742,58.2655680581629],[24.492902427862987,58.246532370116256],[24.49171269736007,58.226306951566514],[24.469107817804506,58.20013288050176],[24.48695377534859,58.165630695918466],[24.485764044845673,58.1358874333455],[24.48695377534859,58.091867404737904],[24.469107817804506,58.05022683713463],[24.448882399255393,58.02286303556776],[24.4120007536652,57.98836085098446],[24.39058560461246,57.94672028338119],[24.364411533548505,57.88485429723093],[24.438751000128725,57.887715222280335],[24.46730453219851,57.9257865983745],[24.576759738466972,57.93887363390604],[24.591036504501865,57.9257865983745],[24.681456022723772,57.93173525088784],[24.695732788758754,57.93649417290003],[24.693353327752924,57.94482228642114],[24.72071712932024,57.962668243964785],[24.745701469880924,57.957909321952684],[24.754029583401685,57.963857974467786],[24.748080930886665,57.98289366251443],[24.7849625764773,58.00192935056107],[24.82660314407951,57.99241150653775],[24.857536137155215,57.999549889554174],[24.87776155570504,57.99241150653775],[24.909884279283126,58.00311908106417],[24.945576194370403,58.029293152127146],[24.975319456943637,58.02096503860771],[25.008631911025084,58.019775308103824],[25.052651939633122,58.0602261452041],[25.10143089025282,58.085210485764065],[25.131174152825878,58.09472832978739],[25.23587043708188,58.093538599285274],[25.309633728263062,58.091159138278286],[25.36079213988859,58.06260560620922],[25.394104593970038,58.041190457157455],[25.473816537665353,58.02453423011593],[25.477385729173655,58.01620611659561],[25.46310896313876,58.01144719458439],[25.479765190179485,57.99717042854897],[25.495231686717737,57.972186087988106],[25.51426737476429,57.97337581849111],[25.540441445828247,57.98408339301753],[25.5630463253839,57.962668243964785],[25.593979318459606,57.94482228642114],[25.600284117106344,57.96724990219536],[25.594335464591413,57.983906129236885],[25.650252798228603,57.994613703763214],[25.643114415211112,58.01721858331807],[25.613371152637967,58.02911588834651],[25.6228889966612,58.04220292387982],[25.651442528731874,58.04101319337681],[25.699031748848213,58.03982346287283],[25.72639555041553,58.05410022890826],[25.747810699467912,58.074325647458],[25.766846387514466,58.08622295248644],[25.763277196005365,58.101689449025756],[25.750190160473743,58.11358675405428],[25.68832417432171,58.155227321655694],[25.659770642251836,58.18497058422875],[25.62407872716456,58.18616031473175],[25.610991691632137,58.19805761976019],[25.58838681207728,58.20519600277839],[25.550315435983375,58.2099549247905],[25.52652082592525,58.21590357730561],[25.503915946370306,58.227800882333256],[25.47536241429972,58.25635441440322],[25.455136995750607,58.26468252792344],[25.436101307704053,58.28014902446196],[25.405168314628437,58.27657983295286],[25.389701818090273,58.28609767697618],[25.383753165575254,58.297994982006486],[25.357579094511298,58.297994982006486],[25.342112597973845,58.311082017537935],[25.304041221879938,58.30632309552672],[25.279056881319253,58.297994982006486],[25.26240065427853,58.295615520999505],[25.239795774722875,58.30989228703493],[25.181498980079944,58.311082017537935],[25.173170866559893,58.32535878357247],[25.11130488040786,58.33487662759579],[25.043490241741697,58.34558420212309],[24.99947021313366,58.33606635809977],[24.979244794584545,58.34082528011099],[24.991142099613608,58.41696803229756],[24.986383177602036,58.441952372858424],[24.99590102162527,58.45979833040197],[24.986383177602036,58.469316174425295],[24.941173418491438,58.48716213196893],[24.976865333578715,58.49905943699835],[25.00422913514603,58.50500808951346],[25.029213475706715,58.50500808951346],[25.06371566029152,58.513336203033774],[25.10416649739046,58.541889735102856],[25.149376256500968,58.57877138069304],[25.180309249577384,58.602565990752765],[25.229088200196284,58.63349898382785],[25.258917999248034,58.641631608410506],[25.28271260930616,58.67256460148657],[25.29817910584441,58.705877055567754],[25.24702069421897,58.709446247076855],[25.19229309108434,58.71658463009319],[25.18158551655855,58.73681004864284],[25.224415814663317,58.792727382280646],[25.212518509634165,58.8177117228424],[25.24345150270987,58.85459336843179],[25.227985006172418,58.880767439495656],[25.21150503550224,58.88394005417108],[25.184141233934923,58.881560593164096],[25.15915689337344,58.872042749140775],[25.140121205326885,58.873232479643775],[25.098480637725476,58.876801671152876],[25.078255219175563,58.874422210147756],[25.02352761604182,58.86371463562134],[24.981887048439614,58.84705840858079],[24.942625941843147,58.82564325952806],[24.925969714802424,58.800658918966306],[24.936677289329015,58.791141074942985],[24.91407240977336,58.77924376991356],[24.893846991223537,58.782812961422664],[24.881949686194385,58.77924376991356],[24.84982696261621,58.7530696988497],[24.814135047528133,58.73879293281516],[24.785581515458347,58.73641347181004],[24.733233373330346,58.74236212432338],[24.709438763272132,58.744741585330274],[24.6999209192489,58.7530696988497]]]]}},{"type":"Feature","properties":{"kind":"district","id":"uyezd-1897-82","name":"Валкский","provinceId":"gubernia-1897-24"},"geometry":{"type":"MultiPolygon","coordinates":[[[[26.094934747068557,57.893056805336556],[26.066658474249174,57.87920984497938],[26.05000224720845,57.863743348442725],[26.022638445641135,57.857794695927616],[26.007171949102972,57.863743348442725],[25.985756800050588,57.854225504419404],[25.970290303513135,57.84470766039608],[25.94173677144255,57.860174156932736],[25.927460005407656,57.842328199389186],[25.904855125852713,57.84708712140129],[25.88462970730289,57.84708712140129],[25.88700916830872,57.863743348442725],[25.84536860070651,57.863743348442725],[25.78707180606349,57.8958660720209],[25.763277196005365,57.910142838055435],[25.762087465502805,57.93988610062841],[25.74305177745625,57.954162866663836],[25.699031748848213,57.96249098018326],[25.644304145714383,57.94345529213662],[25.65465557410839,57.93437909645129],[25.680829645172345,57.923671521923985],[25.680829645172345,57.91058448639254],[25.686778297687276,57.88322068482469],[25.693916680704767,57.86418499677805],[25.671311801149113,57.86299526627496],[25.65227611310256,57.87489257130437],[25.628481503044345,57.87965149331648],[25.60111770147703,57.89035906784281],[25.584461474436306,57.89035906784281],[25.584461474436306,57.88084122381949],[25.55828740337235,57.88678987633468],[25.5428209068341,57.88797960683591],[25.535682523816696,57.87727203231136],[25.526164679793375,57.871323379796166],[25.50355980023772,57.8820309543216],[25.49761114772359,57.892738528848014],[25.483334381688607,57.87489257130437],[25.508318722249292,57.86418499677805],[25.532113332308306,57.8487185002414],[25.5499592898515,57.830872542696866],[25.572564169407244,57.82492389018167],[25.586840935442137,57.81540604615835],[25.566615516892313,57.80588820213503],[25.577323091418904,57.790421705598376],[25.55114902035486,57.78209359207726],[25.517836566273413,57.78209359207726],[25.55114902035486,57.7487811379951],[25.529733871302476,57.72141733642912],[25.491662495208658,57.72022760592611],[25.50237006973525,57.695243265364276],[25.523785218787545,57.68096649932885],[25.529733871302476,57.64646431474466],[25.582082013430565,57.633377279213136],[25.641568538575967,57.62147997418292],[25.60944581499779,57.610772399658366],[25.60349716248286,57.601254555635045],[25.560666864378092,57.59054698110774],[25.521405757781714,57.57389075406631],[25.49999060872942,57.55842425752868],[25.523785218787545,57.55366533551844],[25.55233875085733,57.525111803448475],[25.54401063733737,57.50250692389184],[25.560666864378092,57.4858506968521],[25.622532850529414,57.4858506968521],[25.671311801149113,57.47395339182188],[25.673691262154943,57.45134851226614],[25.695106411207327,57.43588201572948],[25.684398836681535,57.42041551919105],[25.742695631323667,57.40375929214953],[25.785525929429145,57.381154412594675],[25.855720029101228,57.35973926354291],[25.892601674691065,57.34308303650139],[25.955657391345568,57.34070357549627],[26.01514391649186,57.33356519247807],[26.02347203001182,57.32047815694662],[26.032989874035053,57.31809869593964],[26.044887179064204,57.297873277389996],[26.043697448561645,57.278837589343354],[26.062733136608287,57.278837589343354],[26.06630232811659,57.28597597236146],[26.086527746666412,57.293114355378776],[26.110322356724627,57.288355433366675],[26.12816831426862,57.282406780853336],[26.154342385332665,57.283596511355455],[26.154342385332665,57.29192462487666],[26.17575753438505,57.29192462487666],[26.18289591740245,57.287165702865444],[26.22096729349556,57.288355433366675],[26.266177052606867,57.29073489437357],[26.270935974618528,57.28121705035025],[26.241192712045383,57.28002731984724],[26.22929540701632,57.27169920632693],[26.23405432902798,57.25861217079548],[26.261418130595207,57.24671486576517],[26.270935974618528,57.233627830233644],[26.268556513612698,57.20983322017578],[26.29354085417347,57.18008995760282],[26.303058698196704,57.15510561704106],[26.33637115227895,57.13369046798921],[26.357786301331334,57.134880198491416],[26.357786301331334,57.117034240947774],[26.39109875541278,57.11822397144989],[26.410134443459334,57.09204990038691],[26.49222584816048,57.06944502083029],[26.518399919224436,57.07063475133329],[26.53862533777435,57.058737446304846],[26.55052264280341,57.04565041077331],[26.563609678335833,57.03851202775511],[26.576696713867456,56.984974155123396],[26.59216321040562,56.96593846707764],[26.632614047504557,56.982594694119165],[26.665926501586004,56.990922807638505],[26.680203267620897,56.984974155123396],[26.725413026732294,56.992112538142486],[26.76110494181957,57.00282011266704],[26.771812516345364,57.01590714820034],[26.79322766539766,57.01114822618824],[26.79798658740932,57.00163038216492],[26.84795526853229,56.99925092115882],[26.890785566637057,56.99925092115882],[26.897923949654547,57.01590714820034],[26.887216375128755,57.02542499222366],[26.91101098518688,57.031373644737],[26.91814936820437,57.039701758258204],[26.938374786753396,57.03851202775511],[26.95741047479995,57.044460680270305],[26.990722928882196,57.07182448183629],[27.00618942541965,57.10037801390625],[27.033553226986964,57.11465477994168],[27.06686568106841,57.128931545976215],[27.078762986097473,57.14320831201253],[27.094229482635726,57.16819265257251],[27.12159328420304,57.171761844082496],[27.145387894261166,57.193176993134344],[27.16323385180445,57.197935915145564],[27.17037223482194,57.216971603192206],[27.188218192366023,57.225299716712435],[27.209633341418318,57.225299716712435],[27.252463639523086,57.243145674256965],[27.286965824107803,57.247904596269066],[27.298863129136954,57.26337109280572],[27.315519356177678,57.25980190129671],[27.346452349253294,57.27169920632693],[27.402369682890395,57.296683546888765],[27.414266987919547,57.34070357549627],[27.390472377861332,57.389482526115884],[27.397426754170997,57.43959743161031],[27.4009959456793,57.45268446714361],[27.40932405920006,57.46815096368027],[27.422411094732393,57.485996921224796],[27.42003163372665,57.50384287876844],[27.425980286240783,57.53239641083928],[27.41408298121163,57.546673176872936],[27.386719179644405,57.547862907375944],[27.374821874615254,57.550242368382925],[27.381562189832778,57.52833831005499],[27.310178359657513,57.546184267598626],[27.266158331050185,57.55570211162195],[27.23522533797377,57.55332265061496],[27.197153961880662,57.56521995564527],[27.118631748688617,57.58425564369102],[27.044868457507523,57.606860523247654],[27.02821223046671,57.61994755877821],[27.000848428899484,57.61399890626488],[26.98538193236203,57.624706480791204],[26.961587322303817,57.6235167502882],[26.952069478280585,57.634224324814525],[26.899721336151785,57.61994755877821],[26.904480258163446,57.60448106224156],[26.886634300620162,57.59020429620613],[26.837855350000464,57.589014565703124],[26.791455860386595,57.5759275301716],[26.76766125032847,57.556891842124955],[26.72364122172043,57.556891842124955],[26.703415803171406,57.56403022514129],[26.685569845627324,57.56046103363316],[26.65582658305418,57.56046103363316],[26.630842242493493,57.54023561508352],[26.60942709344031,57.56165076413528],[26.573735178353033,57.554512381117966],[26.5677865258389,57.548563728603746],[26.546371376786517,57.54142534558652],[26.528525419242523,57.56046103363316],[26.492833504155247,57.58068645218192],[26.50592053968687,57.597342679223445],[26.495212965161077,57.59972214022945],[26.46427997208537,57.58425564369102],[26.438105901020617,57.58544537419492],[26.39408587241329,57.593773487714344],[26.378619375875125,57.616378367270976],[26.3583939573253,57.60805025374977],[26.333409616764616,57.616378367270976],[26.334599347267087,57.591394026708244],[26.30009716268317,57.60210160123457],[26.279871744133256,57.59972214022945],[26.260836056086703,57.610429714754886],[26.24536955954854,57.62946540280153],[26.220385218987854,57.66872650939782],[26.208487913957903,57.67824435342114],[26.19659060892884,57.692521119457545],[26.176365190379816,57.7032286939821],[26.170416537864796,57.71988492102353],[26.206108452952073,57.71750546001752],[26.2049187224496,57.73535141756204],[26.184693303899778,57.744869261585364],[26.19302141742045,57.79126875119799],[26.21271806685778,57.803827017617564],[26.17583642126723,57.82286270566421],[26.144903428191526,57.837139471700524],[26.15918019422642,57.84903677672905],[26.133006123162463,57.86212381226049],[26.11516016561838,57.88472869181713],[26.094934747068557,57.893056805336556]]]]}},{"type":"Feature","properties":{"kind":"district","id":"uyezd-1897-83","name":"Феллинский","provinceId":"gubernia-1897-24"},"geometry":{"type":"MultiPolygon","coordinates":[[[[25.644304145714383,57.94345529213662],[25.699031748848213,57.96249098018326],[25.74305177745625,57.954162866663836],[25.762087465502805,57.93988610062841],[25.763277196005365,57.910142838055435],[25.78707180606349,57.8958660720209],[25.84536860070651,57.863743348442725],[25.88700916830872,57.863743348442725],[25.88462970730289,57.84708712140129],[25.904855125852713,57.84708712140129],[25.927460005407656,57.842328199389186],[25.94173677144255,57.860174156932736],[25.970290303513135,57.84470766039608],[25.985756800050588,57.854225504419404],[26.007171949102972,57.863743348442725],[26.022638445641135,57.857794695927616],[26.05000224720845,57.863743348442725],[26.066658474249174,57.87920984497938],[26.094934747068557,57.893056805336556],[26.06757094550204,57.91804114589831],[26.06043256248464,57.93945629495007],[26.048535257455487,57.9573022524946],[26.049724987958047,57.98823524556977],[26.048535257455487,58.01440931663453],[26.06043256248464,58.027496352166054],[26.05686337097545,58.04296284870449],[26.07114013701043,58.054860153733905],[26.05567364047298,58.066757458762346],[26.06638121499877,58.108398026363844],[26.084227172542764,58.115536409382045],[26.093745016566086,58.142900210948916],[26.087796364051066,58.16193589899645],[26.097314208075186,58.18929970056341],[26.11278070461255,58.205955927603064],[26.129436931653363,58.23569919017612],[26.148472619699916,58.26187326124088],[26.147282889197356,58.32730843890112],[26.15799046372315,58.353482509965964],[26.16274938573481,58.3677592760005],[26.15680073322059,58.38084631153195],[26.128247201150803,58.39988199957859],[26.134195853664934,58.415348496117105],[26.16274938573481,58.421297148630444],[26.185354265290464,58.424866340140426],[26.17107749925557,58.45341987221039],[26.142523967185696,58.46412744673672],[26.127057470647532,58.499819361823015],[26.125867740144972,58.517665319367545],[26.146093158694086,58.5402701989224],[26.16512884674064,58.54383939043239],[26.16869803824974,58.55454696495782],[26.15442127221476,58.56287507847903],[26.128247201150803,58.56525453948415],[26.127057470647532,58.57477238350747],[26.16155965523225,58.591428610548995],[26.181785073782162,58.61165402909687],[26.2258051023894,58.63663836965861],[26.232943485406892,58.70088381681674],[26.257927825968288,58.70802219983308],[26.26506620898578,58.769888185986005],[26.231753754904332,58.78892387403265],[26.182974804284633,58.79130333503785],[26.133006123162463,58.83294390263926],[26.116713691850038,58.83555768038515],[26.07745258525357,58.83793714139213],[26.047709322680515,58.83436794988214],[26.02272498211974,58.82603983636271],[26.007258485581488,58.82841929736881],[25.994171450049155,58.8177117228424],[25.96680764848264,58.82128091435061],[25.946582229932815,58.80938360932217],[25.953720612950217,58.792727382280646],[25.928736272388733,58.783209538257324],[25.897803279313116,58.77607115523912],[25.86924974724324,58.7713122332279],[25.839506484670185,58.784399268759444],[25.832368101652694,58.80462468730909],[25.735999930916655,58.79748630429275],[25.719343703875932,58.8177117228424],[25.647959873701378,58.81890145334549],[25.620596072134063,58.80938360932217],[25.625354994145724,58.790347921274545],[25.65390852621551,58.74156897065583],[25.567058199502792,58.709446247076855],[25.523038170894754,58.702307864059534],[25.483777064299087,58.705877055567754],[25.436187844181948,58.704687325064654],[25.39216781557471,58.697548942046545],[25.325542907411016,58.67494406249169],[25.258917999248034,58.641631608410506],[25.229088200196284,58.63349898382785],[25.180309249577384,58.602565990752765],[25.149376256500968,58.57877138069304],[25.10416649739046,58.541889735102856],[25.06371566029152,58.513336203033774],[25.029213475706715,58.50500808951346],[25.00422913514603,58.50500808951346],[24.976865333578715,58.49905943699835],[24.941173418491438,58.48716213196893],[24.986383177602036,58.469316174425295],[24.99590102162527,58.45979833040197],[24.986383177602036,58.441952372858424],[24.991142099613608,58.41696803229756],[24.979244794584545,58.34082528011099],[24.99947021313366,58.33606635809977],[25.043490241741697,58.34558420212309],[25.11130488040786,58.33487662759579],[25.173170866559893,58.32535878357247],[25.181498980079944,58.311082017537935],[25.239795774722875,58.30989228703493],[25.26240065427853,58.295615520999505],[25.279056881319253,58.297994982006486],[25.304041221879938,58.30632309552672],[25.342112597973845,58.311082017537935],[25.357579094511298,58.297994982006486],[25.383753165575254,58.297994982006486],[25.389701818090273,58.28609767697618],[25.405168314628437,58.27657983295286],[25.436101307704053,58.28014902446196],[25.455136995750607,58.26468252792344],[25.47536241429972,58.25635441440322],[25.503915946370306,58.227800882333256],[25.52652082592525,58.21590357730561],[25.550315435983375,58.2099549247905],[25.58838681207728,58.20519600277839],[25.610991691632137,58.19805761976019],[25.62407872716456,58.18616031473175],[25.659770642251836,58.18497058422875],[25.68832417432171,58.155227321655694],[25.750190160473743,58.11358675405428],[25.763277196005365,58.101689449025756],[25.766846387514466,58.08622295248644],[25.747810699467912,58.074325647458],[25.72639555041553,58.05410022890826],[25.699031748848213,58.03982346287283],[25.651442528731874,58.04101319337681],[25.6228889966612,58.04220292387982],[25.613371152637967,58.02911588834651],[25.643114415211112,58.01721858331807],[25.650252798228603,57.994613703763214],[25.594335464591413,57.983906129236885],[25.600284117106344,57.96724990219536],[25.644304145714383,57.94345529213662]]]]}},{"type":"Feature","properties":{"kind":"district","id":"uyezd-1897-84","name":"Вольмарский","provinceId":"gubernia-1897-24"},"geometry":{"type":"MultiPolygon","coordinates":[[[[25.600284117106344,57.96724990219536],[25.593979318459606,57.94482228642114],[25.5630463253839,57.962668243964785],[25.540441445828247,57.98408339301753],[25.51426737476429,57.97337581849111],[25.495231686717737,57.972186087988106],[25.479765190179485,57.99717042854897],[25.46310896313876,58.01144719458439],[25.477385729173655,58.01620611659561],[25.473816537665353,58.02453423011593],[25.394104593970038,58.041190457157455],[25.36079213988859,58.06260560620922],[25.309633728263062,58.091159138278286],[25.23587043708188,58.093538599285274],[25.131174152825878,58.09472832978739],[25.10143089025282,58.085210485764065],[25.052651939633122,58.0602261452041],[25.008631911025084,58.019775308103824],[24.975319456943637,58.02096503860771],[24.945576194370403,58.029293152127146],[24.909884279283126,58.00311908106417],[24.87776155570504,57.99241150653775],[24.857536137155215,57.999549889554174],[24.82660314407951,57.99241150653775],[24.7849625764773,58.00192935056107],[24.748080930886665,57.98289366251443],[24.754029583401685,57.963857974467786],[24.745701469880924,57.957909321952684],[24.72071712932024,57.962668243964785],[24.693353327752924,57.94482228642114],[24.695732788758754,57.93649417290003],[24.681456022723772,57.93173525088784],[24.591036504501865,57.9257865983745],[24.576759738466972,57.93887363390604],[24.46730453219851,57.9257865983745],[24.438751000128725,57.887715222280335],[24.364411533548505,57.88485429723093],[24.346565576004867,57.83369588560434],[24.354893689525095,57.79205531800284],[24.357273150530837,57.746845558891444],[24.357273150530837,57.72305094883359],[24.382257491092233,57.65285684916124],[24.40129317913843,57.63144170010948],[24.387016413103805,57.58623194099799],[24.381067760589318,57.545781103898605],[24.395344526623944,57.461310238192695],[24.413190484168204,57.40420317405277],[24.445889383146216,57.40957575238645],[24.46492507119268,57.40838602188434],[24.493478603263267,57.41909359640977],[24.505375908292418,57.41552440490156],[24.51965267432731,57.422662787917986],[24.532739709858934,57.422662787917986],[24.530360248853103,57.41076548288946],[24.56248297243208,57.39054006433981],[24.589846773999394,57.3845914118247],[24.599364618022626,57.39529898635102],[24.608882462045948,57.40005790836313],[24.62553868908667,57.39529898635102],[24.649333299144885,57.40005790836313],[24.644574377133225,57.41552440490156],[24.654092221156546,57.41909359640977],[24.66955871769471,57.40838602188434],[24.7290452428402,57.428611440433095],[24.769496079939138,57.44288820646763],[24.799239342512195,57.428611440433095],[24.788531767985603,57.40124763886614],[24.809946917038786,57.3857811423277],[24.846828562628623,57.37507356780138],[24.865864250675088,57.35722761025863],[24.88846913023083,57.34533030523019],[24.918212392803888,57.34533030523019],[24.909884279283126,57.32986380869167],[24.88846913023083,57.32867407818867],[24.893228052242492,57.31796650366145],[24.903935626768995,57.31558704265713],[24.92535077582138,57.290602702095384],[24.943196733364573,57.290602702095384],[24.956283768896995,57.28346431907718],[24.953904307891165,57.272756744550854],[24.959852960406185,57.2596697090203],[24.947955655376234,57.25491078700722],[24.966991343423587,57.25015186499698],[24.98364757046431,57.2572902480142],[25.002683258510864,57.25372105650421],[25.02766759907155,57.2584799785172],[25.049082748124732,57.26442863103054],[25.068118436171286,57.26204917002542],[25.105000081761034,57.270377283545734],[25.126415230814217,57.28227458857506],[25.14664064936333,57.279895127569056],[25.171624989924815,57.28346431907718],[25.20374771350379,57.28227458857506],[25.221593671046985,57.2989308156157],[25.24181908959681,57.32391515617656],[25.24062935909354,57.346520035731416],[25.229921784567747,57.33581246120687],[25.216834749035414,57.3429508442232],[25.1966093304863,57.346520035731416],[25.202557983000432,57.372694106796175],[25.20374771350379,57.39410925584802],[25.169245528918985,57.38816060333469],[25.163296876404054,57.40362709987134],[25.176383911936476,57.42147305741587],[25.172814720427287,57.44764712847974],[25.19066067797137,57.44169847596463],[25.19422986947967,57.42742170993098],[25.208506635515363,57.41671413540465],[25.228732054064476,57.41671413540465],[25.262044508145923,57.42147305741587],[25.281080196193276,57.40124763886614],[25.316772111280553,57.40124763886614],[25.333428338321276,57.41671413540465],[25.34889483485864,57.413144943894665],[25.388155941455107,57.41552440490156],[25.40957109050749,57.422662787917986],[25.434555431068976,57.41790386590766],[25.469057615653693,57.42028332691278],[25.485713842694416,57.444077936970636],[25.5035598002377,57.46549308602427],[25.526164679793354,57.45478551149794],[25.524974949290883,57.435749823451296],[25.545200367839907,57.41790386590766],[25.56185659488063,57.43099090143919],[25.56423605588646,57.455975242000946],[25.584461474436285,57.46549308602427],[25.622532850529414,57.4858506968521],[25.560666864378092,57.4858506968521],[25.54401063733737,57.50250692389184],[25.55233875085733,57.525111803448475],[25.523785218787545,57.55366533551844],[25.49999060872942,57.55842425752868],[25.521405757781714,57.57389075406631],[25.560666864378092,57.59054698110774],[25.60349716248286,57.601254555635045],[25.60944581499779,57.610772399658366],[25.641568538575967,57.62147997418292],[25.582082013430565,57.633377279213136],[25.529733871302476,57.64646431474466],[25.523785218787545,57.68096649932885],[25.50237006973525,57.695243265364276],[25.491662495208658,57.72022760592611],[25.529733871302476,57.72141733642912],[25.55114902035486,57.7487811379951],[25.517836566273413,57.78209359207726],[25.55114902035486,57.78209359207726],[25.577323091418904,57.790421705598376],[25.566615516892313,57.80588820213503],[25.586840935442137,57.81540604615835],[25.572564169407244,57.82492389018167],[25.5499592898515,57.830872542696866],[25.532113332308306,57.8487185002414],[25.508318722249292,57.86418499677805],[25.483334381688607,57.87489257130437],[25.49761114772359,57.892738528848014],[25.50355980023772,57.8820309543216],[25.526164679793375,57.871323379796166],[25.535682523816696,57.87727203231136],[25.5428209068341,57.88797960683591],[25.55828740337235,57.88678987633468],[25.584461474436306,57.88084122381949],[25.584461474436306,57.89035906784281],[25.60111770147703,57.89035906784281],[25.628481503044345,57.87965149331648],[25.65227611310256,57.87489257130437],[25.671311801149113,57.86299526627496],[25.693916680704767,57.86418499677805],[25.686778297687276,57.88322068482469],[25.680829645172345,57.91058448639254],[25.680829645172345,57.923671521923985],[25.65465557410839,57.93437909645129],[25.644304145714383,57.94345529213662],[25.600284117106344,57.96724990219536]]]]}},{"type":"Feature","properties":{"kind":"district","id":"uyezd-1897-85","name":"Венденский","provinceId":"gubernia-1897-24"},"geometry":{"type":"MultiPolygon","coordinates":[[[[25.753931974962843,56.62461800501936],[25.78486496803846,56.66030992010566],[25.801521195079182,56.66387911161565],[25.853869337207183,56.66863803362598],[25.919304514867605,56.67696614714718],[25.932391550400027,56.66744830312386],[25.976411579007976,56.66982776412898],[26.00139591956875,56.637705040550806],[26.00020618906619,56.62461800501936],[26.060882444714952,56.6305666575327],[26.078728402258236,56.64841261507722],[26.127507352877934,56.66506884211776],[26.15487115444525,56.67458668614198],[26.177476034000104,56.6781558776493],[26.190563069532526,56.65674072859745],[26.21316794908818,56.64127423205902],[26.235772828643036,56.60915150848084],[26.273844204736942,56.615100160996036],[26.30239773680673,56.619859083007256],[26.328571807870773,56.607961777977835],[26.36783291446715,56.62699746602448],[26.41304267357775,56.65198180658534],[26.40828375156609,56.681725069159285],[26.42018105659524,56.701950487708935],[26.454683241179957,56.70314021821194],[26.47847785123817,56.71265806223526],[26.491564886769794,56.723365636761585],[26.51416976632536,56.73526294179011],[26.532015723869442,56.73645267229223],[26.546292489904335,56.75072943832855],[26.557000064430127,56.75786782134488],[26.559379525435958,56.768575395871295],[26.57365629147085,56.773334317883396],[26.56889736945928,56.79118027542793],[26.596261171026505,56.80069811945125],[26.603399554043996,56.79474946693516],[26.645040121646204,56.81021596347457],[26.634332547119612,56.8173543464909],[26.658127157177827,56.82687219051422],[26.750926136405564,56.76143701285487],[26.792566704007772,56.773334317883396],[26.89131433574964,56.778093239894616],[26.904401371281264,56.82568246001122],[26.93414463385441,56.845907878560865],[26.951990591398403,56.8613743750993],[26.98768250648568,56.87684087163782],[27.005528464029673,56.88635871566114],[27.001959272520573,56.89706629018569],[26.982923584474108,56.90182521219779],[26.969836548941686,56.922050630747435],[26.975785201456617,56.935137666278976],[26.93295490335185,56.94703497130919],[26.915108945807766,56.96131173734373],[26.92819598134019,56.96963985086404],[26.92819598134019,56.98272688639558],[26.911539754298666,57.000572843940105],[26.890785566637057,56.99925092115882],[26.84795526853229,56.99925092115882],[26.79798658740932,57.00163038216492],[26.79322766539766,57.01114822618824],[26.771812516345364,57.01590714820034],[26.76110494181957,57.00282011266704],[26.725413026732294,56.992112538142486],[26.680203267620897,56.984974155123396],[26.665926501586004,56.990922807638505],[26.632614047504557,56.982594694119165],[26.59216321040562,56.96593846707764],[26.576696713867456,56.984974155123396],[26.563609678335833,57.03851202775511],[26.55052264280341,57.04565041077331],[26.53862533777435,57.058737446304846],[26.518399919224436,57.07063475133329],[26.49222584816048,57.06944502083029],[26.410134443459334,57.09204990038691],[26.39109875541278,57.11822397144989],[26.357786301331334,57.117034240947774],[26.357786301331334,57.134880198491416],[26.33637115227895,57.13369046798921],[26.303058698196704,57.15510561704106],[26.29354085417347,57.18008995760282],[26.268556513612698,57.20983322017578],[26.270935974618528,57.233627830233644],[26.261418130595207,57.24671486576517],[26.23405432902798,57.25861217079548],[26.22929540701632,57.27169920632693],[26.241192712045383,57.28002731984724],[26.270935974618528,57.28121705035025],[26.266177052606867,57.29073489437357],[26.22096729349556,57.288355433366675],[26.18289591740245,57.287165702865444],[26.17575753438505,57.29192462487666],[26.154342385332665,57.29192462487666],[26.154342385332665,57.283596511355455],[26.12816831426862,57.282406780853336],[26.110322356724627,57.288355433366675],[26.086527746666412,57.293114355378776],[26.06630232811659,57.28597597236146],[26.062733136608287,57.278837589343354],[26.043697448561645,57.278837589343354],[26.044887179064204,57.297873277389996],[26.032989874035053,57.31809869593964],[26.02347203001182,57.32047815694662],[26.01514391649186,57.33356519247807],[25.955657391345568,57.34070357549627],[25.892601674691065,57.34308303650139],[25.855720029101228,57.35973926354291],[25.785525929429145,57.381154412594675],[25.742695631323667,57.40375929214953],[25.684398836681535,57.42041551919105],[25.695106411207327,57.43588201572948],[25.673691262154943,57.45134851226614],[25.671311801149113,57.47395339182188],[25.622532850529414,57.4858506968521],[25.584461474436285,57.46549308602427],[25.56423605588646,57.455975242000946],[25.56185659488063,57.43099090143919],[25.545200367839907,57.41790386590766],[25.524974949290883,57.435749823451296],[25.526164679793354,57.45478551149794],[25.5035598002377,57.46549308602427],[25.485713842694416,57.444077936970636],[25.469057615653693,57.42028332691278],[25.434555431068976,57.41790386590766],[25.40957109050749,57.422662787917986],[25.388155941455107,57.41552440490156],[25.34889483485864,57.413144943894665],[25.333428338321276,57.41671413540465],[25.316772111280553,57.40124763886614],[25.281080196193276,57.40124763886614],[25.262044508145923,57.42147305741587],[25.228732054064476,57.41671413540465],[25.208506635515363,57.41671413540465],[25.19422986947967,57.42742170993098],[25.19066067797137,57.44169847596463],[25.172814720427287,57.44764712847974],[25.176383911936476,57.42147305741587],[25.163296876404054,57.40362709987134],[25.169245528918985,57.38816060333469],[25.20374771350379,57.39410925584802],[25.202557983000432,57.372694106796175],[25.1966093304863,57.346520035731416],[25.216834749035414,57.3429508442232],[25.229921784567747,57.33581246120687],[25.24062935909354,57.346520035731416],[25.24181908959681,57.32391515617656],[25.221593671046985,57.2989308156157],[25.20374771350379,57.28227458857506],[25.171624989924815,57.28346431907718],[25.14664064936333,57.279895127569056],[25.126415230814217,57.28227458857506],[25.105000081761034,57.270377283545734],[25.068118436171286,57.26204917002542],[25.06388828327143,57.246847058043365],[25.094821276347847,57.246847058043365],[25.145979687972577,57.224242178488595],[25.16739483702576,57.2290011005007],[25.180481872557383,57.224242178488595],[25.175722950545723,57.20282702943586],[25.194758638592276,57.17784268887411],[25.27090139077929,57.162376192337454],[25.3161111498898,57.13739185177472],[25.37083875302363,57.1326329297644],[25.358941447994567,57.102889667191434],[25.32919818542222,57.10764858920265],[25.32562899391312,57.08623344015],[25.38154632755022,57.07552586562447],[25.41842797314077,57.07195667411448],[25.438653391689883,57.04221341154151],[25.43032527816992,57.01722907098154],[25.46720692375967,57.01960853198675],[25.47672476778379,56.98867553891158],[25.451740427222305,56.97201931187014],[25.444602044204814,56.951793893320406],[25.444602044204814,56.93632739678198],[25.454119888228135,56.925619822255655],[25.443412313701543,56.9042046732038],[25.42913554766656,56.90182521219779],[25.42437662565499,56.89587655968446],[25.43508420018158,56.88516898515716],[25.450550696718945,56.87684087163782],[25.451740427222305,56.8661332971114],[25.468396654263028,56.870892219122624],[25.500519377841915,56.870892219122624],[25.52431398790013,56.845907878560865],[25.506468030356046,56.8161646159879],[25.48267342029792,56.80664677196458],[25.468396654263028,56.789990544924834],[25.508847491361877,56.79118027542793],[25.545729136952513,56.78285216190672],[25.58380051304562,56.763816473860075],[25.613543775618766,56.76143701285487],[25.646856229700212,56.75191916883155],[25.653994612717703,56.73526294179011],[25.652804882215055,56.71860671474859],[25.644476768694382,56.70551967921715],[25.615923236624596,56.696001835193826],[25.593318357068853,56.696001835193826],[25.608784853607105,56.67339695563897],[25.64090757718608,56.64603315407112],[25.674220031267527,56.615100160996036],[25.753931974962843,56.62461800501936]]]]}},{"type":"Feature","properties":{"kind":"district","id":"uyezd-1897-88","name":"Рижский","provinceId":"gubernia-1897-24"},"geometry":{"type":"MultiPolygon","coordinates":[[[[23.49000702019312,56.947828124977626],[23.518560552262905,56.920464323409774],[23.59470330444992,56.85740860675652],[23.611359531490642,56.878823755808284],[23.625636297525535,56.89072106083681],[23.635154141548767,56.88239294731649],[23.662517943116082,56.86216752876685],[23.727953120776505,56.840752379715],[23.85525428458825,56.797922081610494],[23.934966228283564,56.771748010545735],[23.97184787387411,56.77293774104874],[23.980175987394073,56.780076124066944],[23.993263022926495,56.780076124066944],[24.01824736348718,56.77055828004362],[24.043231704048665,56.77412747155175],[24.05988793108939,56.771748010545735],[24.069503802628702,56.771391867155224],[24.092010654668364,56.77055828004362],[24.108666881709087,56.771748010545735],[24.12532310874981,56.77888639356385],[24.143169066293805,56.77769666306085],[24.17172259836368,56.7539020530021],[24.202655591439296,56.75509178350599],[24.262142116584787,56.75271232249909],[24.296644301169593,56.7539020530021],[24.33471567726261,56.75628151400909],[24.397771393917203,56.74676366998577],[24.369217861847417,56.80149127311871],[24.345423251789203,56.8455113017271],[24.366838400841587,56.84908049323531],[24.400150854923034,56.843131840720204],[24.421566003975418,56.8455113017271],[24.463206571577626,56.84908049323531],[24.501277947670733,56.83123453569168],[24.469155224092557,56.776506932556956],[24.53696986275881,56.76341989702542],[24.54648770678204,56.75152259199601],[24.58574881337771,56.75509178350599],[24.59288719639511,56.76936854954053],[24.617871536956685,56.776506932556956],[24.64642506902647,56.78364531557507],[24.676168331599616,56.77293774104874],[24.708291055178503,56.76579935803241],[24.727326743225056,56.74795340048699],[24.760639197306503,56.727727981939125],[24.79276192088548,56.722969059926044],[24.826074374966925,56.717020407412704],[24.85343817653424,56.70750256338938],[24.896268474639008,56.69203606685096],[24.9034068576565,56.67537983980944],[24.880801978100756,56.67419010930643],[24.832023027481057,56.66110307377498],[24.820125722451994,56.645636577236466],[24.812987339434592,56.62184196717949],[24.782054346358887,56.6170830451665],[24.765398119318164,56.59685762661685],[24.776105693844755,56.583770591085326],[24.89745820514148,56.58971924360052],[24.943857694755348,56.63135981120281],[24.980739340345984,56.62065223667649],[25.01286206392487,56.613513853658375],[25.050933440017978,56.6170830451665],[25.10566104315181,56.63017008069981],[25.148491341256488,56.62898035019681],[25.199649752882017,56.61232412315529],[25.234151937466823,56.60161654862985],[25.256756817022477,56.59209870460653],[25.26627466104571,56.60042681812685],[25.281741157583163,56.606375470640174],[25.31029468965295,56.59923708762287],[25.37691959781673,56.61946250617349],[25.385247711336692,56.633739272208025],[25.414990973909838,56.64325711623135],[25.453062350002945,56.64206738572834],[25.47090830754694,56.62898035019681],[25.507789953137486,56.615893314663495],[25.506600222634216,56.59447816561173],[25.5767943223063,56.58733978259353],[25.6362808474517,56.58971924360052],[25.674220031267527,56.615100160996036],[25.64090757718608,56.64603315407112],[25.608784853607105,56.67339695563897],[25.593318357068853,56.696001835193826],[25.615923236624596,56.696001835193826],[25.644476768694382,56.70551967921715],[25.652804882215055,56.71860671474859],[25.653994612717703,56.73526294179011],[25.646856229700212,56.75191916883155],[25.613543775618766,56.76143701285487],[25.58380051304562,56.763816473860075],[25.545729136952513,56.78285216190672],[25.508847491361877,56.79118027542793],[25.468396654263028,56.789990544924834],[25.48267342029792,56.80664677196458],[25.506468030356046,56.8161646159879],[25.52431398790013,56.845907878560865],[25.500519377841915,56.870892219122624],[25.468396654263028,56.870892219122624],[25.451740427222305,56.8661332971114],[25.450550696718945,56.87684087163782],[25.43508420018158,56.88516898515716],[25.42437662565499,56.89587655968446],[25.42913554766656,56.90182521219779],[25.443412313701543,56.9042046732038],[25.454119888228135,56.925619822255655],[25.444602044204814,56.93632739678198],[25.444602044204814,56.951793893320406],[25.451740427222305,56.97201931187014],[25.47672476778379,56.98867553891158],[25.46720692375967,57.01960853198675],[25.43032527816992,57.01722907098154],[25.438653391689883,57.04221341154151],[25.41842797314077,57.07195667411448],[25.38154632755022,57.07552586562447],[25.32562899391312,57.08623344015],[25.32919818542222,57.10764858920265],[25.358941447994567,57.102889667191434],[25.37083875302363,57.1326329297644],[25.3161111498898,57.13739185177472],[25.27090139077929,57.162376192337454],[25.194758638592276,57.17784268887411],[25.175722950545723,57.20282702943586],[25.180481872557383,57.224242178488595],[25.16739483702576,57.2290011005007],[25.145979687972577,57.224242178488595],[25.094821276347847,57.246847058043365],[25.06388828327143,57.246847058043365],[25.068118436171286,57.26204917002542],[25.049082748124732,57.26442863103054],[25.02766759907155,57.2584799785172],[25.002683258510864,57.25372105650421],[24.98364757046431,57.2572902480142],[24.966991343423587,57.25015186499698],[24.947955655376234,57.25491078700722],[24.959852960406185,57.2596697090203],[24.953904307891165,57.272756744550854],[24.956283768896995,57.28346431907718],[24.943196733364573,57.290602702095384],[24.92535077582138,57.290602702095384],[24.903935626768995,57.31558704265713],[24.893228052242492,57.31796650366145],[24.88846913023083,57.32867407818867],[24.909884279283126,57.32986380869167],[24.918212392803888,57.34533030523019],[24.88846913023083,57.34533030523019],[24.865864250675088,57.35722761025863],[24.846828562628623,57.37507356780138],[24.809946917038786,57.3857811423277],[24.788531767985603,57.40124763886614],[24.799239342512195,57.428611440433095],[24.769496079939138,57.44288820646763],[24.7290452428402,57.428611440433095],[24.66955871769471,57.40838602188434],[24.654092221156546,57.41909359640977],[24.644574377133225,57.41552440490156],[24.649333299144885,57.40005790836313],[24.62553868908667,57.39529898635102],[24.608882462045948,57.40005790836313],[24.599364618022626,57.39529898635102],[24.589846773999394,57.3845914118247],[24.56248297243208,57.39054006433981],[24.530360248853103,57.41076548288946],[24.532739709858934,57.422662787917986],[24.51965267432731,57.422662787917986],[24.505375908292418,57.41552440490156],[24.493478603263267,57.41909359640977],[24.46492507119268,57.40838602188434],[24.445889383146216,57.40957575238645],[24.413190484168204,57.40420317405277],[24.410811023162285,57.37683937248492],[24.4179494061796,57.34828584041584],[24.423898058694085,57.298317159293234],[24.425087789196912,57.26619443571417],[24.40129317913843,57.223364137608776],[24.363221803045235,57.20194898855692],[24.266853632309108,57.163877612462755],[24.18119303609895,57.11628839234615],[24.09077351787802,57.07702728574986],[24.017010226696748,57.06037105870922],[23.98131831160938,57.03300725714235],[23.857586339306028,56.990176959038735],[23.76359762957644,56.97114127099121],[23.725526253482535,56.97233100149332],[23.67079865034897,56.96519261847699],[23.618450508220437,56.97471046250031],[23.557774252571676,56.98660776752875],[23.517323415472738,57.009212647084496],[23.48758015289986,57.04490456217168],[23.36399220321798,57.05818260635229],[23.378172352918828,57.037057912695644],[23.404346423983583,57.01564276364388],[23.426951303538527,56.99303788408902],[23.456694566111672,56.9811405790588],[23.49000702019312,56.947828124977626]]]]}},{"type":"Feature","properties":{"kind":"district","id":"uyezd-1897-619","name":"Эзельский","provinceId":"gubernia-1897-24"},"geometry":{"type":"MultiPolygon","coordinates":[[[[22.546189210064085,58.23770743108071],[22.56474900590905,58.2298552097609],[22.60115475929871,58.262691771642494],[22.64541273400664,58.262691771642494],[22.65112344042126,58.25127035881451],[22.631849806273806,58.24627349070124],[22.636846674385936,58.233424401270895],[22.66111717664546,58.23842126938325],[22.68824303211187,58.22200298844291],[22.717510402483526,58.21843379693382],[22.749633126062065,58.224144503346906],[22.7424947430448,58.24698732900288],[22.72679030040598,58.250556520511964],[22.693953738525693,58.28339308239265],[22.711799696069704,58.29124530371155],[22.746063934553433,58.29053146540991],[22.76747908360602,58.27982389088356],[22.792463424167295,58.28196540578938],[22.81602008812513,58.27125783126303],[22.831724530763097,58.2726855078663],[22.826727662651024,58.29838368672881],[22.85099816491055,58.30980509955771],[22.86384725434243,58.32194035068642],[22.850284326608858,58.34264166143748],[22.80602635190013,58.359059942377826],[22.81887544133201,58.36405681049018],[22.85599503302268,58.35549075086965],[22.876696343773574,58.339072469929306],[22.879551696980457,58.324081865592234],[22.89382846301578,58.31408812936843],[22.924523509990877,58.311946614461704],[22.93237573130989,58.33407560181604],[22.956646233569415,58.34192782313585],[22.969495323001297,58.36762600199836],[22.953077042060784,58.3740505467149],[22.946652497345212,58.385471959541974],[22.968067646397856,58.39118266595597],[22.99733501676951,58.37333670841235],[23.033740770158374,58.37119519350745],[23.043020668080885,58.38261660633543],[23.039451476572196,58.40117640218068],[23.06229430222828,58.4033179170865],[23.058011272417957,58.39332418086178],[23.06443581713347,58.38333044463798],[23.07442955335847,58.39189650425851],[23.09655854071201,58.38904115105197],[23.100841570523187,58.40474559368977],[23.077998744867102,58.409742461803035],[23.080854098073985,58.421877712932655],[23.125825911084462,58.42758841934665],[23.156520958059502,58.44900356839844],[23.19078519654323,58.44900356839844],[23.26645205652875,58.460424981226424],[23.26787973313219,58.46899104084696],[23.288581043883084,58.47327407065768],[23.282870337468523,58.48255396858076],[23.27002124803738,58.48255396858076],[23.267165894830498,58.495403058012016],[23.23004630313983,58.50039992612437],[23.220052566914887,58.50967982404654],[23.246464584079604,58.51681820706381],[23.262882865020117,58.53966103272069],[23.28429801407276,58.5439440625305],[23.30214397161592,58.53466416460924],[23.341405078212517,58.53466416460924],[23.3849492146187,58.5282396198927],[23.42635183612049,58.54822709234122],[23.409219716878283,58.568928403092286],[23.375669316696246,58.59890961176643],[23.38709072952389,58.60676183308442],[23.373527801791056,58.62175243742149],[23.384235376317008,58.63103233534457],[23.367817095377234,58.64673677798237],[23.327842150478943,58.656730514207084],[23.2771596310547,58.670293441940885],[23.23718468615715,58.67885950156142],[23.212914183897567,58.688853237785224],[23.1872160050346,58.67885950156142],[23.175080753904467,58.68171485476796],[23.162231664473325,58.670293441940885],[23.15723479636125,58.64031223326674],[23.145099545231062,58.62460779062803],[23.11012146844564,58.62389395232731],[23.086564804487807,58.61247253949841],[23.091561672599937,58.588915875541716],[23.070146523547294,58.57749446271282],[23.042306829779136,58.58249133082518],[23.03088541695149,58.59462658195571],[23.000904208278143,58.6003372883697],[22.967353808096107,58.6160417310075],[22.921668156783994,58.61175870119769],[22.889545433205456,58.62175243742149],[22.85242584151399,58.610331024593506],[22.81673392642682,58.61746940761077],[22.784611202848282,58.61532789270677],[22.76747908360602,58.60533415648115],[22.773189790019842,58.59248506704989],[22.758199185683566,58.573925271204644],[22.73535636002748,58.57249759460137],[22.709658181164514,58.58962971384244],[22.693239900224,58.59034355214408],[22.69252606192225,58.58106365422191],[22.670397074567916,58.57892213931609],[22.636132836084187,58.586060522333355],[22.61043465722122,58.63388768855202],[22.596157891186635,58.639598394965105],[22.56617668251249,58.62460779062803],[22.548330724969276,58.60176496497297],[22.516921839692486,58.58177749252445],[22.47694689479414,58.57249759460137],[22.418412154050884,58.57035607969556],[22.390572460282726,58.5732114329021],[22.325613174823104,58.56821456478974],[22.30348418746877,58.573925271204644],[22.28349671502042,58.563217696678294],[22.286352068227302,58.536805679513236],[22.30348418746877,58.54251638592723],[22.324185498219663,58.52110123687544],[22.307767217279945,58.51753204536635],[22.294204289546315,58.48969235159802],[22.262081565967776,58.484695483486576],[22.253515506347014,58.49683073461529],[22.23923874031169,58.501827602727644],[22.23638338710481,58.53323648800415],[22.221392782767737,58.54537173913377],[22.206402178431404,58.54679941573795],[22.197836118809903,58.52966729649597],[22.206402178431404,58.515390530461445],[22.168568748438304,58.50682447084091],[22.167854910136555,58.495403058012016],[22.147153599386456,58.493975381407836],[22.131449156747635,58.47827093877004],[22.125024612032064,58.45043124500171],[22.126452288635562,58.41188397670703],[22.101467948074287,58.41473932991448],[22.081480475625142,58.43187144915737],[22.06434835638288,58.47041871745023],[22.050785428650045,58.503255279331825],[21.998675232622304,58.51182133895236],[21.96226947923344,58.521815075176164],[21.94513735999118,58.50539679423582],[21.96226947923344,58.49468921970947],[21.94513735999118,58.47969861537331],[21.911586959809142,58.48255396858076],[21.890885649058248,58.493975381407836],[21.888744134153114,58.48255396858076],[21.878036559626366,58.47684326216677],[21.895882517170378,58.47041871745023],[21.911586959809142,58.473987908960225],[21.940854330180798,58.45899730462315],[21.94299584508599,58.44900356839844],[21.968694023948956,58.43615447896627],[21.97654624526797,58.41830852142357],[21.99082301130335,58.412597815009576],[21.979401598474908,58.40474559368977],[21.998675232622304,58.386899636146154],[22.037222500916414,58.369767516904176],[22.030797956200843,58.36762600199836],[22.007955130544815,58.37262287011163],[22.009382807148256,58.36334297218946],[22.022945734881887,58.35691842747201],[21.998675232622304,58.35263539766311],[22.011524322053447,58.34264166143748],[22.005099777337875,58.33835863162676],[21.970121700552454,58.3447831763433],[21.955131096215382,58.35263539766311],[21.940854330180798,58.34978004445475],[21.961555640931692,58.33407560181604],[21.9801154367766,58.32336802728969],[21.960127964327455,58.31694348257497],[21.936571300370417,58.3155158059717],[21.917297666222964,58.33835863162676],[21.89945170867901,58.346924691249114],[21.891599487359997,58.3447831763433],[21.920153019429904,58.31051893785843],[21.905162415092832,58.30266671654044],[21.875181206419484,58.31123277616098],[21.866615146798722,58.32265418898896],[21.85447989566859,58.324081865592234],[21.853052219065148,58.3155158059717],[21.81664646567623,58.32051267408315],[21.837347776427123,58.305522069746075],[21.83020939340986,58.29695601012645],[21.85376605736684,58.2883899505041],[21.89516867886863,58.27839621428029],[21.907303929998022,58.265547124849036],[21.94585119829287,58.24912884390869],[21.971549377155895,58.24056278428816],[21.98082927507835,58.244131975797245],[21.970121700552454,58.26483328654649],[21.98653998149217,58.2569810652285],[22.01009664544995,58.251984197115235],[22.0293702795974,58.233424401270895],[22.047930075443105,58.221289150140365],[22.06934522449575,58.20558470750257],[22.06363451808113,58.20201551599257],[22.07291441600438,58.178458852034964],[22.092188050151037,58.18988026486295],[22.114317037505373,58.18060036694078],[22.129307641842445,58.18416955844896],[22.15500582070547,58.17417582222424],[22.187128544284008,58.15918521788899],[22.214968238052165,58.169178954113704],[22.227103489182298,58.14847764336264],[22.222820459371178,58.13777006883538],[22.209971369940092,58.13634239223211],[22.172851778249424,58.09636744733416],[22.172137939946936,58.07138310677237],[22.150722790895088,58.07209694507401],[22.135018348256267,58.089229064316896],[22.115030875807122,58.10065047714579],[22.10789249278986,58.08994290261944],[22.085049667133774,58.077093813186366],[22.07933896071995,58.063530885454384],[22.078625122418202,58.05139563432476],[22.067917547892307,58.0442572513075],[22.0600653265725,58.02926664697043],[22.038650177519855,58.01070685112518],[22.018662705071506,57.98715018716757],[21.968694023948956,57.95645514019088],[21.99581987941542,57.940750697553995],[22.007241292243066,57.91719403359457],[22.035794824312973,57.910055650577306],[22.06648987128807,57.92290474000856],[22.07505593090957,57.93718150604491],[22.10503713958292,57.9450337273629],[22.125024612032064,57.96145200830324],[22.169282586739996,57.97644261264031],[22.20140531031933,57.991433216977384],[22.193553088999522,58.02998048527115],[22.23495571050131,58.06281704715184],[22.22424813597462,58.078521489791456],[22.247090961630704,58.104933506954694],[22.245663285027263,58.11135805167123],[22.263509242571217,58.149191481663365],[22.252801668045322,58.1713204690177],[22.27849984690829,58.201301677691845],[22.32061630671103,58.221289150140365],[22.36344660481626,58.2298552097609],[22.387003268774095,58.2298552097609],[22.405563064619002,58.222716826743635],[22.43340275838716,58.224144503346906],[22.458387098948435,58.25769490352923],[22.47266386498376,58.24912884390869],[22.49479285233815,58.21914763523455],[22.507641941769236,58.21843379693382],[22.52406022270975,58.2591225801325],[22.546189210064085,58.254839550322686],[22.546189210064085,58.23770743108071]]]]}},{"type":"Feature","properties":{"kind":"district","id":"uyezd-1897-642","name":"Верроский","provinceId":"gubernia-1897-24"},"geometry":{"type":"MultiPolygon","coordinates":[[[[27.448677336938534,58.44867428868905],[27.342962044627175,58.4022614605838],[27.300131746521608,58.376087389520734],[27.3667566546853,58.339205743930535],[27.346531236135476,58.29280625431605],[27.348910697141307,58.2713911052642],[27.356049080158797,58.23212999866791],[27.347720966638747,58.20714565810616],[27.31321878205394,58.17502293452709],[27.26919875344599,58.17859212603708],[27.235886299364456,58.17859212603708],[27.218040341820462,58.19048943106641],[27.221609533329563,58.20238673609494],[27.172830582709953,58.205955927603064],[27.15617435566914,58.215473771626385],[27.128810554101825,58.213094310621265],[27.122861901587694,58.18692023955642],[27.130000284605185,58.15955643799044],[27.133569476113486,58.12981317541747],[27.10382621354123,58.117915870387165],[27.077652142477184,58.110777487370825],[27.069324028956423,58.13219263642348],[27.069324028956423,58.140520749943796],[27.062185645938932,58.14527967195501],[27.04790887990404,58.14646940245713],[27.039580766383278,58.15241805497224],[27.020545078336724,58.16193589899645],[27.00507858179927,58.160746168493446],[27.00150939029017,58.151228324470125],[26.99318127677021,58.14884886346314],[26.978904510734516,58.13576182793169],[26.965817475202893,58.13576182793169],[26.961058553191233,58.15479751597833],[26.925366638103956,58.16669482100677],[26.920607716092295,58.141710480446804],[26.8956233755309,58.12862344491349],[26.861121190946093,58.12505425340537],[26.83851631139124,58.119105600890165],[26.802824396303162,58.115536409382045],[26.779029786244948,58.10482883485563],[26.762373559204224,58.0881726078142],[26.74809679316933,58.07746503328876],[26.776650325239117,58.06199853675113],[26.78973736077154,58.03106554367427],[26.78497843875988,58.01559904713761],[26.73976867964937,58.03106554367427],[26.660056735954054,58.05604988423602],[26.623175090363418,58.05248069272781],[26.618416168351846,58.066757458762346],[26.63269293438674,58.08460341630598],[26.656487544444953,58.08698287731208],[26.69812811204716,58.09293152982719],[26.712404878082054,58.110777487370825],[26.68742053752057,58.115536409382045],[26.626744281871808,58.11196721787383],[26.626744281871808,58.13576182793169],[26.613657246340185,58.14408994145201],[26.597001019299462,58.139331019439815],[26.594621558293632,58.12505425340537],[26.57320640924045,58.109587756866844],[26.558929643205555,58.11196721787383],[26.555360451697165,58.09293152982719],[26.5886729057787,58.08103422479688],[26.5886729057787,58.04296284870449],[26.576775600749638,58.02987581317304],[26.53275557214151,58.01916823864574],[26.53394530264487,57.99775308959309],[26.550601529685594,57.98585578456456],[26.548222068679763,57.97157901853002],[26.48278689101934,57.93588710344194],[26.447094975932064,57.92517952891651],[26.42567982687977,57.90019518835378],[26.42449009637641,57.88591842232013],[26.438766862411303,57.87640057829681],[26.463751202972787,57.86093408175749],[26.460182011463687,57.847847046226846],[26.441146323417133,57.84189839371085],[26.413782521849818,57.84308812421385],[26.392367372797523,57.847847046226846],[26.351916535698496,57.85855462075237],[26.297188932564755,57.87045192578081],[26.255548364962547,57.85855462075237],[26.247220251441696,57.837139471700524],[26.232943485406892,57.83594974119752],[26.22818456339523,57.84546758522084],[26.206769414342848,57.837139471700524],[26.21628725836608,57.816914053150875],[26.21271806685778,57.803827017617564],[26.19302141742045,57.79126875119799],[26.184693303899778,57.744869261585364],[26.2049187224496,57.73535141756204],[26.206108452952073,57.71750546001752],[26.170416537864796,57.71988492102353],[26.176365190379816,57.7032286939821],[26.19659060892884,57.692521119457545],[26.208487913957903,57.67824435342114],[26.220385218987854,57.66872650939782],[26.24536955954854,57.62946540280153],[26.260836056086703,57.610429714754886],[26.279871744133256,57.59972214022945],[26.30009716268317,57.60210160123457],[26.334599347267087,57.591394026708244],[26.333409616764616,57.616378367270976],[26.3583939573253,57.60805025374977],[26.378619375875125,57.616378367270976],[26.39408587241329,57.593773487714344],[26.438105901020617,57.58544537419492],[26.46427997208537,57.58425564369102],[26.495212965161077,57.59972214022945],[26.50592053968687,57.597342679223445],[26.492833504155247,57.58068645218192],[26.528525419242523,57.56046103363316],[26.546371376786517,57.54142534558652],[26.5677865258389,57.548563728603746],[26.573735178353033,57.554512381117966],[26.60942709344031,57.56165076413528],[26.630842242493493,57.54023561508352],[26.65582658305418,57.56046103363316],[26.685569845627324,57.56046103363316],[26.703415803171406,57.56403022514129],[26.72364122172043,57.556891842124955],[26.76766125032847,57.556891842124955],[26.791455860386595,57.5759275301716],[26.837855350000464,57.589014565703124],[26.886634300620162,57.59020429620613],[26.904480258163446,57.60448106224156],[26.899721336151785,57.61994755877821],[26.952069478280585,57.634224324814525],[26.961587322303817,57.6235167502882],[26.98538193236203,57.624706480791204],[27.000848428899484,57.61399890626488],[27.02821223046671,57.61994755877821],[27.044868457507523,57.606860523247654],[27.118631748688617,57.58425564369102],[27.197153961880662,57.56521995564527],[27.23522533797377,57.55332265061496],[27.266158331050185,57.55570211162195],[27.310178359657513,57.546184267598626],[27.381562189832778,57.52833831005499],[27.374821874615254,57.550242368382925],[27.376011605118524,57.563329403914366],[27.35935537807789,57.57641643944591],[27.346268342545468,57.57760616994891],[27.318904540978153,57.57641643944591],[27.30938669695483,57.58474455296622],[27.318904540978153,57.59664185799555],[27.340319690031247,57.61448781553919],[27.341509420533807,57.64185161710704],[27.35459645606623,57.657318113645466],[27.387908910147676,57.6620770356558],[27.433118669258274,57.67873326269732],[27.45215435730474,57.701338142252084],[27.430739208252444,57.709666255773286],[27.4117035202058,57.709666255773286],[27.387908910147676,57.72751221331693],[27.387908910147676,57.75487601488291],[27.40575486769096,57.77153224192443],[27.40218567618257,57.792947390976195],[27.390288371153506,57.8048446960065],[27.40932405920006,57.82507011455615],[27.433118669258274,57.83339822807558],[27.474759236860482,57.8429160720989],[27.503312768930268,57.84410580260279],[27.51877926546852,57.83815715008768],[27.56398902457903,57.83815715008768],[27.56279929407576,57.85243391612222],[27.573506868602262,57.865520951655526],[27.56398902457903,57.87741825668397],[27.549712258544137,57.88336690919917],[27.541384145023375,57.89883340573582],[27.573506868602262,57.91192044126913],[27.55923010256737,57.938094512332114],[27.542573875526646,57.95950966138476],[27.50807169094193,57.952371278368425],[27.491415463901117,57.952371278368425],[27.480707889374614,57.96902750540808],[27.485466811386274,57.99282211546692],[27.503312768930268,58.004719420496244],[27.503312768930268,58.05468810161797],[27.542573875526646,58.07729298117283],[27.55566091105827,58.096328669219474],[27.579230235013036,58.11321858191788],[27.564953468978143,58.14415157499296],[27.514984787855173,58.18817160360145],[27.480482603271167,58.267883547295256],[27.463826376230443,58.278591121822465],[27.475723681259506,58.29048842685188],[27.476913411762066,58.32023168942485],[27.49713883031198,58.34283656897882],[27.49475936930615,58.36901064004357],[27.472154489750405,58.408271746639954],[27.448677336938534,58.44867428868905]]]]}}]}
