{"type":"FeatureCollection","features":[{"type":"Feature","properties":{"kind":"province","id":"gubernia-1897-56","name":"Полтавская губерния"},"geometry":{"type":"MultiPolygon","coordinates":[[[[33.564986447415976,49.014229037029054],[33.60513427587772,49.00836089668332],[33.652723495994586,48.99051493913879],[33.703881907620115,48.97385871209825],[33.75741978025067,48.96077167656583],[33.79549115634431,48.94768464103429],[33.83832145444882,48.936977066507964],[33.86925444752505,48.92389003097652],[33.89106617341183,48.905383112041754],[33.95769108157517,48.888726885001205],[34.025505720241334,48.86493227494157],[34.081423053878524,48.84827604790094],[34.10878685544522,48.82805062935218],[34.11235604695396,48.80306628879043],[34.14447877053303,48.78284087024078],[34.198016643163676,48.78046140923469],[34.240846941268885,48.76618464320015],[34.28248750887059,48.745959224651415],[34.31817942395837,48.78284087024078],[34.33959457301049,48.80663548029855],[34.371717296589644,48.823291707340964],[34.42168597771155,48.83518901236852],[34.42882436072975,48.85660416142214],[34.447860048776214,48.85898362242824],[34.45261897078778,48.89348580701154],[34.47522385034291,48.93036745260173],[34.52638226196852,48.898244729024526],[34.5525563330323,48.9244188000884],[34.49306980788646,48.968438828695014],[34.484741694366136,48.981525864227436],[34.48117250285739,49.0160280488126],[34.47879304185165,49.03149454535102],[34.489500616377796,49.056478885911005],[34.482362233360305,49.06837619094042],[34.495449268893,49.08622214848397],[34.49663899939591,49.11001675854271],[34.525192531465606,49.09811945351339],[34.56564336856499,49.11715514156003],[34.58110986510271,49.120724333068154],[34.59776609214343,49.10525783653061],[34.631078546224614,49.051719963899785],[34.65487315628345,49.054099424904905],[34.665580730809594,49.06004807742099],[34.64178612075156,49.09930918401728],[34.61442231918407,49.136190829606676],[34.654740964005526,49.145444289073524],[34.684484226578135,49.151392941587744],[34.71422748915066,49.156151863600826],[34.74753994323264,49.16804916862927],[34.73802209920941,49.17875674315657],[34.78442158882265,49.18589512617379],[34.79037024133714,49.17875674315657],[34.80702646837849,49.18589512617379],[34.803457276869835,49.19541297019711],[34.82130323441338,49.20136162271045],[34.84033892245985,49.19660270069923],[34.86532326302151,49.19422323969322],[34.86532326302151,49.18351566516681],[34.847477305477156,49.158531324605946],[34.849856766482986,49.10737291298113],[34.84152865296267,49.064542614876714],[34.86175407151276,49.02647123878343],[34.88197949006214,49.015763664257015],[34.90577410012018,49.03123016079367],[34.874841107044745,49.064542614876714],[34.871271915536,49.11451129599844],[34.870082185033084,49.144254558571404],[34.88435895106797,49.156151863600826],[34.90101517810852,49.17875674315657],[34.91767140514915,49.19660270069923],[34.9355173626935,49.20136162271045],[34.961691433757366,49.18946431768201],[34.97239900828343,49.17518755164747],[34.97715793029509,49.160910785612046],[35.0057114623655,49.157341594102945],[35.02950607242353,49.17161836013748],[35.04854176047,49.1811362041608],[35.064008257007714,49.17637728215047],[35.06519798751063,49.164479977120166],[35.087802867066465,49.158531324605946],[35.104459094107185,49.16685943812627],[35.11516666863325,49.16804916862927],[35.11516666863325,49.158531324605946],[35.14253047020074,49.164479977120166],[35.17227373277335,49.16566970762415],[35.19606834283139,49.15972105510993],[35.19249915132264,49.154962133096845],[35.17465319377918,49.151392941587744],[35.17108400227043,49.144254558571404],[35.18655049880816,49.14187509756442],[35.20558618685462,49.14187509756442],[35.219862952890225,49.13711617555418],[35.19606834283139,49.12997779253687],[35.17465319377918,49.12521887052388],[35.19249915132264,49.11689075700356],[35.24722675445692,49.11451129599844],[35.2603137899889,49.10380372147114],[35.28767759155639,49.10499345197512],[35.29838516608245,49.09666533845392],[35.29719543557953,49.08000911141337],[35.32812842865506,49.07049126739005],[35.35549223022255,49.05026584884031],[35.38642522329799,49.02885069978766],[35.41735821637343,49.01933285576434],[35.443532287438096,49.001486898221586],[35.47327555001062,48.984830671181044],[35.48874204654834,48.97531282715772],[35.50182908208103,48.97888201866584],[35.51967503962457,48.97769228816373],[35.56488479873562,48.97769228816373],[35.57797183426751,48.98958959319128],[35.61723294086326,48.98721013218705],[35.62794051538941,48.97293336615074],[35.64102755092219,48.98126147967194],[35.69337569304983,48.97888201866584],[35.687427040535255,48.96103606112132],[35.701703806570066,48.95508740860808],[35.71598057260576,48.97174363564862],[35.73144706914347,48.97174363564862],[35.75524167920151,48.96341552212742],[35.78141575026609,48.96103606112132],[35.78141575026609,48.93724145106355],[35.796882246803804,48.934861990057456],[35.804020629821295,48.94913875609288],[35.825435778873505,48.9538976781041],[35.85517904144683,48.9538976781041],[35.88016338200778,48.97293336615074],[35.930132063130394,48.98007174916796],[35.92061421910725,48.995538245706484],[35.93370125463914,49.006245820233715],[35.93727044614779,49.02052258626826],[35.958685595200095,49.02528150827947],[35.98248020525884,49.02647123878345],[35.98248020525884,49.06097342336675],[35.988428857773414,49.078819380911185],[36.0086542763227,49.07762965040729],[36.02650023386626,49.11808048750756],[36.038397538895225,49.12045994851357],[36.03125915587792,49.13235725354112],[36.03601807788949,49.141875097564444],[36.03601807788949,49.15734159410296],[36.04196673040397,49.16923889913327],[36.05624349643958,49.16804916862929],[36.05148457442721,49.19779243120323],[36.05029484392429,49.2703659918807],[36.06338187945698,49.27869410540004],[36.05743322694249,49.3131962899852],[36.03125915587792,49.32033467300243],[36.02531050336334,49.37863146764536],[36.05862295744541,49.40123634720021],[36.06933053197147,49.44882556731771],[36.045535921912716,49.46072287234624],[36.02650023386626,49.45715368083714],[36.01460292883728,49.46548179435834],[35.97296236123489,49.47024071636956],[35.94916775117686,49.4857072129071],[35.892060687036846,49.533296433024596],[35.86469688547006,49.541624546543936],[35.84566119742377,49.59278295816964],[35.75286221819568,49.61300837671938],[35.696944884558576,49.615387837725386],[35.59581779181114,49.590403497163635],[35.52086477012749,49.607059724206046],[35.47803447202219,49.57493700062698],[35.453050131461325,49.58326511414632],[35.410219833356024,49.60468026319995],[35.38880468430382,49.60468026319995],[35.36263061323996,49.59873161068484],[35.36501007424579,49.6225262207427],[35.35668196072547,49.63442352577203],[35.35307849714452,49.65484091628063],[35.30905846853639,49.71194798042144],[35.2674179009348,49.70718905841022],[35.215069758806365,49.75358854802383],[35.19722380126281,49.84400806624494],[35.15915242516917,49.86066429328548],[35.121641722853866,49.87390336469033],[35.1187015880697,49.87494105932002],[35.0699226374508,49.88207944233724],[35.063973984936226,49.87256159831392],[35.091337786503004,49.84281833574096],[35.046128027391966,49.823782647694316],[34.99377988526423,49.805936690151654],[34.95570850917059,49.823782647694316],[34.898601445030486,49.815454534174975],[34.864099260446395,49.82973130020942],[34.839114919884636,49.84638752725006],[34.77724893373376,49.85828483227938],[34.7582132456865,49.888028094852444],[34.72371106110241,49.92015081843053],[34.720141869593746,49.93561731496905],[34.70348564255231,49.95227354200959],[34.688019146014504,49.94870435050147],[34.69158833752325,49.92490974044361],[34.69158833752325,49.91301243541419],[34.6523272309275,49.91420216591631],[34.641619656401346,49.92253027943751],[34.64637857841301,49.94394542849025],[34.64994776992175,49.96892976905023],[34.66303480545364,49.97130923005712],[34.683260224002936,49.97844761307355],[34.68682941551159,49.99391410961198],[34.677311571488445,50.0070011451444],[34.679691032494276,50.02127791117894],[34.668983457968125,50.042693060231585],[34.674932110482615,50.06291847878035],[34.68682941551159,50.08433362783397],[34.674932110482615,50.09028228034731],[34.679691032494276,50.09861039386851],[34.69634725953482,50.10455904638362],[34.69872672054065,50.12121527342337],[34.68682941551159,50.13549203945968],[34.695157529031995,50.15690718851144],[34.730849444119805,50.14857907499024],[34.737987827137204,50.16404557152876],[34.69991645104356,50.17356341555208],[34.692778068026165,50.21520398315447],[34.704675373055224,50.24732670673344],[34.7067611456409,50.26714154629459],[34.709434295067595,50.29253646584404],[34.64637857841301,50.350833260486965],[34.57975367024976,50.3591613740064],[34.48576496051893,50.38176625356205],[34.433416818391194,50.38652517557425],[34.3501356831866,50.37938679255693],[34.333479456145966,50.39128409758537],[34.282321044520344,50.428165743175654],[34.250198320941635,50.436493856696856],[34.24424966842733,50.45315008373652],[34.2394907464154,50.495980381842884],[34.227593441386695,50.57093340352547],[34.203798831328655,50.61376370163086],[34.1460969019371,50.66179907068544],[34.09791281656859,50.69570639001817],[34.06757468874461,50.705521666668545],[34.01683488599953,50.72185292102584],[33.97757377940404,50.75278591410279],[33.95139970833884,50.76706268013547],[33.88120560866702,50.80156486472151],[33.828857466539816,50.83011839679059],[33.81101150899529,50.85629246785534],[33.81696016151031,50.87056923389174],[33.80744231748655,50.91815845400649],[33.740817409323384,50.95266063859067],[33.71226387725342,50.970506596135195],[33.73290790468414,51.00223825089054],[33.76503062826285,51.03971476173139],[33.75271471435289,51.0621158448594],[33.70988441624786,51.06687476687239],[33.671813040154845,51.051408270333965],[33.6099470540029,51.0192855467549],[33.54927079835423,50.99073201468494],[33.511199422261114,50.98954228418184],[33.49573292572305,50.997870397703046],[33.45885128013232,51.00500878071947],[33.42315936504558,51.0180958162518],[33.39817502448436,51.00738824172459],[33.396985293981174,50.99430120619404],[33.360103648390535,50.974075787643415],[33.32084254179425,50.975265518146415],[33.27087386067261,50.949091447081656],[33.218525718543724,50.95147090808767],[33.209007874520665,50.92291737601771],[33.18759272546819,50.902691957469834],[33.13762404434567,50.89079465243962],[33.097173207246286,50.89674330495384],[33.043635334615814,50.889604921936524],[33.001235885416314,50.85623371573138],[32.96078504831773,50.87526940377758],[32.919144480715346,50.88359751729878],[32.86917579959344,50.88121805629268],[32.80017143042436,50.87288994277148],[32.75615140181624,50.86218236824516],[32.71332110371094,50.85980290723906],[32.69904433767613,50.840767219192415],[32.671680536109434,50.825300722655854],[32.626470776998396,50.81816233963853],[32.595537783922865,50.82411099215187],[32.57174317386412,50.841956949696396],[32.5277231452567,50.85980290723906],[32.47537500312826,50.86218236824516],[32.417078208485236,50.85385425472484],[32.329038151269785,50.834818566679175],[32.29810515819346,50.832439105673075],[32.27431054813551,50.83838775818641],[32.242187824557064,50.840767219192415],[32.22434186701281,50.82173153114577],[32.15652722834665,50.77057311952193],[32.101799625213076,50.77533204153226],[32.07681528465142,50.77652177203615],[32.049451483084724,50.72060443839834],[32.01375956799683,50.694430367334476],[31.99472387995045,50.694430367334476],[31.94118600731909,50.680153601299935],[31.919770858266794,50.6979995588426],[31.891217326197097,50.66706656576751],[31.86742271613835,50.63970276419967],[31.837679453565826,50.64089249470365],[31.781762119928636,50.58854435257582],[31.763916162385087,50.5647497425161],[31.710378289753727,50.56593947302008],[31.670500285859394,50.562677702601874],[31.655033789321674,50.567436624613975],[31.633618640269468,50.569816085619095],[31.616962413228833,50.56029824159667],[31.59792672518157,50.53769336204003],[31.581270498141023,50.52460632650948],[31.56223481009456,50.52103713499949],[31.521783972995088,50.528175518017605],[31.483712596902247,50.53531390103491],[31.448020681814437,50.52103713499949],[31.425415802259316,50.519847404496396],[31.42184661075057,50.53888309254401],[31.375447121136613,50.531744709526706],[31.346893589066916,50.519847404496396],[31.31477086548785,50.502001446953734],[31.27432002838918,50.49962198594764],[31.239817843804286,50.48296575890709],[31.179141588155435,50.46155060985346],[31.172101660163943,50.459203967190255],[31.16486482212063,50.456791687843136],[31.12917290703362,50.4437046523108],[31.092291261442806,50.46155060985346],[31.058978807361626,50.46036087935135],[31.022097161770812,50.425858694766276],[30.987594977186717,50.405633276217515],[30.90074465047329,50.365182439119025],[30.857914352368788,50.33781863755118],[30.81865324577232,50.32116241051063],[30.731802919059692,50.28071157341036],[30.701487267227268,50.263146091045186],[30.752645678852048,50.16915738131502],[30.774060827905032,50.13703465773597],[30.80261435997471,50.13227573572385],[30.840685736068338,50.14179357974717],[30.87161872914379,50.139414118742934],[30.893033878196036,50.12037843069538],[30.904931183225813,50.095394090133595],[30.932294984792577,50.07754813259089],[30.96917663038255,50.051374061526985],[31.007248006476175,50.031148642976405],[31.029852886031335,50.02519999046308],[31.056026957095924,49.99545672788918],[31.083390758662688,49.985938883867675],[31.127410787270833,49.988318344871914],[31.138118361796955,49.997836188895235],[31.1595335108492,50.00021564990129],[31.176189737889786,49.99545672788918],[31.178346124426866,49.98248122959194],[31.167861624369493,49.96764677738429],[31.184815284036368,49.95604690498114],[31.215450844486348,49.95024696877775],[31.264229795106136,49.95976481280107],[31.27612710013511,49.97880050084771],[31.282075752649597,49.99545672788915],[31.32966497276647,49.99307726688403],[31.351080121818676,50.01330268543367],[31.373685001373886,50.01925133794789],[31.396289880929807,50.00735403291857],[31.41889476048493,50.00021564990125],[31.442689370542965,49.97642103984349],[31.435550987525563,49.95381616028676],[31.420084490987755,49.939539394252314],[31.433171526519732,49.90860640117714],[31.440309909537223,49.86934529458085],[31.453396945069112,49.85506852854543],[31.456448134608095,49.841338175620436],[31.458155867080684,49.83365337949367],[31.462914789093055,49.80034092541062],[31.47719155512786,49.76940793233554],[31.496227243174324,49.7503722442889],[31.527292428528487,49.74059001571008],[31.560604882609756,49.7370208242],[31.582020031661962,49.72869271068066],[31.596296797697565,49.70727756162704],[31.61533248574394,49.665636994025625],[31.65102440083104,49.64779103648199],[31.676008741392792,49.64065265346467],[31.708131464971146,49.64184238396777],[31.756910415590845,49.63946292296078],[31.784274217157627,49.62042723491414],[31.79855098319323,49.603771007873505],[31.822345593251267,49.589494241839056],[31.8318634372745,49.56450990127722],[31.858037508338366,49.55737151825999],[31.881832118397114,49.55975097926698],[31.916334302981298,49.55380232675178],[31.942508374045964,49.53714609971124],[32.003184629693926,49.526438525183934],[32.02816897025568,49.509782298143385],[32.04006627528465,49.49193634060063],[32.06267115483978,49.47290065255311],[32.07813765137829,49.46219307802767],[32.10550145294508,49.450295772998246],[32.119778218979874,49.427690893442595],[32.161418786582175,49.41222439690408],[32.191162049154784,49.40032709187474],[32.21614638971574,49.40627574438986],[32.239940999774575,49.40151682237864],[32.27563291486159,49.40627574438986],[32.308945368943654,49.41341412740806],[32.33749890101326,49.39794763087052],[32.33511944000752,49.37653248181689],[32.34344755352775,49.35987625477625],[32.37081135509524,49.35154814125691],[32.407693000685256,49.34322002773571],[32.42791841923535,49.34203029723359],[32.43911069878055,49.334906602246534],[32.47361288336553,49.318250375205906],[32.51525345096783,49.30397360916959],[32.54618644404327,49.29921468715837],[32.56046321007816,49.278989268609614],[32.58425782013691,49.263522772071184],[32.61400108270952,49.25519465854998],[32.649692997796535,49.262333041569065],[32.694902756907574,49.26590223307719],[32.728215210989646,49.24567681452666],[32.755579012556424,49.24210762301844],[32.771045509094144,49.25519465854998],[32.7746147006028,49.26947142458629],[32.80316823267321,49.26947142458629],[32.84123960876614,49.25876385005908],[32.88525963737426,49.24210762301844],[32.91381316944387,49.22069247396668],[32.96616131157241,49.208795168936376],[33.00780187917471,49.20403624692605],[33.030406758729825,49.190949211393715],[33.063719212811094,49.193328672398835],[33.09822139739599,49.1873800198855],[33.13153385147726,49.16358540982587],[33.15175927002735,49.131462686246806],[33.16484630555932,49.09933996266862],[33.18784187799214,49.091561519716336],[33.247328403137985,49.092751250219436],[33.283020318225084,49.085612867202116],[33.318712233312894,49.0868025977061],[33.36511172292606,49.078474484184895],[33.33893765186228,49.01541876753075],[33.368680914434805,49.009470115016526],[33.409131751534275,49.06419771815035],[33.4602901631598,49.05943879613825],[33.491223156235236,49.03683391658251],[33.564986447415976,49.014229037029054]]]]}},{"type":"Feature","properties":{"kind":"district","id":"uyezd-1897-224","name":"Кременчугский","provinceId":"gubernia-1897-56"},"geometry":{"type":"MultiPolygon","coordinates":[[[[33.564986447415976,49.01422903702863],[33.60513427587772,49.00836089668334],[33.652723495994586,48.99051493913882],[33.703881907620115,48.97385871209827],[33.75741978025067,48.96077167656585],[33.79549115634431,48.947684641034314],[33.83832145444882,48.93697706650799],[33.86925444752505,48.923890030976544],[33.88115175255403,48.957202485057635],[33.86330579501057,48.96909979008706],[33.84189064595827,48.97861763411038],[33.85497768149016,48.996463591653125],[33.88234148305695,49.02501712372398],[33.88947986607444,49.05357065579394],[33.86687498651922,49.04643227277663],[33.83118307143141,49.02263766271699],[33.82880361042558,49.04524254227273],[33.83832145444882,49.072606343839695],[33.86687498651922,49.08331391836691],[33.87639283054246,49.09283176239023],[33.87639283054246,49.12257502496231],[33.903756632109236,49.1213852944602],[33.90256690160632,49.13090313848262],[33.89066959657726,49.13090313848262],[33.88947986607444,49.14874909602715],[33.87877229154829,49.149938826529265],[33.87639283054246,49.1654053230677],[33.81333711388787,49.1701642450798],[33.827613879922666,49.22251238720763],[33.81214738338495,49.236789153242164],[33.78240412081243,49.2950859478851],[33.76455816326816,49.34267516800268],[33.72886624818106,49.37836708308987],[33.73005597868398,49.40573088465594],[33.734814900695554,49.42595630320558],[33.734814900695554,49.45213037426945],[33.783593851315345,49.45807902678367],[33.81333711388787,49.44261253024613],[33.8371317239459,49.45213037426945],[33.80500900036755,49.47711471483129],[33.79430142584149,49.481873636843396],[33.781214390309515,49.492581211369725],[33.781214390309515,49.50328878589516],[33.79192196483566,49.50923743841027],[33.76931708527974,49.52113474343969],[33.740763553210044,49.52113474343969],[33.71577921264909,49.52113474343969],[33.68960514158451,49.529462856959114],[33.6610516095149,49.5258936654509],[33.64201592146844,49.5223244739418],[33.612272658895115,49.52351420444391],[33.60870346738646,49.51042716891247],[33.57063209129353,49.50566824690125],[33.52899152369123,49.48544282835063],[33.49686880011288,49.50090932488915],[33.46474607653373,49.50804770790727],[33.43738227496694,49.50447851639727],[33.41001847339945,49.53184231796512],[33.38741359384433,49.5258936654509],[33.39098278535299,49.502099055393046],[33.389793054850074,49.468786601310086],[33.39574170736465,49.45213037426945],[33.373136827809525,49.44142279974312],[33.358860061774635,49.46997633181398],[33.332685990710054,49.48782228935673],[33.3077016501491,49.481873636843396],[33.311270841657844,49.45807902678367],[33.28747623159981,49.45807902678367],[33.21728213192782,49.47711471483129],[33.15660587627897,49.472355792820075],[33.14232911024416,49.498529863883945],[33.11377557817376,49.50447851639727],[33.12091396119116,49.527083395953014],[33.09830908163603,49.53541150947422],[33.02692525146112,49.49496067237582],[32.9971819888878,49.48544282835063],[32.972197648326855,49.490201750362736],[32.928177619718724,49.471166062316094],[32.89605489614037,49.52827312645691],[32.84489648451475,49.52827312645691],[32.81634295244514,49.53422177897024],[32.77351265433984,49.529462856959114],[32.743769391767316,49.529462856959114],[32.728302895229604,49.53303204846813],[32.71283639869117,49.529462856959114],[32.68904178863305,49.50447851639727],[32.66762663958084,49.492581211369725],[32.65691906505478,49.47711471483129],[32.68071367511281,49.44618172175612],[32.72354397321803,49.42238711169648],[32.73901046975575,49.40573088465594],[32.73782073925283,49.37598762208377],[32.7568564272993,49.36171085604932],[32.781840767860245,49.34386489850479],[32.785409959368906,49.32601894096027],[32.78065103735733,49.30817298341752],[32.79611753389585,49.2950859478851],[32.80316823267321,49.26947142458629],[32.84123960876614,49.25876385005908],[32.88525963737426,49.24210762301844],[32.91381316944387,49.22069247396668],[32.96616131157241,49.208795168936376],[33.00780187917471,49.20403624692605],[33.030406758729825,49.190949211393715],[33.063719212811094,49.193328672398835],[33.09822139739599,49.1873800198855],[33.13153385147726,49.16358540982587],[33.15175927002735,49.131462686246806],[33.16484630555932,49.09933996266862],[33.18784187799214,49.091561519716336],[33.247328403137985,49.092751250219436],[33.283020318225084,49.085612867202116],[33.318712233312894,49.0868025977061],[33.36511172292606,49.078474484184895],[33.33893765186228,49.01541876753075],[33.368680914434805,49.009470115016526],[33.409131751534275,49.06419771815035],[33.4602901631598,49.05943879613825],[33.491223156235236,49.03683391658251],[33.564986447415976,49.01422903702863]]]]}},{"type":"Feature","properties":{"kind":"district","id":"uyezd-1897-226","name":"Кобелякский","provinceId":"gubernia-1897-56"},"geometry":{"type":"MultiPolygon","coordinates":[[[[34.356250800051924,49.39198288773425],[34.34197403401632,49.38127531320695],[34.331266459490266,49.38603423521906],[34.331266459490266,49.40982884527691],[34.29914373591182,49.41101857578089],[34.282487508870474,49.4086391147748],[34.280108047864644,49.424105611313315],[34.2634518208241,49.42767480282144],[34.2634518208241,49.437192646844764],[34.282487508870474,49.43957210784997],[34.282487508870474,49.45860779589661],[34.27415939535015,49.46336671790871],[34.27534912585307,49.47645375344105],[34.257503168309526,49.47645375344105],[34.211103678695565,49.487161327966575],[34.15161715355052,49.47407429243504],[34.10521766393656,49.46455644841172],[34.084992245387184,49.47169483142895],[34.081423053878524,49.4978689024929],[34.03740302527039,49.518094321043435],[33.99338299666218,49.52999162607099],[33.99100353565635,49.51571486003743],[33.931517010510504,49.52523270406075],[33.92199916648727,49.510955938024345],[33.98148569163321,49.493109980481684],[33.97077811710706,49.48240240595438],[33.906532669949556,49.48954078897347],[33.87916886838277,49.48359213645836],[33.864892102347966,49.46455644841172],[33.85775371932985,49.450279682377186],[33.8371317239459,49.45213037426945],[33.81333711388787,49.44261253024613],[33.783593851315345,49.45807902678367],[33.734814900695554,49.45213037426945],[33.734814900695554,49.42595630320558],[33.73005597868398,49.40573088465594],[33.72886624818106,49.37836708308987],[33.76455816326816,49.34267516800268],[33.78240412081243,49.2950859478851],[33.81214738338495,49.236789153242164],[33.827613879922666,49.22251238720763],[33.81333711388787,49.1701642450798],[33.87639283054246,49.1654053230677],[33.87877229154829,49.149938826529265],[33.88947986607444,49.14874909602715],[33.89066959657726,49.13090313848262],[33.90256690160632,49.13090313848262],[33.903756632109236,49.1213852944602],[33.87639283054246,49.12257502496231],[33.87639283054246,49.09283176239023],[33.86687498651922,49.08331391836691],[33.83832145444882,49.072606343839695],[33.82880361042558,49.04524254227273],[33.83118307143141,49.02263766271699],[33.86687498651922,49.04643227277663],[33.88947986607444,49.05357065579394],[33.88234148305695,49.02501712372398],[33.85497768149016,48.996463591653125],[33.84189064595827,48.97861763411038],[33.86330579501057,48.96909979008706],[33.88115175255403,48.957202485057635],[33.86925444752505,48.923890030976544],[33.89106617341183,48.905383112041775],[33.95769108157517,48.88872688500123],[34.025505720241334,48.864932274941594],[34.081423053878524,48.84827604790096],[34.10878685544522,48.828050629352205],[34.11235604695396,48.80306628879045],[34.14447877053303,48.782840870240804],[34.198016643163676,48.780461409234704],[34.240846941268885,48.76618464320017],[34.282487508870474,48.745959224651415],[34.31817942395837,48.782840870240804],[34.33959457301049,48.806635480298574],[34.371717296589644,48.823291707340985],[34.42168597771155,48.83518901236854],[34.42882436072975,48.85660416142217],[34.447860048776214,48.85898362242826],[34.45261897078778,48.89348580701156],[34.47522385034291,48.93036745260175],[34.52638226196852,48.898244729024555],[34.5525563330323,48.92441880008842],[34.49306980788646,48.968438828695035],[34.484741694366136,48.98152586422746],[34.48117250285739,49.016028048812615],[34.47879304185165,49.03149454535105],[34.489500616377796,49.05647888591102],[34.482362233360305,49.06837619094044],[34.495449268893,49.08622214848399],[34.49663899939591,49.11001675854274],[34.525192531465606,49.098119453513405],[34.56564336856499,49.11715514156005],[34.58110986510271,49.120724333068175],[34.59776609214343,49.10525783653063],[34.631078546224614,49.05171996389981],[34.65487315628345,49.054099424904926],[34.665580730809594,49.060048077421015],[34.64178612075156,49.0993091840173],[34.61442231918407,49.13619082960669],[34.55017687202647,49.24564603587533],[34.556125524541045,49.25159468839044],[34.67628830533566,49.28966606448284],[34.66677046131251,49.30632229152347],[34.61204285817824,49.32416824906791],[34.54303848900916,49.33606555409733],[34.51091576543072,49.36937800817851],[34.48593142486905,49.37294719968761],[34.45142924028487,49.35986016415519],[34.39908109815643,49.37175746918363],[34.356250800051924,49.39198288773425]]]]}},{"type":"Feature","properties":{"kind":"district","id":"uyezd-1897-227","name":"Константиноградский","provinceId":"gubernia-1897-56"},"geometry":{"type":"MultiPolygon","coordinates":[[[[34.61442231918407,49.13619082960669],[34.654740964005526,49.145444289073545],[34.684484226578135,49.151392941587766],[34.71422748915066,49.15615186360085],[34.74753994323264,49.16804916862929],[34.73802209920941,49.17875674315659],[34.78442158882265,49.18589512617382],[34.79037024133714,49.17875674315659],[34.80702646837849,49.18589512617382],[34.803457276869835,49.19541297019714],[34.82130323441338,49.201361622710465],[34.84033892245985,49.19660270069925],[34.86532326302151,49.194223239693244],[34.86532326302151,49.18351566516683],[34.847477305477156,49.15853132460597],[34.849856766482986,49.10737291298115],[34.84152865296267,49.064542614876736],[34.86175407151276,49.02647123878345],[34.88197949006214,49.01576366425704],[34.90577410012018,49.03123016079369],[34.874841107044745,49.064542614876736],[34.871271915536,49.11451129599846],[34.870082185033084,49.14425455857143],[34.88435895106797,49.15615186360085],[34.90101517810852,49.17875674315659],[34.91767140514915,49.19660270069925],[34.9355173626935,49.201361622710465],[34.961691433757366,49.189464317682024],[34.97239900828343,49.17518755164749],[34.97715793029509,49.16091078561206],[35.0057114623655,49.15734159410296],[35.02950607242353,49.1716183601375],[35.04854176047,49.18113620416082],[35.064008257007714,49.1763772821505],[35.06519798751063,49.16447997712019],[35.087802867066465,49.15853132460597],[35.104459094107185,49.16685943812628],[35.11516666863325,49.16804916862929],[35.11516666863325,49.15853132460597],[35.14253047020074,49.16447997712019],[35.17227373277335,49.16566970762417],[35.19606834283139,49.15972105510995],[35.19249915132264,49.154962133096866],[35.17465319377918,49.151392941587766],[35.17108400227043,49.14425455857143],[35.18655049880816,49.141875097564444],[35.20558618685462,49.141875097564444],[35.219862952890225,49.137116175554205],[35.19606834283139,49.12997779253689],[35.17465319377918,49.125218870523895],[35.19249915132264,49.11689075700358],[35.24722675445692,49.11451129599846],[35.2603137899889,49.10380372147116],[35.28767759155639,49.10499345197514],[35.29838516608245,49.09666533845393],[35.29719543557953,49.08000911141339],[35.32812842865506,49.07049126739007],[35.35549223022255,49.05026584884033],[35.38642522329799,49.02885069978768],[35.41735821637343,49.01933285576436],[35.443532287438096,49.001486898221614],[35.47327555001062,48.984830671181065],[35.48874204654834,48.975312827157744],[35.50182908208103,48.97888201866587],[35.51967503962457,48.97769228816375],[35.56488479873562,48.97769228816375],[35.57797183426751,48.989589593191305],[35.61723294086326,48.98721013218707],[35.62794051538941,48.972933366150755],[35.64102755092219,48.981261479671964],[35.69337569304983,48.97888201866587],[35.687427040535255,48.96103606112134],[35.70170380657015,48.95508740860801],[35.71598057260576,48.97174363564864],[35.73144706914347,48.97174363564864],[35.75524167920151,48.963415522127434],[35.78141575026609,48.96103606112134],[35.78141575026609,48.93724145106357],[35.796882246803804,48.93486199005747],[35.804020629821295,48.9491387560929],[35.825435778873505,48.95389767810411],[35.85517904144683,48.95389767810411],[35.88016338200778,48.972933366150755],[35.930132063130394,48.98007174916798],[35.92061421910725,48.9955382457065],[35.93370125463914,49.006245820233715],[35.93727044614779,49.02052258626826],[35.958685595200095,49.02528150827947],[35.98248020525884,49.02647123878345],[35.98248020525884,49.06097342336675],[35.988428857773414,49.078819380911185],[36.0086542763227,49.07762965040729],[36.02650023386626,49.11808048750756],[36.038397538895225,49.12045994851357],[36.03125915587792,49.13235725354112],[36.03601807788949,49.141875097564444],[36.03601807788949,49.15734159410296],[36.04196673040397,49.16923889913327],[36.05624349643958,49.16804916862929],[36.05148457442721,49.19779243120323],[36.05029484392429,49.2703659918807],[36.06338187945698,49.27869410540004],[36.05743322694249,49.3131962899852],[36.03125915587792,49.32033467300243],[36.02531050336334,49.37863146764536],[36.05862295744541,49.40123634720021],[36.06933053197147,49.44882556731771],[36.045535921912716,49.46072287234624],[36.02650023386626,49.45715368083714],[36.01460292883728,49.46548179435834],[35.97296236123489,49.47024071636956],[35.94916775117686,49.4857072129071],[35.892060687036846,49.533296433024596],[35.86469688547006,49.541624546543936],[35.845661197423595,49.59278295816964],[35.75286221819568,49.61300837671938],[35.696944884558576,49.615387837725386],[35.59581779181114,49.590403497163635],[35.52086477012749,49.607059724206046],[35.47803447202219,49.57493700062698],[35.453050131461325,49.58326511414632],[35.410219833356024,49.60468026319995],[35.38880468430382,49.60468026319995],[35.36263061323996,49.59873161068484],[35.36501007424579,49.6225262207427],[35.35668196072547,49.63442352577203],[35.32812842865506,49.630854334263816],[35.30076462708828,49.630854334263816],[35.28172893904181,49.615387837725386],[35.21391430037565,49.62609541225269],[35.17346346327626,49.6272851427548],[35.13301262617679,49.64156190878934],[35.12230505165065,49.660597596835984],[35.11516666863325,49.671305171362306],[35.064008257007714,49.671305171362306],[35.036644455440936,49.65345921381956],[34.98667577431823,49.6272851427548],[34.956932511745705,49.62490568174871],[34.910533022131844,49.611818646216285],[34.872461646038914,49.59159322766753],[34.84033892245985,49.5701780786139],[34.79869835485826,49.539245085539704],[34.74991940423847,49.51426074497795],[34.70470964512743,49.49522505693131],[34.64641285048441,49.49641478743342],[34.62142850992346,49.4940353264283],[34.605962013385735,49.450015297819824],[34.56670090678918,49.442876914802596],[34.52625006969051,49.442876914802596],[34.498886268123016,49.42978987927107],[34.48223004108239,49.42978987927107],[34.46557381404175,49.42027203524775],[34.43821001247426,49.41670284373865],[34.408466749901734,49.41551311323653],[34.40370782789016,49.40956446072142],[34.375154295820465,49.40599526921321],[34.356250800051924,49.39198288773425],[34.39908109815643,49.37175746918363],[34.45142924028487,49.35986016415519],[34.48593142486905,49.37294719968761],[34.51091576543072,49.36937800817851],[34.54303848900916,49.33606555409733],[34.61204285817824,49.32416824906791],[34.66677046131251,49.30632229152347],[34.67628830533566,49.28966606448284],[34.556125524541045,49.25159468839044],[34.55017687202647,49.24564603587533],[34.61442231918407,49.13619082960669]]]]}},{"type":"Feature","properties":{"kind":"district","id":"uyezd-1897-229","name":"Золотоношский","provinceId":"gubernia-1897-56"},"geometry":{"type":"MultiPolygon","coordinates":[[[[31.496227243174324,49.7503722442889],[31.527292428528487,49.74059001571008],[31.560604882609756,49.7370208242],[31.582020031661962,49.72869271068066],[31.596296797697565,49.70727756162704],[31.61533248574394,49.665636994025625],[31.65102440083104,49.64779103648199],[31.676008741392792,49.64065265346467],[31.708131464971146,49.64184238396777],[31.756910415590845,49.63946292296078],[31.784274217157627,49.62042723491414],[31.79855098319323,49.603771007873505],[31.822345593251267,49.589494241839056],[31.8318634372745,49.56450990127722],[31.858037508338366,49.55737151825999],[31.881832118397114,49.55975097926698],[31.916334302981298,49.55380232675178],[31.942508374045964,49.53714609971124],[32.003184629693926,49.526438525183934],[32.02816897025568,49.509782298143385],[32.04006627528465,49.49193634060063],[32.06267115483978,49.47290065255311],[32.07813765137829,49.46219307802767],[32.10550145294508,49.450295772998246],[32.119778218979874,49.427690893442595],[32.161418786582175,49.41222439690408],[32.191162049154784,49.40032709187474],[32.21614638971574,49.40627574438986],[32.239940999774575,49.40151682237864],[32.27563291486159,49.40627574438986],[32.308945368943654,49.41341412740806],[32.33749890101326,49.39794763087052],[32.33511944000752,49.37653248181689],[32.34344755352775,49.35987625477625],[32.37081135509524,49.35154814125691],[32.407693000685256,49.34322002773571],[32.42791841923535,49.34203029723359],[32.43911069878055,49.334906602246534],[32.47361288336553,49.318250375205906],[32.51525345096783,49.30397360916959],[32.54618644404327,49.29921468715837],[32.56046321007816,49.278989268609614],[32.58425782013691,49.263522772071184],[32.61400108270952,49.25519465854998],[32.649692997796535,49.262333041569065],[32.694902756907574,49.26590223307719],[32.728215210989646,49.24567681452666],[32.755579012556424,49.24210762301844],[32.771045509094144,49.25519465854998],[32.7746147006028,49.26947142458629],[32.80316823267321,49.26947142458629],[32.79611753389585,49.2950859478851],[32.78065103735733,49.30817298341752],[32.785409959368906,49.32601894096027],[32.781840767860245,49.34386489850479],[32.7568564272993,49.36171085604932],[32.73782073925283,49.37598762208377],[32.73901046975575,49.40573088465594],[32.72354397321803,49.42238711169648],[32.68071367511281,49.44618172175612],[32.65691906505478,49.47711471483129],[32.66762663958084,49.492581211369725],[32.68904178863305,49.50447851639727],[32.71283639869117,49.529462856959114],[32.728302895229604,49.53303204846813],[32.73909859794103,49.53955353418766],[32.737908867438115,49.550261108714075],[32.73433967592937,49.59071194581337],[32.72125264039748,49.61926547788244],[32.7295807539178,49.645439548948175],[32.737908867438115,49.67518281152026],[32.71292452687716,49.68589038604658],[32.686750455812586,49.68826984705268],[32.692699108327076,49.70373634358933],[32.62250500865508,49.75013583320471],[32.58086444105349,49.781068826278904],[32.50948061087858,49.784638017788005],[32.49163465333432,49.8203299328752],[32.46427085176754,49.85245265645426],[32.458322199253054,49.89290349355453],[32.442855702715335,49.936923522161145],[32.376230794552086,49.989271664288964],[32.36195402851719,49.97499489825443],[32.331021035440955,49.97856408976353],[32.29294965934811,50.00592789133138],[32.165648495536104,49.989271664288964],[32.102592778881515,49.99046139479286],[32.016932182671795,49.989271664288964],[31.94316889149106,49.98094355076954],[31.9179642304661,49.980899486676186],[31.907256655939953,49.972571373156846],[31.901308003425555,49.945207571588995],[31.891790159401523,49.9392589190738],[31.888220967892778,49.93093080555446],[31.871564740852232,49.9392589190738],[31.84420093928545,49.961863798629544],[31.822785790233155,49.954725415612316],[31.77281710911054,49.92855134454837],[31.74783276854959,49.91070538700384],[31.71689977547335,49.883341585437854],[31.682397590889167,49.86073670588211],[31.651464597813018,49.84883940085278],[31.599116455684484,49.84051128733246],[31.540819661042264,49.83932155683035],[31.48014340539359,49.83932155683035],[31.456448134608095,49.841338175620436],[31.458155867080684,49.83365337949367],[31.462914789093055,49.80034092541062],[31.47719155512786,49.76940793233554],[31.496227243174324,49.7503722442889]]]]}},{"type":"Feature","properties":{"kind":"district","id":"uyezd-1897-230","name":"Хорольский","provinceId":"gubernia-1897-56"},"geometry":{"type":"MultiPolygon","coordinates":[[[[32.728302895229604,49.53303204846813],[32.743769391767316,49.529462856959114],[32.77351265433984,49.529462856959114],[32.81634295244514,49.53422177897024],[32.84489648451475,49.52827312645691],[32.89605489614037,49.52827312645691],[32.928177619718724,49.471166062316094],[32.972197648326855,49.490201750362736],[32.9971819888878,49.48544282835063],[33.02692525146112,49.49496067237582],[33.09830908163603,49.53541150947422],[33.12091396119116,49.527083395953014],[33.11377557817376,49.50447851639727],[33.14232911024416,49.498529863883945],[33.15660587627897,49.472355792820075],[33.21728213192782,49.47711471483129],[33.28747623159981,49.45807902678367],[33.311270841657844,49.45807902678367],[33.3077016501491,49.481873636843396],[33.332685990710054,49.48782228935673],[33.358860061774635,49.46997633181398],[33.373136827809525,49.44142279974312],[33.39574170736465,49.45213037426945],[33.389793054850074,49.468786601310086],[33.39098278535299,49.502099055393046],[33.38741359384433,49.5258936654509],[33.41001847339945,49.53184231796512],[33.43738227496694,49.50447851639727],[33.46474607653373,49.50804770790727],[33.49686880011288,49.50090932488915],[33.52899152369123,49.48544282835063],[33.57063209129353,49.50566824690125],[33.60870346738646,49.51042716891247],[33.612272658895115,49.52351420444391],[33.64201592146844,49.5223244739418],[33.6610516095149,49.5258936654509],[33.68960514158451,49.529462856959114],[33.71577921264909,49.52113474343969],[33.740763553210044,49.52113474343969],[33.76931708527974,49.52113474343969],[33.79192196483566,49.50923743841027],[33.781214390309515,49.50328878589516],[33.781214390309515,49.492581211369725],[33.79430142584149,49.481873636843396],[33.80500900036755,49.47711471483129],[33.8371317239459,49.45213037426945],[33.85775371932985,49.450279682377186],[33.864892102347966,49.46455644841172],[33.87916886838277,49.48359213645836],[33.906532669949556,49.48954078897347],[33.97077811710706,49.48240240595438],[33.98148569163321,49.493109980481684],[33.92199916648727,49.510955938024345],[33.931517010510504,49.52523270406075],[33.99100353565635,49.51571486003743],[33.99338299666218,49.52999162607099],[33.97853339742224,49.534265843064574],[33.951169595855546,49.543783687086915],[33.940462021329395,49.58304479368418],[33.93451336881482,49.602080481729935],[33.948790134849716,49.624685361284705],[33.95592851786712,49.65680808486377],[33.977343666919325,49.67465404240829],[34.00589719898973,49.707966496489476],[34.03801992256808,49.73057137604522],[33.969015553399004,49.7234329930279],[33.90714956724733,49.73770975906244],[33.86075007763417,49.74008922006854],[33.80245328299115,49.74960706409186],[33.771520289915,49.74127895057065],[33.75248460186854,49.72462272353002],[33.7358283748279,49.71986380151792],[33.66801373616174,49.71391514900458],[33.637080743085505,49.71629461001068],[33.613286133027465,49.7234329930279],[33.58116340944902,49.73414056755334],[33.55855852989319,49.768642752138504],[33.56212772140185,49.781729787670926],[33.584732600957764,49.8043346672248],[33.56093799089902,49.842406043318086],[33.502641196256,49.88642607192648],[33.44910332362544,49.89713364645289],[33.41698060004629,49.91141041248832],[33.40032437300565,49.96137909361005],[33.37058111043313,49.97446612914247],[33.341432713110905,49.98338910791424],[33.33845838685397,49.97446612914247],[33.298007549755305,49.95662017159794],[33.264695095673325,49.92687690902497],[33.25041832963852,49.916169334499536],[33.1921215349955,49.91378987349344],[33.126686357335075,49.8911849939377],[33.06601010168632,49.90427202947012],[33.02080034257598,49.898323376955005],[32.96131381743014,49.89237472444168],[32.97202139195629,49.86739038387984],[32.947037051395334,49.842406043318086],[32.93038082435399,49.83407792979865],[32.89944783127855,49.82693954678143],[32.857807263676165,49.82693954678143],[32.82568454009781,49.80552439772869],[32.76976720646062,49.781729787670926],[32.75192124891707,49.763883830126396],[32.72693690835532,49.754365986103075],[32.72098825584084,49.73414056755334],[32.71028068131477,49.7151048795067],[32.692699108327076,49.70373634358933],[32.686750455812586,49.68826984705268],[32.71292452687716,49.68589038604658],[32.737908867438115,49.67518281152026],[32.7295807539178,49.645439548948175],[32.72125264039748,49.61926547788244],[32.73433967592937,49.59071194581337],[32.737908867438115,49.550261108714075],[32.73909859794103,49.53955353418766],[32.728302895229604,49.53303204846813]]]]}},{"type":"Feature","properties":{"kind":"district","id":"uyezd-1897-231","name":"Лубенский","provinceId":"gubernia-1897-56"},"geometry":{"type":"MultiPolygon","coordinates":[[[[32.376230794552086,49.989271664288964],[32.442855702715335,49.936923522161145],[32.458322199253054,49.89290349355453],[32.46427085176754,49.85245265645426],[32.49163465333432,49.8203299328752],[32.50948061087858,49.784638017788005],[32.58086444105349,49.781068826278904],[32.62250500865508,49.75013583320471],[32.692699108327076,49.70373634358933],[32.71028068131477,49.7151048795067],[32.72098825584084,49.73414056755334],[32.72693690835532,49.754365986103075],[32.75192124891707,49.763883830126396],[32.76976720646062,49.781729787670926],[32.82568454009781,49.80552439772869],[32.857807263676165,49.82693954678143],[32.89944783127855,49.82693954678143],[32.93038082435399,49.83407792979865],[32.947037051395334,49.842406043318086],[32.97202139195629,49.86739038387984],[32.96131381743014,49.89237472444168],[33.02080034257598,49.898323376955005],[33.06601010168632,49.90427202947012],[33.126686357335075,49.8911849939377],[33.1921215349955,49.91378987349344],[33.25041832963852,49.916169334499536],[33.264695095673325,49.92687690902497],[33.298007549755305,49.95662017159794],[33.33845838685397,49.97446612914247],[33.341432713110905,49.98338910791424],[33.34559676987138,49.995881278195114],[33.34916596138012,50.02205534925818],[33.36582218842076,50.05655753384326],[33.3753400324447,50.086300796417206],[33.355114613894614,50.11128513697709],[33.35273515288878,50.12675163351561],[33.36225299691201,50.14221813005403],[33.34797623087721,50.157684626590694],[33.28492051422262,50.170771662124],[33.242090216118115,50.17553058413522],[33.208777762036135,50.161253818100676],[33.150480967393115,50.16363327910589],[33.13382474035248,50.171961392626116],[33.117168513311846,50.17791004514132],[33.08504578973278,50.17315112312921],[33.06957929319506,50.158874357094675],[33.04697441363985,50.164823009608],[33.04697441363985,50.155305165585574],[33.03269764760505,50.14816678256737],[33.01485169006079,50.13507974703681],[32.99105708000266,50.146977052064365],[32.97202139195629,50.12794136401772],[32.94584732089171,50.13507974703681],[32.91491432781627,50.13983866904803],[32.908965675301694,50.152925704579474],[32.88279160423782,50.162443548602795],[32.861376455184825,50.17315112312921],[32.8387715756297,50.170771662124],[32.80783858255426,50.154115435083455],[32.77452612847228,50.155305165585574],[32.7543007099229,50.167202470614015],[32.71860879483509,50.14340786055615],[32.70076283729154,50.14340786055615],[32.70790122030894,50.162443548602795],[32.69124499326831,50.17315112312921],[32.6769682272335,50.171961392626116],[32.66864011371319,50.19218681117585],[32.60439466655568,50.154115435083455],[32.544908141409834,50.10771594546897],[32.502077843304534,50.11247486748107],[32.465196197714604,50.080352143901116],[32.453298892684835,50.05417807283814],[32.39738155904844,50.02205534925818],[32.37596640999535,50.00420939171455],[32.376230794552086,49.989271664288964]]]]}},{"type":"Feature","properties":{"kind":"district","id":"uyezd-1897-232","name":"Пирятинский","provinceId":"gubernia-1897-56"},"geometry":{"type":"MultiPolygon","coordinates":[[[[32.66864011371319,50.19218681117585],[32.675249727618095,50.205451130636874],[32.68119838013267,50.234004662705956],[32.677629188623925,50.2661273862859],[32.65026538705634,50.282783613326544],[32.631229699009964,50.300629570869205],[32.628850238004134,50.32680364193307],[32.65145511755926,50.35059825199279],[32.680008649629755,50.368444209536435],[32.68714703264716,50.38866962808519],[32.68119838013267,50.41722316015515],[32.66811134460069,50.46600211077477],[32.64431673454186,50.49693510384985],[32.61576320247225,50.50645294787317],[32.603865897443185,50.52191944441169],[32.586019939898925,50.51597079189649],[32.581261017887265,50.50169402586195],[32.581261017887265,50.4802788768093],[32.5562766773264,50.48622752932352],[32.4991696131863,50.49693510384985],[32.4634776980992,50.51121186988625],[32.44444201005202,50.50764267837715],[32.42302686099973,50.48741725982653],[32.39923225094178,50.48384806831929],[32.38138629339814,50.49574537334773],[32.35521222233356,50.513591330892254],[32.30048461919929,50.50764267837715],[32.275500278638425,50.50169402586195],[32.225531597515726,50.48384806831929],[32.19340887393737,50.48146860731319],[32.15176830633507,50.49217618183863],[32.11964558275672,50.49574537334773],[32.053020674593384,50.48741725982653],[31.97925738341273,50.46481238027265],[31.894786517705842,50.452915075243226],[31.81150538250116,50.454104805745345],[31.764488995590224,50.456791687843136],[31.738314924525557,50.42942788627538],[31.740694385531388,50.405633276217515],[31.728797080502414,50.38778731867299],[31.710951122958864,50.361613247609036],[31.72522788899367,50.33781863755118],[31.741884116034303,50.3056959139722],[31.758540343075737,50.271193729387036],[31.76329926508731,50.23312235329465],[31.781145222630858,50.22122504826531],[31.778765761625028,50.18553313317804],[31.791852797157006,50.15816933161116],[31.81088848520338,50.14627202658175],[31.80375010218598,50.124856877529986],[31.818026868220784,50.117718494511784],[31.816837137717958,50.10344172847725],[31.84182147827962,50.097493075962134],[31.840631747776705,50.07369846590428],[31.854908513811598,50.06893954389217],[31.86680581884057,50.0725087354003],[31.88465177638412,50.05942169986885],[31.89773881191681,50.04633466433643],[31.89773881191681,50.029678437295885],[31.9108258474487,50.01302221025525],[31.9179642304661,49.99517625271072],[31.9179642304661,49.980899486676186],[31.94316889149106,49.98094355076954],[32.016932182671795,49.989271664288964],[32.102592778881515,49.99046139479286],[32.165648495536104,49.989271664288964],[32.29294965934811,50.00592789133138],[32.331021035440955,49.97856408976353],[32.36195402851719,49.97499489825443],[32.376230794552086,49.989271664288964],[32.37596640999535,50.00420939171455],[32.39738155904844,50.02205534925818],[32.453298892684835,50.05417807283814],[32.465196197714604,50.080352143901116],[32.502077843304534,50.11247486748107],[32.544908141409834,50.10771594546897],[32.60439466655568,50.154115435083455],[32.66864011371319,50.19218681117585]]]]}},{"type":"Feature","properties":{"kind":"district","id":"uyezd-1897-233","name":"Переяславский","provinceId":"gubernia-1897-56"},"geometry":{"type":"MultiPolygon","coordinates":[[[[31.764488995590224,50.456791687843136],[31.769247917601795,50.48653495041619],[31.74545330754305,50.50081171644975],[31.733556002513986,50.51151929097617],[31.713330583964694,50.513898751982175],[31.702623009438547,50.5234165960055],[31.677638668876796,50.5341241705328],[31.670500285859394,50.562677702601874],[31.655033789321674,50.567436624613975],[31.633618640269468,50.569816085619095],[31.616962413228833,50.56029824159667],[31.59792672518157,50.53769336204003],[31.581270498141023,50.52460632650948],[31.56223481009456,50.52103713499949],[31.521783972995088,50.528175518017605],[31.483712596902247,50.53531390103491],[31.448020681814437,50.52103713499949],[31.425415802259316,50.519847404496396],[31.42184661075057,50.53888309254401],[31.375447121136613,50.531744709526706],[31.346893589066916,50.519847404496396],[31.31477086548785,50.502001446953734],[31.27432002838918,50.49962198594764],[31.239817843804286,50.48296575890709],[31.179141588155435,50.46155060985346],[31.172101660163943,50.459203967190255],[31.16486482212063,50.456791687843136],[31.12917290703362,50.4437046523108],[31.092291261442806,50.46155060985346],[31.058978807361626,50.46036087935135],[31.022097161770812,50.425858694766276],[30.987594977186717,50.405633276217515],[30.90074465047329,50.365182439119025],[30.857914352368788,50.33781863755118],[30.81865324577232,50.32116241051063],[30.731802919059692,50.28071157341036],[30.701487267227265,50.2631460910452],[30.752645678852048,50.16915738131502],[30.774060827905032,50.13703465773597],[30.80261435997471,50.13227573572385],[30.840685736068338,50.14179357974717],[30.87161872914379,50.139414118742934],[30.893033878196036,50.12037843069538],[30.904931183225813,50.095394090133595],[30.932294984792577,50.07754813259089],[30.96917663038255,50.051374061526985],[31.007248006476175,50.031148642976405],[31.029852886031335,50.02519999046308],[31.056026957095924,49.99545672788918],[31.083390758662688,49.985938883867675],[31.127410787270833,49.988318344871914],[31.138118361796955,49.997836188895235],[31.1595335108492,50.00021564990129],[31.176189737889786,49.99545672788918],[31.178346124426866,49.98248122959194],[31.167861624369493,49.96764677738429],[31.184815284036404,49.95604690498112],[31.215450844486348,49.95024696877775],[31.264229795106136,49.95976481280107],[31.27612710013511,49.97880050084771],[31.282075752649597,49.99545672788915],[31.32966497276647,49.99307726688403],[31.351080121818676,50.01330268543367],[31.373685001373886,50.01925133794789],[31.396289880929807,50.00735403291857],[31.41889476048493,50.00021564990125],[31.442689370542965,49.97642103984349],[31.435550987525563,49.95381616028676],[31.420084490987755,49.939539394252314],[31.433171526519732,49.90860640117714],[31.440309909537223,49.86934529458085],[31.453396945069112,49.85506852854543],[31.456448134608095,49.841338175620436],[31.48014340539359,49.83932155683035],[31.540819661042264,49.83932155683035],[31.599116455684484,49.84051128733246],[31.651464597813018,49.84883940085278],[31.682397590889167,49.86073670588211],[31.71689977547335,49.883341585437854],[31.74783276854959,49.91070538700384],[31.77281710911054,49.92855134454837],[31.822785790233155,49.954725415612316],[31.84420093928545,49.961863798629544],[31.871564740852232,49.9392589190738],[31.888220967892778,49.93093080555446],[31.891790159401523,49.9392589190738],[31.901308003425555,49.945207571588995],[31.907256655939953,49.972571373156846],[31.9179642304661,49.980899486676186],[31.9179642304661,49.99517625271072],[31.9108258474487,50.01302221025525],[31.89773881191681,50.029678437295885],[31.89773881191681,50.04633466433643],[31.88465177638412,50.05942169986885],[31.86680581884057,50.0725087354003],[31.854908513811598,50.06893954389217],[31.840631747776705,50.07369846590428],[31.84182147827962,50.097493075962134],[31.816837137717958,50.10344172847725],[31.818026868220784,50.117718494511784],[31.80375010218598,50.124856877529986],[31.81088848520338,50.14627202658175],[31.791852797157006,50.15816933161116],[31.778765761625028,50.18553313317804],[31.781145222630858,50.22122504826531],[31.76329926508731,50.23312235329465],[31.758540343075737,50.271193729387036],[31.741884116034303,50.3056959139722],[31.72522788899367,50.33781863755118],[31.710951122958864,50.361613247609036],[31.728797080502414,50.38778731867299],[31.740694385531388,50.405633276217515],[31.738314924525557,50.42942788627538],[31.764488995590224,50.456791687843136]]]]}},{"type":"Feature","properties":{"kind":"district","id":"uyezd-1897-234","name":"Лохвицкий","provinceId":"gubernia-1897-56"},"geometry":{"type":"MultiPolygon","coordinates":[[[[32.66864011371319,50.19218681117585],[32.6769682272335,50.171961392626116],[32.69124499326831,50.17315112312921],[32.70790122030894,50.162443548602795],[32.70076283729154,50.14340786055615],[32.71860879483509,50.14340786055615],[32.7543007099229,50.167202470614015],[32.77452612847228,50.155305165585574],[32.80783858255426,50.154115435083455],[32.8387715756297,50.170771662124],[32.861376455184825,50.17315112312921],[32.88279160423782,50.162443548602795],[32.908965675301694,50.152925704579474],[32.91491432781627,50.13983866904803],[32.94584732089171,50.13507974703681],[32.97202139195629,50.12794136401772],[32.99105708000266,50.146977052064365],[33.01485169006079,50.13507974703681],[33.03269764760505,50.14816678256737],[33.04697441363985,50.155305165585574],[33.04697441363985,50.164823009608],[33.06957929319506,50.158874357094675],[33.08504578973278,50.17315112312921],[33.117168513311846,50.17791004514132],[33.13382474035248,50.171961392626116],[33.150480967393115,50.16363327910589],[33.208777762036135,50.161253818100676],[33.242090216118115,50.17553058413522],[33.28492051422262,50.170771662124],[33.34797623087721,50.157684626590694],[33.36225299691201,50.14221813005403],[33.379570185343866,50.148344066496065],[33.42121075294536,50.142395413981845],[33.43191832747231,50.16619002404059],[33.43429778847805,50.19593328661355],[33.47117943406806,50.219727896671415],[33.47593835607964,50.25185062025048],[33.53661461172849,50.28516307433166],[33.58777302335402,50.31371660640163],[33.59124433656254,50.33176743508647],[33.59372167586851,50.34464959947671],[33.58063464033661,50.36368528752335],[33.56754760480393,50.42198208216628],[33.56992706581047,50.46124318876266],[33.55684003027778,50.4767096853002],[33.529476228711,50.48979672083262],[33.502112427144304,50.50764267837715],[33.50687134915587,50.54571405446946],[33.44738482401003,50.56118055100798],[33.42121075294536,50.592113544083944],[33.34030907874731,50.59330327458606],[33.326032312712506,50.57783677804852],[33.29153012812832,50.58735462207184],[33.19516195739166,50.58854435257582],[33.1487624677785,50.590923813580055],[33.1273473187255,50.58497516106672],[33.082137559615255,50.58735462207184],[33.06429160207091,50.55404216799066],[33.046445644527445,50.53976540195622],[33.017892112457744,50.529057827428915],[32.994097502398915,50.535006479943135],[32.94055962976835,50.538575671452236],[32.91200609769794,50.536196210446136],[32.85727849456367,50.51478106139437],[32.81920711847083,50.50764267837715],[32.746633557793004,50.512401600388365],[32.714510834213854,50.513591330892254],[32.69904433767613,50.52191944441169],[32.66811134460069,50.51478106139437],[32.64431673454186,50.49693510384985],[32.66811134460069,50.46600211077477],[32.68119838013267,50.41722316015515],[32.68714703264716,50.38866962808519],[32.680008649629755,50.368444209536435],[32.65145511755926,50.35059825199279],[32.628850238004134,50.32680364193307],[32.631229699009964,50.300629570869205],[32.65026538705634,50.282783613326544],[32.677629188623925,50.2661273862859],[32.68119838013267,50.234004662705956],[32.675249727618095,50.205451130636874],[32.66864011371319,50.19218681117585]]]]}},{"type":"Feature","properties":{"kind":"district","id":"uyezd-1897-235","name":"Гадячский","provinceId":"gubernia-1897-56"},"geometry":{"type":"MultiPolygon","coordinates":[[[[33.59124433656254,50.33176743508647],[33.664850913507564,50.32941811143432],[33.71838878613883,50.3139516148958],[33.749321779214355,50.29610565735314],[33.76121908424378,50.27112131679041],[33.76240881474705,50.23542940170322],[33.76478827575252,50.194978564604725],[33.8504488719625,50.183081259576284],[33.950386234207464,50.16880449354086],[33.972991113762404,50.17237368504898],[33.99559599331806,50.16285584102664],[34.02058033387928,50.1402509614709],[34.07054901500172,50.1759428765572],[34.13241500115366,50.21639371365747],[34.28589023602909,50.31871053690702],[34.3501356831866,50.37938679255693],[34.333479456145966,50.39128409758537],[34.282321044520344,50.428165743175654],[34.250198320941635,50.436493856696856],[34.24424966842733,50.45315008373652],[34.2394907464154,50.495980381842884],[34.227593441386695,50.57093340352547],[34.203798831328655,50.61376370163086],[34.1460969019371,50.66179907068544],[34.09791281656859,50.69570639001817],[34.06757468874461,50.705521666668545],[34.016834885999515,50.72185292102586],[33.9787635099064,50.725422112534034],[33.95020997783644,50.73969887857038],[33.915707793252125,50.72185292102586],[33.89072345269091,50.72185292102586],[33.86335965112329,50.7194734600198],[33.853841807100196,50.724232382031005],[33.853841807100196,50.736129687059474],[33.815770431007934,50.73969887857038],[33.794355281954665,50.71828372951677],[33.79197582094832,50.70519669398436],[33.76818121089025,50.690919927949835],[33.75271471435286,50.66593558738805],[33.69798711121848,50.64452043833535],[33.650397891101534,50.614777175762356],[33.613516245511676,50.58622364369239],[33.5992394794759,50.561239303133334],[33.56711675589793,50.5517214591091],[33.54213241533671,50.54458307609002],[33.52785564930167,50.55291118961122],[33.50687134915587,50.54571405446946],[33.502112427144304,50.50764267837715],[33.529476228711,50.48979672083262],[33.55684003027778,50.4767096853002],[33.56992706581047,50.46124318876266],[33.56754760480393,50.42198208216628],[33.58063464033661,50.36368528752335],[33.59372167586851,50.34464959947671],[33.59124433656254,50.33176743508647]]]]}},{"type":"Feature","properties":{"kind":"district","id":"uyezd-1897-236","name":"Миргородский","provinceId":"gubernia-1897-56"},"geometry":{"type":"MultiPolygon","coordinates":[[[[33.341432713110905,49.98338910791424],[33.37058111043313,49.97446612914247],[33.40032437300565,49.96137909361005],[33.41698060004629,49.91141041248832],[33.44910332362544,49.89713364645289],[33.502641196256,49.88642607192648],[33.56093799089902,49.842406043318086],[33.584732600957764,49.8043346672248],[33.56212772140185,49.781729787670926],[33.55855852989319,49.768642752138504],[33.58116340944902,49.73414056755334],[33.613286133027465,49.7234329930279],[33.637080743085505,49.71629461001068],[33.66801373616174,49.71391514900458],[33.7358283748279,49.71986380151792],[33.75248460186854,49.72462272353002],[33.771520289915,49.74127895057065],[33.80245328299115,49.74960706409186],[33.86075007763417,49.74008922006854],[33.90714956724733,49.73770975906244],[33.969015553399004,49.7234329930279],[34.03801992256808,49.73057137604522],[34.05746197946947,49.75239881751985],[34.082446320031224,49.79998803763645],[34.164537724732284,49.83330049171764],[34.1871426042874,49.85828483227938],[34.1871426042874,49.883269172841224],[34.17405556875551,49.895166477869665],[34.17405556875551,49.93442758446693],[34.17048637724677,49.95108381150747],[34.11694850461541,49.95703246402081],[34.06222090148113,49.967740038548115],[34.02533925589112,49.98439626558866],[34.024149525388296,50.01176006715562],[34.018200872873805,50.042693060231585],[34.018200872873805,50.08076443632399],[34.052703057457904,50.11288715990305],[34.02058033387928,50.1402509614709],[33.99559599331806,50.16285584102664],[33.972991113762404,50.17237368504898],[33.950386234207464,50.16880449354086],[33.8504488719625,50.183081259576284],[33.76478827575252,50.194978564604725],[33.76240881474705,50.23542940170322],[33.76121908424378,50.27112131679041],[33.749321779214355,50.29610565735314],[33.71838878613883,50.3139516148958],[33.664850913507564,50.32941811143432],[33.59124433656254,50.33176743508647],[33.58777302335402,50.31371660640163],[33.53661461172849,50.28516307433166],[33.47593835607964,50.25185062025048],[33.47117943406806,50.219727896671415],[33.43429778847805,50.19593328661355],[33.43191832747231,50.16619002404059],[33.42121075294536,50.142395413981845],[33.379570185343866,50.148344066496065],[33.36225299691201,50.14221813005403],[33.35273515288878,50.12675163351561],[33.355114613894614,50.11128513697709],[33.3753400324447,50.086300796417206],[33.36582218842076,50.05655753384326],[33.34916596138012,50.02205534925818],[33.34559676987138,49.995881278195114],[33.341432713110905,49.98338910791424]]]]}},{"type":"Feature","properties":{"kind":"district","id":"uyezd-1897-237","name":"Зеньковский","provinceId":"gubernia-1897-56"},"geometry":{"type":"MultiPolygon","coordinates":[[[[34.02058033387928,50.1402509614709],[34.052703057457904,50.11288715990305],[34.018200872873805,50.08076443632399],[34.018200872873805,50.042693060231585],[34.024149525388296,50.01176006715562],[34.02533925589112,49.98439626558866],[34.06222090148113,49.967740038548115],[34.11694850461541,49.95703246402081],[34.17048637724677,49.95108381150747],[34.17405556875551,49.93442758446693],[34.17405556875551,49.895166477869665],[34.1871426042874,49.883269172841224],[34.22759344138687,49.891597286360565],[34.26685454798254,49.893976747366665],[34.29421834955012,49.880889711835124],[34.33109999514005,49.870182137307914],[34.37630975425109,49.880889711835124],[34.41795032185267,49.880889711835124],[34.45840115895214,49.8689924068058],[34.49885199605161,49.8737513288179],[34.547630946670516,49.86066429328548],[34.56309744320832,49.84281833574096],[34.60235854980479,49.84281833574096],[34.61187639382803,49.85233617976428],[34.63448127338323,49.8618540237876],[34.64042992589843,49.880889711835124],[34.666603996962294,49.890407555858445],[34.666603996962294,49.896356208373646],[34.643999117407176,49.90468432189299],[34.6523272309275,49.91420216591631],[34.641619656401346,49.92253027943751],[34.64637857841301,49.94394542849025],[34.64994776992175,49.96892976905023],[34.66303480545364,49.97130923005712],[34.683260224002936,49.97844761307355],[34.68682941551159,49.99391410961198],[34.677311571488445,50.0070011451444],[34.679691032494276,50.02127791117894],[34.668983457968125,50.042693060231585],[34.674932110482615,50.06291847878035],[34.68682941551159,50.08433362783397],[34.674932110482615,50.09028228034731],[34.679691032494276,50.09861039386851],[34.69634725953482,50.10455904638362],[34.69872672054065,50.12121527342337],[34.68682941551159,50.13549203945968],[34.695157529031995,50.15690718851144],[34.730849444119805,50.14857907499024],[34.737987827137204,50.16404557152876],[34.69991645104356,50.17356341555208],[34.692778068026165,50.21520398315447],[34.704675373055224,50.24732670673344],[34.70676114564081,50.26714154629459],[34.709434295067595,50.29253646584404],[34.64637857841301,50.350833260486965],[34.57975367024976,50.3591613740064],[34.48576496051893,50.38176625356205],[34.433416818391194,50.38652517557425],[34.3501356831866,50.37938679255693],[34.28589023602909,50.31871053690702],[34.13241500115366,50.21639371365747],[34.07054901500172,50.1759428765572],[34.02058033387928,50.1402509614709]]]]}},{"type":"Feature","properties":{"kind":"district","id":"uyezd-1897-238","name":"Полтавский","provinceId":"gubernia-1897-56"},"geometry":{"type":"MultiPolygon","coordinates":[[[[33.99338299666218,49.52999162607099],[34.03740302527039,49.518094321043435],[34.081423053878524,49.4978689024929],[34.084992245387184,49.47169483142895],[34.10521766393656,49.46455644841172],[34.15161715355052,49.47407429243504],[34.211103678695565,49.487161327966575],[34.257503168309526,49.47645375344105],[34.27534912585307,49.47645375344105],[34.27415939535015,49.46336671790871],[34.282487508870474,49.45860779589661],[34.282487508870474,49.43957210784997],[34.2634518208241,49.437192646844764],[34.2634518208241,49.42767480282144],[34.280108047864644,49.424105611313315],[34.282487508870474,49.4086391147748],[34.29914373591182,49.41101857578089],[34.331266459490266,49.40982884527691],[34.331266459490266,49.38603423521906],[34.34197403401632,49.38127531320695],[34.356250800051924,49.39198288773425],[34.375154295820465,49.40599526921321],[34.40370782789016,49.40956446072142],[34.408466749901734,49.41551311323653],[34.43821001247426,49.41670284373865],[34.46557381404175,49.42027203524775],[34.48223004108239,49.42978987927107],[34.498886268123016,49.42978987927107],[34.52625006969051,49.442876914802596],[34.56670090678918,49.442876914802596],[34.605962013385735,49.450015297819824],[34.62142850992346,49.4940353264283],[34.64641285048441,49.49641478743342],[34.70470964512743,49.49522505693131],[34.74991940423847,49.51426074497795],[34.79869835485826,49.539245085539704],[34.84033892245985,49.5701780786139],[34.872461646038914,49.59159322766753],[34.910533022131844,49.611818646216285],[34.956932511745705,49.62490568174871],[34.98667577431823,49.6272851427548],[35.036644455440936,49.65345921381956],[35.064008257007714,49.671305171362306],[35.11516666863325,49.671305171362306],[35.12230505165065,49.660597596835984],[35.13301262617679,49.64156190878934],[35.17346346327626,49.6272851427548],[35.21391430037565,49.62609541225269],[35.28172893904181,49.615387837725386],[35.30076462708828,49.630854334263816],[35.32812842865506,49.630854334263816],[35.35668196072547,49.63442352577203],[35.35307849714452,49.65484091628063],[35.30905846853639,49.71194798042144],[35.2674179009348,49.70718905841022],[35.215069758806365,49.75358854802383],[35.19722380126281,49.84400806624494],[35.15915242516917,49.86066429328548],[35.121641722853866,49.87390336469033],[35.1187015880697,49.87494105932002],[35.0699226374508,49.88207944233724],[35.063973984936226,49.87256159831392],[35.091337786503004,49.84281833574096],[35.046128027391966,49.823782647694316],[34.99377988526423,49.805936690151654],[34.95570850917059,49.823782647694316],[34.898601445030486,49.815454534174975],[34.864099260446395,49.82973130020942],[34.839114919884636,49.84638752725006],[34.77724893373376,49.85828483227938],[34.7582132456865,49.888028094852444],[34.72371106110241,49.92015081843053],[34.720141869593746,49.93561731496905],[34.70348564255231,49.95227354200959],[34.688019146014504,49.94870435050147],[34.69158833752325,49.92490974044361],[34.69158833752325,49.91301243541419],[34.6523272309275,49.91420216591631],[34.643999117407176,49.90468432189299],[34.666603996962294,49.896356208373646],[34.666603996962294,49.890407555858445],[34.64042992589843,49.880889711835124],[34.63448127338323,49.8618540237876],[34.61187639382803,49.85233617976428],[34.60235854980479,49.84281833574096],[34.56309744320832,49.84281833574096],[34.547630946670516,49.86066429328548],[34.49885199605161,49.8737513288179],[34.45840115895214,49.8689924068058],[34.41795032185267,49.880889711835124],[34.37630975425109,49.880889711835124],[34.33109999514005,49.870182137307914],[34.29421834955012,49.880889711835124],[34.26685454798254,49.893976747366665],[34.22759344138687,49.891597286360565],[34.1871426042874,49.883269172841224],[34.1871426042874,49.85828483227938],[34.164537724732284,49.83330049171764],[34.082446320031224,49.79998803763645],[34.05746197946947,49.75239881751985],[34.03801992256808,49.73057137604522],[34.00589719898973,49.707966496489476],[33.977343666919325,49.67465404240829],[33.95592851786712,49.65680808486377],[33.948790134849716,49.624685361284705],[33.93451336881482,49.602080481729935],[33.940462021329395,49.58304479368418],[33.951169595855546,49.543783687086915],[33.97853339742224,49.534265843064574],[33.99338299666218,49.52999162607099]]]]}},{"type":"Feature","properties":{"kind":"district","id":"uyezd-1897-241","name":"Прилукский","provinceId":"gubernia-1897-56"},"geometry":{"type":"MultiPolygon","coordinates":[[[[31.670500285859394,50.562677702601874],[31.677638668876796,50.5341241705328],[31.702623009438547,50.5234165960055],[31.713330583964694,50.513898751982175],[31.733556002513986,50.51151929097617],[31.74545330754305,50.50081171644975],[31.769247917601795,50.48653495041619],[31.764488995590224,50.456791687843136],[31.81150538250116,50.454104805745345],[31.894786517705842,50.452915075243226],[31.97925738341273,50.46481238027265],[32.053020674593384,50.48741725982653],[32.11964558275672,50.49574537334773],[32.15176830633507,50.49217618183863],[32.19340887393737,50.48146860731319],[32.225531597515726,50.48384806831929],[32.275500278638425,50.50169402586195],[32.30048461919929,50.50764267837715],[32.35521222233356,50.513591330892254],[32.38138629339814,50.49574537334773],[32.39923225094178,50.48384806831929],[32.42302686099973,50.48741725982653],[32.44444201005202,50.50764267837715],[32.4634776980992,50.51121186988625],[32.4991696131863,50.49693510384985],[32.5562766773264,50.48622752932352],[32.581261017887265,50.4802788768093],[32.581261017887265,50.50169402586195],[32.586019939898925,50.51597079189649],[32.603865897443185,50.52191944441169],[32.61576320247225,50.50645294787317],[32.64431673454186,50.49693510384985],[32.66811134460069,50.51478106139437],[32.69904433767613,50.52191944441169],[32.714510834213854,50.513591330892254],[32.746633557793004,50.512401600388365],[32.81920711847083,50.50764267837715],[32.85727849456367,50.51478106139437],[32.91200609769794,50.536196210446136],[32.94055962976835,50.538575671452236],[32.994097502398915,50.535006479943135],[33.017892112457744,50.529057827428915],[33.046445644527445,50.53976540195622],[33.06429160207091,50.55404216799066],[33.082137559615255,50.58735462207184],[33.11069109168486,50.64565141671486],[33.11426028319361,50.673015218282714],[33.08094782911234,50.66706656576751],[33.059532680059334,50.7087071333699],[33.05596348855059,50.74201958745108],[33.0357380700013,50.77533204153226],[33.02503049547515,50.79912665159189],[33.01908184296066,50.833628836175194],[33.001235885416314,50.85623371573094],[32.96078504831773,50.87526940377758],[32.919144480715346,50.88359751729878],[32.86917579959344,50.88121805629268],[32.80017143042436,50.87288994277148],[32.75615140181624,50.86218236824516],[32.71332110371094,50.85980290723906],[32.69904433767613,50.840767219192415],[32.671680536109434,50.825300722655854],[32.626470776998396,50.81816233963853],[32.595537783922865,50.82411099215187],[32.57174317386412,50.841956949696396],[32.5277231452567,50.85980290723906],[32.47537500312826,50.86218236824516],[32.417078208485236,50.85385425472484],[32.329038151269785,50.834818566679175],[32.29810515819346,50.832439105673075],[32.27431054813551,50.83838775818641],[32.242187824557064,50.840767219192415],[32.22434186701281,50.82173153114577],[32.15652722834665,50.77057311952193],[32.101799625213076,50.77533204153226],[32.07681528465142,50.77652177203615],[32.049451483084724,50.72060443839834],[32.01375956799683,50.694430367334476],[31.99472387995045,50.694430367334476],[31.94118600731909,50.680153601299935],[31.919770858266794,50.6979995588426],[31.891217326197097,50.66706656576751],[31.86742271613835,50.63970276419967],[31.837679453565826,50.64089249470365],[31.781762119928636,50.58854435257582],[31.763916162385087,50.5647497425161],[31.710378289753727,50.56593947302008],[31.670500285859394,50.562677702601874]]]]}},{"type":"Feature","properties":{"kind":"district","id":"uyezd-1897-330","name":"Роменский","provinceId":"gubernia-1897-56"},"geometry":{"type":"MultiPolygon","coordinates":[[[[33.71226387725346,50.97050659613524],[33.73290790468411,51.002238250890514],[33.76503062826282,51.039714761731375],[33.75271471435286,51.06211584485936],[33.70988441624786,51.06687476687239],[33.6718130401548,51.05140827033392],[33.60994705400293,51.01928554675487],[33.5492707983542,50.99073201468491],[33.51119942226114,50.98954228418188],[33.49573292572296,50.99787039770217],[33.45885128013231,51.005008780719436],[33.42315936504559,51.018095816251844],[33.398175024484374,51.007388241724584],[33.396985293981174,50.994301206193995],[33.36010364839052,50.974075787643415],[33.32084254179426,50.97526551814644],[33.270873860672566,50.94909144708163],[33.21852571854373,50.951470908087686],[33.20900787452064,50.92291737601772],[33.187592725468164,50.90269195746987],[33.13762404434567,50.89079465243958],[33.09717320724627,50.896743304953816],[33.04363533461583,50.88960492193655],[33.001235885416314,50.85623371573094],[33.01908184296066,50.833628836175194],[33.02503049547515,50.79912665159189],[33.0357380700013,50.77533204153226],[33.05596348855059,50.74201958745108],[33.059532680059334,50.7087071333699],[33.08094782911234,50.66706656576751],[33.11426028319361,50.673015218282714],[33.11069109168486,50.64565141671486],[33.082137559615255,50.58735462207184],[33.1273473187255,50.58497516106672],[33.1487624677785,50.590923813580055],[33.19516195739166,50.58854435257582],[33.29153012812832,50.58735462207184],[33.326032312712506,50.57783677804852],[33.34030907874731,50.59330327458606],[33.42121075294536,50.592113544083944],[33.44738482401003,50.56118055100798],[33.50687134915587,50.54571405446946],[33.52785564930167,50.55291118961122],[33.54213241533671,50.54458307609002],[33.56711675589793,50.5517214591091],[33.5992394794759,50.561239303133334],[33.613516245511676,50.58622364369239],[33.650397891101534,50.614777175762356],[33.69798711121848,50.64452043833535],[33.75271471435286,50.66593558738805],[33.76818121089025,50.690919927949835],[33.79197582094832,50.70519669398436],[33.794355281954665,50.71828372951677],[33.815770431007934,50.73969887857038],[33.853841807100196,50.736129687059474],[33.853841807100196,50.724232382031005],[33.86335965112329,50.7194734600198],[33.89072345269091,50.72185292102586],[33.915707793252125,50.72185292102586],[33.95020997783644,50.73969887857038],[33.9787635099064,50.725422112534034],[34.016834885999515,50.72185292102586],[33.977573779404054,50.75278591410279],[33.95139970833884,50.767062680135496],[33.88120560866702,50.80156486472151],[33.82885746653977,50.83011839679057],[33.81101150899525,50.85629246785538],[33.81696016151034,50.87056923389173],[33.807442317486505,50.918158454006516],[33.74081740932343,50.952660638590714],[33.71226387725346,50.97050659613524]]]]}}]}
