{"type":"FeatureCollection","features":[{"type":"Feature","properties":{"kind":"province","id":"gubernia-1897-64","name":"Елизаветопольская губерния"},"geometry":{"type":"MultiPolygon","coordinates":[[[[47.222071742567614,41.48032022405728],[47.161395486918856,41.4398693869571],[47.10547815328246,41.412505585390136],[47.07097596869748,41.38276232281806],[47.03290459260384,41.366106095777425],[46.95795157092027,41.38157259231408],[46.9389158828739,41.354208790748096],[46.98293591148202,41.314947684151804],[46.92582884734192,41.30186064861938],[46.9103623508042,41.29115307409395],[46.902034237283885,41.26973792504032],[46.90560342879254,41.245943314981574],[46.927018577844834,41.22452816592981],[46.95676184041736,41.213820591404286],[46.955572109914534,41.20192328637407],[46.91274181181003,41.19478490335764],[46.90084450678097,41.16147244927468],[46.88061908823088,41.13172918670172],[46.861583400184415,41.1269702646905],[46.850875825658264,41.09960646312443],[46.90798288979837,41.098416732620535],[46.94724399639413,41.09008861910111],[46.986505102990684,41.08176050557999],[46.97698725896745,40.98420260434068],[46.967469414944304,40.92828527070465],[46.932967230359324,40.92828527070465],[46.909172620301284,40.9437517672413],[46.892516393259854,40.966356646797934],[46.87229097471056,40.97468476031736],[46.817563371576284,40.990151256855796],[46.77949199548345,41.030602093954286],[46.75569738542541,41.04725832099483],[46.773543342968956,41.07462212256268],[46.766404959951466,41.08651942759112],[46.74023088888689,41.091278349603314],[46.69978005178822,41.1269702646905],[46.64624217915686,41.1305394561996],[46.63434487412788,41.11745242066718],[46.616498916584334,41.10912430714775],[46.60341188105165,41.07581185306479],[46.549874008421,41.05677616501815],[46.530838320373825,41.02227398043486],[46.49871559679547,41.00799721439854],[46.46064422070183,41.00085883138123],[46.430900958129214,41.02346371093697],[46.3809322770066,41.03179182445818],[46.35713766694857,41.04368912948671],[46.30478952482012,41.06867347004757],[46.28694356727657,41.09484754111233],[46.23459542514813,41.142436761228936],[46.20961108458717,41.13886756972081],[46.153693750949984,41.16742110179077],[46.095396956307056,41.18764652034042],[46.04066935317278,41.19597463385985],[46.000218516074106,41.18407732883132],[45.96928552299787,41.180508137321326],[45.92526549439045,41.19478490335764],[45.90741953684619,41.2173897829125],[45.88243519628524,41.24237412347425],[45.8372254371742,41.243563853976454],[45.83484597616837,41.261409811520004],[45.831276784659714,41.279255769064534],[45.86934816075326,41.272117386047306],[45.89909142332588,41.26616873353211],[45.89433250131422,41.32089633666692],[45.828897323653884,41.324465528175125],[45.76465187649637,41.33041418069024],[45.7099242733629,41.358967712760204],[45.57905391804214,41.41012612438404],[45.50648035736432,41.43511046494588],[45.49220359132951,41.406556932875915],[45.47435763378517,41.368485556783526],[45.476737094791,41.34826013823299],[45.46127059825328,41.29710172660728],[45.4481835627213,41.25665088950879],[45.39464569009003,41.260220081016996],[45.360143505505846,41.276876308057545],[45.33040024293252,41.279255769064534],[45.28519048382228,41.29234280459606],[45.27448290929533,41.28282496057274],[45.23165261119092,41.29353253509818],[45.21499638415028,41.2637892725261],[45.11981794391654,41.298291457111176],[45.042485461227145,41.32208606716903],[45.00798327664296,41.3066195706306],[44.973481092058066,41.279255769064534],[44.98180920557838,41.23761520146215],[44.952065943005856,41.2173897829125],[44.92113294992962,41.19240544235075],[44.88306157383669,41.15433406625746],[44.875923190819286,41.14005730022292],[44.915184297415045,41.13529837821171],[44.94849675149711,41.098416732620535],[44.9056664533919,41.06986320055057],[44.86640534679614,41.042499398983615],[44.83904154522856,41.06034535652725],[44.81881612667918,41.05915562602425],[44.802159899638546,41.04844805149881],[44.79026259460878,41.011566405907644],[44.79621124712415,40.98658206534767],[44.82833397070242,40.971115568809154],[44.85688750277211,40.92947500120685],[44.86164642478448,40.86285009304449],[44.84142100623439,40.84262467449387],[44.78907286410586,40.8128814119209],[44.7507764528729,40.79802854867372],[44.78051971544542,40.76828528610075],[44.81978082204198,40.73021391000836],[44.78289917645125,40.71117822196172],[44.74125860884969,40.68381442039389],[44.765581988020195,40.66187050223019],[44.808412286125495,40.62141966512991],[44.850052853727085,40.62379912613592],[44.87384746378583,40.6261785871429],[44.879796116300405,40.64402454468566],[44.85957069775023,40.67495753776261],[44.87384746378583,40.69756241731737],[44.919057222896164,40.70945972234581],[44.94285183295491,40.70351106983257],[44.98330267005358,40.68209592077894],[45.0415994646966,40.655921849714986],[45.122501138894656,40.61309155161048],[45.17128008951444,40.59643532456994],[45.174849281023185,40.61666074311958],[45.180797933537676,40.630937509153235],[45.20816173510437,40.630937509153235],[45.24266391968935,40.62141966512991],[45.27716610427345,40.60119424658116],[45.297391522823624,40.569071523002094],[45.305719636343945,40.55122556545943],[45.33070397690489,40.54170772143611],[45.37115481400428,40.544087182440336],[45.411605651102946,40.53813852992701],[45.452056488202416,40.52505149439369],[45.48774840328943,40.50244661483973],[45.529388970891816,40.46080604723734],[45.58173711302026,40.4334422456695],[45.634085255147994,40.40964763561173],[45.65669013470382,40.37871464253655],[45.7197458513585,40.37276599002145],[45.7542480359426,40.36086868499203],[45.80778590857396,40.337074074934165],[45.85775458969666,40.343022727447504],[45.91605138433968,40.32279730889874],[45.94460491640929,40.32279730889874],[45.941035724900544,40.29424377682976],[45.962450873952754,40.24665455671217],[45.95531249093544,40.22999832967163],[45.964830334958585,40.20620371961288],[45.96007141294701,40.19668587559045],[45.958881682444094,40.14909665547384],[45.91605138433968,40.14195827245662],[45.90415407930982,40.13838908094654],[45.89939515729825,40.121732853905996],[45.90177461830408,40.091989591333025],[45.872031355731465,40.05510794574363],[45.81611402209437,39.98967276808348],[45.73402261739331,39.9932419595916],[45.650741482189424,39.9968111511007],[45.622848911509365,39.97830423216603],[45.70137112470243,39.95807881361631],[45.745391153309754,39.92595609003733],[45.79298037342663,39.87598740891463],[45.77751387688892,39.8700387564013],[45.750150075321415,39.874797678411625],[45.7489603448185,39.86052091237798],[45.73825277029245,39.82720845829502],[45.71802735174306,39.80222411773505],[45.6989916636966,39.79151654320872],[45.67995597564942,39.78913708220263],[45.6704381316262,39.766532202646886],[45.67757651464359,39.74154786208513],[45.69304301118132,39.71775325202816],[45.68590462816391,39.69514837247242],[45.668058670620454,39.657076996378244],[45.65378190458556,39.63685157782949],[45.65973055710005,39.60710831525652],[45.683525167158166,39.59996993223832],[45.73825277029245,39.596400740729216],[45.77275495487734,39.570226669665345],[45.791790642923715,39.532155293572956],[45.802498217449866,39.488135264964555],[45.80844686996444,39.461961193900606],[45.794170103929545,39.44054604484795],[45.77989333789475,39.4215103568022],[45.783462529403494,39.39771574674256],[45.802498217449866,39.38700817221712],[45.844138785052166,39.38581844171501],[45.87745123913352,39.3691622146726],[45.93098911176479,39.32752164707199],[45.95954264383448,39.323952455562],[45.97738860137804,39.30967568952747],[45.98214752339041,39.28469134896571],[45.9678707573548,39.25018916438242],[45.97500914037221,39.23115347633578],[45.994044828419376,39.21449724929523],[45.99761401992812,39.19546156124761],[45.99047563691073,39.17285668169284],[45.97619887087512,39.15144153263921],[45.989285906407815,39.11693934805592],[46.02616755199773,39.061022014418995],[46.055910814571064,39.044365787376584],[46.08922326865242,38.99915602826607],[46.07851569412627,38.975361418208216],[46.067808119600116,38.95870519116767],[46.08446434664076,38.945618155635245],[46.11658707021911,38.94204896412704],[46.145140602289516,38.94442842513313],[46.18083251737653,38.90278785753075],[46.18055633722382,38.853733401792866],[46.22100717432258,38.87990747285673],[46.24242232337559,38.88228693386283],[46.268596394439896,38.90370208291459],[46.297149926509775,38.902512352411584],[46.32689318908257,38.9144096574418],[46.35187752964316,38.91203019643579],[46.37448240919899,38.915599387944006],[46.39946674976048,38.913219926938794],[46.42207162931551,38.916789118447014],[46.45776354440305,38.90846100492758],[46.49226572898786,38.90132262191035],[46.51606033904572,38.90489181341759],[46.53985494910438,38.88942531688094],[46.581495516706056,38.9631886080615],[46.59577228274139,38.97032699107872],[46.62551554531409,38.98341402661114],[46.66120746040173,39.04528001276229],[46.70998641102098,39.06074650929983],[46.725452907559145,39.07621300583826],[46.726642638061975,39.10595626841043],[46.74567832610852,39.12142276494886],[46.76590374465799,39.10952545992042],[46.78493943270463,39.11785357343976],[46.81349296477451,39.12142276494886],[46.83194980723724,39.14043890566819],[46.852754071370526,39.161873602047265],[46.87892814243476,39.164253063053366],[46.90748167450472,39.17734009858579],[46.964588738644466,39.165442793557254],[46.987193618200294,39.161873602047265],[47.0216958027851,39.17615036808269],[47.04786987384861,39.17615036808269],[47.05619798736912,39.19875524763755],[47.08713098044544,39.19637578663243],[47.09545909396513,39.216601205181185],[47.115684512515315,39.227308779708395],[47.1323407395555,39.26181096429356],[47.150186697099315,39.2689493473099],[47.17636076816355,39.312969375917405],[47.22276025777724,39.32605641144983],[47.26440082537971,39.32724614195283],[47.27986732191707,39.34628182999947],[47.30128247097008,39.35223048251369],[47.33578465555408,39.37602509257243],[47.354820343600636,39.396250511122176],[47.37028684013889,39.43432188721546],[47.39408145019746,39.467634341297526],[47.425014443272985,39.48667002934417],[47.469034471881116,39.51165436990503],[47.504726386968656,39.51879275292323],[47.52852099702652,39.51879275292323],[47.541608032559026,39.54020790197411],[47.58562806116636,39.549725745998316],[47.63202755078005,39.57233062555317],[47.67604757938808,39.57471008656007],[47.69151407592625,39.58779712209071],[47.76289790610062,39.597314966114034],[47.78550278565646,39.60802254064036],[47.803348743200004,39.62943768969399],[47.78066789372377,39.660827340268085],[47.75687328366503,39.67986302831473],[47.70809433304595,39.70246790787047],[47.68073053147846,39.7179344044089],[47.65336672991168,39.74410847547277],[47.637900233373955,39.759574972011286],[47.62481319784207,39.78336958206826],[47.67002295695231,39.83095880218575],[47.667643495946564,39.848804759728395],[47.664074304437854,39.87259936978811],[47.6676434959466,39.904722093367084],[47.6676434959466,39.94041400845437],[47.660505112929194,39.96658807951823],[47.63671050287116,40.03440271818457],[47.686679183993064,40.0843713993063],[47.74140678712725,40.13671954143501],[47.759252744670796,40.15932442098986],[47.74854517014465,40.183119031047724],[47.74735543964182,40.199775258088266],[47.739027326121416,40.228328790159125],[47.71404298556055,40.233087712171226],[47.719991638075044,40.209293102113364],[47.71166352455472,40.18668822255674],[47.691438106005435,40.180739570041624],[47.662884573935024,40.202154719094366],[47.660505112929194,40.224759598650024],[47.65455646041462,40.24022609518854],[47.65931538242628,40.25926178323518],[47.640279694379814,40.2616412442403],[47.631951580859585,40.23903636468456],[47.606967240297834,40.25688232222909],[47.595069935268775,40.24974393921186],[47.62005427582972,40.22238013764401],[47.604587779292004,40.19739579708404],[47.60815697080075,40.16884226501318],[47.59388020476586,40.15932442098986],[47.584362360742624,40.16527307350498],[47.586741821748454,40.17598064803041],[47.571275325210735,40.17598064803041],[47.555808828673015,40.183119031047724],[47.54986017615773,40.19620606658006],[47.51654772207646,40.19025741406672],[47.51654772207646,40.202154719094366],[47.53677314062584,40.216431485130684],[47.533203949117095,40.233087712171226],[47.51654772207646,40.25331313071999],[47.530824488111264,40.260451513737294],[47.541532062637415,40.260451513737294],[47.533203949117095,40.272348818767604],[47.497512034029995,40.273538549269716],[47.51593517678757,40.29058972114124],[47.509986524272996,40.295348643153346],[47.50549401831235,40.295797893749295],[47.51593517678757,40.31795352270909],[47.53497086483475,40.33698921075573],[47.581370354447905,40.35483516829848],[47.611113617021225,40.38338870036933],[47.62063146104446,40.411942232439294],[47.64323634059958,40.403614118918085],[47.67178987266999,40.42621899847383],[47.64085687959384,40.55352016228513],[47.64204661009666,40.59159153837842],[47.6230109220502,40.67011375157108],[47.67178987266999,40.69985701414405],[47.690825560716455,40.728410546214015],[47.726517475803554,40.7272208157119],[47.73960451133624,40.75339488677585],[47.78838346195514,40.76529219180519],[47.83597268207201,40.7664819223073],[47.86571594464463,40.79503545437815],[47.9204435477789,40.82953763896145],[47.945427888339765,40.83786575248266],[47.983499264433405,40.84381440499785],[48.00848360499435,40.872367937067814],[48.033467945556104,40.89616254712567],[48.062021477625805,40.93185446221286],[48.13340530780062,40.94970041975739],[48.15482045685283,40.97468476031736],[48.17861506691167,41.00918694490244],[48.20716859898136,41.028222632948186],[48.22977347853728,41.02941236345217],[48.24405024457209,41.05201724300694],[48.18575344992907,41.06272481753335],[48.131025846794884,41.06867347004757],[48.08105716567218,41.08057077507779],[48.035847406561935,41.09246808010721],[48.015621988012555,41.11150376815296],[48.00729387449153,41.142436761228936],[47.98706845594215,41.16623137128679],[47.9549457323638,41.173369754304105],[47.91925381727599,41.18764652034042],[47.88951055470337,41.22809735743793],[47.84073160408367,41.23285627945093],[47.80860888050532,41.21263086090039],[47.77767588742908,41.21263086090039],[47.73127639781512,41.244753584479454],[47.68725636920771,41.259030350514884],[47.637287688085095,41.241184392970354],[47.62776984406186,41.2209589744216],[47.56233466640144,41.21025139989527],[47.517124907290395,41.22928708794094],[47.481432992203295,41.23999466246824],[47.42075673655462,41.23761520146215],[47.37435724694067,41.267358464034224],[47.339855062356484,41.3042401096245],[47.337475601350654,41.341121755215674],[47.31011179978316,41.34944986873688],[47.28512745922221,41.35539852125021],[47.301783686262844,41.39584935835048],[47.262522579667085,41.411315854888024],[47.24824581363228,41.46366399701674],[47.222071742567614,41.48032022405728]]]]}},{"type":"Feature","properties":{"kind":"district","id":"uyezd-1897-408","name":"Казахский","provinceId":"gubernia-1897-64"},"geometry":{"type":"MultiPolygon","coordinates":[[[[44.74125860884966,40.683814420393865],[44.765581988020195,40.66187050223019],[44.808412286125495,40.62141966512991],[44.850052853727085,40.62379912613592],[44.87384746378583,40.6261785871429],[44.879796116300405,40.64402454468566],[44.85957069775023,40.67495753776261],[44.87384746378583,40.69756241731737],[44.919057222896164,40.70945972234581],[44.94285183295491,40.70351106983257],[44.98330267005358,40.68209592077894],[45.0415994646966,40.655921849714986],[45.122501138894656,40.61309155161048],[45.17128008951444,40.59643532456994],[45.174849281023185,40.61666074311958],[45.180797933537676,40.630937509153235],[45.20816173510437,40.630937509153235],[45.24266391968935,40.62141966512991],[45.27716610427345,40.60119424658116],[45.297391522823624,40.569071523002094],[45.305719636343945,40.55122556545943],[45.33070397690489,40.54170772143611],[45.37115481400428,40.544087182440336],[45.411605651102946,40.53813852992701],[45.452056488202416,40.52505149439369],[45.44342464070973,40.590401807876304],[45.50172143535275,40.60467857391084],[45.462460328756194,40.64988833302144],[45.47078844227651,40.67487267358319],[45.5052906268614,40.676062404086196],[45.52075712339912,40.68439051760562],[45.53027496742236,40.67249321257718],[45.561207960497796,40.66535482955987],[45.611176641620496,40.66535482955987],[45.60998691111758,40.73435919872921],[45.624263677152385,40.80336356789758],[45.64091990419382,40.83786575248266],[45.670663166766346,40.87593712857594],[45.71230373436873,40.89497281662169],[45.73252915291802,40.90924958265712],[45.7527545714674,40.94018257573407],[45.797964330578445,40.972305299311266],[45.82770759315097,40.9937204483649],[45.849122742203974,41.06272481753335],[45.86815843025044,41.101985924129636],[45.90504007584036,41.15433406625746],[45.92526549439045,41.19478490335764],[45.90741953684619,41.2173897829125],[45.88243519628524,41.24237412347425],[45.8372254371742,41.243563853976454],[45.83484597616837,41.261409811520004],[45.831276784659714,41.279255769064534],[45.86934816075326,41.272117386047306],[45.89909142332588,41.26616873353211],[45.89433250131422,41.32089633666692],[45.828897323653884,41.324465528175125],[45.76465187649637,41.33041418069024],[45.7099242733629,41.358967712760204],[45.57905391804214,41.41012612438404],[45.50648035736432,41.43511046494588],[45.49220359132951,41.406556932875915],[45.47435763378517,41.368485556783526],[45.476737094791,41.34826013823299],[45.46127059825328,41.29710172660728],[45.4481835627213,41.25665088950879],[45.39464569009003,41.260220081016996],[45.360143505505846,41.276876308057545],[45.33040024293252,41.279255769064534],[45.28519048382228,41.29234280459606],[45.27448290929533,41.28282496057274],[45.23165261119092,41.29353253509818],[45.21499638415028,41.2637892725261],[45.11981794391654,41.298291457111176],[45.042485461227145,41.32208606716903],[45.00798327664296,41.3066195706306],[44.973481092058066,41.279255769064534],[44.98180920557838,41.23761520146215],[44.952065943005856,41.2173897829125],[44.92113294992962,41.19240544235075],[44.88306157383669,41.15433406625746],[44.875923190819286,41.14005730022292],[44.915184297415045,41.13529837821171],[44.94849675149711,41.098416732620535],[44.9056664533919,41.06986320055057],[44.86640534679614,41.042499398983615],[44.83904154522856,41.06034535652725],[44.81881612667918,41.05915562602425],[44.802159899638546,41.04844805149881],[44.79026259460878,41.011566405907644],[44.79621124712415,40.98658206534767],[44.82833397070242,40.971115568809154],[44.85688750277211,40.92947500120685],[44.86164642478448,40.86285009304449],[44.84142100623439,40.84262467449387],[44.78907286410586,40.8128814119209],[44.7507764528729,40.79802854867372],[44.78051971544542,40.76828528610075],[44.81978082204198,40.73021391000836],[44.78289917645125,40.71117822196172],[44.74125860884966,40.683814420393865]]]]}},{"type":"Feature","properties":{"kind":"district","id":"uyezd-1897-409","name":"Елисаветпольский","provinceId":"gubernia-1897-64"},"geometry":{"type":"MultiPolygon","coordinates":[[[[46.967469414944304,40.92828527070465],[46.932967230359324,40.92828527070465],[46.909172620301284,40.9437517672413],[46.892516393259854,40.966356646797934],[46.87229097471056,40.97468476031736],[46.817563371576284,40.990151256855796],[46.77949199548345,41.030602093954286],[46.75569738542541,41.04725832099483],[46.773543342968956,41.07462212256268],[46.766404959951466,41.08651942759112],[46.74023088888689,41.091278349603314],[46.69978005178822,41.1269702646905],[46.64624217915686,41.1305394561996],[46.63434487412788,41.11745242066718],[46.616498916584334,41.10912430714775],[46.60341188105165,41.07581185306479],[46.549874008421,41.05677616501815],[46.530838320373825,41.02227398043486],[46.49871559679547,41.00799721439854],[46.46064422070183,41.00085883138123],[46.430900958129214,41.02346371093697],[46.3809322770066,41.03179182445818],[46.35713766694857,41.04368912948671],[46.30478952482012,41.06867347004757],[46.28694356727657,41.09484754111233],[46.23459542514813,41.142436761228936],[46.20961108458717,41.13886756972081],[46.153693750949984,41.16742110179077],[46.095396956307056,41.18764652034042],[46.04066935317278,41.19597463385985],[46.000218516074106,41.18407732883132],[45.96928552299787,41.180508137321326],[45.92526549439045,41.19478490335764],[45.90504007584036,41.15433406625746],[45.86815843025044,41.101985924129636],[45.849122742203974,41.06272481753335],[45.82770759315097,40.9937204483649],[45.797964330578445,40.972305299311266],[45.7527545714674,40.94018257573407],[45.73252915291802,40.90924958265712],[45.71230373436873,40.89497281662169],[45.670663166766346,40.87593712857594],[45.64091990419382,40.83786575248266],[45.624263677152385,40.80336356789758],[45.60998691111758,40.73435919872921],[45.611176641620496,40.66535482955987],[45.561207960497796,40.66535482955987],[45.53027496742236,40.67249321257718],[45.52075712339912,40.68439051760562],[45.5052906268614,40.676062404086196],[45.47078844227651,40.67487267358319],[45.462460328756194,40.64988833302144],[45.50172143535275,40.60467857391084],[45.44342464070973,40.590401807876304],[45.452056488202416,40.52505149439369],[45.48774840328943,40.50244661483973],[45.529388970891816,40.46080604723734],[45.58173711302026,40.4334422456695],[45.634085255147994,40.40964763561173],[45.65669013470382,40.37871464253655],[45.7197458513585,40.37276599002145],[45.7542480359426,40.36086868499203],[45.80778590857396,40.337074074934165],[45.85775458969666,40.343022727447504],[45.91605138433968,40.32279730889874],[45.94460491640929,40.32279730889874],[45.981182828026846,40.332230288742736],[46.031151509149545,40.34055840226483],[46.0704126157461,40.33460974974972],[46.10967372234186,40.329850827738504],[46.14536563742967,40.34055840226483],[46.179867822013854,40.33460974974972],[46.20485216257551,40.3191432532112],[46.23102623363938,40.315574061703074],[46.25125165218876,40.32866109723452],[46.28099491476208,40.32747136673241],[46.30954844683178,40.31081513969186],[46.34999928393116,40.29177945164522],[46.37260416348629,40.30248702617065],[46.397588504047235,40.29772810415855],[46.435659880140875,40.27988214661491],[46.50109505780121,40.29653837365546],[46.54392535590651,40.295348643153346],[46.56177131345006,40.30724594818187],[46.56177131345006,40.33698921075573],[46.59389403702841,40.34293786326906],[46.63434487412788,40.35840435980758],[46.637914065636544,40.37862977835812],[46.65694975368301,40.394096274894764],[46.70215951279405,40.41313196294141],[46.74380008039564,40.41908061545652],[46.77711253447762,40.42264980696473],[46.82232229358786,40.43335738149106],[46.863962861190245,40.44525468652047],[46.884188279739625,40.44525468652047],[46.884188279739625,40.45953145255501],[46.91512127281586,40.46429037456711],[46.94724399639413,40.52734609122126],[46.99007429449943,40.548761240274004],[47.03171486210093,40.55470989278911],[47.16734413943334,40.58088396385298],[47.1792414444632,40.59872992139573],[47.17448252245154,40.61300668743205],[47.15187764289562,40.6368012974899],[47.12808303283759,40.643939680507216],[47.12094464982018,40.65702671603866],[47.13403168535207,40.676062404086196],[47.117375458311436,40.69628782263495],[47.08763219573812,40.69628782263495],[47.06502731618299,40.720082432694674],[47.09477057875561,40.720082432694674],[47.09833977026426,40.73316946822612],[47.08882192624103,40.74268731224855],[47.084063004229456,40.76172300029519],[47.0519402806511,40.74863596476464],[47.04361216713079,40.76767165281039],[47.042422436627874,40.792655993371255],[47.042422436627874,40.810501950914805],[47.00792025204298,40.81764033393301],[47.00078186902549,40.833106830471436],[46.99840240801974,40.88545497259837],[47.01386890455746,40.92352634869165],[47.00078186902549,40.93542365372196],[46.967469414944304,40.92828527070465]]]]}},{"type":"Feature","properties":{"kind":"district","id":"uyezd-1897-410","name":"Арешский","provinceId":"gubernia-1897-64"},"geometry":{"type":"MultiPolygon","coordinates":[[[[47.16734413943334,40.58088396385298],[47.18281063597186,40.57850450284697],[47.18994901898926,40.560658545302445],[47.219692281561876,40.565417467314546],[47.20779497653281,40.5428125877597],[47.219692281561876,40.5428125877597],[47.217312820556046,40.52972555222736],[47.230399856087935,40.53329474373638],[47.23158958659085,40.51663851669583],[47.24824581363228,40.51782824719794],[47.249435544135196,40.502361750661294],[47.25895338815834,40.490464445630984],[47.29226584223961,40.48689525412286],[47.29345557274252,40.47261848808832],[47.32081937431002,40.45120333903559],[47.324388565818765,40.42621899847383],[47.34223452336222,40.4143216934453],[47.37197778593484,40.425029267971716],[47.37078805543192,40.4143216934453],[47.357701019900034,40.403614118918085],[47.35889075040295,40.39171681388867],[47.36840859442609,40.39052708338566],[47.37792643844932,40.40242438841597],[47.38387509096381,40.39528600539866],[47.375546977443584,40.37387085634601],[47.37435724694067,40.35364543779636],[47.393392934987844,40.35245570729238],[47.4052902400169,40.37030166483691],[47.432654041583596,40.35483516829848],[47.41599781454296,40.33698921075573],[47.4255156585662,40.333420019245736],[47.46120757365401,40.341748132766945],[47.46239730415692,40.323902175222415],[47.47191514818015,40.32033298371518],[47.49214056672945,40.323902175222415],[47.49452002773528,40.316763792205194],[47.486191914214956,40.29772810415855],[47.50549401831233,40.29579789374927],[47.51593517678757,40.31795352270909],[47.53497086483475,40.33698921075573],[47.581370354447905,40.35483516829848],[47.611113617021225,40.38338870036933],[47.62063146104446,40.411942232439294],[47.64323634059958,40.403614118918085],[47.67178987266999,40.42621899847383],[47.64085687959384,40.55352016228513],[47.64204661009666,40.59159153837842],[47.6230109220502,40.67011375157108],[47.67178987266999,40.69985701414405],[47.690825560716455,40.728410546214015],[47.726517475803554,40.7272208157119],[47.73960451133624,40.75339488677585],[47.78838346195514,40.76529219180519],[47.83597268207201,40.7664819223073],[47.86571594464463,40.79503545437815],[47.9204435477789,40.82953763896145],[47.87642351917148,40.84500413549996],[47.837162412574926,40.8557117100254],[47.78481427044648,40.86641928455262],[47.721758553791894,40.88545497259837],[47.67060014216716,40.890213894610476],[47.624200652553114,40.878316589581146],[47.57185251042467,40.89497281662169],[47.539729786846316,40.88545497259837],[47.44098215510392,40.91281877416622],[47.40410050951399,40.93542365372196],[47.36483940291743,40.94494149774528],[47.34342425386514,40.96516691629404],[47.281558267713464,40.98777179584978],[47.25657392715251,40.98182314333459],[47.17448252245154,40.98301287383857],[47.159016025913026,41.00085883138123],[47.155446834404366,41.034171285464275],[47.11856518881435,41.0413096684815],[47.08882192624103,41.050827512504824],[47.04837108914236,41.08176050557999],[46.986505102990684,41.08176050557999],[46.97698725896745,40.98420260434068],[46.967469414944304,40.92828527070465],[47.00078186902549,40.93542365372196],[47.01386890455746,40.92352634869165],[46.99840240801974,40.88545497259837],[47.00078186902549,40.833106830471436],[47.00792025204298,40.81764033393301],[47.042422436627874,40.810501950914805],[47.042422436627874,40.792655993371255],[47.04361216713079,40.76767165281039],[47.0519402806511,40.74863596476464],[47.084063004229456,40.76172300029519],[47.08882192624103,40.74268731224855],[47.09833977026426,40.73316946822612],[47.09477057875561,40.720082432694674],[47.06502731618299,40.720082432694674],[47.08763219573812,40.69628782263495],[47.117375458311436,40.69628782263495],[47.13403168535207,40.676062404086196],[47.12094464982018,40.65702671603866],[47.12808303283759,40.643939680507216],[47.15187764289562,40.6368012974899],[47.17448252245154,40.61300668743205],[47.1792414444632,40.59872992139573],[47.16734413943334,40.58088396385298]]]]}},{"type":"Feature","properties":{"kind":"district","id":"uyezd-1897-411","name":"Зангезурский","provinceId":"gubernia-1897-64"},"geometry":{"type":"MultiPolygon","coordinates":[[[[46.83194980723724,39.14043890566819],[46.78612627077344,39.16853840060777],[46.7766084267502,39.184004897146295],[46.755193277698,39.193522741169616],[46.74686516417768,39.21612762072438],[46.73258839814207,39.22207627323958],[46.70998351858695,39.257768188325876],[46.726639745627494,39.30297794743639],[46.70522459657529,39.33748013202155],[46.68142998651726,39.36127474207932],[46.66120456796716,39.418381806220225],[46.690947830540495,39.44574560778621],[46.701655405066546,39.45883264331863],[46.726639745627494,39.46240183482861],[46.78850573177927,39.498093749915896],[46.83490522139323,39.52069862946977],[46.876545788995514,39.52545755148188],[46.89915066855065,39.5409240480203],[46.90390959056231,39.55401108355272],[46.870597136480264,39.54925216153971],[46.85037171793097,39.55282135304881],[46.8099208808323,39.565908388582116],[46.777798157253144,39.569477580089355],[46.73615758965156,39.61111814769174],[46.744485703171875,39.63610248825349],[46.73496785914873,39.67417386434678],[46.708793788084066,39.69439928289651],[46.66358402897303,39.70391712691983],[46.62789211388593,39.727711736977696],[46.57197478024874,39.75983446055578],[46.57316451075165,39.789577723128744],[46.55055963119653,39.881186971854724],[46.51010879409715,39.90736104291868],[46.50534987208549,39.93829403599376],[46.48512445353611,39.952570802029186],[46.45181199945413,39.958519454542525],[46.45181199945413,39.97041675957185],[46.455381190963585,39.98588325611037],[46.437535233419325,39.99183190862548],[46.391135743806075,39.98231406460216],[46.32808002715157,39.969227029069735],[46.26502431049689,39.937104305491644],[46.18531236680175,39.90736104291868],[46.12820530266165,39.89784319889536],[46.09370311807675,39.89427400738626],[46.03659605393745,39.91330969543192],[46.00328359985538,39.90498158191258],[45.97473006778577,39.875238319339616],[45.93903815269796,39.83954640425234],[45.90810515962252,39.81813125519871],[45.87479270554046,39.81813125519871],[45.83077267693304,39.83597721274324],[45.78794237882783,39.84906424827566],[45.7489603448185,39.86052091237798],[45.73825277029245,39.82720845829502],[45.71802735174306,39.80222411773505],[45.6989916636966,39.79151654320872],[45.67995597564942,39.78913708220263],[45.6704381316262,39.766532202646886],[45.67757651464359,39.74154786208513],[45.69304301118132,39.71775325202816],[45.68590462816391,39.69514837247242],[45.668058670620454,39.657076996378244],[45.65378190458556,39.63685157782949],[45.65973055710005,39.60710831525652],[45.683525167158166,39.59996993223832],[45.73825277029245,39.596400740729216],[45.77275495487734,39.570226669665345],[45.791790642923715,39.532155293572956],[45.802498217449866,39.488135264964555],[45.80844686996444,39.461961193900606],[45.794170103929545,39.44054604484795],[45.77989333789475,39.4215103568022],[45.783462529403494,39.39771574674256],[45.802498217449866,39.38700817221712],[45.844138785052166,39.38581844171501],[45.87745123913352,39.3691622146726],[45.93098911176479,39.32752164707199],[45.95954264383448,39.323952455562],[45.97738860137804,39.30967568952747],[45.98214752339041,39.28469134896571],[45.9678707573548,39.25018916438242],[45.97500914037221,39.23115347633578],[45.994044828419376,39.21449724929523],[45.99761401992812,39.19546156124761],[45.99047563691073,39.17285668169284],[45.97619887087512,39.15144153263921],[45.989285906407815,39.11693934805592],[46.02616755199773,39.061022014418995],[46.055910814571064,39.044365787376584],[46.08922326865242,38.99915602826607],[46.07851569412627,38.975361418208216],[46.067808119600116,38.95870519116767],[46.08446434664076,38.945618155635245],[46.11658707021911,38.94204896412704],[46.145140602289516,38.94442842513313],[46.18083251737653,38.90278785753075],[46.18055633722382,38.853733401792866],[46.22100717432258,38.87990747285673],[46.24242232337559,38.88228693386283],[46.268596394439896,38.90370208291459],[46.297149926509775,38.902512352411584],[46.32689318908257,38.9144096574418],[46.35187752964316,38.91203019643579],[46.37448240919899,38.915599387944006],[46.39946674976048,38.913219926938794],[46.42207162931551,38.916789118447014],[46.45776354440305,38.90846100492758],[46.49226572898786,38.90132262191035],[46.51606033904572,38.90489181341759],[46.53985494910438,38.88942531688094],[46.581495516706056,38.9631886080615],[46.59577228274139,38.97032699107872],[46.62551554531409,38.98341402661114],[46.66120746040173,39.04528001276229],[46.70998641102098,39.06074650929983],[46.725452907559145,39.07621300583826],[46.726642638061975,39.10595626841043],[46.74567832610852,39.12142276494886],[46.76590374465799,39.10952545992042],[46.78493943270463,39.11785357343976],[46.81349296477451,39.12142276494886],[46.83194980723724,39.14043890566819]]]]}},{"type":"Feature","properties":{"kind":"district","id":"uyezd-1897-414","name":"Джеванширский","provinceId":"gubernia-1897-64"},"geometry":{"type":"MultiPolygon","coordinates":[[[[47.50549401831233,40.29579789374927],[47.486191914214956,40.29772810415855],[47.49452002773528,40.316763792205194],[47.49214056672945,40.323902175222415],[47.47191514818015,40.32033298371518],[47.46239730415692,40.323902175222415],[47.46120757365401,40.341748132766945],[47.4255156585662,40.333420019245736],[47.41599781454296,40.33698921075573],[47.432654041583596,40.35483516829848],[47.4052902400169,40.37030166483691],[47.393392934987844,40.35245570729238],[47.37435724694067,40.35364543779636],[47.375546977443584,40.37387085634601],[47.38387509096381,40.39528600539866],[47.37792643844932,40.40242438841597],[47.36840859442609,40.39052708338566],[47.35889075040295,40.39171681388867],[47.357701019900034,40.403614118918085],[47.37078805543192,40.4143216934453],[47.37197778593484,40.425029267971716],[47.34223452336222,40.4143216934453],[47.324388565818765,40.42621899847383],[47.32081937431002,40.45120333903559],[47.29345557274252,40.47261848808832],[47.29226584223961,40.48689525412286],[47.25895338815834,40.490464445630984],[47.249435544135196,40.502361750661294],[47.24824581363228,40.51782824719794],[47.23158958659085,40.51663851669583],[47.230399856087935,40.53329474373638],[47.217312820556046,40.52972555222736],[47.219692281561876,40.5428125877597],[47.20779497653281,40.5428125877597],[47.219692281561876,40.565417467314546],[47.18994901898926,40.560658545302445],[47.18281063597186,40.57850450284697],[47.16734413943334,40.58088396385298],[47.03171486210093,40.55470989278911],[46.99007429449943,40.548761240274004],[46.94724399639413,40.52734609122126],[46.91512127281586,40.46429037456711],[46.884188279739625,40.45953145255501],[46.884188279739625,40.44525468652047],[46.863962861190245,40.44525468652047],[46.82232229358786,40.43335738149106],[46.77711253447762,40.42264980696473],[46.74380008039564,40.41908061545652],[46.70215951279405,40.41313196294141],[46.65694975368301,40.394096274894764],[46.637914065636544,40.37862977835812],[46.63434487412788,40.35840435980758],[46.59389403702841,40.34293786326906],[46.56177131345006,40.33698921075573],[46.56177131345006,40.30724594818187],[46.54392535590651,40.295348643153346],[46.50109505780121,40.29653837365546],[46.435659880140875,40.27988214661491],[46.397588504047235,40.29772810415855],[46.37260416348629,40.30248702617065],[46.34999928393116,40.29177945164522],[46.30954844683178,40.31081513969186],[46.28099491476208,40.32747136673241],[46.25125165218876,40.32866109723452],[46.23102623363938,40.315574061703074],[46.20485216257551,40.3191432532112],[46.179867822013854,40.33460974974972],[46.14536563742967,40.34055840226483],[46.10967372234186,40.329850827738504],[46.0704126157461,40.33460974974972],[46.031151509149545,40.34055840226483],[45.981182828026846,40.332230288742736],[45.94460491640929,40.32279730889874],[45.941035724900544,40.29424377682976],[45.962450873952754,40.24665455671217],[45.95531249093544,40.22999832967163],[45.964830334958585,40.20620371961288],[45.96007141294701,40.19668587559045],[45.958881682444094,40.14909665547384],[45.91605138433968,40.14195827245662],[45.90415407930982,40.13838908094654],[45.89939515729825,40.121732853905996],[45.90177461830408,40.091989591333025],[45.872031355731465,40.05510794574363],[45.81611402209437,39.98967276808348],[45.73402261739331,39.9932419595916],[45.650741482189424,39.9968111511007],[45.62284891150932,39.978304232166046],[45.70137112470243,39.95807881361631],[45.745391153309754,39.92595609003733],[45.79298037342663,39.87598740891463],[45.77751387688892,39.8700387564013],[45.750150075321415,39.874797678411625],[45.7489603448185,39.86052091237798],[45.78794237882783,39.84906424827566],[45.83077267693304,39.83597721274324],[45.87479270554046,39.81813125519871],[45.90810515962252,39.81813125519871],[45.93903815269796,39.83954640425234],[45.97473006778577,39.875238319339616],[46.00328359985538,39.90498158191258],[46.03659605393745,39.91330969543192],[46.09370311807675,39.89427400738626],[46.12820530266165,39.89784319889536],[46.18531236680175,39.90736104291868],[46.26502431049689,39.937104305491644],[46.32808002715157,39.969227029069735],[46.391135743806075,39.98231406460216],[46.437535233419325,39.99183190862548],[46.455381190963585,39.98588325611037],[46.45181199945413,39.97041675957185],[46.47910272353427,39.96658807951823],[46.526691943651144,39.964208618512224],[46.564763319744074,40.00465945561063],[46.59212712131156,40.01774649114394],[46.61354227036377,40.0391616401957],[46.62543957539283,40.04273083170391],[46.6575622989719,40.0391616401957],[46.68016717852711,40.04392056220692],[46.690874753053166,40.057007597740224],[46.70515151908806,40.055817867236335],[46.72775639864389,40.057007597740224],[46.7503612781991,40.057007597740224],[46.76106885272516,40.052248675727235],[46.797950498315885,40.055817867236335],[46.81460672535652,40.06295625025356],[46.8348321439059,40.08556112980931],[46.8836110945256,40.09507897383263],[46.9264413926309,40.137909271937126],[46.97165115174114,40.150996307470436],[47.06207066996323,40.18668822255674],[47.09895231555324,40.202154719094366],[47.13940315265271,40.21048283261548],[47.169146415225235,40.234277442673346],[47.220304826850764,40.25212340021787],[47.27265296897921,40.27591801027573],[47.3428470686512,40.273538549269716],[47.42969739536383,40.27115908826362],[47.497512034029995,40.273538549269716],[47.51593517678757,40.29058972114124],[47.509986524272996,40.295348643153346],[47.50549401831233,40.29579789374927]]]]}},{"type":"Feature","properties":{"kind":"district","id":"uyezd-1897-416","name":"Нухинский","provinceId":"gubernia-1897-64"},"geometry":{"type":"MultiPolygon","coordinates":[[[[48.24405024457209,41.05201724300694],[48.18575344992907,41.06272481753335],[48.131025846794884,41.06867347004757],[48.08105716567218,41.08057077507779],[48.035847406561935,41.09246808010721],[48.015621988012555,41.11150376815296],[48.00729387449153,41.142436761228936],[47.98706845594215,41.16623137128679],[47.9549457323638,41.173369754304105],[47.91925381727599,41.18764652034042],[47.88951055470337,41.22809735743793],[47.84073160408367,41.23285627945093],[47.80860888050532,41.21263086090039],[47.77767588742908,41.21263086090039],[47.73127639781512,41.244753584479454],[47.68725636920771,41.259030350514884],[47.637287688085095,41.241184392970354],[47.62776984406186,41.2209589744216],[47.56233466640144,41.21025139989527],[47.517124907290395,41.22928708794094],[47.481432992203295,41.23999466246824],[47.42075673655462,41.23761520146215],[47.37435724694067,41.267358464034224],[47.339855062356484,41.3042401096245],[47.337475601350654,41.341121755215674],[47.31011179978316,41.34944986873688],[47.28512745922221,41.35539852125021],[47.301783686262844,41.39584935835048],[47.262522579667085,41.411315854888024],[47.24824581363228,41.46366399701674],[47.222071742567614,41.48032022405728],[47.161395486918856,41.4398693869571],[47.10547815328246,41.412505585390136],[47.07097596869748,41.38276232281806],[47.03290459260384,41.366106095777425],[46.95795157092027,41.38157259231408],[46.9389158828739,41.354208790748096],[46.98293591148202,41.314947684151804],[46.92582884734192,41.30186064861938],[46.9103623508042,41.29115307409395],[46.902034237283885,41.26973792504032],[46.90560342879254,41.245943314981574],[46.927018577844834,41.22452816592981],[46.95676184041736,41.213820591404286],[46.955572109914534,41.20192328637407],[46.91274181181003,41.19478490335764],[46.90084450678097,41.16147244927468],[46.88061908823088,41.13172918670172],[46.861583400184415,41.1269702646905],[46.850875825658264,41.09960646312443],[46.90798288979837,41.098416732620535],[46.94724399639413,41.09008861910111],[46.986505102990684,41.08176050557999],[47.04837108914236,41.08176050557999],[47.08882192624103,41.050827512504824],[47.11856518881435,41.0413096684815],[47.155446834404366,41.034171285464275],[47.159016025913026,41.00085883138123],[47.17448252245154,40.98301287383857],[47.25657392715251,40.98182314333459],[47.281558267713464,40.98777179584978],[47.34342425386514,40.96516691629404],[47.36483940291743,40.94494149774528],[47.40410050951399,40.93542365372196],[47.44098215510392,40.91281877416622],[47.539729786846316,40.88545497259837],[47.57185251042467,40.89497281662169],[47.624200652553114,40.878316589581146],[47.67060014216716,40.890213894610476],[47.721758553791894,40.88545497259837],[47.78481427044648,40.86641928455262],[47.837162412574926,40.8557117100254],[47.87642351917148,40.84500413549996],[47.9204435477789,40.82953763896145],[47.945427888339765,40.83786575248266],[47.983499264433405,40.84381440499785],[48.00848360499435,40.872367937067814],[48.033467945556104,40.89616254712567],[48.062021477625805,40.93185446221286],[48.13340530780062,40.94970041975739],[48.15482045685283,40.97468476031736],[48.17861506691167,41.00918694490244],[48.20716859898136,41.028222632948186],[48.22977347853728,41.02941236345217],[48.24405024457209,41.05201724300694]]]]}},{"type":"Feature","properties":{"kind":"district","id":"uyezd-1897-779","name":"Джебраильский","provinceId":"gubernia-1897-64"},"geometry":{"type":"MultiPolygon","coordinates":[[[[47.803348743200004,39.62943768969399],[47.78066789372377,39.660827340268085],[47.75687328366503,39.67986302831473],[47.70809433304595,39.70246790787047],[47.68073053147846,39.7179344044089],[47.65336672991168,39.74410847547277],[47.637900233373955,39.759574972011286],[47.62481319784207,39.78336958206826],[47.67002295695231,39.83095880218575],[47.667643495946564,39.84880475972841],[47.63552077236821,39.85475341224361],[47.604587779291975,39.85832260375173],[47.55461909817008,39.86665071727294],[47.50940933905903,39.87378910029025],[47.47490715447414,39.883306944313574],[47.45230227491902,39.894014518839896],[47.42850766486089,39.89639397984591],[47.42136928184358,39.87497883079415],[47.42374874284931,39.855943142747506],[47.39281574977308,39.81906149715633],[47.34998545166867,39.7607647025134],[47.297637309540136,39.70603709937859],[47.26313512495524,39.67748356730863],[47.22387401835948,39.66201707077198],[47.19888967779774,39.65725814876076],[47.15843884069906,39.66915545378929],[47.07515770549517,39.646550574233544],[47.05850147845375,39.60847919814026],[47.04184525141311,39.60134081512295],[47.020430102360905,39.59896135411694],[46.99425603129704,39.59539216260784],[46.96332303822079,39.57992566607119],[46.92406193162505,39.57040782204787],[46.90390959056231,39.55401108355272],[46.89915066855065,39.5409240480203],[46.876545788995514,39.52545755148188],[46.83490522139323,39.52069862946977],[46.78850573177927,39.498093749915896],[46.726639745627494,39.46240183482861],[46.701655405066546,39.45883264331863],[46.690947830540495,39.44574560778621],[46.66120456796716,39.418381806220225],[46.68142998651726,39.36127474207932],[46.70522459657529,39.33748013202155],[46.726639745627494,39.30297794743639],[46.70998351858695,39.257768188325876],[46.73258839814207,39.22207627323958],[46.74686516417768,39.21612762072438],[46.755193277698,39.193522741169616],[46.7766084267502,39.184004897146295],[46.78612627077344,39.16853840060777],[46.83194980723724,39.14043890566819],[46.852754071370526,39.161873602047265],[46.87892814243476,39.164253063053366],[46.90748167450472,39.17734009858579],[46.964588738644466,39.165442793557254],[46.987193618200294,39.161873602047265],[47.0216958027851,39.17615036808269],[47.04786987384861,39.17615036808269],[47.05619798736912,39.19875524763755],[47.08713098044544,39.19637578663243],[47.09545909396513,39.216601205181185],[47.115684512515315,39.227308779708395],[47.1323407395555,39.26181096429356],[47.150186697099315,39.2689493473099],[47.17636076816355,39.312969375917405],[47.22276025777724,39.32605641144983],[47.26440082537971,39.32724614195283],[47.27986732191707,39.34628182999947],[47.30128247097008,39.35223048251369],[47.33578465555408,39.37602509257243],[47.354820343600636,39.396250511122176],[47.37028684013889,39.43432188721546],[47.39408145019746,39.467634341297526],[47.425014443272985,39.48667002934417],[47.469034471881116,39.51165436990503],[47.504726386968656,39.51879275292323],[47.52852099702652,39.51879275292323],[47.541608032559026,39.54020790197411],[47.58562806116636,39.549725745998316],[47.63202755078005,39.57233062555317],[47.67604757938808,39.57471008656007],[47.69151407592625,39.58779712209071],[47.76289790610062,39.597314966114034],[47.78550278565646,39.60802254064036],[47.803348743200004,39.62943768969399]]]]}},{"type":"Feature","properties":{"kind":"district","id":"uyezd-1897-780","name":"Шушинский","provinceId":"gubernia-1897-64"},"geometry":{"type":"MultiPolygon","coordinates":[[[[47.667643495946564,39.84880475972841],[47.664074304437854,39.87259936978811],[47.6676434959466,39.904722093367084],[47.6676434959466,39.94041400845437],[47.660505112929194,39.96658807951823],[47.63671050287116,40.03440271818457],[47.686679183993064,40.0843713993063],[47.74140678712725,40.13671954143501],[47.759252744670796,40.15932442098986],[47.74854517014465,40.183119031047724],[47.74735543964182,40.199775258088266],[47.739027326121416,40.228328790159125],[47.71404298556055,40.233087712171226],[47.719991638075044,40.209293102113364],[47.71166352455472,40.18668822255674],[47.691438106005435,40.180739570041624],[47.662884573935024,40.202154719094366],[47.660505112929194,40.224759598650024],[47.65455646041462,40.24022609518854],[47.65931538242628,40.25926178323518],[47.640279694379814,40.2616412442403],[47.631951580859585,40.23903636468456],[47.606967240297834,40.25688232222909],[47.595069935268775,40.24974393921186],[47.62005427582972,40.22238013764401],[47.604587779292004,40.19739579708404],[47.60815697080075,40.16884226501318],[47.59388020476586,40.15932442098986],[47.584362360742624,40.16527307350498],[47.586741821748454,40.17598064803041],[47.571275325210735,40.17598064803041],[47.555808828673015,40.183119031047724],[47.54986017615773,40.19620606658006],[47.51654772207646,40.19025741406672],[47.51654772207646,40.202154719094366],[47.53677314062584,40.216431485130684],[47.533203949117095,40.233087712171226],[47.51654772207646,40.25331313071999],[47.530824488111264,40.260451513737294],[47.541532062637415,40.260451513737294],[47.533203949117095,40.272348818767604],[47.497512034029995,40.273538549269716],[47.42969739536383,40.27115908826362],[47.3428470686512,40.273538549269716],[47.27265296897921,40.27591801027573],[47.220304826850764,40.25212340021787],[47.169146415225235,40.234277442673346],[47.13940315265271,40.21048283261548],[47.09895231555324,40.202154719094366],[47.06207066996323,40.18668822255674],[46.97165115174114,40.150996307470436],[46.9264413926309,40.137909271937126],[46.8836110945256,40.09507897383263],[46.8348321439059,40.08556112980931],[46.81460672535652,40.06295625025356],[46.797950498315885,40.055817867236335],[46.76106885272516,40.052248675727235],[46.7503612781991,40.057007597740224],[46.72775639864389,40.057007597740224],[46.70515151908806,40.055817867236335],[46.690874753053166,40.057007597740224],[46.68016717852711,40.04392056220692],[46.6575622989719,40.0391616401957],[46.62543957539283,40.04273083170391],[46.61354227036377,40.0391616401957],[46.59212712131156,40.01774649114394],[46.564763319744074,40.00465945561063],[46.526691943651144,39.964208618512224],[46.47910272353427,39.96658807951823],[46.45181199945413,39.97041675957185],[46.45181199945413,39.958519454542525],[46.48512445353611,39.952570802029186],[46.50534987208549,39.93829403599376],[46.51010879409715,39.90736104291868],[46.55055963119653,39.881186971854724],[46.57316451075165,39.789577723128744],[46.57197478024874,39.75983446055578],[46.62789211388593,39.727711736977696],[46.66358402897303,39.70391712691983],[46.708793788084066,39.69439928289651],[46.73496785914873,39.67417386434678],[46.744485703171875,39.63610248825349],[46.73615758965156,39.61111814769174],[46.777798157253144,39.569477580089355],[46.8099208808323,39.565908388582116],[46.85037171793097,39.55282135304881],[46.870597136480264,39.54925216153971],[46.90390959056231,39.55401108355272],[46.92406193162505,39.57040782204787],[46.96332303822079,39.57992566607119],[46.99425603129704,39.59539216260784],[47.020430102360905,39.59896135411694],[47.04184525141311,39.60134081512295],[47.05850147845375,39.60847919814026],[47.07515770549517,39.646550574233544],[47.15843884069906,39.66915545378929],[47.19888967779774,39.65725814876076],[47.22387401835948,39.66201707077198],[47.26313512495524,39.67748356730863],[47.297637309540136,39.70603709937859],[47.34998545166867,39.7607647025134],[47.39281574977308,39.81906149715633],[47.42374874284931,39.855943142747506],[47.42136928184358,39.87497883079415],[47.42850766486089,39.89639397984591],[47.45230227491902,39.894014518839896],[47.47490715447414,39.883306944313574],[47.50940933905903,39.87378910029025],[47.55461909817008,39.86665071727294],[47.604587779291975,39.85832260375173],[47.63552077236821,39.85475341224361],[47.667643495946564,39.84880475972841]]]]}}]}
