{"type":"FeatureCollection","features":[{"type":"Feature","properties":{"kind":"province","id":"gubernia-1897-95","name":"Нюландская губерния"},"geometry":{"type":"MultiPolygon","coordinates":[[[[26.477793337724545,60.48692374061007],[26.482800528662867,60.50828306833951],[26.4887491811778,60.534457139402484],[26.507784869224352,60.538026330911585],[26.516112982744314,60.56301067147245],[26.53871786229997,60.57252851549577],[26.574409777387245,60.5868052815312],[26.624378458510215,60.60346150857272],[26.66126010410005,60.60465123907572],[26.70171094119979,60.58561555102908],[26.731454203772046,60.57490797650276],[26.75524881383026,60.57371824599975],[26.788561267912506,60.58204635951909],[26.789750998415066,60.599892317062725],[26.764766657853492,60.620117735612375],[26.76238719684775,60.63915342365902],[26.780233154391745,60.65461992019753],[26.81949426098821,60.64748153717933],[26.840909410040506,60.64867126768234],[26.826632644005613,60.66651722522687],[26.832581296519834,60.6772247997523],[26.80640722545579,60.69507075729683],[26.8028380339474,60.72957294188199],[26.782612615397575,60.743849707916524],[26.767146118859323,60.7676443179743],[26.767146118859323,60.78786973652306],[26.745730969807028,60.79976704155247],[26.738592586789537,60.819992460103094],[26.673157409129114,60.83307949563454],[26.60058384845129,60.84735626166908],[26.619619536498643,60.86639194971572],[26.635086033036096,60.88185844625416],[26.670777948123373,60.88423790725936],[26.682675253152436,60.89851467329568],[26.662449834603322,60.911601708827206],[26.642224416053498,60.911601708827206],[26.612481153480353,60.916360630838426],[26.59939411794873,60.9508628154235],[26.580358429902176,60.96632931196193],[26.588686543422227,60.992503383024996],[26.630327111024435,61.00678014906131],[26.638655224545108,61.05317963867491],[26.71241851572558,61.080543440240895],[26.7540590833277,61.10909697231086],[26.742161778298637,61.14597861790203],[26.6945725581815,61.19356783801864],[26.641034685550938,61.2649516681931],[26.531579479282566,61.260192746181886],[26.462575110113043,61.24948517165467],[26.38881181893266,61.18048080248532],[26.39595020195015,61.15787592293047],[26.419744812008275,61.14954780941024],[26.480421067657037,61.11742508583117],[26.49945675570359,61.087681823259096],[26.467334032125414,61.069835865714566],[26.426883195025766,61.072215326721555],[26.363827478371086,61.09957912828754],[26.380483705411898,61.110286702813866],[26.353119903845293,61.1281326603575],[26.326945832781337,61.15192727041536],[26.294823109202362,61.15787592293047],[26.248820196422976,61.12654635301983],[26.097724422552307,61.14201284955827],[26.072740081991622,61.12892581402593],[26.06842180090682,61.09059005337707],[26.105303446497455,61.07631328734164],[26.155272127619625,61.043000833260464],[26.13385697856724,60.99065269113264],[26.119580212532348,60.97280673358909],[26.099354793982435,60.98232457761241],[26.07556018392431,60.970427272582995],[26.07080126191265,60.93235589648971],[26.098165063479964,60.92402778296939],[26.188584581701072,60.91807913045339],[26.150513205607965,60.894284520396425],[26.117200751526518,60.89190505938944],[26.119580212532348,60.87524883234978],[26.093406141468392,60.853833683297125],[26.07318072291848,60.876438562851895],[26.060093687386146,60.896663981401545],[26.013694197773077,60.90261263391674],[25.994658509725724,60.885956406875216],[25.96848443866168,60.8835769458701],[25.950638481118396,60.89785371190463],[25.948259020112566,60.876438562851895],[25.880444381446402,60.88238721536709],[25.810250281774408,60.878818023857015],[25.782886480207004,60.88119748486311],[25.788835132721225,60.896663981401545],[25.780507019201174,60.90856128643007],[25.753143217633948,60.90023317290975],[25.746004834616457,60.90975101693307],[25.723399955061602,60.92164832196338],[25.736486990593225,60.93949427950604],[25.70317453651169,60.937114818500035],[25.677000465447733,60.95496077604456],[25.59847825225489,60.94544293202124],[25.61037555728404,60.91688939995127],[25.625842053822204,60.8835769458701],[25.60680636577565,60.87167964083979],[25.523525230571234,60.8835769458701],[25.50448954252468,60.874059101846775],[25.467607896934133,60.88119748486311],[25.423587868326806,60.85978233581037],[25.378378109215497,60.87167964083979],[25.359342421168943,60.851454222290144],[25.45095166989341,60.812193115693766],[25.460469513916642,60.790777966642004],[25.436674903858428,60.777690931110556],[25.39265487525039,60.74437847702938],[25.279630477473628,60.736050363507196],[25.273681824959496,60.77293200909934],[25.23798990987142,60.788398505635996],[25.211815838807464,60.80624446318052],[25.197539072772482,60.82646988173017],[25.18207257623503,60.824090420724076],[25.195159611766652,60.84193637826682],[25.172554732211797,60.84193637826682],[25.159467696679375,60.82290069022018],[25.148760122152783,60.82528015122716],[25.14043200863282,60.820521229214975],[25.13567308662116,60.812193115693766],[25.095174921422206,60.80818165125581],[25.132056567012665,60.77130000566552],[25.082087885890584,60.75702323962921],[25.036878126779186,60.73322862957136],[25.05353435381991,60.71895186353593],[25.10231330443961,60.73084916856624],[25.11540033997203,60.71895186353593],[25.074949502873093,60.69753671448407],[25.10588249594871,60.640429650345126],[25.076139233375564,60.621393962298484],[25.038067857282456,60.59997881324486],[25.019032169235903,60.57023555067189],[25.00951432521267,60.51074902552587],[24.999996481189438,60.51312848653285],[24.944079147552248,60.567856089665796],[24.89411046642928,60.60473773525696],[24.84414178530711,60.642809111350246],[24.73825577054775,60.65589614688178],[24.654974635343333,60.66898318241509],[24.597867571203672,60.6654139909051],[24.571693500139627,60.642809111350246],[24.562175656116395,60.627342614811816],[24.547898890081502,60.61425557928028],[24.565744847624785,60.60473773525696],[24.576452422151288,60.582132855702106],[24.54313996806984,60.547630671117034],[24.495550747952702,60.52978471357251],[24.43487449230394,60.54049228809883],[24.402751768725764,60.557148515140355],[24.38014688917011,60.57142528117578],[24.412269612748997,60.58094312519822],[24.38133661967338,60.59640962173664],[24.33374739955624,60.6166350402854],[24.27783006591914,60.58570204721032],[24.28139925742824,60.57142528117578],[24.249276533849265,60.566666359163676],[24.236189498317643,60.58689177771332],[24.210015427252888,60.60116854374875],[24.183841356188843,60.622583692801484],[24.107698604002717,60.627342614811816],[24.050723732140447,60.62231930824413],[24.01265235604734,60.62350903874713],[23.95197610039849,60.63897553528565],[23.90319714977879,60.64135499629166],[23.885351192235596,60.63778580478167],[23.872264156703174,60.61993984723901],[23.873453887206534,60.60566308120359],[23.918663646317043,60.59257604567205],[23.874643617709005,60.55331493907576],[23.811587901054413,60.5247614070058],[23.833003050106797,60.499777066444935],[23.777085716470406,60.48312083940341],[23.734379740760684,60.47642908132544],[23.699877556175878,60.44549608824947],[23.753415428807237,60.44192689674037],[23.781968960877023,60.42646040020283],[23.77483057785962,60.410993903664306],[23.745087315286476,60.38957875461254],[23.736589906041964,60.37986742976222],[23.71177486120503,60.35150737851926],[23.677272676620223,60.324143576953276],[23.61659642097155,60.28964139236723],[23.626114264995582,60.27655435683481],[23.61064776845733,60.24800082476573],[23.623734803989752,60.22896513671909],[23.648719144550437,60.21349864018066],[23.630873187007154,60.1897040301228],[23.55354070431767,60.20279106565434],[23.524987172247084,60.1897040301228],[23.497623370680568,60.16234022855584],[23.40839358296202,60.158771037047714],[23.371511937371384,60.158771037047714],[23.335820022284107,60.1433045405092],[23.30488702920769,60.17780672509436],[23.233503199033137,60.14449427101131],[23.20019074495169,60.12188939145655],[23.13951448930284,60.087387206871384],[23.064561467619185,60.07905909335116],[23.03838739655523,60.08262828486026],[23.028656291046193,60.091412171917],[23.008930028268374,60.09042585877793],[23.00991634140727,60.08352166680557],[22.989203765490288,60.07464484855605],[23.002025836296284,60.05590489891614],[23.03062891732354,60.05886383833416],[23.0533141195184,60.05097333322193],[23.06416356404563,60.041110201833334],[23.08290351368464,60.04900070694565],[23.101643463323654,60.04801439380569],[23.127287604934757,60.05294595949999],[23.14602755457297,60.05886383833416],[23.17068538304509,60.06182277775129],[23.204220029767267,60.0628090908885],[23.228877858239297,60.0568912120561],[23.25649462612837,60.053932272639955],[23.23380942393422,60.03519232300005],[23.226905231962128,60.01645237336193],[23.190411645823087,60.00264398941721],[23.129260231211926,59.98982191861157],[23.10756134215676,59.983904039779176],[23.103616089601623,59.97502722152778],[23.105588715878792,59.96417777700118],[23.096711897628822,59.942478887945036],[23.10756134215676,59.929656817139396],[23.12531497865679,59.93064313027936],[23.14800018085094,59.936561009111756],[23.158849625378878,59.95135570619545],[23.171671696184074,59.941492574806944],[23.185480080128965,59.942478887945036],[23.19139795896207,59.95628727188975],[23.19830215093416,59.96615040327924],[23.219014726851054,59.95628727188975],[23.234795737073203,59.943465201085],[23.255508312989384,59.9483967667793],[23.262412504961386,59.941492574806944],[23.237754676489356,59.929656817139396],[23.223946292545175,59.91584843319557],[23.187452706406134,59.90401267552892],[23.171671696184074,59.89020429158518],[23.14602755457297,59.88527272589088],[23.119397099823683,59.88527272589088],[23.07599932171255,59.87540959450139],[23.0010395231573,59.85173807916719],[22.96257331074109,59.84286126091864],[22.925093411463063,59.823134998140645],[22.916216593213004,59.81524449302921],[22.95369649249103,59.81425817989112],[23.002025836296284,59.8201760587244],[23.025697351629418,59.823134998140645],[23.0464099275456,59.822148685000684],[23.06909512974055,59.822148685000684],[23.08684876623978,59.82806656383485],[23.106575029017776,59.824121311278745],[23.150959120267892,59.82708025069489],[23.181534827573028,59.83299812952916],[23.197315837795177,59.82708025069489],[23.21408316115622,59.83003919011291],[23.228877858239297,59.83201181639106],[23.257480939267264,59.84286126091864],[23.248604121017294,59.85666964486149],[23.22986417137828,59.86850540252904],[23.228877858239297,59.882313786472864],[23.25649462612837,59.894149544139516],[23.2998924042395,59.905985301807064],[23.350194374322633,59.923738938307],[23.390633213016812,59.93360206969551],[23.40641422323896,59.95431464561169],[23.43107205171099,59.95825989816781],[23.46460669843317,59.95431464561169],[23.497155032016273,59.95135570619545],[23.497155032016273,59.93853363538981],[23.495182405738305,59.92768419086134],[23.51688129479356,59.92571156458506],[23.55929275976562,59.924725251445096],[23.599731598459798,59.923738938307],[23.657924073654094,59.924725251445096],[23.705267104321074,59.924725251445096],[23.737815437904267,59.924725251445096],[23.725979680237344,59.9375473222526],[23.685540841543165,59.94445151422309],[23.68652715468215,59.953328332473504],[23.70921235687621,59.959246211305995],[23.750637508709463,59.959246211305995],[23.77726796345946,59.96417777700118],[23.771350084626356,59.96910934269539],[23.784172155431552,59.971081968973536],[23.829542559819853,59.972068282111636],[23.851241448875818,59.982917726639215],[23.876885590486832,59.992780858027814],[23.89661185326412,59.992780858027814],[23.906474984653073,60.00264398941721],[23.925214934292086,60.005602928833454],[23.92620124743107,59.99672611058393],[23.9439548839311,59.995739797445836],[23.963681146708385,59.995739797445836],[23.958749581014263,60.00461661569527],[23.969599025541402,60.01546606022197],[23.984393722625278,60.02039762591626],[24.01003786423638,60.02730181788951],[24.0346956927085,60.02730181788951],[24.061326147457788,60.02730181788951],[24.07513453140268,60.024342878473355],[24.09781973359683,60.024342878473355],[24.11360074381889,60.02828813102769],[24.13234069345799,60.03815126241621],[24.142203824846945,60.04406914124958],[24.153053269374084,60.03815126241621],[24.180670037263155,60.03223338358381],[24.20434155259629,60.031247070445716],[24.200396300041152,60.03815126241621],[24.18658791609626,60.04801439380569],[24.191519481791094,60.0578775251942],[24.208286805152227,60.0568912120561],[24.22899938106841,60.05294595949999],[24.2384147924292,60.049261668097984],[24.25168458326256,60.04406914124958],[24.28127397742951,60.047028080667594],[24.30395917962366,60.05491858577805],[24.31974018984572,60.06083646461133],[24.306918119040613,60.06971328286174],[24.301000240206797,60.08154904052751],[24.318753876706737,60.08845323249987],[24.347356957734792,60.093384798194165],[24.364124281095837,60.093384798194165],[24.374973725623065,60.07563116169423],[24.37398741248408,60.0628090908885],[24.357220089123036,60.047028080667594],[24.34932958401196,60.03617863613992],[24.329603321234764,60.02631550474955],[24.317767563567752,60.01349343394577],[24.32861700809578,60.010534494527754],[24.345384331456824,60.02237025219432],[24.364124281095837,60.029274444167655],[24.377932665040017,60.02138393905712],[24.393713675262077,60.02138393905712],[24.40554943292909,60.03716494927811],[24.418371503734196,60.03716494927811],[24.42823463512315,60.04604176752763],[24.4440156453453,60.05195964636181],[24.462755594984312,60.0578775251942],[24.476563978928404,60.07365853541609],[24.48050923148434,60.08450797994553],[24.490372362872495,60.09634373761219],[24.504180746817475,60.08845323249987],[24.497276554844586,60.077603787972286],[24.48248185776151,60.066754343445595],[24.48248185776151,60.05294595949999],[24.46867347381733,60.04604176752763],[24.455851403011422,60.04012388869426],[24.470646100095298,60.03420600986186],[24.45782402928939,60.029274444167655],[24.427248321984166,60.01349343394577],[24.417385190595212,59.99869873686198],[24.3986452409562,59.98982191861157],[24.415412564317243,59.97995878722209],[24.434152513956256,59.97699984780593],[24.451906150456285,59.984890352917276],[24.436125140234225,59.99179454488963],[24.443029332206315,59.99968505000008],[24.45979665556736,59.99968505000008],[24.47557766578942,59.99376717116769],[24.478536605206372,60.006589241973415],[24.49135867601148,60.005602928833454],[24.508125999372613,60.01349343394577],[24.528838575289505,60.024342878473355],[24.5416606460947,60.02532919161145],[24.551523777483744,60.02828813102769],[24.544619585511654,60.043082828111395],[24.56631847456682,60.04998702008375],[24.572236353399926,60.06182277775129],[24.58900367676097,60.07365853541609],[24.605771000122015,60.078590101113136],[24.616620444650042,60.08352166680557],[24.607743626399984,60.09239848505598],[24.580126858511,60.095357424472226],[24.583085797927865,60.100288990166526],[24.607743626399984,60.10423424272175],[24.623524636622044,60.11015212155593],[24.64522352567801,60.10916580841605],[24.646209838816194,60.12691944491599],[24.632401454872102,60.13875520258256],[24.616620444650042,60.155522525944406],[24.631415141733118,60.158481465360644],[24.65410034392727,60.14565939455589],[24.675799232983234,60.13974151572252],[24.687634990649357,60.12396050549975],[24.7044023140104,60.11607000038832],[24.732019081899473,60.12198787922347],[24.76259478920461,60.129878384334006],[24.79021155709368,60.13875520258256],[24.813883072426815,60.14960464711014],[24.822759890676874,60.15946777850051],[24.83755458775995,60.171303536166285],[24.854321911121083,60.176235101860584],[24.848404032287977,60.190043485806186],[24.854321911121083,60.20582449602807],[24.86714398192708,60.20483818288811],[24.877007113315145,60.19300242522234],[24.879966052732097,60.168344596750046],[24.88292499214905,60.154536212806306],[24.897719689232126,60.14960464711014],[24.917445952010123,60.15946777850051],[24.93026802281532,60.15749515222246],[24.95788479070439,60.151577273388284],[24.983528932315405,60.1565088390825],[24.98648787173156,60.1801803544167],[24.99141943742648,60.19300242522234],[25.010159387064693,60.202865556611826],[25.039748781231644,60.202865556611826],[25.08413287248096,60.200892930332884],[25.109777014092064,60.19892030405482],[25.12062645862009,60.18215298069573],[25.143311660814152,60.191029798944285],[25.151202165925227,60.191029798944285],[25.153174792203195,60.178207728138645],[25.18375049950842,60.176235101860584],[25.195586257175343,60.187084546388164],[25.198545196591496,60.1999066171947],[25.195586257175343,60.21864656683282],[25.19065469148042,60.22752338508235],[25.1788189338143,60.23935914274891],[25.1788189338143,60.25218121355464],[25.188682065203253,60.25218121355464],[25.196572570314327,60.241331769027056],[25.212353580536387,60.241331769027056],[25.226161964480568,60.259085405527],[25.23997034842466,60.259085405527],[25.252792419230566,60.25809909238882],[25.266600803174747,60.25020858727659],[25.28040918711884,60.24724964786034],[25.30112176303582,60.249222274138404],[25.32380696522997,60.25020858727659],[25.338601662313046,60.254153839832696],[25.35734161195206,60.254153839832696],[25.35339635939692,60.26204434494315],[25.33761534917486,60.26993485005458],[25.331697470341044,60.28078429458306],[25.351423733118953,60.272893789470736],[25.370163682758054,60.26697591063834],[25.37805418786904,60.26401697122121],[25.40271201634116,60.26401697122121],[25.404684642618328,60.253167526694604],[25.404684642618328,60.244290708443216],[25.42342459225734,60.246263334722244],[25.442164541896354,60.24527702158228],[25.45695923897952,60.24527702158228],[25.473726562340563,60.242318082166044],[25.482603380590533,60.25218121355464],[25.49838439081268,60.248235961000304],[25.524028532423696,60.253167526694604],[25.539809542645845,60.25612646611076],[25.542768482062797,60.26796222377652],[25.553617926589936,60.276839042026936],[25.553617926589936,60.282756920862084],[25.539809542645845,60.28078429458306],[25.530932724395786,60.28472954713739],[25.535864290090707,60.29360636538878],[25.552631613450952,60.295578991666844],[25.566439997395932,60.30051055736105],[25.55953580542384,60.314318941304876],[25.541782168923813,60.314318941304876],[25.524028532423696,60.32122313327723],[25.536850603228892,60.33009995152676],[25.544741108339966,60.347853588026695],[25.562494744839995,60.33108626466672],[25.583207320756976,60.335031517221054],[25.594056765284115,60.32615469897064],[25.604906209812142,60.30642843619442],[25.614769341201097,60.30544212305446],[25.623646159451066,60.30445580991539],[25.61772828061805,60.31530525444306],[25.61772828061805,60.325168385832455],[25.625618785729035,60.33108626466672],[25.63548191711728,60.319250506999175],[25.652249240478323,60.33108626466672],[25.667043937562287,60.349826214304755],[25.670989190117425,60.36264828510951],[25.68775651347847,60.36560722452664],[25.688742826617364,60.359689345693354],[25.713400655089572,60.360675658831454],[25.738058483561602,60.3517988405829],[25.758771059477784,60.341935709193415],[25.768634190866827,60.32911363838866],[25.7577847463396,60.325168385832455],[25.745948988672676,60.32911363838866],[25.736085857283722,60.327141012110516],[25.74693530181166,60.32122313327723],[25.756798433200615,60.31037368874876],[25.7765246959779,60.30642843619442],[25.79625095875581,60.30741474933252],[25.81203196897796,60.30840106247071],[25.826826666061034,60.299524244221175],[25.838662423728046,60.28768848655452],[25.86233393906109,60.278811668304996],[25.877128636144256,60.28078429458306],[25.87811494928324,60.26105803180506],[25.879101262422225,60.24724964786034],[25.891923333227332,60.237386516470856],[25.913622222283298,60.237386516470856],[25.928416919366374,60.237386516470856],[25.915594848560467,60.246263334722244],[25.921512727394372,60.25809909238882],[25.912635909144313,60.259085405527],[25.917567474838435,60.2689485369164],[25.912635909144313,60.27190747633264],[25.90277277775527,60.28078429458306],[25.90474540403324,60.28768848655452],[25.912635909144313,60.29755161794303],[25.910663282866345,60.30642843619442],[25.892909646366316,60.31530525444306],[25.883046514977362,60.32319575955627],[25.872197070450135,60.332072577804816],[25.886005454394315,60.337004143499115],[25.906718030311207,60.332072577804816],[25.91658116169945,60.337004143499115],[25.919540101116404,60.347853588026695],[25.913622222283298,60.361661971971415],[25.89784121206115,60.374484042777055],[25.886005454394315,60.38533348730375],[25.86627919161623,60.40012818438753],[25.868251817894198,60.40900500263706],[25.884032828116347,60.401114497527495],[25.906718030311207,60.39618293183133],[25.92545797994942,60.3764566690552],[25.94123899017157,60.35673040627711],[25.945226693674265,60.34984255477222],[25.952088434699597,60.337990456637215],[25.959978939810583,60.325168385832455],[25.97477363689366,60.31037368874876],[25.973787323754674,60.299524244221175],[25.97280101061649,60.29459267852688],[25.952088434699597,60.29262005224882],[25.949129495282644,60.28768848655452],[25.937293737616432,60.28078429458306],[25.952088434699597,60.255140152970796],[25.983650455143717,60.254153839832696],[26.006335657337868,60.25711277924894],[26.014226162449653,60.26204434494315],[26.007321970476852,60.272893789470736],[26.02507560697688,60.28177060772124],[26.02704823325485,60.296565304804936],[26.030007172671713,60.31037368874876],[26.0112672230327,60.32615469897064],[26.00041777850476,60.33108626466672],[25.98858202083864,60.33108626466672],[25.973787323754674,60.34094939605523],[25.9658968186436,60.34390833547147],[25.973787323754674,60.35081252744294],[25.99548621281064,60.35377146686096],[26.007321970476852,60.34588096174864],[26.030007172671713,60.332072577804816],[26.041842930337925,60.31530525444306],[26.049733435449,60.30051055736105],[26.068473385087923,60.29360636538878],[26.08622702158804,60.301496870499236],[26.104966971226254,60.295578991666844],[26.128638486560188,60.30840106247071],[26.12469323400425,60.31826419386108],[26.114830102615297,60.336017830361016],[26.102994344949085,60.337004143499115],[26.096090152976995,60.347853588026695],[26.069459698226908,60.359689345693354],[26.048747122310015,60.36955247708284],[26.031979798948882,60.37349772963718],[26.019157728143774,60.38040192160945],[26.012253536171684,60.39815555810948],[26.00929459675482,60.419854447165534],[26.005349344199594,60.42873126541505],[25.99351358653267,60.438594396803566],[25.96786944492157,60.438594396803566],[25.959978939810583,60.45437540702545],[25.945184242727507,60.4701564172492],[25.935321111338464,60.47706060922155],[25.953074747838492,60.48199217491576],[25.982664142004733,60.47508798294341],[26.0112672230327,60.45240278074925],[26.046774496032846,60.42774495227696],[26.066500758810044,60.41590919460941],[26.09510383983801,60.40999131577702],[26.121734294587387,60.397169244971295],[26.1473784361984,60.39322399241517],[26.17203626467052,60.390265052998934],[26.193735153726486,60.395196618693234],[26.19669409314264,60.40604606322081],[26.223324547892727,60.401114497527495],[26.25587288147583,60.39223767927699],[26.28250333622592,60.384347174165654],[26.29138015447589,60.384347174165654],[26.292366467614873,60.39618293183133],[26.311106417253086,60.401114497527495],[26.324914801198066,60.390265052998934],[26.34858631653111,60.371525103360895],[26.37324414500323,60.366593537664826],[26.390011468364364,60.367579850804695],[26.405792478586424,60.367579850804695],[26.383107276392273,60.38040192160945],[26.370285205586278,60.38631980044282],[26.355490508503202,60.39223767927699],[26.372257831864246,60.397169244971295],[26.403819852308455,60.397169244971295],[26.43834081216953,60.39914187124935],[26.45412182239159,60.39223767927699],[26.466943893197584,60.37842929533139],[26.47088914575272,60.384347174165654],[26.469902832613737,60.397169244971295],[26.471875458891706,60.40999131577702],[26.46102601436368,60.412950255193174],[26.448203943558482,60.41689550774929],[26.455108135530573,60.426758639137],[26.466943893197584,60.43958070994353],[26.4659575800586,60.45437540702545],[26.46398495378063,60.46917010410924],[26.466943893197584,60.482978488053945],[26.477793337724545,60.48692374061007]]]]}},{"type":"Feature","properties":{"kind":"district","id":"uyezd-1897-19","name":"Лоиоский","provinceId":"gubernia-1897-95"},"geometry":{"type":"MultiPolygon","coordinates":[[[[23.736589906041964,60.37986742976222],[23.792026707902206,60.37820586668656],[23.81939050946952,60.368688022663235],[23.86816946008922,60.366308561658116],[23.897912722661566,60.33775502958815],[23.845564580533566,60.31871934154151],[23.882446226124113,60.283027426453344],[23.840805658521905,60.26518146891158],[23.838426197516075,60.23781766734186],[23.839615928019434,60.215212787787095],[23.850323502545226,60.20450521326068],[23.831287814498673,60.18309006420892],[23.825339161983653,60.160485184654064],[23.855082424556887,60.156915993144075],[23.92289706322305,60.16286464565927],[23.96334790032199,60.145018688114746],[23.97762466635688,60.1319316525841],[24.01926523395909,60.13312138308622],[24.052577688040625,60.14977761012774],[24.103736099666065,60.14382895761263],[24.106115560671896,60.11765488654778],[24.145376667268273,60.09980892900602],[24.169171277326488,60.09148081548481],[24.197724809396274,60.07601431894629],[24.23341672448435,60.062927283414844],[24.2384147924292,60.049261668097984],[24.25168458326256,60.04406914124958],[24.28127397742951,60.047028080667594],[24.30395917962366,60.05491858577805],[24.31974018984572,60.06083646461133],[24.306918119040613,60.06971328286174],[24.301000240206797,60.08154904052751],[24.318753876706737,60.08845323249987],[24.347356957734792,60.093384798194165],[24.364124281095837,60.093384798194165],[24.374973725623065,60.07563116169423],[24.37398741248408,60.0628090908885],[24.357220089123036,60.047028080667594],[24.34932958401196,60.03617863613992],[24.329603321234764,60.02631550474955],[24.317767563567752,60.01349343394577],[24.32861700809578,60.010534494527754],[24.345384331456824,60.02237025219432],[24.364124281095837,60.029274444167655],[24.377932665040017,60.02138393905712],[24.393713675262077,60.02138393905712],[24.40554943292909,60.03716494927811],[24.418371503734196,60.03716494927811],[24.42823463512315,60.04604176752763],[24.4440156453453,60.05195964636181],[24.462755594984312,60.0578775251942],[24.476563978928404,60.07365853541609],[24.48050923148434,60.08450797994553],[24.490372362872495,60.09634373761219],[24.504180746817475,60.08845323249987],[24.497276554844586,60.077603787972286],[24.48248185776151,60.066754343445595],[24.48248185776151,60.05294595949999],[24.46867347381733,60.04604176752763],[24.455851403011422,60.04012388869426],[24.470646100095298,60.03420600986186],[24.45782402928939,60.029274444167655],[24.427248321984166,60.01349343394577],[24.417385190595212,59.99869873686198],[24.3986452409562,59.98982191861157],[24.415412564317243,59.97995878722209],[24.434152513956256,59.97699984780593],[24.451906150456285,59.984890352917276],[24.436125140234225,59.99179454488963],[24.443029332206315,59.99968505000008],[24.45979665556736,59.99968505000008],[24.47557766578942,59.99376717116769],[24.478536605206372,60.006589241973415],[24.49135867601148,60.005602928833454],[24.508125999372613,60.01349343394577],[24.528838575289505,60.024342878473355],[24.5416606460947,60.02532919161145],[24.551523777483744,60.02828813102769],[24.544619585511654,60.043082828111395],[24.56631847456682,60.04998702008375],[24.572236353399926,60.06182277775129],[24.58900367676097,60.07365853541609],[24.605771000122015,60.078590101113136],[24.616620444650042,60.08352166680557],[24.607743626399984,60.09239848505598],[24.580126858511,60.095357424472226],[24.583085797927865,60.100288990166526],[24.607743626399984,60.10423424272175],[24.623524636622044,60.11015212155593],[24.64522352567801,60.10916580841605],[24.646209838816194,60.12691944491599],[24.632401454872102,60.13875520258256],[24.616620444650042,60.155522525944406],[24.631415141733118,60.158481465360644],[24.65410034392727,60.14565939455589],[24.675799232983234,60.13974151572252],[24.687634990649357,60.12396050549975],[24.7044023140104,60.11607000038832],[24.732019081899473,60.12198787922347],[24.76259478920461,60.129878384334006],[24.79021155709368,60.13875520258256],[24.813883072426815,60.14960464711014],[24.822759890676874,60.15946777850051],[24.83755458775995,60.171303536166285],[24.854321911121083,60.176235101860584],[24.848404032287977,60.190043485806186],[24.854321911121083,60.20582449602807],[24.86714398192708,60.20483818288811],[24.866353352035212,60.22473063181042],[24.85445604700615,60.24495605036006],[24.81519494040977,60.24495605036006],[24.784261947334155,60.25447389438338],[24.766415989790072,60.27469931293392],[24.771174911801733,60.312770689026316],[24.75332895425845,60.34132422109628],[24.70930892565041,60.356790717634794],[24.65815051402497,60.36749829216112],[24.584387222843787,60.388913441212885],[24.568920726306335,60.41627724278074],[24.573679648317995,60.448399966358906],[24.55464396027144,60.45791781038223],[24.522521236692466,60.475763767925784],[24.54512611624812,60.50431729999575],[24.587956414352888,60.51145568301395],[24.621268868434335,60.51026595251005],[24.635545634469317,60.519783796533375],[24.60223318038778,60.550716789610235],[24.576452422151323,60.58213285570214],[24.543139968069877,60.547630671117076],[24.495550747952738,60.529784713572546],[24.434874492303976,60.540492288098875],[24.4027517687258,60.5571485151404],[24.380146889170145,60.57142528117582],[24.412269612749032,60.58094312519825],[24.381336619673416,60.59640962173668],[24.333747399556277,60.616635040285445],[24.277830065919176,60.58570204721036],[24.281399257428276,60.57142528117582],[24.2492765338493,60.56666635916372],[24.236189498317678,60.58689177771336],[24.210015427252923,60.601168543748784],[24.18384135618888,60.62258369280153],[24.107698604002753,60.62734261481185],[24.050723732140483,60.62231930824417],[24.012652356047376,60.62350903874717],[23.951976100398525,60.638975535285695],[23.903197149778826,60.641354996291696],[23.885351192235632,60.637785804781714],[23.87226415670321,60.61993984723905],[23.87345388720657,60.60566308120362],[23.91866364631708,60.59257604567209],[23.87464361770904,60.553314939075804],[23.81158790105445,60.52476140700584],[23.833003050106832,60.49977706644498],[23.77708571647044,60.483120839403455],[23.73437974076072,60.47642908132548],[23.699877556175913,60.44549608824951],[23.753415428807273,60.44192689674041],[23.78196896087706,60.42646040020287],[23.774830577859657,60.41099390366435],[23.74508731528651,60.389578754612586],[23.736589906041964,60.37986742976222]]]]}},{"type":"Feature","properties":{"kind":"district","id":"uyezd-1897-559","name":"Разеборгский уезд","provinceId":"gubernia-1897-95"},"geometry":{"type":"MultiPolygon","coordinates":[[[[24.2384147924292,60.049261668097984],[24.23341672448435,60.062927283414844],[24.197724809396274,60.07601431894629],[24.169171277326488,60.09148081548481],[24.145376667268273,60.09980892900602],[24.106115560671896,60.11765488654778],[24.103736099666065,60.14382895761263],[24.052577688040625,60.14977761012774],[24.01926523395909,60.13312138308622],[23.97762466635688,60.1319316525841],[23.96334790032199,60.145018688114746],[23.92289706322305,60.16286464565927],[23.855082424556887,60.156915993144075],[23.825339161983653,60.160485184654064],[23.831287814498673,60.18309006420892],[23.850323502545226,60.20450521326068],[23.839615928019434,60.215212787787095],[23.838426197516075,60.23781766734186],[23.840805658521905,60.26518146891158],[23.882446226124113,60.283027426453344],[23.845564580533566,60.31871934154151],[23.897912722661566,60.33775502958815],[23.86816946008922,60.366308561658116],[23.81939050946952,60.368688022663235],[23.792026707902206,60.37820586668656],[23.736589906041964,60.37986742976222],[23.711774861205065,60.3515073785193],[23.67727267662026,60.32414357695332],[23.616596420971586,60.28964139236727],[23.626114264995618,60.27655435683485],[23.610647768457365,60.24800082476577],[23.623734803989787,60.228965136719125],[23.648719144550473,60.2134986401807],[23.63087318700719,60.18970403012284],[23.553540704317705,60.202791065654374],[23.52498717224712,60.18970403012284],[23.497623370680603,60.16234022855588],[23.408393582962056,60.15877103704776],[23.37151193737142,60.15877103704776],[23.335820022284143,60.143304540509234],[23.304887029207727,60.1778067250944],[23.233503199033173,60.144494271011354],[23.200190744951726,60.12188939145659],[23.139514489302876,60.087387206871426],[23.06456146761922,60.0790590933512],[23.038387396555265,60.0826282848603],[23.02865629104623,60.09141217191704],[23.008930028268374,60.09042585877793],[23.00991634140727,60.08352166680557],[22.989203765490288,60.07464484855605],[23.002025836296284,60.05590489891614],[23.03062891732354,60.05886383833416],[23.0533141195184,60.05097333322193],[23.06416356404563,60.041110201833334],[23.08290351368464,60.04900070694565],[23.101643463323654,60.04801439380569],[23.127287604934757,60.05294595949999],[23.14602755457297,60.05886383833416],[23.17068538304509,60.06182277775129],[23.204220029767267,60.0628090908885],[23.228877858239297,60.0568912120561],[23.25649462612837,60.053932272639955],[23.23380942393422,60.03519232300005],[23.226905231962128,60.01645237336193],[23.190411645823087,60.00264398941721],[23.129260231211926,59.98982191861157],[23.10756134215676,59.983904039779176],[23.103616089601623,59.97502722152778],[23.105588715878792,59.96417777700118],[23.096711897628822,59.942478887945036],[23.10756134215676,59.929656817139396],[23.12531497865679,59.93064313027936],[23.14800018085094,59.936561009111756],[23.158849625378878,59.95135570619545],[23.171671696184074,59.941492574806944],[23.185480080128965,59.942478887945036],[23.19139795896207,59.95628727188975],[23.19830215093416,59.96615040327924],[23.219014726851054,59.95628727188975],[23.234795737073203,59.943465201085],[23.255508312989384,59.9483967667793],[23.262412504961386,59.941492574806944],[23.237754676489356,59.929656817139396],[23.223946292545175,59.91584843319557],[23.187452706406134,59.90401267552892],[23.171671696184074,59.89020429158518],[23.14602755457297,59.88527272589088],[23.119397099823683,59.88527272589088],[23.07599932171255,59.87540959450139],[23.0010395231573,59.85173807916719],[22.96257331074109,59.84286126091864],[22.925093411463063,59.823134998140645],[22.916216593213004,59.81524449302921],[22.95369649249103,59.81425817989112],[23.002025836296284,59.8201760587244],[23.025697351629418,59.823134998140645],[23.0464099275456,59.822148685000684],[23.06909512974055,59.822148685000684],[23.08684876623978,59.82806656383485],[23.106575029017776,59.824121311278745],[23.150959120267892,59.82708025069489],[23.181534827573028,59.83299812952916],[23.197315837795177,59.82708025069489],[23.21408316115622,59.83003919011291],[23.228877858239297,59.83201181639106],[23.257480939267264,59.84286126091864],[23.248604121017294,59.85666964486149],[23.22986417137828,59.86850540252904],[23.228877858239297,59.882313786472864],[23.25649462612837,59.894149544139516],[23.2998924042395,59.905985301807064],[23.350194374322633,59.923738938307],[23.390633213016812,59.93360206969551],[23.40641422323896,59.95431464561169],[23.43107205171099,59.95825989816781],[23.46460669843317,59.95431464561169],[23.497155032016273,59.95135570619545],[23.497155032016273,59.93853363538981],[23.495182405738305,59.92768419086134],[23.51688129479356,59.92571156458506],[23.55929275976562,59.924725251445096],[23.599731598459798,59.923738938307],[23.657924073654094,59.924725251445096],[23.705267104321074,59.924725251445096],[23.737815437904267,59.924725251445096],[23.725979680237344,59.9375473222526],[23.685540841543165,59.94445151422309],[23.68652715468215,59.953328332473504],[23.70921235687621,59.959246211305995],[23.750637508709463,59.959246211305995],[23.77726796345946,59.96417777700118],[23.771350084626356,59.96910934269539],[23.784172155431552,59.971081968973536],[23.829542559819853,59.972068282111636],[23.851241448875818,59.982917726639215],[23.876885590486832,59.992780858027814],[23.89661185326412,59.992780858027814],[23.906474984653073,60.00264398941721],[23.925214934292086,60.005602928833454],[23.92620124743107,59.99672611058393],[23.9439548839311,59.995739797445836],[23.963681146708385,59.995739797445836],[23.958749581014263,60.00461661569527],[23.969599025541402,60.01546606022197],[23.984393722625278,60.02039762591626],[24.01003786423638,60.02730181788951],[24.0346956927085,60.02730181788951],[24.061326147457788,60.02730181788951],[24.07513453140268,60.024342878473355],[24.09781973359683,60.024342878473355],[24.11360074381889,60.02828813102769],[24.13234069345799,60.03815126241621],[24.142203824846945,60.04406914124958],[24.153053269374084,60.03815126241621],[24.180670037263155,60.03223338358381],[24.20434155259629,60.031247070445716],[24.200396300041152,60.03815126241621],[24.18658791609626,60.04801439380569],[24.191519481791094,60.0578775251942],[24.208286805152227,60.0568912120561],[24.22899938106841,60.05294595949999],[24.2384147924292,60.049261668097984]]]]}},{"type":"Feature","properties":{"kind":"district","id":"uyezd-1897-560","name":"Гельсингсский","provinceId":"gubernia-1897-95"},"geometry":{"type":"MultiPolygon","coordinates":[[[[25.945226693674265,60.34984255477222],[25.94900810968827,60.39010317171589],[25.95257730119657,60.41032859026465],[25.937110804659206,60.42579508680406],[25.90736754208606,60.43055400881438],[25.865726974483763,60.45196915786703],[25.826465867888185,60.47814322893099],[25.828845328894015,60.50550703049883],[25.833604250905676,60.53644002357392],[25.79553287481177,60.5792703216802],[25.678939285526617,60.605444392743266],[25.63729871792441,60.609013584253255],[25.687267399046668,60.631618463808024],[25.715820931116454,60.64470549933955],[25.74199500218121,60.66612064839221],[25.74794365469534,60.683966605935844],[25.75151284620453,60.71489959901093],[25.725338775139775,60.71489959901093],[25.709872278602322,60.700622832977366],[25.686077668544108,60.69943310247436],[25.662283058485894,60.680397414427716],[25.606365724848793,60.67563849241553],[25.53379216417097,60.691104988954045],[25.526653781153477,60.703002293982486],[25.53260243366761,60.720848251527016],[25.525464050650207,60.74345313108089],[25.48144402204217,60.78271423767727],[25.460469513916678,60.79077796664204],[25.436674903858464,60.7776909311106],[25.392654875250425,60.744378477029414],[25.279630477473663,60.73605036350723],[25.27368182495953,60.77293200909938],[25.237989909871455,60.78839850563604],[25.2118158388075,60.80624446318056],[25.197539072772518,60.826469881730205],[25.182072576235065,60.82409042072411],[25.195159611766687,60.841936378266865],[25.172554732211832,60.841936378266865],[25.15946769667941,60.82290069022022],[25.14876012215282,60.825280151227204],[25.140432008632857,60.82052122921501],[25.135673086621196,60.8121931156938],[25.09517492142224,60.80818165125585],[25.1320565670127,60.771300005665566],[25.08208788589062,60.75702323962925],[25.03687812677922,60.73322862957139],[25.053534353819945,60.71895186353596],[25.102313304439644,60.73084916856627],[25.115400339972066,60.71895186353596],[25.074949502873128,60.697536714484116],[25.105882495948745,60.64042965034517],[25.0761392333756,60.62139396229853],[25.038067857282492,60.599978813244896],[25.01903216923594,60.570235550671924],[25.009514325212706,60.510749025525904],[24.999996481189473,60.51312848653289],[24.944079147552284,60.56785608966583],[24.894110466429314,60.604737735257004],[24.844141785307144,60.64280911135029],[24.738255770547784,60.655896146881815],[24.65497463534337,60.66898318241513],[24.597867571203707,60.66541399090514],[24.571693500139663,60.64280911135029],[24.56217565611643,60.62734261481185],[24.547898890081537,60.614255579280325],[24.56574484762482,60.604737735257004],[24.576452422151323,60.58213285570214],[24.60223318038778,60.550716789610235],[24.635545634469317,60.519783796533375],[24.621268868434335,60.51026595251005],[24.587956414352888,60.51145568301395],[24.54512611624812,60.50431729999575],[24.522521236692466,60.475763767925784],[24.55464396027144,60.45791781038223],[24.573679648317995,60.448399966358906],[24.568920726306335,60.41627724278074],[24.584387222843787,60.388913441212885],[24.65815051402497,60.36749829216112],[24.70930892565041,60.356790717634794],[24.75332895425845,60.34132422109628],[24.771174911801733,60.312770689026316],[24.766415989790072,60.27469931293392],[24.784261947334155,60.25447389438338],[24.81519494040977,60.24495605036006],[24.85445604700615,60.24495605036006],[24.866353352035212,60.22473063181042],[24.86714398192708,60.20483818288811],[24.877007113315145,60.19300242522234],[24.879966052732097,60.168344596750046],[24.88292499214905,60.154536212806306],[24.897719689232126,60.14960464711014],[24.917445952010123,60.15946777850051],[24.93026802281532,60.15749515222246],[24.95788479070439,60.151577273388284],[24.983528932315405,60.1565088390825],[24.98648787173156,60.1801803544167],[24.99141943742648,60.19300242522234],[25.010159387064693,60.202865556611826],[25.039748781231644,60.202865556611826],[25.08413287248096,60.200892930332884],[25.109777014092064,60.19892030405482],[25.12062645862009,60.18215298069573],[25.143311660814152,60.191029798944285],[25.151202165925227,60.191029798944285],[25.153174792203195,60.178207728138645],[25.18375049950842,60.176235101860584],[25.195586257175343,60.187084546388164],[25.198545196591496,60.1999066171947],[25.195586257175343,60.21864656683282],[25.19065469148042,60.22752338508235],[25.1788189338143,60.23935914274891],[25.1788189338143,60.25218121355464],[25.188682065203253,60.25218121355464],[25.196572570314327,60.241331769027056],[25.212353580536387,60.241331769027056],[25.226161964480568,60.259085405527],[25.23997034842466,60.259085405527],[25.252792419230566,60.25809909238882],[25.266600803174747,60.25020858727659],[25.28040918711884,60.24724964786034],[25.30112176303582,60.249222274138404],[25.32380696522997,60.25020858727659],[25.338601662313046,60.254153839832696],[25.35734161195206,60.254153839832696],[25.35339635939692,60.26204434494315],[25.33761534917486,60.26993485005458],[25.331697470341044,60.28078429458306],[25.351423733118953,60.272893789470736],[25.370163682758054,60.26697591063834],[25.37805418786904,60.26401697122121],[25.40271201634116,60.26401697122121],[25.404684642618328,60.253167526694604],[25.404684642618328,60.244290708443216],[25.42342459225734,60.246263334722244],[25.442164541896354,60.24527702158228],[25.45695923897952,60.24527702158228],[25.473726562340563,60.242318082166044],[25.482603380590533,60.25218121355464],[25.49838439081268,60.248235961000304],[25.524028532423696,60.253167526694604],[25.539809542645845,60.25612646611076],[25.542768482062797,60.26796222377652],[25.553617926589936,60.276839042026936],[25.553617926589936,60.282756920862084],[25.539809542645845,60.28078429458306],[25.530932724395786,60.28472954713739],[25.535864290090707,60.29360636538878],[25.552631613450952,60.295578991666844],[25.566439997395932,60.30051055736105],[25.55953580542384,60.314318941304876],[25.541782168923813,60.314318941304876],[25.524028532423696,60.32122313327723],[25.536850603228892,60.33009995152676],[25.544741108339966,60.347853588026695],[25.562494744839995,60.33108626466672],[25.583207320756976,60.335031517221054],[25.594056765284115,60.32615469897064],[25.604906209812142,60.30642843619442],[25.614769341201097,60.30544212305446],[25.623646159451066,60.30445580991539],[25.61772828061805,60.31530525444306],[25.61772828061805,60.325168385832455],[25.625618785729035,60.33108626466672],[25.63548191711728,60.319250506999175],[25.652249240478323,60.33108626466672],[25.667043937562287,60.349826214304755],[25.670989190117425,60.36264828510951],[25.68775651347847,60.36560722452664],[25.688742826617364,60.359689345693354],[25.713400655089572,60.360675658831454],[25.738058483561602,60.3517988405829],[25.758771059477784,60.341935709193415],[25.768634190866827,60.32911363838866],[25.7577847463396,60.325168385832455],[25.745948988672676,60.32911363838866],[25.736085857283722,60.327141012110516],[25.74693530181166,60.32122313327723],[25.756798433200615,60.31037368874876],[25.7765246959779,60.30642843619442],[25.79625095875581,60.30741474933252],[25.81203196897796,60.30840106247071],[25.826826666061034,60.299524244221175],[25.838662423728046,60.28768848655452],[25.86233393906109,60.278811668304996],[25.877128636144256,60.28078429458306],[25.87811494928324,60.26105803180506],[25.879101262422225,60.24724964786034],[25.891923333227332,60.237386516470856],[25.913622222283298,60.237386516470856],[25.928416919366374,60.237386516470856],[25.915594848560467,60.246263334722244],[25.921512727394372,60.25809909238882],[25.912635909144313,60.259085405527],[25.917567474838435,60.2689485369164],[25.912635909144313,60.27190747633264],[25.90277277775527,60.28078429458306],[25.90474540403324,60.28768848655452],[25.912635909144313,60.29755161794303],[25.910663282866345,60.30642843619442],[25.892909646366316,60.31530525444306],[25.883046514977362,60.32319575955627],[25.872197070450135,60.332072577804816],[25.886005454394315,60.337004143499115],[25.906718030311207,60.332072577804816],[25.91658116169945,60.337004143499115],[25.919540101116404,60.347853588026695],[25.913622222283298,60.361661971971415],[25.89784121206115,60.374484042777055],[25.886005454394315,60.38533348730375],[25.86627919161623,60.40012818438753],[25.868251817894198,60.40900500263706],[25.884032828116347,60.401114497527495],[25.906718030311207,60.39618293183133],[25.92545797994942,60.3764566690552],[25.94123899017157,60.35673040627711],[25.945226693674265,60.34984255477222]]]]}},{"type":"Feature","properties":{"kind":"district","id":"uyezd-1897-660","name":"Перноский","provinceId":"gubernia-1897-95"},"geometry":{"type":"MultiPolygon","coordinates":[[[[26.477793337724545,60.48692374061007],[26.482800528662867,60.50828306833951],[26.4887491811778,60.534457139402484],[26.507784869224352,60.538026330911585],[26.516112982744314,60.56301067147245],[26.53871786229997,60.57252851549577],[26.574409777387245,60.5868052815312],[26.624378458510215,60.60346150857272],[26.66126010410005,60.60465123907572],[26.70171094119979,60.58561555102908],[26.731454203772046,60.57490797650276],[26.75524881383026,60.57371824599975],[26.788561267912506,60.58204635951909],[26.789750998415066,60.599892317062725],[26.764766657853492,60.620117735612375],[26.76238719684775,60.63915342365902],[26.780233154391745,60.65461992019753],[26.81949426098821,60.64748153717933],[26.840909410040506,60.64867126768234],[26.826632644005613,60.66651722522687],[26.832581296519834,60.6772247997523],[26.80640722545579,60.69507075729683],[26.8028380339474,60.72957294188199],[26.782612615397575,60.743849707916524],[26.767146118859323,60.7676443179743],[26.767146118859323,60.78786973652306],[26.745730969807028,60.79976704155247],[26.738592586789537,60.819992460103094],[26.673157409129114,60.83307949563454],[26.60058384845129,60.84735626166908],[26.619619536498643,60.86639194971572],[26.635086033036096,60.88185844625416],[26.670777948123373,60.88423790725936],[26.682675253152436,60.89851467329568],[26.662449834603322,60.911601708827206],[26.642224416053498,60.911601708827206],[26.612481153480353,60.916360630838426],[26.59939411794873,60.9508628154235],[26.580358429902176,60.96632931196193],[26.588686543422227,60.992503383024996],[26.630327111024435,61.00678014906131],[26.638655224545108,61.05317963867491],[26.71241851572558,61.080543440240895],[26.7540590833277,61.10909697231086],[26.742161778298637,61.14597861790203],[26.6945725581815,61.19356783801864],[26.641034685550938,61.2649516681931],[26.531579479282566,61.260192746181886],[26.462575110113043,61.24948517165467],[26.38881181893266,61.18048080248532],[26.39595020195015,61.15787592293047],[26.419744812008275,61.14954780941024],[26.480421067657037,61.11742508583117],[26.49945675570359,61.087681823259096],[26.467334032125414,61.069835865714566],[26.426883195025766,61.072215326721555],[26.363827478371086,61.09957912828754],[26.380483705411898,61.110286702813866],[26.353119903845293,61.1281326603575],[26.326945832781337,61.15192727041536],[26.294823109202362,61.15787592293047],[26.248820196422976,61.12654635301983],[26.097724422552307,61.14201284955827],[26.072740081991622,61.12892581402593],[26.068421800906854,61.090590053377106],[26.10530344649749,61.07631328734168],[26.15527212761966,61.0430008332605],[26.133856978567277,60.99065269113268],[26.119580212532384,60.972806733589124],[26.09935479398247,60.982324577612445],[26.075560183924345,60.97042727258303],[26.070801261912685,60.932355896489746],[26.09816506348,60.92402778296943],[26.188584581701107,60.918079130453435],[26.150513205608,60.89428452039646],[26.117200751526553,60.89190505938947],[26.119580212532384,60.87524883234982],[26.093406141468428,60.85383368329717],[26.073180722918515,60.87643856285193],[26.060093687386182,60.89666398140158],[26.013694197773113,60.902612633916775],[25.99465850972576,60.88595640687525],[25.968484438661715,60.88357694587013],[25.950638481118432,60.89785371190467],[25.9482590201126,60.87643856285193],[25.880444381446438,60.88238721536713],[25.810250281774444,60.87881802385705],[25.78288648020704,60.88119748486315],[25.78883513272126,60.89666398140158],[25.78050701920121,60.908561286430114],[25.753143217633983,60.90023317290979],[25.746004834616492,60.909751016933114],[25.723399955061637,60.92164832196342],[25.73648699059326,60.93949427950608],[25.703174536511725,60.93711481850008],[25.67700046544777,60.9549607760446],[25.598478252254925,60.94544293202128],[25.610375557284076,60.916889399951316],[25.62584205382224,60.88357694587013],[25.606806365775686,60.87167964083983],[25.52352523057127,60.88357694587013],[25.504489542524716,60.87405910184681],[25.46760789693417,60.88119748486315],[25.42358786832684,60.85978233581041],[25.378378109215532,60.87167964083983],[25.35934242116898,60.85145422229019],[25.450951669893445,60.8121931156938],[25.460469513916678,60.79077796664204],[25.48144402204217,60.78271423767727],[25.525464050650207,60.74345313108089],[25.53260243366761,60.720848251527016],[25.526653781153477,60.703002293982486],[25.53379216417097,60.691104988954045],[25.606365724848793,60.67563849241553],[25.662283058485894,60.680397414427716],[25.686077668544108,60.69943310247436],[25.709872278602322,60.700622832977366],[25.725338775139775,60.71489959901093],[25.75151284620453,60.71489959901093],[25.74794365469534,60.683966605935844],[25.74199500218121,60.66612064839221],[25.715820931116454,60.64470549933955],[25.687267399046668,60.631618463808024],[25.63729871792441,60.609013584253255],[25.678939285526617,60.605444392743266],[25.79553287481177,60.5792703216802],[25.833604250905676,60.53644002357392],[25.828845328894015,60.50550703049883],[25.826465867888185,60.47814322893099],[25.865726974483763,60.45196915786703],[25.90736754208606,60.43055400881438],[25.937110804659206,60.42579508680406],[25.95257730119657,60.41032859026465],[25.94900810968827,60.39010317171589],[25.945226693674265,60.34984255477222],[25.952088434699597,60.337990456637215],[25.959978939810583,60.325168385832455],[25.97477363689366,60.31037368874876],[25.973787323754674,60.299524244221175],[25.97280101061649,60.29459267852688],[25.952088434699597,60.29262005224882],[25.949129495282644,60.28768848655452],[25.937293737616432,60.28078429458306],[25.952088434699597,60.255140152970796],[25.983650455143717,60.254153839832696],[26.006335657337868,60.25711277924894],[26.014226162449653,60.26204434494315],[26.007321970476852,60.272893789470736],[26.02507560697688,60.28177060772124],[26.02704823325485,60.296565304804936],[26.030007172671713,60.31037368874876],[26.0112672230327,60.32615469897064],[26.00041777850476,60.33108626466672],[25.98858202083864,60.33108626466672],[25.973787323754674,60.34094939605523],[25.9658968186436,60.34390833547147],[25.973787323754674,60.35081252744294],[25.99548621281064,60.35377146686096],[26.007321970476852,60.34588096174864],[26.030007172671713,60.332072577804816],[26.041842930337925,60.31530525444306],[26.049733435449,60.30051055736105],[26.068473385087923,60.29360636538878],[26.08622702158804,60.301496870499236],[26.104966971226254,60.295578991666844],[26.128638486560188,60.30840106247071],[26.12469323400425,60.31826419386108],[26.114830102615297,60.336017830361016],[26.102994344949085,60.337004143499115],[26.096090152976995,60.347853588026695],[26.069459698226908,60.359689345693354],[26.048747122310015,60.36955247708284],[26.031979798948882,60.37349772963718],[26.019157728143774,60.38040192160945],[26.012253536171684,60.39815555810948],[26.00929459675482,60.419854447165534],[26.005349344199594,60.42873126541505],[25.99351358653267,60.438594396803566],[25.96786944492157,60.438594396803566],[25.959978939810583,60.45437540702545],[25.945184242727507,60.4701564172492],[25.935321111338464,60.47706060922155],[25.953074747838492,60.48199217491576],[25.982664142004733,60.47508798294341],[26.0112672230327,60.45240278074925],[26.046774496032846,60.42774495227696],[26.066500758810044,60.41590919460941],[26.09510383983801,60.40999131577702],[26.121734294587387,60.397169244971295],[26.1473784361984,60.39322399241517],[26.17203626467052,60.390265052998934],[26.193735153726486,60.395196618693234],[26.19669409314264,60.40604606322081],[26.223324547892727,60.401114497527495],[26.25587288147583,60.39223767927699],[26.28250333622592,60.384347174165654],[26.29138015447589,60.384347174165654],[26.292366467614873,60.39618293183133],[26.311106417253086,60.401114497527495],[26.324914801198066,60.390265052998934],[26.34858631653111,60.371525103360895],[26.37324414500323,60.366593537664826],[26.390011468364364,60.367579850804695],[26.405792478586424,60.367579850804695],[26.383107276392273,60.38040192160945],[26.370285205586278,60.38631980044282],[26.355490508503202,60.39223767927699],[26.372257831864246,60.397169244971295],[26.403819852308455,60.397169244971295],[26.43834081216953,60.39914187124935],[26.45412182239159,60.39223767927699],[26.466943893197584,60.37842929533139],[26.47088914575272,60.384347174165654],[26.469902832613737,60.397169244971295],[26.471875458891706,60.40999131577702],[26.46102601436368,60.412950255193174],[26.448203943558482,60.41689550774929],[26.455108135530573,60.426758639137],[26.466943893197584,60.43958070994353],[26.4659575800586,60.45437540702545],[26.46398495378063,60.46917010410924],[26.466943893197584,60.482978488053945],[26.477793337724545,60.48692374061007]]]]}}]}
