{"type":"FeatureCollection","features":[{"type":"Feature","properties":{"kind":"province","id":"gubernia-1897-32","name":"Келецкая губерния"},"geometry":{"type":"MultiPolygon","coordinates":[[[[19.263530172414328,50.26851463914078],[19.315070975296738,50.26958840586761],[19.344814237869972,50.254121909329086],[19.40786995452421,50.236275951786425],[19.499479203248498,50.235086221283424],[19.564914380909187,50.2196197247449],[19.595847373984714,50.19582511468616],[19.62559063655795,50.20653268921346],[19.67199012617164,50.19701484518916],[19.735045842825965,50.17559969613651],[19.756460991878438,50.18392780965772],[19.77787614093091,50.173220235130415],[19.8040502119946,50.1767894266404],[19.82308590004151,50.16489212161018],[19.8242756305446,50.152994816580765],[19.84450104909398,50.150615355576534],[19.906367035245925,50.156564008090754],[19.914819236545316,50.155795626154365],[19.932541106309525,50.154184547084746],[19.95633571636836,50.152994816580765],[19.98132005692958,50.137528320043224],[20.091964993700067,50.13395912853501],[20.12765690878752,50.155374277587754],[20.170487206892467,50.154184547084746],[20.18595370343063,50.155374277587754],[20.190712625442647,50.14585643356354],[20.183574242425067,50.11849263199658],[20.16691801538372,50.09945694395083],[20.18595370343063,50.061385567856654],[20.221645618518085,50.06614448986964],[20.23116346254123,50.076852064395084],[20.249009420084956,50.07566233389208],[20.269234838635047,50.091128830429625],[20.2656656471263,50.10183640495693],[20.281132143663665,50.10778505747025],[20.30373702321941,50.10183640495693],[20.321582980763136,50.10778505747025],[20.314444597745645,50.12325155400957],[20.322772711265518,50.131579667529],[20.354895434844227,50.12682074551779],[20.371551661885572,50.13276939803201],[20.395346271943698,50.13871805054623],[20.3893976194293,50.15180508607776],[20.40367438546428,50.156564008090754],[20.414381959990607,50.14823589457043],[20.438176570048643,50.152994816580765],[20.451263605580444,50.14585643356354],[20.47505821563937,50.14942562507353],[20.485765790165605,50.155374277587754],[20.500042556200587,50.15180508607776],[20.523837166258623,50.157753738593755],[20.54168312380235,50.156564008090754],[20.558339350842896,50.158943469096855],[20.56071881184926,50.150615355576534],[20.58094423039864,50.152994816580765],[20.582133960901732,50.16489212161018],[20.623774528503496,50.17678942664129],[20.63448210302982,50.21010188072158],[20.654707521579112,50.211291611224674],[20.67969186214042,50.2184299942419],[20.674932940128492,50.22794783826433],[20.714194046724693,50.244604065305765],[20.71895296873662,50.26958840586761],[20.749885961812147,50.28148571089605],[20.755834614327256,50.29457274642935],[20.78409092384354,50.297897018136595],[20.796285451425927,50.29933166844057],[20.815321139472836,50.285054902404255],[20.833167097016563,50.30171112944569],[20.88313577813909,50.315987895480234],[20.912879040711434,50.30647005145691],[20.934294189763996,50.31717762598332],[20.954519608313998,50.324316009001436],[20.97593475736647,50.318367356487215],[20.999729367424596,50.321936547996316],[21.06873373659403,50.3445414275502],[21.091338616148885,50.34692088855718],[21.109184573692612,50.35881819358562],[21.125840800733958,50.35762846308262],[21.142497027774592,50.3445414275502],[21.155584063306303,50.33859277503598],[21.1877067868851,50.3564387325805],[21.21269112744632,50.364766846099926],[21.228157623984483,50.37428469012325],[21.2531419645457,50.38737172565558],[21.256906507294254,50.388626573238405],[21.20108745039288,50.412442704182496],[21.179672301340585,50.45051408027578],[21.23439990447486,50.468360037819416],[21.228451251960372,50.479067612346626],[21.246297209503833,50.486205995363946],[21.20108745039288,50.52189791045113],[21.16777499631161,50.554020634030195],[21.16063661329412,50.575435783082845],[21.17848257083767,50.61826608118646],[21.161826343797035,50.636112038730985],[21.15785125678246,50.64366470405818],[21.14992903876726,50.65871691828584],[21.128513889715055,50.66347584029705],[21.10709874066276,50.65752718778373],[21.064268442557548,50.67061422331606],[21.045232754511172,50.68370125884759],[21.027386796967622,50.66228610979485],[20.991694881879724,50.65871691828584],[20.947674853272396,50.69678829438001],[20.950054314278223,50.711065060413645],[20.985746229365255,50.719393173933874],[20.96433108031305,50.76579266354837],[20.944105661763757,50.7800694295829],[20.970279732827535,50.81100242265896],[21.02500733596181,50.82170999718529],[21.06545817306048,50.822899727689176],[21.107098740662778,50.85859164277646],[21.088063052616402,50.8788170613261],[21.052371137528592,50.897852749372746],[21.013110030932836,50.91926789842362],[21.01192030042992,50.944252238985456],[21.00478191741172,50.970426310049326],[21.021438144453064,50.98470307608564],[21.01192030042992,51.01801553016682],[20.995264073388487,51.02396418268015],[20.9464851227695,51.01920526066894],[20.876291023097505,51.03943067921867],[20.866773179073473,51.059656097769206],[20.87748075360042,51.08345070782707],[20.831081263986462,51.116763161908246],[20.80847638443134,51.116763161908246],[20.80371746241977,51.0977274738616],[20.779922852360933,51.09534801285648],[20.7704050083377,51.10010693486761],[20.726384979729485,51.10605558738281],[20.666898454584437,51.0977274738616],[20.65619088005749,51.10486585687883],[20.601463276924015,51.10010693486761],[20.603842737929845,51.08820962983828],[20.572909744853607,51.08107124682097],[20.544356212784,51.07274313329985],[20.518182141719333,51.0941582823525],[20.49319780115847,51.10248639587371],[20.48843887914681,51.07750205531195],[20.48843887914681,51.04537933173289],[20.43728046752128,51.02991283519535],[20.38612205589646,51.02158472167592],[20.357568523826053,51.02753337419014],[20.313548495218726,51.02753337419014],[20.281425771639572,51.00968741664562],[20.23145709051687,51.0084976861435],[20.207662480458833,51.0108771471496],[20.18505760090371,50.99779011161628],[20.163642451850706,50.97637496256445],[20.12200188424912,50.988272267592976],[20.075602394635162,50.99422092010897],[20.023254252506717,50.988272267592976],[19.93402446478826,50.978754423569654],[19.863830365116353,50.96685711854113],[19.819913152724833,50.95842618880393],[19.82348234423349,50.933441848244044],[19.79492881216388,50.91797535170552],[19.77232393260796,50.9144061601974],[19.77470339361379,50.894180741647666],[19.76280608858473,50.89180128064166],[19.753288244561496,50.879903975611356],[19.723544981988972,50.876334784103136],[19.710457946456284,50.863247748571695],[19.722355251486057,50.85254017404528],[19.710457946456284,50.83112502499263],[19.684283875392417,50.82160718096931],[19.661678995837296,50.80614068443079],[19.670007109357613,50.785915265881144],[19.66048926533438,50.77163849984758],[19.64978169080832,50.75617200330906],[19.630746002761057,50.74784388978786],[19.611710314714593,50.75260281179996],[19.59386435717113,50.76331038632638],[19.57363893862104,50.788294726888125],[19.535567562528094,50.77639742185784],[19.52842917951069,50.757361733811194],[19.52367025749912,50.73237739325121],[19.509393491464316,50.69192655615103],[19.53913675403684,50.682408712127625],[19.540326484539754,50.67646005961429],[19.527239449007777,50.66932167659529],[19.547464867557157,50.66337302408098],[19.537947023533924,50.63362976150802],[19.511772952470057,50.62649137849079],[19.507014030458485,50.603886498935935],[19.462994001850358,50.59793784642083],[19.43919939179232,50.58604054139141],[19.443958313803893,50.57414323636297],[19.464183732353273,50.55748700932233],[19.47013238486776,50.53607186026879],[19.49035780341705,50.518225902726044],[19.50344483894903,50.4991902146794],[19.492737264422882,50.47301614361554],[19.476081037382247,50.47301614361554],[19.43919939179232,50.446842072551576],[19.46537346285619,50.41947827098373],[19.46775292386193,50.39806312193197],[19.44276858330098,50.37902743388533],[19.46775292386193,50.3576122848317],[19.489168072914136,50.33976632728904],[19.44752750531264,50.336197135779045],[19.401128015698593,50.33500740527596],[19.38328205815513,50.31835117823541],[19.357107987090465,50.31835117823541],[19.310708497477307,50.30764360370998],[19.27977550440107,50.292177107171455],[19.257170624845948,50.280279802142125],[19.263530172414328,50.26851463914078]]]]}},{"type":"Feature","properties":{"kind":"district","id":"uyezd-1897-153","name":"Влощовский","provinceId":"gubernia-1897-32"},"geometry":{"type":"MultiPolygon","coordinates":[[[[19.537947023533924,50.63362976150802],[19.535464746311415,50.61826608118645],[19.547362051341278,50.6027995846498],[19.566397739387654,50.60042012364281],[19.578295044416716,50.605179045654026],[19.616366420510357,50.6027995846498],[19.62826372553933,50.598040662636805],[19.66871456263809,50.595661201630705],[19.703216747222985,50.57305632207683],[19.81386168399365,50.56234874754953],[19.828204905107743,50.55907029700924],[19.897142819198333,50.543313059502886],[19.91617850724471,50.56948713056684],[19.939973117302745,50.56948713056684],[19.93402446478826,50.58138443559617],[19.942352578308576,50.58495362710527],[19.987562337419618,50.587333088111365],[19.995890450939935,50.59328174062648],[20.036341288039406,50.601609854145906],[20.036341288039406,50.61469688967735],[20.022064522003802,50.61469688967735],[20.004218564460253,50.62659419470677],[20.005408294963168,50.65038880476641],[20.016115869489315,50.665855301303054],[20.033961827033576,50.71939317393388],[20.05299751508004,50.72534182644997],[20.060135898097442,50.73366993996931],[20.03277209653075,50.7360494009763],[20.018495330495146,50.74318778399263],[20.031582366027834,50.76698239405049],[20.056566706588697,50.765792663548375],[20.077981855640992,50.77174131606348],[20.0993970046932,50.8193305361792],[20.09106889117288,50.839555954729825],[20.074412664132247,50.847884068249165],[20.089879160669966,50.872868408811],[20.112484040225887,50.87881706132612],[20.12676080626069,50.87167867830702],[20.151745146821643,50.87167867830702],[20.192195983921113,50.88595544434245],[20.204093288950176,50.921647359430615],[20.186247331406626,50.937113855969045],[20.158883529839134,50.935924125466045],[20.151745146821643,50.95020089150058],[20.167211643359362,50.95020089150058],[20.173160295874737,50.96447765753511],[20.163642451850706,50.97637496256445],[20.12200188424912,50.988272267592976],[20.075602394635162,50.99422092010897],[20.023254252506717,50.988272267592976],[19.93402446478826,50.978754423569654],[19.863830365116353,50.96685711854113],[19.819913152724833,50.95842618880393],[19.82348234423349,50.933441848244044],[19.79492881216388,50.91797535170552],[19.77232393260796,50.9144061601974],[19.77470339361379,50.894180741647666],[19.76280608858473,50.89180128064166],[19.753288244561496,50.879903975611356],[19.723544981988972,50.876334784103136],[19.710457946456284,50.863247748571695],[19.722355251486057,50.85254017404528],[19.710457946456284,50.83112502499263],[19.684283875392417,50.82160718096931],[19.661678995837296,50.80614068443079],[19.670007109357613,50.785915265881144],[19.66048926533438,50.77163849984758],[19.64978169080832,50.75617200330906],[19.630746002761057,50.74784388978786],[19.611710314714593,50.75260281179996],[19.59386435717113,50.76331038632638],[19.57363893862104,50.788294726888125],[19.535567562528094,50.77639742185784],[19.52842917951069,50.757361733811194],[19.52367025749912,50.73237739325121],[19.509393491464316,50.69192655615103],[19.53913675403684,50.682408712127625],[19.540326484539754,50.67646005961429],[19.527239449007777,50.66932167659529],[19.547464867557157,50.66337302408098],[19.537947023533924,50.63362976150802]]]]}},{"type":"Feature","properties":{"kind":"district","id":"uyezd-1897-154","name":"Олькушский","provinceId":"gubernia-1897-32"},"geometry":{"type":"MultiPolygon","coordinates":[[[[19.828204905107743,50.55907029700924],[19.81386168399365,50.56234874754953],[19.703216747222985,50.57305632207683],[19.66871456263809,50.595661201630705],[19.62826372553933,50.598040662636805],[19.616366420510357,50.6027995846498],[19.578295044416716,50.605179045654026],[19.566397739387654,50.60042012364281],[19.547362051341278,50.6027995846498],[19.535464746311415,50.61826608118645],[19.537947023533924,50.63362976150802],[19.511772952470057,50.62649137849079],[19.507014030458485,50.603886498935935],[19.462994001850358,50.59793784642083],[19.43919939179232,50.58604054139141],[19.443958313803893,50.57414323636297],[19.464183732353273,50.55748700932233],[19.47013238486776,50.53607186026879],[19.49035780341705,50.518225902726044],[19.50344483894903,50.4991902146794],[19.492737264422882,50.47301614361554],[19.476081037382247,50.47301614361554],[19.43919939179232,50.446842072551576],[19.46537346285619,50.41947827098373],[19.46775292386193,50.39806312193197],[19.44276858330098,50.37902743388533],[19.46775292386193,50.3576122848317],[19.489168072914136,50.33976632728904],[19.44752750531264,50.336197135779045],[19.401128015698593,50.33500740527596],[19.38328205815513,50.31835117823541],[19.357107987090465,50.31835117823541],[19.310708497477307,50.30764360370998],[19.27977550440107,50.292177107171455],[19.257170624845948,50.280279802142125],[19.263530172414328,50.26851463914078],[19.315070975296738,50.26958840586761],[19.344814237869972,50.254121909329086],[19.40786995452421,50.236275951786425],[19.499479203248498,50.235086221283424],[19.564914380909187,50.2196197247449],[19.595847373984714,50.19582511468616],[19.62559063655795,50.20653268921346],[19.67199012617164,50.19701484518916],[19.735045842825965,50.17559969613651],[19.756460991878438,50.18392780965772],[19.77787614093091,50.173220235130415],[19.8040502119946,50.1767894266404],[19.82308590004151,50.16489212161018],[19.8242756305446,50.152994816580765],[19.84450104909398,50.150615355576534],[19.906367035245925,50.156564008090754],[19.914819236545316,50.155795626154365],[19.92926554277667,50.18520417812579],[19.91855796825052,50.23160366774027],[19.93640392579407,50.248259894780915],[19.994700720437002,50.250639355786035],[19.998269911945748,50.25896746930724],[19.986372606916685,50.2851415403711],[19.923316890262182,50.29465938439442],[19.90071201070697,50.30774641992596],[19.879296861653966,50.31131561143506],[19.844794677069782,50.34462806551624],[19.773410846894873,50.35533564004345],[19.75556488935141,50.37080213658011],[19.778169768906533,50.395786477141854],[19.80196437896457,50.42909893122304],[19.81981033650892,50.4528935412809],[19.836466563549553,50.4528935412809],[19.867399556624992,50.468360037819416],[19.884055783665627,50.47192922932754],[19.906660663221547,50.486205995363946],[19.894763358192485,50.51356979692993],[19.848363868578527,50.52427737145723],[19.828204905107743,50.55907029700924]]]]}},{"type":"Feature","properties":{"kind":"district","id":"uyezd-1897-155","name":"Андреевский","provinceId":"gubernia-1897-32"},"geometry":{"type":"MultiPolygon","coordinates":[[[[19.906660663221547,50.486205995363946],[19.93402446478826,50.486205995363925],[19.96376772736158,50.504051952906586],[19.995890450939935,50.52070817994722],[20.01730559999223,50.5183287189429],[20.04585913206264,50.504051952906586],[20.067274281114845,50.51356979692991],[20.058946167594527,50.53379521548053],[20.064894820109014,50.54212332899987],[20.082740777652564,50.54093359849776],[20.114863501231717,50.521897910451116],[20.18029867889205,50.504051952906586],[20.244544126049558,50.495723839387246],[20.252872239569875,50.482636803854824],[20.268338736107594,50.48739572586604],[20.280236041136657,50.46360111580818],[20.311169034212895,50.45527300228697],[20.314738225721552,50.47549842083751],[20.342102027288334,50.49929303089537],[20.384932325393546,50.50167249190058],[20.412296126960328,50.50524168341057],[20.426572892995132,50.52427737145721],[20.461075077580027,50.53022602397054],[20.44798804204734,50.54093359849776],[20.45750588607137,50.56829740006383],[20.484869687638064,50.57900497459015],[20.480110765626492,50.593281740626466],[20.48843887914681,50.61469688967734],[20.48843887914681,50.638491499737064],[20.518182141719333,50.648009343760386],[20.575289205859438,50.65038880476639],[20.576478936362353,50.66704503180703],[20.568150822842036,50.68013206733936],[20.589565971894242,50.719393173933874],[20.595514624409528,50.738428861980516],[20.588376241391327,50.75389535851903],[20.55387405680723,50.76103374153626],[20.525320524737534,50.76579266354837],[20.518182141719333,50.75508508902293],[20.463454538585857,50.75746455002716],[20.456316155568455,50.75032616700993],[20.43965992852711,50.751515897513826],[20.42181397098356,50.76103374153626],[20.390880977908033,50.76460293304625],[20.382552864387804,50.777689968576894],[20.373035020363773,50.78363862109289],[20.36113771533471,50.79553592612133],[20.32306633924187,50.79553592612133],[20.301651190188863,50.803864039642534],[20.288564154656974,50.816951075174075],[20.282615502142487,50.83360730221462],[20.273097658119255,50.84193541573582],[20.265959275101764,50.85264299026126],[20.230267360013954,50.87167867830701],[20.192195983921113,50.88595544434245],[20.151745146821643,50.87167867830702],[20.12676080626069,50.87167867830702],[20.112484040225887,50.87881706132612],[20.089879160669966,50.872868408811],[20.074412664132247,50.847884068249165],[20.09106889117288,50.839555954729825],[20.0993970046932,50.8193305361792],[20.077981855640992,50.77174131606348],[20.056566706588697,50.765792663548375],[20.031582366027834,50.76698239405049],[20.018495330495146,50.74318778399263],[20.03277209653075,50.7360494009763],[20.060135898097442,50.73366993996931],[20.05299751508004,50.72534182644997],[20.033961827033576,50.71939317393388],[20.016115869489315,50.665855301303054],[20.005408294963168,50.65038880476641],[20.004218564460253,50.62659419470677],[20.022064522003802,50.61469688967735],[20.036341288039406,50.61469688967735],[20.036341288039406,50.601609854145906],[19.995890450939935,50.59328174062648],[19.987562337419618,50.587333088111365],[19.942352578308576,50.58495362710527],[19.93402446478826,50.58138443559617],[19.939973117302745,50.56948713056684],[19.91617850724471,50.56948713056684],[19.897142819198333,50.543313059502886],[19.828204905107743,50.55907029700924],[19.848363868578527,50.52427737145723],[19.894763358192485,50.51356979692993],[19.906660663221547,50.486205995363946]]]]}},{"type":"Feature","properties":{"kind":"district","id":"uyezd-1897-156","name":"Стопницкий","provinceId":"gubernia-1897-32"},"geometry":{"type":"MultiPolygon","coordinates":[[[[20.575289205859438,50.65038880476639],[20.58837624139131,50.636112038730985],[20.603842737929828,50.60874823716402],[20.62644761748495,50.617076350683455],[20.638344922514012,50.60636877615802],[20.616929773461717,50.5909022796195],[20.621688695473377,50.565917939059524],[20.6514319580459,50.562348747549535],[20.665708724081504,50.5564000950362],[20.660949802069933,50.54212332899989],[20.637155192011097,50.54212332899989],[20.62882707849078,50.53260548497657],[20.63358600050244,50.50524168341059],[20.589565971894224,50.489775186872066],[20.603842737929828,50.46241138530422],[20.625257886982034,50.44813461926968],[20.655001149554646,50.44813461926968],[20.670467646093076,50.44099623625246],[20.672847107098907,50.423150278709706],[20.685934142630796,50.40649405166738],[20.699021178162774,50.38745836362074],[20.714487674700493,50.38031998060343],[20.677606029110567,50.33511022149292],[20.70496983067735,50.31012588093108],[20.769215277834768,50.313695072441064],[20.78409092384354,50.297897018136595],[20.796285451425927,50.29933166844057],[20.815321139472836,50.285054902404255],[20.833167097016563,50.30171112944569],[20.88313577813909,50.315987895480234],[20.912879040711434,50.30647005145691],[20.934294189763996,50.31717762598332],[20.954519608313998,50.324316009001436],[20.97593475736647,50.318367356487215],[20.999729367424596,50.321936547996316],[21.06873373659403,50.3445414275502],[21.091338616148885,50.34692088855718],[21.109184573692612,50.35881819358562],[21.125840800733958,50.35762846308262],[21.142497027774592,50.3445414275502],[21.155584063306303,50.33859277503598],[21.1877067868851,50.3564387325805],[21.21269112744632,50.364766846099926],[21.228157623984483,50.37428469012325],[21.2531419645457,50.38737172565558],[21.256906507294254,50.388626573238405],[21.20108745039288,50.412442704182496],[21.179672301340585,50.45051408027578],[21.23439990447486,50.468360037819416],[21.228451251960372,50.479067612346626],[21.246297209503833,50.486205995363946],[21.20108745039288,50.52189791045113],[21.16777499631161,50.554020634030195],[21.16063661329412,50.575435783082845],[21.17848257083767,50.61826608118646],[21.161826343797035,50.636112038730985],[21.15785125678246,50.64366470405818],[21.14992903876726,50.65871691828584],[21.128513889715055,50.66347584029705],[21.10709874066276,50.65752718778373],[21.064268442557548,50.67061422331606],[21.045232754511172,50.68370125884759],[21.027386796967622,50.66228610979485],[20.991694881879724,50.65871691828584],[20.947674853272396,50.69678829438001],[20.950054314278244,50.711065060413645],[20.91317266868752,50.71344452142054],[20.89770617214971,50.726531556952075],[20.889378058629482,50.737239131478404],[20.872721831588848,50.743187783992624],[20.83702991650095,50.737239131478404],[20.840599108009695,50.728911017957195],[20.8548758740445,50.711065060413645],[20.84178883851261,50.702736946893324],[20.776353660852187,50.70868559940932],[20.74780012878258,50.720582904437855],[20.718056866209256,50.719393173933874],[20.69664171715696,50.71463425192266],[20.632396269999543,50.71582398242664],[20.616929773461734,50.6932191028709],[20.576478936362353,50.66704503180703],[20.575289205859438,50.65038880476639]]]]}},{"type":"Feature","properties":{"kind":"district","id":"uyezd-1897-157","name":"Пинчовский","provinceId":"gubernia-1897-32"},"geometry":{"type":"MultiPolygon","coordinates":[[[[20.78409092384354,50.297897018136595],[20.769215277834768,50.313695072441064],[20.70496983067735,50.31012588093108],[20.677606029110567,50.33511022149292],[20.714487674700493,50.38031998060343],[20.699021178162774,50.38745836362074],[20.685934142630796,50.40649405166738],[20.672847107098907,50.423150278709706],[20.670467646093076,50.44099623625246],[20.655001149554646,50.44813461926968],[20.625257886982034,50.44813461926968],[20.603842737929828,50.46241138530422],[20.589565971894224,50.489775186872066],[20.63358600050244,50.50524168341059],[20.62882707849078,50.53260548497657],[20.637155192011097,50.54212332899989],[20.660949802069933,50.54212332899989],[20.665708724081504,50.5564000950362],[20.6514319580459,50.562348747549535],[20.621688695473377,50.565917939059524],[20.616929773461717,50.5909022796195],[20.638344922514012,50.60636877615802],[20.62644761748495,50.617076350683455],[20.603842737929828,50.60874823716402],[20.58837624139131,50.636112038730985],[20.575289205859438,50.65038880476639],[20.518182141719333,50.648009343760386],[20.48843887914681,50.638491499737064],[20.48843887914681,50.61469688967734],[20.480110765626492,50.593281740626466],[20.484869687638064,50.57900497459015],[20.45750588607137,50.56829740006383],[20.44798804204734,50.54093359849776],[20.461075077580027,50.53022602397054],[20.426572892995132,50.52427737145721],[20.412296126960328,50.50524168341057],[20.384932325393546,50.50167249190058],[20.342102027288334,50.49929303089537],[20.314738225721552,50.47549842083751],[20.311169034212895,50.45527300228697],[20.280236041136657,50.46360111580818],[20.268338736107594,50.48739572586604],[20.252872239569875,50.482636803854824],[20.256441431078603,50.46836003781932],[20.243354395546714,50.449324349773576],[20.263579814096005,50.42671947021694],[20.288564154656957,50.400545399153074],[20.305220381697502,50.39102755513064],[20.312358764715793,50.36842267557401],[20.255251700575688,50.35652537054557],[20.28737442415404,50.32083345545829],[20.31830741723028,50.30655668942376],[20.326635530750597,50.29465938439442],[20.319497147733106,50.281572348862],[20.337343105276656,50.25539827779805],[20.359947984831777,50.25063935578594],[20.363517176340522,50.2387420507575],[20.33853283577957,50.21970636271086],[20.31830741723028,50.197101483155116],[20.35637879332312,50.19115283064001],[20.419434509977712,50.18520417812579],[20.44322912003575,50.17806579510847],[20.469403191100415,50.182824717119686],[20.538407560269494,50.182824717119686],[20.57053028384776,50.175686334102465],[20.623774528503496,50.17678942664129],[20.63448210302982,50.21010188072158],[20.654707521579112,50.211291611224674],[20.67969186214042,50.2184299942419],[20.674932940128492,50.22794783826433],[20.714194046724693,50.244604065305765],[20.71895296873662,50.26958840586761],[20.749885961812147,50.28148571089605],[20.755834614327256,50.29457274642935],[20.78409092384354,50.297897018136595]]]]}},{"type":"Feature","properties":{"kind":"district","id":"uyezd-1897-163","name":"Келецкий","provinceId":"gubernia-1897-32"},"geometry":{"type":"MultiPolygon","coordinates":[[[[20.87748075360042,51.08345070782707],[20.831081263986462,51.116763161908246],[20.80847638443134,51.116763161908246],[20.80371746241977,51.0977274738616],[20.779922852360933,51.09534801285648],[20.7704050083377,51.10010693486761],[20.726384979729485,51.10605558738281],[20.666898454584437,51.0977274738616],[20.65619088005749,51.10486585687883],[20.601463276924015,51.10010693486761],[20.603842737929845,51.08820962983828],[20.572909744853607,51.08107124682097],[20.544356212784,51.07274313329985],[20.518182141719333,51.0941582823525],[20.49319780115847,51.10248639587371],[20.48843887914681,51.07750205531195],[20.48843887914681,51.04537933173289],[20.43728046752128,51.02991283519535],[20.38612205589646,51.02158472167592],[20.357568523826053,51.02753337419014],[20.313548495218726,51.02753337419014],[20.281425771639572,51.00968741664562],[20.23145709051687,51.0084976861435],[20.207662480458833,51.0108771471496],[20.18505760090371,50.99779011161628],[20.163642451850706,50.97637496256445],[20.173160295874737,50.96447765753511],[20.167211643359362,50.95020089150058],[20.151745146821643,50.95020089150058],[20.158883529839134,50.935924125466045],[20.186247331406626,50.937113855969045],[20.204093288950176,50.921647359430615],[20.192195983921113,50.88595544434245],[20.230267360013954,50.87167867830701],[20.265959275101764,50.85264299026126],[20.273097658119255,50.84193541573582],[20.282615502142487,50.83360730221462],[20.288564154656974,50.816951075174075],[20.301651190188863,50.803864039642534],[20.32306633924187,50.79553592612133],[20.36113771533471,50.79553592612133],[20.373035020363773,50.78363862109289],[20.382552864387804,50.777689968576894],[20.390880977908033,50.76460293304625],[20.42181397098356,50.76103374153626],[20.43965992852711,50.751515897513826],[20.456316155568455,50.75032616700993],[20.463454538585857,50.75746455002716],[20.518182141719333,50.75508508902293],[20.525320524737534,50.76579266354837],[20.55387405680723,50.76103374153626],[20.588376241391327,50.75389535851903],[20.595514624409528,50.738428861980516],[20.589565971894242,50.719393173933874],[20.568150822842036,50.68013206733936],[20.576478936362353,50.66704503180703],[20.616929773461734,50.6932191028709],[20.632396269999543,50.71582398242664],[20.69664171715696,50.71463425192266],[20.718056866209256,50.719393173933874],[20.74780012878258,50.720582904437855],[20.776353660852187,50.70868559940932],[20.84178883851261,50.702736946893324],[20.8548758740445,50.711065060413645],[20.840599108009695,50.728911017957195],[20.83702991650095,50.737239131478404],[20.872721831588848,50.743187783992624],[20.889378058629482,50.737239131478404],[20.89770617214971,50.726531556952075],[20.91317266868752,50.71344452142054],[20.950054314278244,50.711065060413645],[20.985746229365255,50.719393173933874],[20.96433108031305,50.76579266354837],[20.944105661763757,50.7800694295829],[20.970279732827535,50.81100242265896],[21.02500733596181,50.82170999718529],[21.06545817306048,50.822899727689176],[21.107098740662778,50.85859164277646],[21.088063052616402,50.8788170613261],[21.052371137528592,50.897852749372746],[21.013110030932836,50.91926789842362],[21.01192030042992,50.944252238985456],[21.00478191741172,50.970426310049326],[21.021438144453064,50.98470307608564],[21.01192030042992,51.01801553016682],[20.995264073388487,51.02396418268015],[20.9464851227695,51.01920526066894],[20.876291023097505,51.03943067921867],[20.866773179073473,51.059656097769206],[20.87748075360042,51.08345070782707]]]]}},{"type":"Feature","properties":{"kind":"district","id":"uyezd-1897-715","name":"Меховской","provinceId":"gubernia-1897-32"},"geometry":{"type":"MultiPolygon","coordinates":[[[[19.906660663221547,50.486205995363946],[19.884055783665627,50.47192922932754],[19.867399556624992,50.468360037819416],[19.836466563549553,50.4528935412809],[19.81981033650892,50.4528935412809],[19.80196437896457,50.42909893122304],[19.778169768906533,50.395786477141854],[19.75556488935141,50.37080213658011],[19.773410846894873,50.35533564004345],[19.844794677069782,50.34462806551624],[19.879296861653966,50.31131561143506],[19.90071201070697,50.30774641992596],[19.923316890262182,50.29465938439442],[19.986372606916685,50.2851415403711],[19.998269911945748,50.25896746930724],[19.994700720437002,50.250639355786035],[19.93640392579407,50.248259894780915],[19.91855796825052,50.23160366774027],[19.92926554277667,50.18520417812579],[19.914819236545316,50.155795626154365],[19.932541106309525,50.154184547084746],[19.95633571636836,50.152994816580765],[19.98132005692958,50.137528320043224],[20.091964993700067,50.13395912853501],[20.12765690878752,50.155374277587754],[20.170487206892467,50.154184547084746],[20.18595370343063,50.155374277587754],[20.190712625442647,50.14585643356354],[20.183574242425067,50.11849263199658],[20.16691801538372,50.09945694395083],[20.18595370343063,50.061385567856654],[20.221645618518085,50.06614448986964],[20.23116346254123,50.076852064395084],[20.249009420084956,50.07566233389208],[20.269234838635047,50.091128830429625],[20.2656656471263,50.10183640495693],[20.281132143663665,50.10778505747025],[20.30373702321941,50.10183640495693],[20.321582980763136,50.10778505747025],[20.314444597745645,50.12325155400957],[20.322772711265518,50.131579667529],[20.354895434844227,50.12682074551779],[20.371551661885572,50.13276939803201],[20.395346271943698,50.13871805054623],[20.3893976194293,50.15180508607776],[20.40367438546428,50.156564008090754],[20.414381959990607,50.14823589457043],[20.438176570048643,50.152994816580765],[20.451263605580444,50.14585643356354],[20.47505821563937,50.14942562507353],[20.485765790165605,50.155374277587754],[20.500042556200587,50.15180508607776],[20.523837166258623,50.157753738593755],[20.54168312380235,50.156564008090754],[20.558339350842896,50.158943469096855],[20.56071881184926,50.150615355576534],[20.58094423039864,50.152994816580765],[20.582133960901732,50.16489212161018],[20.623774528503496,50.17678942664129],[20.57053028384776,50.175686334102465],[20.538407560269494,50.182824717119686],[20.469403191100415,50.182824717119686],[20.44322912003575,50.17806579510847],[20.419434509977712,50.18520417812579],[20.35637879332312,50.19115283064001],[20.31830741723028,50.197101483155116],[20.33853283577957,50.21970636271086],[20.363517176340522,50.2387420507575],[20.359947984831777,50.25063935578594],[20.337343105276656,50.25539827779805],[20.319497147733106,50.281572348862],[20.326635530750597,50.29465938439442],[20.31830741723028,50.30655668942376],[20.28737442415404,50.32083345545829],[20.255251700575688,50.35652537054557],[20.312358764715793,50.36842267557401],[20.305220381697502,50.39102755513064],[20.288564154656957,50.400545399153074],[20.263579814096005,50.42671947021694],[20.243354395546714,50.449324349773576],[20.256441431078603,50.46836003781932],[20.252872239569875,50.482636803854824],[20.244544126049558,50.495723839387246],[20.18029867889205,50.504051952906586],[20.114863501231717,50.521897910451116],[20.082740777652564,50.54093359849776],[20.064894820109014,50.54212332899987],[20.058946167594527,50.53379521548053],[20.067274281114845,50.51356979692991],[20.04585913206264,50.504051952906586],[20.01730559999223,50.5183287189429],[19.995890450939935,50.52070817994722],[19.96376772736158,50.504051952906586],[19.93402446478826,50.486205995363925],[19.906660663221547,50.486205995363946]]]]}}]}
