{"type":"FeatureCollection","features":[{"type":"Feature","properties":{"kind":"province","id":"gubernia-1897-15","name":"Варшавская губерния"},"geometry":{"type":"MultiPolygon","coordinates":[[[[18.33830223240393,52.53959420543105],[18.348381673097663,52.50830809367287],[18.350761134103493,52.46190860405936],[18.355520056115065,52.44287291601272],[18.34600221209192,52.42502695846997],[18.362658439132556,52.41075019243543],[18.384073588185473,52.40004261790821],[18.404299006734853,52.39052477388489],[18.442370382828493,52.39052477388489],[18.45307795735455,52.40123234841211],[18.46854445389227,52.40004261790821],[18.50185690797363,52.375058277346376],[18.54468720607884,52.375058277346376],[18.589896965189883,52.366730163827036],[18.607742922733433,52.37981719935946],[18.570861277142708,52.39647342639911],[18.561343433119475,52.41312965343966],[18.54468720607884,52.41312965343966],[18.54468720607884,52.42621668897208],[18.53516936205561,52.4416831855106],[18.554205050102073,52.445252377018726],[18.601794270218946,52.429785880481184],[18.589896965189883,52.41550911444665],[18.61607103625375,52.40837073142942],[18.647004029329988,52.409560461931534],[18.67198836989094,52.40480153991943],[18.66484998687345,52.422647497463956],[18.677937022405427,52.428596149978176],[18.67674729190251,52.447631838025714],[18.712439206989618,52.44882156852782],[18.740992739060026,52.45595995154504],[18.761218157609317,52.45833941255114],[18.783823037165238,52.4476318380257],[18.80880737772619,52.44049345500848],[18.83141225728131,52.44644210752172],[18.84687875381903,52.44049345500848],[18.834981448790057,52.43454480249328],[18.818325221749422,52.42978588048118],[18.83379171828714,52.42145776696184],[18.848068484321946,52.42145776696184],[18.86472471136338,52.40718100092543],[18.901606356953305,52.39171450438877],[18.876622016392353,52.37505827734637],[18.850447945327776,52.35126366728851],[18.81951495225225,52.35126366728851],[18.81118683873202,52.33936636225918],[18.838550640298802,52.31319229119522],[18.87543228588944,52.32271013521854],[18.90398581795916,52.332227979241864],[18.92049974056922,52.29588564250663],[18.90741270503733,52.27566022395788],[18.926448393083795,52.26376291892757],[18.947863542136,52.24829642239003],[18.95619165565632,52.23401965635549],[18.947863542136,52.22450181233217],[18.926448393083795,52.237588847863705],[18.924068932077965,52.20427639378252],[18.9407251591186,52.198327741268216],[18.97641707420641,52.19713801076432],[19.018057641807996,52.19713801076432],[19.059698209410293,52.20427639378252],[19.102528507514794,52.20308666327854],[19.129892309082287,52.20546612428464],[19.165584224169386,52.19594828026132],[19.194137756239794,52.191189358250995],[19.225070749315233,52.1947585497592],[19.247675628870443,52.20546612428464],[19.283367543958164,52.20546612428464],[19.295264848987227,52.19237908875311],[19.34761299111576,52.191189358250995],[19.353561643630158,52.18048178372378],[19.371407601173797,52.17810232271857],[19.37854598419111,52.15549744316283],[19.37854598419111,52.14241040763138],[19.389253558717257,52.126943911092866],[19.429704395816728,52.14003094662529],[19.467775771910368,52.14478986863739],[19.49513957347706,52.14597959913951],[19.513882566761254,52.14109012263011],[19.498708764985807,52.13170283310413],[19.502277956494552,52.11623633656748],[19.493949842974146,52.10433903153717],[19.49513957347706,52.09363145701174],[19.516554722529357,52.08887253499874],[19.534400680072817,52.05437035041545],[19.560574751137484,52.053180619911465],[19.56652340365197,52.036524392870916],[19.552246637617166,52.0246270878415],[19.555815829125912,52.01867843532817],[19.545108254599764,52.01035032180697],[19.534400680072817,52.0246270878415],[19.50822660900904,52.02343735733939],[19.501088225991637,52.00678113029884],[19.51060607001483,51.985365981245195],[19.57604124767522,51.98298652024096],[19.60221531873907,51.97108921521067],[19.622440737289196,51.95562271867311],[19.66527103539363,51.952053527164026],[19.677168340422668,51.963950832194314],[19.705721872493086,51.962761101690376],[19.7247575605395,51.94015622213465],[19.74974190110123,51.91755134257892],[19.792572199205722,51.91517188157468],[19.83540249731095,51.90684376805348],[19.840161419322556,51.89018754101289],[19.812797617755052,51.866392930955044],[19.858007376866112,51.86758266145716],[19.900837674971342,51.854495625925665],[19.923442554526503,51.85806481743384],[19.963893391625902,51.84259832089538],[19.971031774643336,51.800957753294824],[19.974600966152025,51.77359395172698],[20.03289776079505,51.76050691619455],[20.06621021487623,51.74266095865189],[20.10904051298144,51.74504041965701],[20.120937818010503,51.765265838205764],[20.13997350605697,51.765265838205764],[20.14711188907437,51.78549125675639],[20.16733730762366,51.796198831282716],[20.16019892460626,51.80690640580815],[20.11617889599893,51.81523451932936],[20.114989165496016,51.850926434416635],[20.12926593153082,51.850926434416635],[20.13402485354248,51.862823739445076],[20.163768116115005,51.874721044474406],[20.174475690641863,51.85568535642776],[20.262515747857407,51.852116164918755],[20.26727466986898,51.883049157995615],[20.325571464512,51.87591077497839],[20.344607152558464,51.861634008942076],[20.35293526607878,51.87353131397229],[20.393386103178162,51.86401346994897],[20.395765564183993,51.849736703914516],[20.415990982733284,51.85449562592565],[20.423129365750775,51.8378393988851],[20.445734245305808,51.841408590393314],[20.47071858586756,51.82594209385479],[20.540912685539553,51.81404478882547],[20.542102416042468,51.80214748379694],[20.55399972107153,51.79381937027573],[20.55399972107153,51.777163143235185],[20.564707295597678,51.766455568709745],[20.559948373586018,51.75217880267521],[20.595640288673827,51.74266095865189],[20.61824516822895,51.72957392311858],[20.633711664766757,51.704589582558604],[20.628952742755096,51.686743625014074],[20.626573281749266,51.66532847596223],[20.62538355124635,51.63558521338926],[20.642039778286986,51.615359794838724],[20.68605980689513,51.62249817785596],[20.722941452485145,51.62011871685173],[20.75982309807587,51.61892898634775],[20.774099864110763,51.62368790835994],[20.81811989271889,51.63558521338927],[20.824068545233377,51.6415338659026],[20.878796148367652,51.65581063193892],[20.87641668736182,51.64272359640658],[20.916867524460493,51.6451030574117],[20.937092943009784,51.65819009294501],[20.952559439548303,51.6462927879156],[20.997769198658634,51.66651820646435],[20.99657946815572,51.67841551149466],[21.01918434771164,51.687933355517984],[21.035840574752186,51.68674362501409],[21.044168688272592,51.68674362501409],[21.05011734078708,51.69864093004342],[21.066773567827713,51.70815877406674],[21.083429794869147,51.70815877406674],[21.12388063196782,51.736712306135814],[21.132208745488047,51.737902036639795],[21.134588206493877,51.745040419657016],[21.18455688761658,51.7771631432352],[21.20240284516004,51.77597341273308],[21.214300150189104,51.7831117957503],[21.246422873768168,51.79738856178484],[21.288063441369754,51.81047559731815],[21.266648292317548,51.831890746369915],[21.249992065276913,51.841408590393236],[21.25356125678566,51.85092643441656],[21.274976405837865,51.85806481743387],[21.26902775332338,51.87472104447441],[21.24523314326534,51.891377271515054],[21.23809476024794,51.904464307047384],[21.241663951756596,51.913982151070705],[21.25832017879723,51.92468972559801],[21.266648292317548,51.93658703062556],[21.274976405837865,51.95205352716399],[21.26902775332338,51.962761101690404],[21.24523314326534,51.96989948470852],[21.222770568140696,51.98601640289326],[21.283446823789443,52.00148289943266],[21.285826284795274,52.01219047395899],[21.295344128818506,52.02765697049564],[21.306051703344654,52.02289804848442],[21.316759277871512,52.00624182144388],[21.34055388792955,52.01219047395899],[21.336984696420892,52.02884670099954],[21.38338418603476,52.03836454502286],[21.410747987601543,52.01694939596932],[21.440491250174066,52.01694939596932],[21.47261397375322,52.00267262993567],[21.504736697331573,51.984826672390255],[21.529721037893324,52.00029316892868],[21.565412952980335,52.02051858747833],[21.605863790079805,52.03479535351384],[21.634417322149414,52.02646723999264],[21.64512489667556,52.02646723999264],[21.674868159248884,52.019328856976216],[21.682006542266286,52.00386236043778],[21.69866276930692,51.99077532490536],[21.723647109867873,51.977688289372935],[21.7281001821929,51.977020328524304],[21.74744171992671,51.974119097864815],[21.780754174007978,51.95389367931605],[21.80097959255727,51.95627314032029],[21.822394741610275,51.94675529629697],[21.858086656697374,51.94913475730297],[21.86641477021769,51.964601253841494],[21.889019649773523,51.974119097864815],[21.869983961726348,51.98720613339724],[21.871173692229263,51.999103438426566],[21.887829919270697,52.007431551946],[21.87474288373872,52.01813912647321],[21.858086656697374,52.019328856976216],[21.85689692619446,52.03241589250774],[21.898537493796756,52.044313197536184],[21.923521834357796,52.060969424577706],[21.963972671457178,52.07881538212135],[21.928280756369368,52.11450729720853],[21.93066021737511,52.133542985255175],[21.92246918598711,52.14588187295342],[21.931987030010305,52.154209986472814],[21.949832987553766,52.15658944747882],[21.9664892145952,52.169676483011244],[22.005750321190956,52.170866213513364],[22.06761630734272,52.19109163206301],[22.06285738533106,52.22083489463695],[22.06047792432523,52.24225004368871],[22.04263196678177,52.243439774192694],[22.054529271810743,52.26723438425056],[22.06523684633689,52.29578791632052],[22.079513612371695,52.30292629933774],[22.081893073377525,52.321961987384384],[22.102118491926817,52.324341448390484],[22.105687683436273,52.337428483922814],[22.125913101985653,52.34932578895135],[22.1009287614239,52.36717174649587],[22.07594442086295,52.37193066850611],[22.06285738533106,52.39096635655275],[22.077134151365865,52.406432853091275],[22.11877471896825,52.413571236108496],[22.127102832488568,52.43379665465814],[22.168743400090154,52.43498638516212],[22.146138520534944,52.4682988392433],[22.106877413939188,52.4623501867281],[22.099739030920986,52.473057761255404],[22.086651995389097,52.47543722225964],[22.066426576839806,52.499231832319275],[22.06523684633689,52.52302644237713],[22.04025250577594,52.52897509489233],[22.02478600923742,52.53968266941777],[22.034303853261363,52.54682105243499],[22.04025250577594,52.55157997444621],[22.005750321190956,52.557528626962295],[21.990283824653236,52.54087239992166],[21.965299484092284,52.53373401690257],[21.916520533472585,52.544441591428985],[21.87963888788177,52.54563132193287],[21.847516164303507,52.55157997444621],[21.855844277823824,52.559908087967415],[21.870121043858628,52.565856740481635],[21.884397809893432,52.559908087967415],[21.9105718809581,52.567046470985616],[21.949832987553766,52.571805392996836],[21.97124813660686,52.60273838607192],[22.014078434711273,52.60868703858614],[22.023596278734505,52.627722726633664],[22.021216817728675,52.644378953674305],[22.02786531171549,52.66537419784373],[22.010509243202616,52.66103518071485],[21.992663285659066,52.65627625870363],[21.977196789121347,52.66698383322907],[21.949832987553766,52.66460437222484],[21.914141072466755,52.66817356373305],[21.89034646240792,52.68364006027148],[21.85703400832674,52.68245032976759],[21.81658317122727,52.67650167725239],[21.80587559670112,52.66817356373305],[21.79635775267789,52.65984545021185],[21.78089125614017,52.65984545021185],[21.75233772406976,52.647948145182426],[21.73211230552047,52.645568684178194],[21.728543114011725,52.63605084015487],[21.713076617474005,52.61939461311246],[21.695230659930456,52.625343265628544],[21.690471737918884,52.61820488260946],[21.677384702386195,52.62177407411856],[21.657159283836815,52.58727188953526],[21.644072248304926,52.59678973355858],[21.61789817724106,52.5979794640607],[21.60481114170837,52.59084108104348],[21.596483028188054,52.59203081154559],[21.59291383667931,52.60273838607192],[21.581016531650334,52.6063075775819],[21.573878148632932,52.61344596059913],[21.56673976561553,52.61106649959312],[21.56198084360396,52.59441027255249],[21.546514347066168,52.589651350539455],[21.497735396446394,52.58846162003734],[21.482268899908675,52.57894377601402],[21.46791220351083,52.57894377601402],[21.45847428984984,52.57894377601402],[21.471561325381817,52.61701515210731],[21.48345863041159,52.6562762587036],[21.492976474434823,52.68839898228266],[21.48583809141742,52.7026757483172],[21.471561325381817,52.71100386183841],[21.466802403370245,52.732419010889274],[21.446576984820865,52.74669577692559],[21.431110488283146,52.752644429438924],[21.397798034201077,52.75859308195501],[21.38471099866919,52.763352003966226],[21.36924450213147,52.768110925978334],[21.354967736096665,52.76454173446834],[21.350208814085093,52.769300656481334],[21.334742317547285,52.769300656481334],[21.321655282014596,52.770490386983454],[21.306188785476877,52.768110925978334],[21.30024013296239,52.775249308995555],[21.27525579240144,52.769300656481334],[21.28477363642467,52.75502389044502],[21.21101034524402,52.74907523793169],[21.207441153735274,52.735988202398374],[21.191974657196756,52.735988202398374],[21.177697891161863,52.769300656481334],[21.162231394624143,52.77405957849166],[21.15747247261257,52.784767153018876],[21.10155513897547,52.780008231006775],[21.102744869478297,52.76454173446834],[21.069432415397117,52.75621362094891],[21.059914571373884,52.77762877000076],[21.00518696823961,52.75621362094891],[20.996858854719292,52.765731464972234],[20.977823166672827,52.765731464972234],[20.939751790579187,52.789526075030096],[20.91833664152698,52.778818500504656],[20.93142367705887,52.752644429438924],[20.91833664152698,52.741936854912595],[20.879075534930426,52.751454698935916],[20.861229577386876,52.73717793290227],[20.83743496732884,52.74669577692559],[20.86003984688405,52.76097254295924],[20.830296584310638,52.77643903949776],[20.761416298892655,52.74994228023844],[20.74000114984036,52.71187090414426],[20.710257887267037,52.696404407606636],[20.667427589162624,52.70473252112784],[20.638874057092217,52.694024946602404],[20.61745890803992,52.70235306012094],[20.598423219993546,52.70116332961883],[20.573438879431794,52.67023033654188],[20.540126425350525,52.660712492518556],[20.52347019830989,52.674989258554874],[20.565110765911477,52.70711198213216],[20.52347019830989,52.73447578369992],[20.50086531875397,52.70592225162996],[20.48301936121051,52.70116332961883],[20.455655559643727,52.71425036515116],[20.43661987159655,52.71781955665938],[20.41639445304717,52.71662982615548],[20.398548495503622,52.71068117364215],[20.379512807457246,52.7249579396766],[20.36731806980192,52.7334347695096],[20.361071984661884,52.74057315252683],[20.37088726131058,52.74592693979137],[20.372671857065395,52.75931140794819],[20.386651190474648,52.772547159794186],[20.378917942205344,52.779834259123206],[20.365533474047904,52.77001898247451],[20.348758273956925,52.77323125483231],[20.33311331784329,52.76540877677509],[20.31288789929391,52.763029315770865],[20.27957544521193,52.771357429290205],[20.262621785545743,52.75827039375778],[20.21979148744053,52.75827039375778],[20.191237955370834,52.74756281923234],[20.17220226732366,52.752321741244444],[20.155546040283024,52.74756281923234],[20.13413089123073,52.766598507278985],[20.115095203184353,52.752321741244444],[20.092490323628432,52.751132010740555],[20.079403288096543,52.75351147174745],[20.06036760005008,52.74756281923234],[20.019916762950608,52.74756281923234],[20.025865415465184,52.72971686168782],[20.023485954459353,52.71187090414418],[20.03181406797967,52.698783868612736],[20.053229217032676,52.692835216097535],[20.05441894753559,52.67736871956088],[20.06988544407331,52.66666114503367],[20.088921132119687,52.66309195352545],[20.104387628657406,52.671420067044885],[20.12104385569884,52.669040606039765],[20.13651035223656,52.63334869095249],[20.129371969219157,52.5952773148592],[20.162684423300426,52.55363674725682],[20.17934065034106,52.528652406695066],[20.17934065034106,52.51080644915143],[20.193617416376664,52.51318591015841],[20.216222295931786,52.48820156959666],[20.21265310442313,52.463217229034825],[20.19718660788541,52.454889115515485],[20.188858494365004,52.42633558344454],[20.182909841849806,52.40492043439189],[20.168633075814913,52.38469501584224],[20.10557735916032,52.38469501584224],[20.04966002552393,52.379936093831915],[19.9985016138984,52.38469501584224],[19.960430237804758,52.40254097338587],[19.911651287185773,52.43347396646185],[19.852164762039926,52.46202749853269],[19.836698265502207,52.4608377680288],[19.798626889408567,52.46916588154903],[19.724863598227827,52.47511453406423],[19.699879257666876,52.51199617965442],[19.65585922905875,52.52865240669506],[19.603511086930304,52.5500675557477],[19.55116294480186,52.563154591280124],[19.526178604240908,52.564344321782244],[19.49286615015964,52.573862165805565],[19.469071540100803,52.581000548824655],[19.438138547025275,52.598846506367494],[19.40363636244038,52.60479515888251],[19.392046194332103,52.61017630836162],[19.37032390835911,52.620261655420975],[19.32273468824224,52.6297794994443],[19.25848924108482,52.6309692299465],[19.207330829460002,52.64048707396982],[19.134757268782266,52.65595357050825],[19.03719936754269,52.659522762016465],[18.99912799144985,52.6773687195609],[18.947969579824314,52.72019901766453],[18.905139281719013,52.77016769878723],[18.89086251568421,52.7975315003541],[18.867067905626172,52.8403617984586],[18.831375990538273,52.855828294997124],[18.787355961930945,52.87843317455189],[18.75285377734605,52.89152021008431],[18.719015993336424,52.9036517393206],[18.696411113780858,52.89056470378907],[18.65833973768775,52.88461605127485],[18.636924588635278,52.89056470378907],[18.613129978576442,52.88580578177794],[18.57862779399208,52.862011171719104],[18.5643510279571,52.82988844814102],[18.56673048896346,52.81799114311071],[18.55959210594597,52.795386263556836],[18.581007254998443,52.787058150036515],[18.581007254998443,52.77635057550921],[18.569109949969025,52.76921219249199],[18.57862779399208,52.75136623494746],[18.556022914437225,52.74184839092503],[18.483449353759045,52.73827919941691],[18.475121240238373,52.72995108589659],[18.491777467279807,52.709725667346945],[18.48701854526779,52.677602943766985],[18.442998516659664,52.6764132132639],[18.43942932515092,52.637152106668495],[18.45489582168908,52.565768276494026],[18.428721750624682,52.55268124096072],[18.377563338999774,52.54197366643528],[18.33830223240393,52.53959420543105]]]]}},{"type":"Feature","properties":{"kind":"district","id":"uyezd-1897-125","name":"Влоцлавский","provinceId":"gubernia-1897-15"},"geometry":{"type":"MultiPolygon","coordinates":[[[[18.947969579824225,52.72019901766453],[18.92897015852079,52.7165109316848],[18.92421123650922,52.70342389615238],[18.912313931479446,52.7058033571575],[18.838550640298795,52.691526591122965],[18.806427916720352,52.63441952698214],[18.785012767668146,52.63441952698214],[18.787392228673976,52.6141941084325],[18.771925732135458,52.608245455918194],[18.757648966100653,52.61062491692429],[18.73861327805419,52.61062491692429],[18.73861327805419,52.59872761189487],[18.72314678151647,52.59515842038586],[18.719577590007724,52.571363810327995],[18.749320852580247,52.56184596630467],[18.72076732051064,52.54043081725194],[18.71243920698961,52.448821568527826],[18.740992739060026,52.45595995154504],[18.761218157609317,52.45833941255114],[18.783823037165238,52.4476318380257],[18.80880737772619,52.44049345500848],[18.83141225728131,52.44644210752172],[18.84687875381903,52.44049345500848],[18.834981448790057,52.43454480249328],[18.818325221749422,52.42978588048118],[18.83379171828714,52.42145776696184],[18.848068484321946,52.42145776696184],[18.86472471136338,52.40718100092543],[18.901606356953305,52.39171450438877],[18.876622016392353,52.37505827734637],[18.850447945327776,52.35126366728851],[18.81951495225225,52.35126366728851],[18.81118683873202,52.33936636225918],[18.838550640298802,52.31319229119522],[18.87543228588944,52.32271013521854],[18.903985817959136,52.332227979241864],[18.937298272041204,52.333417709745845],[18.95633396008758,52.300105255662885],[19.006302641210283,52.306053908178],[19.002733449701537,52.32271013521854],[19.05032266981761,52.341745823265185],[19.16215733709199,52.33817663175617],[19.188331408155857,52.329848518235856],[19.209746557208774,52.35364312829461],[19.214505479220435,52.37029935533515],[19.247817933301704,52.38457612137155],[19.248717476041733,52.3985190338434],[19.250197394307445,52.42145776696184],[19.252576855313276,52.44644210752172],[19.288268770401174,52.461908604059346],[19.333478529511417,52.480944292106884],[19.346565565044106,52.50592863266863],[19.362032061581825,52.50473890216474],[19.38582667163986,52.50711836317075],[19.3810677496282,52.51425674618806],[19.364411522587567,52.51782593769805],[19.329909338002672,52.52258485970927],[19.30492499744172,52.51068755467896],[19.288268770401174,52.51187728518285],[19.25852550782785,52.51663620719407],[19.239489819781298,52.51306701568497],[19.222833592740752,52.52734378171951],[19.22402332324358,52.54518973926403],[19.23592062827264,52.56660488831588],[19.290648231406916,52.56660488831588],[19.326340146494015,52.564225427311655],[19.384636941136947,52.573743271334976],[19.384636941136947,52.59991734239884],[19.392046194332103,52.61017630836162],[19.370323908359104,52.62026165542099],[19.32273468824223,52.62977949944431],[19.258489241084813,52.630969229946515],[19.207330829459995,52.64048707396984],[19.13475726878226,52.65595357050826],[19.037199367542684,52.65952276201648],[18.999127991449843,52.67736871956092],[18.947969579824225,52.72019901766453]]]]}},{"type":"Feature","properties":{"kind":"district","id":"uyezd-1897-127","name":"Новоминский","provinceId":"gubernia-1897-15"},"geometry":{"type":"MultiPolygon","coordinates":[[[[21.675005241380365,52.250578157209915],[21.654642740698794,52.25251603554714],[21.62489947812618,52.26084414906657],[21.611812442594292,52.27393118459899],[21.597535676559488,52.282259298120195],[21.588017832535545,52.30129498616684],[21.56660268348325,52.306053908177965],[21.509495619343145,52.307243638681946],[21.504736697331573,52.277500376108975],[21.46785505174156,52.28701822013132],[21.435732328162494,52.291777142143516],[21.38576364704059,52.285828489628315],[21.356020384467268,52.291777142143516],[21.34293334893529,52.281069567616214],[21.34055388792955,52.26917226258777],[21.384573916537676,52.267982532085654],[21.392902030057993,52.25846468806233],[21.361969036981844,52.24418792202593],[21.35007173195278,52.24894684403901],[21.303672242338823,52.23704953900871],[21.30486197284174,52.21920358146596],[21.29415439831559,52.20135762392143],[21.252513830714005,52.18232193587479],[21.221580837637855,52.17637328335968],[21.214442454620364,52.151388942799706],[21.219201376632025,52.127594332740074],[21.22871922065517,52.10498945318521],[21.212062993614623,52.07881538212135],[21.19540676657399,52.051451580554385],[21.201297746602933,52.044521015814254],[21.21563218512328,52.02765697049564],[21.22277056814068,52.00862128244989],[21.22277056814068,51.986016402893256],[21.283446823789443,52.00148289943266],[21.285826284795274,52.01219047395899],[21.295344128818506,52.02765697049564],[21.306051703344654,52.02289804848442],[21.316759277871512,52.00624182144388],[21.34055388792955,52.01219047395899],[21.336984696420892,52.02884670099954],[21.38338418603476,52.03836454502286],[21.410747987601543,52.01694939596932],[21.440491250174066,52.01694939596932],[21.47261397375322,52.00267262993567],[21.504736697331573,51.984826672390255],[21.529721037893324,52.00029316892868],[21.565412952980335,52.02051858747833],[21.605863790079805,52.03479535351384],[21.634417322149414,52.02646723999264],[21.64512489667556,52.02646723999264],[21.674868159248884,52.019328856976216],[21.682006542266286,52.00386236043778],[21.69866276930692,51.99077532490536],[21.723647109867873,51.977688289372935],[21.7281001821929,51.977020328524304],[21.74744171992671,51.974119097864815],[21.780754174007978,51.95389367931605],[21.80097959255727,51.95627314032029],[21.822394741610275,51.94675529629697],[21.858086656697374,51.94913475730297],[21.86641477021769,51.964601253841494],[21.889019649773523,51.974119097864815],[21.869983961726348,51.98720613339724],[21.871173692229263,51.999103438426566],[21.887829919270697,52.007431551946],[21.87474288373872,52.01813912647321],[21.858086656697374,52.019328856976216],[21.85689692619446,52.03241589250774],[21.898537493796756,52.044313197536184],[21.923521834357796,52.060969424577706],[21.963972671457178,52.07881538212135],[21.928280756369368,52.11450729720853],[21.93066021737511,52.133542985255175],[21.922469185987072,52.14588187295338],[21.901054036934866,52.174435405022464],[21.889156731905004,52.180384057536685],[21.867741582852798,52.172055944017345],[21.858223738829565,52.15777917798182],[21.84156751178902,52.15658944747882],[21.83442912877153,52.179194327034566],[21.83442912877153,52.20179920659031],[21.842757242291846,52.20774785910542],[21.832049667765787,52.22202462513907],[21.82610101525121,52.23511166067149],[21.804685866198206,52.248198696202934],[21.797547483180804,52.25533707922202],[21.757096646082132,52.252957618216016],[21.721404730994323,52.23273219966539],[21.70117931244503,52.243439774192694],[21.675005241380365,52.250578157209915]]]]}},{"type":"Feature","properties":{"kind":"district","id":"uyezd-1897-128","name":"Гостынский","provinceId":"gubernia-1897-15"},"geometry":{"type":"MultiPolygon","coordinates":[[[[19.248717476041733,52.3985190338434],[19.28693673546691,52.38273596922042],[19.29169565747857,52.36132082016688],[19.313110806530776,52.35418243714957],[19.32500811156055,52.34228513212024],[19.379735714694025,52.33633647960504],[19.40115086374712,52.335146749102925],[19.41899682129058,52.350613245641355],[19.463016849897997,52.33395701860081],[19.47491415492777,52.307782947535074],[19.50346768699738,52.30659321703296],[19.520123914038013,52.29350618150054],[19.5617644816404,52.28993698999144],[19.577230978178118,52.28993698999144],[19.590318013710007,52.28398833747722],[19.608163971254356,52.27566022395788],[19.61530235427176,52.256624535911236],[19.646235347347197,52.25543480540814],[19.66289157438783,52.261383457921475],[19.666460765896577,52.28041914596812],[19.705721872493044,52.264952649430576],[19.721188369030852,52.25424507490425],[19.733085674059826,52.2399683088706],[19.789003007697016,52.2399683088706],[19.798520851720248,52.22688127333818],[19.835402497310973,52.23401965635549],[19.852058724351608,52.22688127333818],[19.907976057988797,52.235209386857605],[19.921063093520686,52.24591696138482],[19.9222528240236,52.264952649430576],[19.886560908935703,52.26614237993456],[19.88418144792996,52.273280762951785],[19.860386837871925,52.278039684963886],[19.852058724351608,52.29231645099843],[19.86990468189507,52.30183429502175],[19.92582201553226,52.307782947535074],[19.974600966152046,52.35775162865867],[19.972221505146216,52.36726947268199],[19.949616625590295,52.37678731670531],[19.960430237804758,52.40254097338581],[19.91165128718577,52.433473966461875],[19.852164762039923,52.46202749853273],[19.836698265502203,52.46083776802884],[19.798626889408563,52.46916588154906],[19.724863598227824,52.47511453406426],[19.699879257666872,52.51199617965445],[19.655859229058745,52.52865240669509],[19.6035110869303,52.55006755574774],[19.551162944801856,52.56315459128016],[19.526178604240904,52.56434432178227],[19.492866150159635,52.57386216580559],[19.469071540100796,52.5810005488247],[19.438138547025268,52.59884650636745],[19.403636362440373,52.60479515888255],[19.392046194332103,52.61017630836162],[19.384636941136947,52.59991734239884],[19.384636941136947,52.573743271334976],[19.326340146494015,52.564225427311655],[19.290648231406916,52.56660488831588],[19.23592062827264,52.56660488831588],[19.22402332324358,52.54518973926403],[19.222833592740752,52.52734378171951],[19.239489819781298,52.51306701568497],[19.25852550782785,52.51663620719407],[19.288268770401174,52.51187728518285],[19.30492499744172,52.51068755467896],[19.329909338002672,52.52258485970927],[19.364411522587567,52.51782593769805],[19.3810677496282,52.51425674618806],[19.38582667163986,52.50711836317075],[19.362032061581825,52.50473890216474],[19.346565565044106,52.50592863266863],[19.333478529511417,52.480944292106884],[19.288268770401174,52.461908604059346],[19.252576855313276,52.44644210752172],[19.250197394307445,52.42145776696184],[19.248717476041733,52.3985190338434]]]]}},{"type":"Feature","properties":{"kind":"district","id":"uyezd-1897-129","name":"Кутновский","provinceId":"gubernia-1897-15"},"geometry":{"type":"MultiPolygon","coordinates":[[[[19.733085674059826,52.2399683088706],[19.721188369030852,52.25424507490425],[19.705721872493044,52.264952649430576],[19.666460765896577,52.28041914596812],[19.66289157438783,52.261383457921475],[19.646235347347197,52.25543480540814],[19.61530235427176,52.256624535911236],[19.608163971254356,52.27566022395788],[19.590318013710007,52.28398833747722],[19.577230978178118,52.28993698999144],[19.5617644816404,52.28993698999144],[19.520123914038013,52.29350618150054],[19.50346768699738,52.30659321703296],[19.47491415492777,52.307782947535074],[19.463016849897997,52.33395701860081],[19.41899682129058,52.350613245641355],[19.40115086374712,52.335146749102925],[19.379735714694025,52.33633647960504],[19.32500811156055,52.34228513212024],[19.313110806530776,52.35418243714957],[19.29169565747857,52.36132082016688],[19.28693673546691,52.38273596922042],[19.248717476041733,52.3985190338434],[19.247817933301704,52.38457612137155],[19.214505479220435,52.37029935533515],[19.209746557208774,52.35364312829461],[19.188331408155857,52.329848518235856],[19.16215733709199,52.33817663175617],[19.05032266981761,52.341745823265185],[19.002733449701537,52.32271013521854],[19.006302641210283,52.306053908178],[18.95633396008758,52.300105255662885],[18.937298272041204,52.333417709745845],[18.903985817959136,52.332227979241864],[18.92049974056922,52.29588564250663],[18.90741270503733,52.27566022395788],[18.926448393083795,52.26376291892757],[18.947863542136,52.24829642239003],[18.95619165565632,52.23401965635549],[18.947863542136,52.22450181233217],[18.926448393083795,52.237588847863705],[18.924068932077965,52.20427639378252],[18.9407251591186,52.198327741268216],[18.97641707420641,52.19713801076432],[19.018057641807996,52.19713801076432],[19.059698209410293,52.20427639378252],[19.102528507514794,52.20308666327854],[19.129892309082287,52.20546612428464],[19.165584224169386,52.19594828026132],[19.194137756239794,52.191189358250995],[19.225070749315233,52.1947585497592],[19.247675628870443,52.20546612428464],[19.283367543958164,52.20546612428464],[19.295264848987227,52.19237908875311],[19.34761299111576,52.191189358250995],[19.353561643630158,52.18048178372378],[19.371407601173797,52.17810232271857],[19.37854598419111,52.15549744316283],[19.37854598419111,52.14241040763138],[19.389253558717257,52.126943911092866],[19.429704395816728,52.14003094662529],[19.467775771910368,52.14478986863739],[19.49513957347706,52.14597959913951],[19.513882566761676,52.141090122630374],[19.522503375043843,52.13884121612139],[19.56652340365197,52.126943911092866],[19.590318013710007,52.11980552807564],[19.614112623768843,52.12813364159498],[19.6117331627631,52.13527202461407],[19.631958581312393,52.1376514856183],[19.65813265237626,52.13527202461407],[19.670029957405234,52.1376514856183],[19.674788879417605,52.15906663467193],[19.666460765896577,52.18048178372378],[19.687875914949583,52.17691259221468],[19.692634836961155,52.20784558529154],[19.72475756053951,52.20784558529154],[19.733085674059826,52.2399683088706]]]]}},{"type":"Feature","properties":{"kind":"district","id":"uyezd-1897-130","name":"Ловичский","provinceId":"gubernia-1897-15"},"geometry":{"type":"MultiPolygon","coordinates":[[[[19.513882566761676,52.141090122630374],[19.498708764985807,52.13170283310413],[19.502277956494552,52.11623633656748],[19.493949842974146,52.10433903153717],[19.49513957347706,52.09363145701174],[19.516554722529357,52.08887253499874],[19.534400680072817,52.05437035041545],[19.560574751137484,52.053180619911465],[19.56652340365197,52.036524392870916],[19.552246637617166,52.0246270878415],[19.555815829125912,52.01867843532817],[19.545108254599764,52.01035032180697],[19.534400680072817,52.0246270878415],[19.50822660900904,52.02343735733939],[19.501088225991637,52.00678113029884],[19.51060607001487,51.98536598124521],[19.576041247675203,51.982986520240985],[19.60221531873907,51.971089215210675],[19.62244073728916,51.95562271867313],[19.665271035393662,51.95205352716403],[19.677168340422636,51.96395083219434],[19.705721872493044,51.96276110169036],[19.72475756053951,51.94015622213462],[19.74974190110126,51.91755134257896],[19.79257219920576,51.915171881574636],[19.835402497310973,51.906843768053434],[19.862766298877755,51.90803349855564],[19.891319830948163,51.90446430704743],[19.9222528240236,51.916361612076756],[19.954375547601956,51.92468972559796],[19.938909051064236,51.95324325766792],[19.982929079672363,51.987745442251224],[20.018620994759463,51.987745442251224],[20.036466952303723,52.01272978281306],[20.08524590292271,52.01391951331607],[20.181614073659283,52.00916059130485],[20.217305988746382,52.000832477783646],[20.252997903834192,51.98536598124521],[20.260136286851594,52.00797086080095],[20.274413052886487,52.00202220828763],[20.255377364840022,52.04247304538603],[20.231582754781186,52.044852506392125],[20.22087518025504,52.07221630795811],[20.235151946289843,52.0769752299711],[20.22087518025504,52.117426067069594],[20.180424343156368,52.1114774145544],[20.132835123039584,52.15073852115077],[20.10309186046706,52.15430771266077],[20.088815094431457,52.142410407631345],[20.050743718338527,52.142410407631345],[20.045984796326955,52.17572286171253],[20.036466952303723,52.18643043623796],[20.041225874315295,52.224501812332136],[20.013862072747802,52.26019372741941],[19.96865231363747,52.26614237993452],[19.9222528240236,52.264952649430576],[19.921063093520686,52.24591696138482],[19.907976057988797,52.235209386857605],[19.852058724351608,52.22688127333818],[19.835402497310973,52.23401965635549],[19.798520851720248,52.22688127333818],[19.789003007697016,52.2399683088706],[19.733085674059826,52.2399683088706],[19.72475756053951,52.20784558529154],[19.692634836961155,52.20784558529154],[19.687875914949583,52.17691259221468],[19.666460765896577,52.18048178372378],[19.674788879417605,52.15906663467193],[19.670029957405234,52.1376514856183],[19.65813265237626,52.13527202461407],[19.631958581312393,52.1376514856183],[19.6117331627631,52.13527202461407],[19.614112623768843,52.12813364159498],[19.590318013710007,52.11980552807564],[19.56652340365197,52.126943911092866],[19.522503375043843,52.13884121612139],[19.513882566761676,52.141090122630374]]]]}},{"type":"Feature","properties":{"kind":"district","id":"uyezd-1897-131","name":"Скерневицкий","provinceId":"gubernia-1897-15"},"geometry":{"type":"MultiPolygon","coordinates":[[[[19.835402497310973,51.906843768053434],[19.840161419322545,51.89018754101291],[19.812797617755052,51.866392930955044],[19.858007376866095,51.86758266145716],[19.900837674971307,51.85449562592563],[19.923442554526517,51.85806481743384],[19.9638933916259,51.84259832089541],[19.9710317746433,51.8009577532948],[19.974600966152046,51.77359395172695],[20.032897760795066,51.76050691619453],[20.066210214876246,51.74266095865187],[20.10904051298146,51.74504041965699],[20.12093781801052,51.76526583820575],[20.139973506056986,51.76526583820575],[20.147111889074388,51.78549125675637],[20.16733730762368,51.796198831282695],[20.160198924606277,51.806906405808135],[20.11617889599895,51.81523451932934],[20.114989165496034,51.85092643441662],[20.12926593153084,51.85092643441662],[20.1340248535425,51.86282373944506],[20.163768116115023,51.874721044474384],[20.17447569064188,51.85568535642774],[20.262515747857424,51.85211616491873],[20.267274669868996,51.88304915799559],[20.325571464512016,51.875910774978365],[20.34460715255848,51.861634008942055],[20.3529352660788,51.87353131397227],[20.39338610317818,51.86401346994895],[20.39576556418401,51.8497367039145],[20.4159909827333,51.85449562592563],[20.423129365750793,51.83783939888508],[20.445734245305825,51.8414085903933],[20.470718585867576,51.82594209385478],[20.54091268553957,51.81404478882545],[20.588501905655644,51.81999344134056],[20.59445055817102,51.8437880513993],[20.57660460062667,51.85687508693172],[20.552809990568633,51.86282373944506],[20.542102416042486,51.877100505480485],[20.483805621399554,51.888997810508926],[20.473098046873407,51.90446430704745],[20.458821280838603,51.92587945610009],[20.424319096253708,51.9342075696213],[20.424319096253708,51.948484335655834],[20.39338610317818,51.948484335655834],[20.389816911669435,51.99845301677756],[20.4159909827333,52.00202220828764],[20.39338610317818,52.018678435328184],[20.361263379599027,52.02581681834541],[20.34460715255848,52.0174887048242],[20.312484428980127,52.01391951331608],[20.29463847143578,52.00559139979488],[20.274413052886487,52.00202220828763],[20.260136286851594,52.00797086080095],[20.252997903834192,51.98536598124521],[20.217305988746382,52.000832477783646],[20.181614073659283,52.00916059130485],[20.08524590292271,52.01391951331607],[20.036466952303723,52.01272978281306],[20.018620994759463,51.987745442251224],[19.982929079672363,51.987745442251224],[19.938909051064236,51.95324325766792],[19.954375547601956,51.92468972559796],[19.9222528240236,51.916361612076756],[19.891319830948163,51.90446430704743],[19.862766298877755,51.90803349855564],[19.835402497310973,51.906843768053434]]]]}},{"type":"Feature","properties":{"kind":"district","id":"uyezd-1897-132","name":"Гроецкий","provinceId":"gubernia-1897-15"},"geometry":{"type":"MultiPolygon","coordinates":[[[[21.201297746602933,52.044521015814254],[21.160762277558455,52.050801158905415],[21.138157398002623,52.04485250639208],[21.083429794869147,52.049611428403296],[21.042978957769677,52.049611428403296],[21.028702191734872,52.03533466236876],[21.000148659664465,52.050801158905415],[20.972784858097683,52.054370350415404],[20.954938900554133,52.06388819443784],[20.916867524460493,52.06388819443784],[20.88474480088214,52.053180619911515],[20.89188318389954,52.036524392870874],[20.878796148367652,52.02700654884755],[20.86689884333779,52.01510924381823],[20.85857072981756,52.00440166929181],[20.827637736742034,52.01986816583033],[20.79789447416871,52.01510924381823],[20.771720403104933,51.98774544225127],[20.758633367572955,51.98179678973705],[20.684870076392304,51.972278945713725],[20.649178161304494,51.94967406615798],[20.624193820743542,51.93420756962133],[20.646798700298664,51.86282373944509],[20.642039778287003,51.84854697341055],[20.61705543772605,51.84616751240445],[20.59445055817102,51.8437880513993],[20.588501905655644,51.81999344134056],[20.54091268553957,51.81404478882545],[20.542102416042486,51.802147483796944],[20.55399972107155,51.79381937027574],[20.55399972107155,51.7771631432352],[20.564707295597696,51.76645556870976],[20.559948373586035,51.75217880267522],[20.595640288673845,51.742660958651896],[20.618245168228967,51.72957392311859],[20.633711664766775,51.70458958255861],[20.628952742755114,51.68674362501409],[20.626573281749284,51.66532847596224],[20.62538355124637,51.63558521338927],[20.642039778287003,51.61535979483874],[20.68605980689513,51.62249817785596],[20.722941452485145,51.62011871685173],[20.75982309807587,51.61892898634775],[20.774099864110763,51.62368790835994],[20.81811989271889,51.63558521338927],[20.824068545233377,51.6415338659026],[20.878796148367652,51.65581063193892],[20.87641668736182,51.64272359640658],[20.916867524460493,51.6451030574117],[20.937092943009784,51.65819009294501],[20.952559439548303,51.6462927879156],[20.997769198658634,51.66651820646435],[20.99657946815572,51.67841551149466],[21.01918434771164,51.687933355517984],[21.035840574752186,51.68674362501409],[21.044168688272592,51.68674362501409],[21.05011734078708,51.69864093004342],[21.066773567827713,51.70815877406674],[21.083429794869147,51.70815877406674],[21.12388063196782,51.736712306135814],[21.132208745488047,51.737902036639795],[21.134588206493877,51.745040419657016],[21.18455688761658,51.7771631432352],[21.20240284516004,51.77597341273308],[21.214300150189104,51.7831117957503],[21.246422873768168,51.79738856178484],[21.288063441369754,51.81047559731815],[21.266648292317548,51.831890746369915],[21.249992065276913,51.841408590393236],[21.25356125678566,51.85092643441656],[21.274976405837865,51.85806481743387],[21.26902775332338,51.87472104447441],[21.24523314326534,51.891377271515054],[21.23809476024794,51.904464307047384],[21.241663951756596,51.913982151070705],[21.25832017879723,51.92468972559801],[21.266648292317548,51.93658703062556],[21.274976405837865,51.95205352716399],[21.26902775332338,51.962761101690404],[21.24523314326534,51.96989948470852],[21.22277056814068,51.986016402893256],[21.22277056814068,52.00862128244989],[21.21563218512328,52.02765697049564],[21.201297746602933,52.044521015814254]]]]}},{"type":"Feature","properties":{"kind":"district","id":"uyezd-1897-133","name":"Блонский","provinceId":"gubernia-1897-15"},"geometry":{"type":"MultiPolygon","coordinates":[[[[20.878796148367652,52.02700654884755],[20.85619126881173,52.041283314882094],[20.8538118078059,52.056749811420524],[20.843104233279842,52.0900622655017],[20.870468034846535,52.113856875561424],[20.862139921326218,52.137651485618306],[20.841914502776927,52.140030946625295],[20.821689084227547,52.134082294110186],[20.794325282660054,52.137651485618306],[20.766961481093272,52.191189358251],[20.73721821852075,52.19832774126823],[20.722941452485145,52.228071003840306],[20.68605980689513,52.22926073434429],[20.633711664766775,52.23164019534852],[20.626573281749284,52.24948615289394],[20.603968402194162,52.25662453591124],[20.59445055817102,52.27328076295179],[20.624193820743542,52.280419145968125],[20.61705543772605,52.29350618150055],[20.490944004416956,52.24948615289394],[20.46239047234726,52.22450181233218],[20.474287777376322,52.197138010764334],[20.465959663856005,52.16739474819137],[20.41123206072173,52.17572286171257],[20.381488798149206,52.17572286171257],[20.37791960663966,52.130513102601086],[20.402903947201413,52.11623633656744],[20.371970954125175,52.09125199600568],[20.336279039038075,52.10433903153713],[20.313674159483043,52.13527202461408],[20.254187634337107,52.130513102601086],[20.22087518025504,52.117426067069594],[20.235151946289843,52.0769752299711],[20.22087518025504,52.07221630795811],[20.231582754781186,52.044852506392125],[20.255377364840022,52.04247304538603],[20.274413052886487,52.00202220828763],[20.29463847143578,52.00559139979488],[20.312484428980127,52.01391951331608],[20.34460715255848,52.0174887048242],[20.361263379599027,52.02581681834541],[20.39338610317818,52.018678435328184],[20.4159909827333,52.00202220828764],[20.389816911669435,51.99845301677756],[20.39338610317818,51.948484335655834],[20.424319096253708,51.948484335655834],[20.424319096253708,51.9342075696213],[20.458821280838603,51.92587945610009],[20.473098046873407,51.90446430704745],[20.483805621399554,51.888997810508926],[20.542102416042486,51.877100505480485],[20.552809990568633,51.86282373944506],[20.57660460062667,51.85687508693172],[20.59445055817102,51.8437880513993],[20.61705543772605,51.84616751240445],[20.642039778287003,51.84854697341055],[20.646798700298664,51.86282373944509],[20.624193820743542,51.93420756962133],[20.649178161304494,51.94967406615798],[20.684870076392304,51.972278945713725],[20.758633367572955,51.98179678973705],[20.771720403104933,51.98774544225127],[20.79789447416871,52.01510924381823],[20.827637736742034,52.01986816583033],[20.85857072981756,52.00440166929181],[20.86689884333779,52.01510924381823],[20.878796148367652,52.02700654884755]]]]}},{"type":"Feature","properties":{"kind":"district","id":"uyezd-1897-134","name":"Сохачевский","provinceId":"gubernia-1897-15"},"geometry":{"type":"MultiPolygon","coordinates":[[[[20.61705543772605,52.29350618150055],[20.657506274824723,52.30778294753509],[20.687249537398046,52.31849052206239],[20.68130088488356,52.32919809658783],[20.66821384935167,52.33395701860082],[20.662265196837183,52.357751628658676],[20.646798700298664,52.356561898155675],[20.624193820743542,52.36013108966469],[20.61229651571448,52.357751628658676],[20.601588941188332,52.36964893368801],[20.606347863199993,52.37916677771133],[20.636091125772516,52.38987435223677],[20.636091125772516,52.39939219626106],[20.588501905655644,52.4100997707865],[20.57184567861501,52.4017716572653],[20.545671607551142,52.4112895012904],[20.517118075480735,52.4100997707865],[20.476667238382063,52.40058192676318],[20.440975323294253,52.38749489123076],[20.40647313871007,52.367269472682],[20.381488798149206,52.367269472682],[20.356504457587455,52.372028394694105],[20.292259010429948,52.38511543022466],[20.224444371763784,52.38749489123076],[20.197080570197002,52.38273596921866],[20.16863307581491,52.38469501584227],[20.105577359160318,52.38469501584227],[20.049660025523927,52.37993609383194],[19.998501613898398,52.38469501584227],[19.960430237804758,52.40254097338581],[19.949616625590295,52.37678731670531],[19.972221505146216,52.36726947268199],[19.974600966152046,52.35775162865867],[19.92582201553226,52.307782947535074],[19.86990468189507,52.30183429502175],[19.852058724351608,52.29231645099843],[19.860386837871925,52.278039684963886],[19.88418144792996,52.273280762951785],[19.886560908935703,52.26614237993456],[19.9222528240236,52.264952649430576],[19.96865231363747,52.26614237993452],[20.013862072747802,52.26019372741941],[20.041225874315295,52.224501812332136],[20.036466952303723,52.18643043623796],[20.045984796326955,52.17572286171253],[20.050743718338527,52.142410407631345],[20.088815094431457,52.142410407631345],[20.10309186046706,52.15430771266077],[20.132835123039584,52.15073852115077],[20.180424343156368,52.1114774145544],[20.22087518025504,52.117426067069594],[20.254187634337107,52.130513102601086],[20.313674159483043,52.13527202461408],[20.336279039038075,52.10433903153713],[20.371970954125175,52.09125199600568],[20.402903947201413,52.11623633656744],[20.37791960663966,52.130513102601086],[20.381488798149206,52.17572286171257],[20.41123206072173,52.17572286171257],[20.465959663856005,52.16739474819137],[20.474287777376322,52.197138010764334],[20.46239047234726,52.22450181233218],[20.490944004416956,52.24948615289394],[20.61705543772605,52.29350618150055]]]]}},{"type":"Feature","properties":{"kind":"district","id":"uyezd-1897-135","name":"Плонский","provinceId":"gubernia-1897-15"},"geometry":{"type":"MultiPolygon","coordinates":[[[[20.019916762950604,52.747562819232364],[20.02586541546518,52.729716861687834],[20.02348595445935,52.7118709041442],[20.031814067979667,52.69878386861275],[20.053229217032673,52.692835216097556],[20.054418947535588,52.6773687195609],[20.069885444073307,52.666661145033686],[20.088921132119683,52.66309195352548],[20.104387628657403,52.671420067044906],[20.121043855698836,52.669040606039786],[20.136510352236556,52.63334869095251],[20.129371969219154,52.595277314859224],[20.162684423300423,52.55363674725684],[20.179340650341057,52.52865240669509],[20.179340650341057,52.510806449151445],[20.19361741637666,52.513185910158434],[20.216222295931782,52.48820156959668],[20.212653104423126,52.46321722903484],[20.197186607885406,52.4548891155155],[20.188858494365,52.42633558344456],[20.182909841849803,52.40492043439191],[20.16863307581491,52.38469501584227],[20.197080570197002,52.38273596921866],[20.224444371763784,52.38749489123076],[20.292259010429948,52.38511543022466],[20.356504457587455,52.372028394694105],[20.381488798149206,52.367269472682],[20.40647313871007,52.367269472682],[20.440975323294253,52.38749489123076],[20.476667238382063,52.40058192676318],[20.517118075480735,52.4100997707865],[20.545671607551142,52.4112895012904],[20.57184567861501,52.4017716572653],[20.588501905655644,52.4100997707865],[20.636091125772516,52.39939219626106],[20.653937083316066,52.4100997707865],[20.692008459409706,52.42437653682104],[20.72413118298806,52.42437653682104],[20.74673606254398,52.43151491983915],[20.772910133607848,52.437463572354346],[20.766961481093272,52.45293006889101],[20.768151211596187,52.46006845190823],[20.79313555215714,52.46006845190823],[20.82882746724495,52.47077602643553],[20.870468034846535,52.46839656542943],[20.895452375408198,52.46839656542943],[20.903780488928604,52.49100144498429],[20.88712426188797,52.51241659403783],[20.8109815097014,52.507657672024834],[20.725320913490975,52.49576036699728],[20.70866468645034,52.48862198397819],[20.69081872890679,52.50289875001451],[20.68368034588939,52.526693360072365],[20.659885735830553,52.55524689214233],[20.67535223236907,52.56000581415354],[20.68605980689513,52.56833392767475],[20.709854416953256,52.580231232704165],[20.711044147456082,52.590938807229605],[20.73483875751492,52.593318268234725],[20.718182530473573,52.61354368678535],[20.702716033935854,52.63138964432801],[20.697957111924193,52.65161506287765],[20.713423608461913,52.662322637404955],[20.73721821852075,52.65518425438765],[20.766961481093272,52.676599403439496],[20.740787410029405,52.6813583254516],[20.710257887267062,52.69640440760668],[20.667427589162628,52.70473252112788],[20.63887405709221,52.69402494660244],[20.617458908039964,52.70235306012091],[20.59842321999355,52.701163329618794],[20.57343887943182,52.67023033654186],[20.540126425350536,52.66071249251854],[20.523470198309894,52.67498925855489],[20.56511076591147,52.70711198213212],[20.523470198309894,52.73447578369996],[20.500865318753995,52.70592225163],[20.483019361210495,52.701163329618794],[20.45565555964373,52.7142503651512],[20.43661987159652,52.71781955665938],[20.41639445304719,52.71662982615544],[20.398548495503633,52.710681173642115],[20.379512807457218,52.72495793967664],[20.36731806980191,52.733434769509586],[20.361071984661862,52.74057315252685],[20.3708872613106,52.74592693979139],[20.37267185706537,52.75931140794819],[20.38665119047465,52.77254715979416],[20.378917942205362,52.77983425912316],[20.365533474047936,52.77001898247454],[20.348758273956946,52.77323125483235],[20.3331133178433,52.765408776775075],[20.312887899293912,52.76302931577084],[20.27957544521189,52.77135742929022],[20.26262178554574,52.7582703937578],[20.219791487440528,52.7582703937578],[20.19123795537083,52.747562819232364],[20.172202267323655,52.75232174124447],[20.15554604028302,52.747562819232364],[20.134130891230726,52.76659850727901],[20.11509520318435,52.75232174124447],[20.09249032362843,52.75113201074058],[20.07940328809654,52.75351147174747],[20.060367600050075,52.747562819232364],[20.019916762950604,52.747562819232364]]]]}},{"type":"Feature","properties":{"kind":"district","id":"uyezd-1897-136","name":"Пултуский","provinceId":"gubernia-1897-15"},"geometry":{"type":"MultiPolygon","coordinates":[[[[21.431110488283114,52.75264442943896],[21.397798034201045,52.75859308195504],[21.384710998669156,52.76335200396626],[21.369244502131437,52.76811092597836],[21.354967736096633,52.76454173446838],[21.35020881408506,52.76930065648137],[21.334742317547253,52.76930065648137],[21.321655282014564,52.77049038698348],[21.306188785476845,52.76811092597836],[21.300240132962358,52.77524930899559],[21.275255792401406,52.76930065648137],[21.28477363642464,52.75502389044506],[21.211010345243988,52.74907523793172],[21.207441153735243,52.73598820239842],[21.191974657196724,52.73598820239842],[21.17769789116183,52.76930065648137],[21.16223139462411,52.7740595784917],[21.15747247261254,52.78476715301891],[21.10155513897544,52.7800082310068],[21.102744869478265,52.76454173446838],[21.069432415397085,52.75621362094895],[21.059914571373852,52.7776287700008],[21.005186968239578,52.75621362094895],[20.99685885471926,52.76573146497227],[20.977823166672795,52.76573146497227],[20.939751790579155,52.789526075030125],[20.91833664152695,52.77881850050469],[20.931423677058838,52.75264442943896],[20.91833664152695,52.74193685491264],[20.879075534930394,52.75145469893596],[20.861229577386844,52.737177932902306],[20.837434967328807,52.74669577692563],[20.860039846884018,52.76097254295928],[20.830296584310606,52.7764390394977],[20.76141629889264,52.74994228023843],[20.740001149840396,52.711870904144234],[20.710257887267062,52.69640440760668],[20.740787410029405,52.6813583254516],[20.766961481093272,52.676599403439496],[20.73721821852075,52.65518425438765],[20.713423608461913,52.662322637404955],[20.697957111924193,52.65161506287765],[20.702716033935854,52.63138964432801],[20.718182530473573,52.61354368678535],[20.73483875751492,52.593318268234725],[20.711044147456082,52.590938807229605],[20.709854416953256,52.580231232704165],[20.68605980689513,52.56833392767475],[20.67535223236907,52.56000581415354],[20.659885735830553,52.55524689214233],[20.68368034588939,52.526693360072365],[20.69081872890679,52.50289875001451],[20.70866468645034,52.48862198397819],[20.725320913490975,52.49576036699728],[20.8109815097014,52.507657672024834],[20.88712426188797,52.51241659403783],[20.903780488928604,52.49100144498429],[20.895452375408198,52.46839656542943],[20.92757509898664,52.47196575693765],[20.946610787033816,52.47196575693765],[20.970405397091852,52.45293006889101],[20.99420000714989,52.45055060788491],[21.04178922726676,52.44817114687979],[21.063204376318968,52.46958629593155],[21.073911950845115,52.49100144498429],[21.094137369395206,52.49576036699728],[21.096516830401036,52.506467941522715],[21.10841413543001,52.5052782110206],[21.12626009297356,52.48029387045885],[21.138157398002623,52.48386306196787],[21.138157398002623,52.506467941522715],[21.16195200806137,52.49932955850451],[21.171469852084602,52.50170901951061],[21.176228774096174,52.51955497705514],[21.198833653651384,52.515985785546036],[21.25594071779149,52.51955497705514],[21.279735327849526,52.511226863533935],[21.299960746399616,52.51717551604904],[21.317806703943077,52.511226863533935],[21.343980775006944,52.511226863533935],[21.382052151100584,52.51241659403783],[21.376103498586097,52.52431389906636],[21.389190534117986,52.5374009345978],[21.422502988199255,52.55643662264444],[21.442728406749346,52.57071338868084],[21.458194903287065,52.56714419717086],[21.46791220351083,52.57894377601402],[21.458474289849807,52.57894377601405],[21.471561325381785,52.617015152107335],[21.48345863041156,52.65627625870363],[21.49297647443479,52.68839898228269],[21.48583809141739,52.702675748317226],[21.471561325381785,52.711003861838435],[21.466802403370213,52.7324190108893],[21.446576984820833,52.74669577692562],[21.431110488283114,52.75264442943896]]]]}},{"type":"Feature","properties":{"kind":"district","id":"uyezd-1897-137","name":"Варшавский","provinceId":"gubernia-1897-15"},"geometry":{"type":"MultiPolygon","coordinates":[[[[21.356020384467268,52.291777142143516],[21.34279104450403,52.30064456451787],[21.308288859919934,52.30897267803907],[21.26545856181472,52.30540348652997],[21.26307910080889,52.291126720494546],[21.15362389454114,52.301834295021756],[21.140536859008453,52.32919809658783],[21.127449823476475,52.35061324564137],[21.11317305744167,52.372028394694105],[21.094137369395206,52.39820246575708],[21.069153028833544,52.392253813243755],[21.04178922726676,52.44817114687979],[20.99420000714989,52.45055060788491],[20.970405397091852,52.45293006889101],[20.946610787033816,52.47196575693765],[20.92757509898664,52.47196575693765],[20.895452375408198,52.46839656542943],[20.870468034846535,52.46839656542943],[20.82882746724495,52.47077602643553],[20.79313555215714,52.46006845190823],[20.768151211596187,52.46006845190823],[20.766961481093272,52.45293006889101],[20.772910133607848,52.437463572354346],[20.74673606254398,52.43151491983915],[20.72413118298806,52.42437653682104],[20.692008459409706,52.42437653682104],[20.653937083316066,52.4100997707865],[20.636091125772516,52.39939219626106],[20.636091125772516,52.38987435223677],[20.606347863199993,52.37916677771133],[20.601588941188332,52.36964893368801],[20.61229651571448,52.357751628658676],[20.624193820743542,52.36013108966469],[20.646798700298664,52.356561898155675],[20.662265196837183,52.357751628658676],[20.66821384935167,52.33395701860082],[20.68130088488356,52.32919809658783],[20.687249537398046,52.31849052206239],[20.657506274824723,52.30778294753509],[20.61705543772605,52.29350618150055],[20.624193820743542,52.280419145968125],[20.59445055817102,52.27328076295179],[20.603968402194162,52.25662453591124],[20.626573281749284,52.24948615289394],[20.633711664766775,52.23164019534852],[20.68605980689513,52.22926073434429],[20.722941452485145,52.228071003840306],[20.73721821852075,52.19832774126823],[20.766961481093272,52.191189358251],[20.794325282660054,52.137651485618306],[20.821689084227547,52.134082294110186],[20.841914502776927,52.140030946625295],[20.862139921326218,52.137651485618306],[20.870468034846535,52.113856875561424],[20.843104233279842,52.0900622655017],[20.8538118078059,52.056749811420524],[20.85619126881173,52.041283314882094],[20.878796148367652,52.02700654884755],[20.89188318389954,52.036524392870874],[20.88474480088214,52.053180619911515],[20.916867524460493,52.06388819443784],[20.954938900554133,52.06388819443784],[20.972784858097683,52.054370350415404],[21.000148659664465,52.050801158905415],[21.028702191734872,52.03533466236876],[21.042978957769677,52.049611428403296],[21.083429794869147,52.049611428403296],[21.138157398002623,52.04485250639208],[21.160762277558455,52.050801158905415],[21.201297746602933,52.044521015814254],[21.19540676657399,52.051451580554385],[21.212062993614623,52.07881538212135],[21.22871922065517,52.10498945318521],[21.219201376632025,52.127594332740074],[21.214442454620364,52.151388942799706],[21.221580837637855,52.17637328335968],[21.252513830714005,52.18232193587479],[21.29415439831559,52.20135762392143],[21.30486197284174,52.21920358146596],[21.303672242338823,52.23704953900871],[21.35007173195278,52.24894684403901],[21.361969036981844,52.24418792202593],[21.392902030057993,52.25846468806233],[21.384573916537676,52.267982532085654],[21.34055388792955,52.26917226258777],[21.34293334893529,52.281069567616214],[21.356020384467268,52.291777142143516]]]]}},{"type":"Feature","properties":{"kind":"district","id":"uyezd-1897-138","name":"Радиминский","provinceId":"gubernia-1897-15"},"geometry":{"type":"MultiPolygon","coordinates":[[[[21.46791220351083,52.57894377601402],[21.458194903287065,52.56714419717086],[21.442728406749346,52.57071338868084],[21.422502988199255,52.55643662264444],[21.389190534117986,52.5374009345978],[21.376103498586097,52.52431389906636],[21.382052151100584,52.51241659403783],[21.343980775006944,52.511226863533935],[21.317806703943077,52.511226863533935],[21.299960746399616,52.51717551604904],[21.279735327849526,52.511226863533935],[21.25594071779149,52.51955497705514],[21.198833653651384,52.515985785546036],[21.176228774096174,52.51955497705514],[21.171469852084602,52.50170901951061],[21.16195200806137,52.49932955850451],[21.138157398002623,52.506467941522715],[21.138157398002623,52.48386306196787],[21.12626009297356,52.48029387045885],[21.10841413543001,52.5052782110206],[21.096516830401036,52.506467941522715],[21.094137369395206,52.49576036699728],[21.073911950845115,52.49100144498429],[21.063204376318968,52.46958629593155],[21.04178922726676,52.44817114687979],[21.069153028833544,52.392253813243755],[21.094137369395206,52.39820246575708],[21.11317305744167,52.372028394694105],[21.127449823476475,52.35061324564137],[21.140536859008453,52.32919809658783],[21.15362389454114,52.301834295021756],[21.26307910080889,52.291126720494546],[21.26545856181472,52.30540348652997],[21.308288859919934,52.30897267803907],[21.34279104450403,52.30064456451787],[21.356020384467268,52.291777142143516],[21.38576364704059,52.285828489628315],[21.435732328162494,52.291777142143516],[21.46785505174156,52.28701822013132],[21.504736697331573,52.277500376108975],[21.509495619343145,52.307243638681946],[21.56660268348325,52.306053908177965],[21.588017832535545,52.30129498616684],[21.597535676559488,52.282259298120195],[21.611812442594292,52.27393118459899],[21.62489947812618,52.26084414906657],[21.654642740698794,52.25251603554714],[21.675005241380365,52.250578157209915],[21.675005241380365,52.256526809724136],[21.74995826306393,52.26604465374746],[21.733302036023296,52.27913168927988],[21.705938234456603,52.27080357575868],[21.708317695462345,52.29340845531442],[21.71188688697109,52.316013334869275],[21.719025269988492,52.321961987384384],[21.748768532561016,52.321961987384384],[21.786839908654745,52.337428483922814],[21.777322064631512,52.346946327946135],[21.80349613569529,52.36717174649587],[21.789219369660486,52.37668959051919],[21.772563142619852,52.37668959051919],[21.76542475960245,52.36241282448279],[21.7404404190407,52.36241282448279],[21.717835539485577,52.38144851252943],[21.69642039043337,52.41119177510249],[21.677384702386195,52.43498638516212],[21.650020900819413,52.45759126471698],[21.646451709310757,52.479006413768744],[21.647641439813583,52.495662640809286],[21.61789817724106,52.50637021533659],[21.58696518416482,52.52659563388623],[21.573878148632932,52.557528626962295],[21.565550035112615,52.57894377601406],[21.550083538574896,52.58013350651618],[21.54651434706615,52.589651350539484],[21.497735396446362,52.58846162003737],[21.482268899908643,52.57894377601405],[21.46791220351083,52.57894377601402]]]]}},{"type":"Feature","properties":{"kind":"district","id":"uyezd-1897-713","name":"Нешавский","provinceId":"gubernia-1897-15"},"geometry":{"type":"MultiPolygon","coordinates":[[[[18.719015993336424,52.9036517393206],[18.696411113780858,52.89056470378907],[18.65833973768775,52.88461605127485],[18.636924588635278,52.89056470378907],[18.613129978576442,52.88580578177794],[18.57862779399208,52.862011171719104],[18.5643510279571,52.82988844814102],[18.56673048896346,52.81799114311071],[18.55959210594597,52.795386263556836],[18.581007254998443,52.787058150036515],[18.581007254998443,52.77635057550921],[18.569109949969025,52.76921219249199],[18.57862779399208,52.75136623494746],[18.556022914437225,52.74184839092503],[18.483449353759045,52.73827919941691],[18.475121240238373,52.72995108589659],[18.491777467279807,52.709725667346945],[18.48701854526779,52.677602943766985],[18.442998516659664,52.6764132132639],[18.43942932515092,52.637152106668495],[18.45489582168908,52.565768276494026],[18.428721750624682,52.55268124096072],[18.377563338999774,52.54197366643528],[18.33830223240393,52.53959420543105],[18.348381673097663,52.50830809367287],[18.350761134103493,52.46190860405936],[18.355520056115065,52.44287291601272],[18.34600221209192,52.42502695846997],[18.362658439132556,52.41075019243543],[18.384073588185473,52.40004261790821],[18.404299006734853,52.39052477388489],[18.442370382828493,52.39052477388489],[18.45307795735455,52.40123234841211],[18.46854445389227,52.40004261790821],[18.50185690797363,52.375058277346376],[18.54468720607884,52.375058277346376],[18.589896965189883,52.366730163827036],[18.607742922733433,52.37981719935946],[18.570861277142708,52.39647342639911],[18.561343433119475,52.41312965343966],[18.54468720607884,52.41312965343966],[18.54468720607884,52.42621668897208],[18.53516936205561,52.4416831855106],[18.554205050102073,52.445252377018726],[18.601794270218946,52.429785880481184],[18.589896965189883,52.41550911444665],[18.61607103625375,52.40837073142942],[18.647004029329988,52.409560461931534],[18.67198836989094,52.40480153991943],[18.66484998687345,52.422647497463956],[18.677937022405427,52.428596149978176],[18.67674729190251,52.447631838025714],[18.71243920698961,52.448821568527826],[18.72076732051064,52.54043081725194],[18.749320852580247,52.56184596630467],[18.719577590007724,52.571363810327995],[18.72314678151647,52.59515842038586],[18.73861327805419,52.59872761189487],[18.73861327805419,52.61062491692429],[18.757648966100653,52.61062491692429],[18.771925732135458,52.608245455918194],[18.787392228673976,52.6141941084325],[18.785012767668146,52.63441952698214],[18.806427916720352,52.63441952698214],[18.838550640298795,52.691526591122965],[18.912313931479446,52.7058033571575],[18.92421123650922,52.70342389615238],[18.92897015852079,52.7165109316848],[18.947969579824225,52.72019901766453],[18.905139281719013,52.77016769878723],[18.89086251568421,52.7975315003541],[18.867067905626172,52.8403617984586],[18.831375990538273,52.855828294997124],[18.787355961930945,52.87843317455189],[18.75285377734605,52.89152021008431],[18.719015993336424,52.9036517393206]]]]}}]}
