{"type":"FeatureCollection","features":[{"type":"Feature","properties":{"kind":"province","id":"gubernia-1897-20","name":"Пензенская губерния"},"geometry":{"type":"MultiPolygon","coordinates":[[[[43.62148245236409,54.859645097866604],[43.61150254996778,54.847586049138044],[43.569861982366106,54.855914162659246],[43.56510306035409,54.83092982209661],[43.534170067278566,54.81665305606296],[43.55558521633077,54.778581679969676],[43.554395485827946,54.761925452929134],[43.549636563816726,54.75835626141914],[43.4972884216882,54.77263302745457],[43.47944246414438,54.7405103038755],[43.494908960682544,54.70719784979343],[43.494908960682544,54.68816216174679],[43.48301165565286,54.679834048226475],[43.49252949967609,54.66436755168893],[43.47468354213307,54.64890105515042],[43.45207866257724,54.65960862967772],[43.43542243553625,54.65128051615651],[43.449699201571676,54.63105509760686],[43.440181357548354,54.62867563660264],[43.40210998145516,54.63105509760686],[43.386643484916995,54.6536599771635],[43.361659144355514,54.650090785653504],[43.37236671888237,54.613209140063226],[43.38902294592256,54.606070757046],[43.38307429340852,54.59655291302357],[43.41043809497565,54.58584533849627],[43.41043809497565,54.57870695547993],[43.396161328940316,54.57156857246271],[43.403299711957985,54.54896369290607],[43.403299711957985,54.52635881335122],[43.39140240692901,54.516840969327006],[43.39259213743184,54.50256420329336],[43.40567917296355,54.48709770675396],[43.43185324402786,54.48709770675396],[43.43661216603917,54.45973390518708],[43.416386747489696,54.45140579166765],[43.39140240692901,54.45140579166765],[43.39021267642548,54.43831875613523],[43.417576477992526,54.42404199009981],[43.43066351352503,54.388350075013506],[43.396161328940316,54.376452769984084],[43.39497159843749,54.35622735143444],[43.40686890346647,54.33243274137658],[43.403299711957985,54.31101759232304],[43.39021267642548,54.289602443270304],[43.36403860536196,54.28008459924698],[43.33191588178281,54.26699756371545],[43.30812127172495,54.27651540773975],[43.29146504468396,54.27651540773975],[43.243875824567446,54.29793055679062],[43.20223525696506,54.32053543634726],[43.18319956891842,54.299120287294514],[43.23710137831548,54.279469333953784],[43.30015709497016,54.255674723894145],[43.31681332201035,54.24020822735749],[43.3322798185486,54.250915801882925],[43.35131550659516,54.2390184968536],[43.338228471063445,54.22117253931085],[43.35012577609233,54.21046496478452],[43.31562359150761,54.18786008522878],[43.29658790346097,54.15930655315971],[43.328710627040124,54.13551194310007],[43.36678200313323,54.096250836505114],[43.284690598432086,54.090302183990445],[43.30253655597581,54.07007676544072],[43.288259789940476,54.05817946041138],[43.30015709497016,54.04747188588408],[43.34655658458385,54.03200538934654],[43.37748957765947,54.03081565884354],[43.40604310972934,54.017728623311115],[43.4000944572145,53.99631347426024],[43.35369496760081,53.99631347426024],[43.337038740560615,53.951103715148754],[43.31324413050196,53.94753452363965],[43.30610574748429,53.9273091050909],[43.338228471063445,53.91184260855246],[43.35131550659516,53.90470422553426],[43.34536685408031,53.8797198849734],[43.31681332201035,53.865443118937975],[43.301346825473075,53.87020204095097],[43.266844640888266,53.87258150195618],[43.26446517988262,53.86306365793374],[43.20497865473615,53.84164850888011],[43.13240509405841,53.84045877837711],[43.10980021450338,53.8773404239674],[43.09076452645682,53.882099345980386],[43.05388288086645,53.869012310447964],[43.0384163843282,53.87377123245918],[43.01819096577883,53.87258150195618],[43.01224231326469,53.86187392742976],[43.02532934879649,53.84640743089133],[43.020570426784474,53.83451012586289],[42.977740128679976,53.8368895868689],[42.977740128679976,53.854735544412534],[42.95156605761575,53.867822579944075],[42.95156605761575,53.882099345980386],[42.923012525545786,53.88447880698462],[42.8980281849844,53.87020204095097],[42.87542330542927,53.860684196926755],[42.843300581850116,53.860684196926755],[42.81593678028307,53.857115005418635],[42.793331900728035,53.84164850888011],[42.777865404189875,53.81904362932535],[42.756450255137665,53.7940592887644],[42.75763998564041,53.780972253232065],[42.76715782966373,53.77145440920776],[42.74336321960587,53.74171114663569],[42.71243022652954,53.75360845166422],[42.70291238250631,53.728624111103265],[42.66959992842513,53.7036397705424],[42.68506642496249,53.68103489098763],[42.72194807055286,53.67865542998065],[42.76358863815525,53.64772243690557],[42.71480968753599,53.628686748858925],[42.673169119933604,53.61440998282341],[42.632718282834674,53.60608186930407],[42.595836637244304,53.59537429477677],[42.642236126857995,53.58347698974744],[42.66603073691585,53.56682076270778],[42.677928041945535,53.54778507466016],[42.673169119933604,53.50971369856688],[42.70053292150065,53.50733423756087],[42.73979402809668,53.469262861467584],[42.719568609547295,53.462124478451244],[42.71718914854156,53.43832986839152],[42.7362248365882,53.43000175487218],[42.751691333125564,53.4347606768834],[42.7790551346927,53.435950407387296],[42.796901092236425,53.406207144814324],[42.77548594318422,53.40501741431132],[42.78500378720754,53.38479199576159],[42.78500378720754,53.37170496022925],[42.77548594318422,53.34196169765531],[42.75288106362919,53.336013045141975],[42.75288106362919,53.31221843508412],[42.765968099160986,53.30745951307112],[42.77072702117292,53.27533678949206],[42.76537096137475,53.25177012638156],[42.76477836865807,53.249162718428195],[42.75526052463484,53.23488595239454],[42.73384537558255,53.23131676088455],[42.70172265200348,53.22774756937634],[42.670789658927866,53.2158502643479],[42.65651289289262,53.18491727127184],[42.6469950488693,53.14684589517856],[42.62795936082266,53.14684589517856],[42.65651289289262,53.11234371059348],[42.69577399948864,53.08379017852441],[42.71837887904438,53.06237502947078],[42.74931187212,53.03025230589181],[42.81236758877468,52.9874220077873],[42.8980281849844,52.96362739772944],[42.97298120666796,52.942212248676704],[42.977740128679976,52.91365871660585],[43.005103930247024,52.89819222006831],[43.066969916398165,52.848223538946584],[43.140733207578904,52.785167822291456],[43.177614853169274,52.74471698519217],[43.21330676825691,52.705455878596766],[43.25256787485293,52.66738450250348],[43.263275449379876,52.65072827546196],[43.29119511309879,52.65527391058369],[43.32212810617503,52.63742795304094],[43.32807675868951,52.65646364108758],[43.3768557093085,52.660032832596684],[43.37447624830267,52.675499329134226],[43.33164595019817,52.706432322209395],[43.37447624830267,52.714760435730604],[43.44586007847758,52.72903720176505],[43.47798280205674,52.73974477629058],[43.508915795132175,52.73974477629058],[43.53271040519101,52.72546801025604],[43.56126393726062,52.67430959863033],[43.58624827782157,52.6636020241049],[43.60766342687457,52.66836094611611],[43.60766342687457,52.69453501717998],[43.62907857592687,52.72546801025604],[43.65882183849939,52.742124237296586],[43.68142671805523,52.732606393273265],[43.72782620766847,52.73498585427936],[43.74448243470991,52.7492626203139],[43.8146765343819,52.750452350817795],[43.82895330041671,52.73974477629058],[43.851558179971825,52.73974477629058],[43.851558179971825,52.754021542326896],[43.887250095059635,52.754021542326896],[43.91699335763216,52.757590733835016],[43.951495542217145,52.77186749986956],[43.9907566488129,52.76591884735622],[44.025258833397885,52.76710857785834],[44.09069401105822,52.76591884735622],[44.1287653871512,52.77662642188272],[44.15018053620335,52.7881271500773],[44.22513355788692,52.80835256862606],[44.25725628146607,52.759573618006456],[44.27867143051828,52.76671200102376],[44.3084146930916,52.78336822806431],[44.34648606918453,52.79169634158552],[44.37979852326651,52.832147178683925],[44.40597259433038,52.835716370193026],[44.42976720438841,52.84999313622845],[44.47497696349946,52.84047529220513],[44.499961304060406,52.826198526170586],[44.517807261604666,52.80478337711794],[44.559447829206256,52.811921760135164],[44.61060624083187,52.80835256862606],[44.642728964410225,52.85475205823967],[44.7034052200589,52.84404448371423],[44.77003012822224,52.830957448181806],[44.79977339079556,52.827388256672705],[44.83427557537974,52.85594178874178],[44.867588029461814,52.891633703830834],[44.89138263951985,52.9189975053969],[44.922315632595286,52.93565373243745],[44.94967943416278,52.94636130696378],[44.98775081025562,52.94398184595866],[45.01273515081737,52.94517157646166],[45.01273515081737,52.976104569537725],[45.03296056936675,52.978484030542845],[45.07460113696905,52.970155917021636],[45.09958547753,52.973725108531625],[45.11624170457063,52.99514025758347],[45.14360550613813,53.00108891009769],[45.15193361965844,53.014175945630114],[45.18762553474554,53.01179648462402],[45.18286661273388,53.03321163367676],[45.18524607373971,53.048678130215194],[45.201802743471106,53.06714518491556],[45.21366741353193,53.05951789701882],[45.25649771163697,53.04643086148737],[45.293379357226804,53.02739517343984],[45.32193288929685,53.03334382595584],[45.345727499355604,53.02858490394284],[45.380229683939966,53.02620544293675],[45.349296690864435,53.038102747966164],[45.3909372584662,53.076174124060344],[45.42424971254738,53.09996873411909],[45.45280324461734,53.114245500152734],[45.500392464734304,53.11186603914664],[45.49325408171681,53.082122776574565],[45.5337049188162,53.07974331556855],[45.55274060686231,53.08926115959187],[45.5848633304411,53.08331250707668],[45.5848633304411,53.09996873411909],[45.63364228106116,53.10234819512429],[45.66576500463907,53.09639954260999],[45.69907745872096,53.09520981210699],[45.72763099079101,53.09996873411909],[45.744287217831555,53.09639954260999],[45.75618452286098,53.11662496115875],[45.77878940241663,53.155886067756015],[45.807342934486684,53.18919852183719],[45.8192402395153,53.21299313189594],[45.85731161560912,53.1903882523402],[45.87396784264966,53.16540391177844],[45.885865147679084,53.14636822373269],[45.9298851762865,53.155886067756015],[45.98104358791212,53.167783372784456],[46.03101226903464,53.18087040831688],[46.06432472311573,53.19752663535653],[46.044099304566444,53.208234209883834],[46.07503229764197,53.22726989792959],[46.06908364512775,53.25106450798833],[46.07265283663649,53.26296181301855],[46.11548313474144,53.27247965704099],[46.15117504982889,53.28199750106431],[46.178538851395764,53.29508453659673],[46.23088699352377,53.2808077705613],[46.25349187307942,53.27842830955521],[46.312978398225,53.31293049413948],[46.3260654337576,53.31649968564947],[46.36532654035389,53.30936130263127],[46.40815683845884,53.33315591268912],[46.44622821455185,53.34505321771943],[46.47359201611872,53.32601752967279],[46.486679051650526,53.30817157212826],[46.51642231422367,53.310551033134274],[46.547355307299284,53.30222291961404],[46.547355307299284,53.31649968564947],[46.58304722238674,53.31649968564947],[46.606841832445575,53.317689416152476],[46.633015903509175,53.32601752967279],[46.663948896585595,53.33434564319213],[46.681616865132355,53.329825930308],[46.71510730821041,53.32125860765971],[46.731763535250955,53.33672510419822],[46.72224569122799,53.34862240922844],[46.72462515223427,53.355760792244865],[46.74723003178921,53.361709444759086],[46.75317868430343,53.379555402303616],[46.76150679782419,53.39145270733206],[46.7805424858711,53.41286785638479],[46.756747875812174,53.41881650889901],[46.732953265754226,53.428334352922334],[46.72700461323983,53.4556981544893],[46.73652245726297,53.47592357303894],[46.755558145309884,53.47592357303894],[46.78411167737985,53.472354381530735],[46.79125006039734,53.49971818309769],[46.757937606315444,53.516374410139214],[46.732953265754226,53.52946144567066],[46.6698975490999,53.52113333215043],[46.64253374753303,53.528271715167655],[46.61754940697181,53.540169020196096],[46.62230832898294,53.55920470824371],[46.61041102395432,53.57110201327215],[46.599703449428084,53.59727608433602],[46.599703449428084,53.628209077412976],[46.63539536451554,53.628209077412976],[46.67941539312296,53.63058853841907],[46.69488188966112,53.64367557395052],[46.7091586556961,53.66509072300325],[46.69131269815237,53.67936748903779],[46.68060512362614,53.69840317708443],[46.659189974573664,53.70197236859256],[46.640154286526666,53.687695602558996],[46.56758072584929,53.688885333062004],[46.53545800227058,53.694833985576224],[46.50690447020062,53.71267994311897],[46.48905851265689,53.72695670915439],[46.502145548188686,53.73052590066252],[46.527129888749904,53.72695670915439],[46.55568342081987,53.7281464396574],[46.584236952889924,53.73885401418461],[46.5854266833931,53.750751319213144],[46.57590883936925,53.76383835474459],[46.54854503780238,53.77335619876889],[46.50452500919425,53.77335619876889],[46.48905851265689,53.782874042791235],[46.46407417209567,53.78525350379733],[46.440279562037546,53.79001242580854],[46.427192526504946,53.7781151207801],[46.420054143487455,53.80190973083885],[46.40458764695009,53.80309946134186],[46.39150061141749,53.806668652850064],[46.387931419908746,53.82094541888452],[46.348670313312454,53.817376227375505],[46.32487570325442,53.80904811385608],[46.31178866772262,53.82094541888452],[46.31059893721944,53.83998110693116],[46.31535785923136,53.853068142464465],[46.31178866772262,53.8613962559839],[46.312978398225,53.87210383051023],[46.323685972751235,53.898277901574176],[46.28680432716131,53.90898547610139],[46.25111241207386,53.894708710065075],[46.20471292246017,53.894708710065075],[46.165451815863875,53.903036823585396],[46.13689828379391,53.9018470930823],[46.09763717719771,53.903036823585396],[46.09644744669453,53.94348766068558],[46.078601489150714,53.968472001246525],[46.05837607060151,53.96728227074432],[46.046478765572004,53.977989845269846],[46.02387388601715,53.96966173174953],[46.01554577249648,53.951815774205],[45.99294089294082,53.93515954716535],[46.004838197970244,53.92088278112992],[46.0012690064615,53.916123859118706],[45.99769981495275,53.89113951855687],[45.967956552379604,53.87924221352843],[45.93702355930399,53.91017520660439],[45.92512625427537,53.95419523521102],[45.90252137471972,53.951815774205],[45.87277811214657,53.957764426721],[45.83589646655665,53.95300550470801],[45.83708619705903,53.97323092325863],[45.82042997001848,53.99702553331649],[45.79901482096601,53.99702553331649],[45.7930661684517,53.98393849778407],[45.78481068915633,53.967879315357315],[45.74673931306491,53.973827967872204],[45.71342685898284,53.973827967872204],[45.67892467439866,53.966689584854976],[45.65275060333408,53.961930662842875],[45.58136677315917,54.00833015245736],[45.53496728354601,54.042832337040664],[45.511172673487174,54.06781667760241],[45.56946946813011,54.08566263514694],[45.6396635678021,54.040452876034564],[45.67654521339291,54.01784799648068],[45.69439117093638,54.0166582659767],[45.69320144043346,54.040452876034564],[45.687252787919064,54.06543721659641],[45.69439117093638,54.07376533011761],[45.725324164011816,54.07257559961363],[45.75506742658523,54.057109103076975],[45.78719015016358,54.06186802508731],[45.80503610770704,54.07614479112362],[45.80503610770704,54.09399074866637],[45.75863661809388,54.10588805369659],[45.70747820646835,54.114216167216014],[45.71104739797701,54.13682104677078],[45.73841119954379,54.14039023827988],[45.73008308602348,54.1606156568305],[45.7098576674741,54.15823619582441],[45.67654521339291,54.16656430934384],[45.71223712847993,54.17846161437316],[45.719375511497326,54.193928110911685],[45.71580631998867,54.22486110398677],[45.73603173853796,54.25936328857184],[45.73603173853796,54.27839897661848],[45.76101607909971,54.293865473157],[45.79194907217515,54.28910655114392],[45.801466916198386,54.30457304768244],[45.78719015016358,54.3319368492494],[45.74435985205908,54.33788550176362],[45.71223712847993,54.345023884780844],[45.67178629138125,54.3283676577403],[45.628955993276044,54.3366957712615],[45.6253868017673,54.360490381319366],[45.60992030522958,54.38547472188111],[45.613489496738325,54.40213094892166],[45.5766078511476,54.41045906244287],[45.552813241089474,54.381905530372904],[45.51831105650458,54.40332067942377],[45.55400297159239,54.44496124702616],[45.567090007124364,54.44615097753014],[45.56590027662145,54.45209963004348],[45.549244049580814,54.46280720457069],[45.521880248013325,54.46637639607979],[45.493326715943624,54.47708397060522],[45.46596291437693,54.499688850160965],[45.495706176949454,54.511586155190386],[45.53020836153364,54.52110399921371],[45.51355213449292,54.55560618379691],[45.52663917002489,54.581780254861755],[45.51593159549875,54.60676459542262],[45.490947254937886,54.60676459542262],[45.45882453135873,54.61390297843994],[45.42313261627163,54.62699001397236],[45.408855850236826,54.662681929059545],[45.39814827571068,54.653164085036224],[45.40171746721943,54.63769758849957],[45.3993380062136,54.61985163095504],[45.412425041745486,54.60676459542262],[45.34817959458807,54.581780254861755],[45.31010821849443,54.569882949833314],[45.262518998378354,54.5579856448039],[45.21017085624991,54.55084726178667],[45.16734055814461,54.54489860927148],[45.131648643057595,54.51872453820761],[45.142356217583654,54.49136073663976],[45.11261295501113,54.48898127563464],[45.094766997466785,54.47113531809012],[45.06740319590009,54.49017100613764],[45.00315774874258,54.49136073663976],[44.95556852862571,54.496119658651864],[44.93653284057933,54.47470450959922],[44.92225607454444,54.47113531809012],[44.90559984750389,54.48065316211344],[44.88180523744497,54.49492992814975],[44.85920035788994,54.492550467143744],[44.84413043818643,54.48620523779388],[44.82390501963634,54.49810254282419],[44.79297202656082,54.52189715288117],[44.73229577091205,54.506430656344506],[44.66210167124024,54.4921538903081],[44.59785622408273,54.47668739377154],[44.57168215301833,54.502861464835405],[44.53836969893724,54.501671734331424],[44.508626436364096,54.4933436208112],[44.47293452127655,54.47668739377154],[44.4431912587042,54.4552722447188],[44.41106853512541,54.44932359220458],[44.370617698026024,54.44932359220458],[44.34801281847037,54.429098173653955],[44.32540793891552,54.40530356359521],[44.36347931500853,54.38031922303435],[44.342574376346,54.369791012178254],[44.31877976628796,54.388826700223916],[44.29022623421835,54.40786238827056],[44.308072191761816,54.4352261898384],[44.308072191761816,54.449502955872944],[44.29498515622993,54.46496945241147],[44.246206205610136,54.49828190649255],[44.2009964464991,54.522076516551394],[44.20694509901358,54.532784091077716],[44.20456563800784,54.57680411968611],[44.21289375152887,54.58513223320554],[44.248585666615966,54.58394250270342],[44.29498515622993,54.607737112761285],[44.24501647510722,54.611306304269405],[44.20575536851076,54.611306304269405],[44.19980671599618,54.64104956684237],[44.16768399241783,54.64699821935668],[44.14032019085104,54.64223929734635],[44.09273097073426,54.66365444639811],[44.1022488147574,54.693397708970195],[44.11057692827781,54.71719231902992],[44.12961261632419,54.73741773757868],[44.11176665878064,54.769540461157746],[44.08916177922551,54.77073019165986],[44.07012609117905,54.749315042608984],[44.035623906594154,54.748125312105],[44.02134714055935,54.74098692908778],[44.020157410056434,54.72789989355536],[43.9963627999976,54.73027935456136],[43.966619537425075,54.742176659589894],[43.92259950881695,54.749315042608984],[43.968998998430905,54.80404264574281],[43.933307083343806,54.83973456083],[43.8619232531689,54.82902698630279],[43.82623133808109,54.83378590831578],[43.74413993338012,54.82664752529669],[43.697740443766165,54.838544830326114],[43.65728960666749,54.85995997937974],[43.62148245236409,54.859645097866604]]]]}},{"type":"Feature","properties":{"kind":"district","id":"uyezd-1897-442","name":"Краснослободский","provinceId":"gubernia-1897-20"},"geometry":{"type":"MultiPolygon","coordinates":[[[[43.366782003133316,54.09625083650464],[43.382461860494004,54.08901461348974],[43.40744620105495,54.087824882987626],[43.44670730765151,54.09020434399372],[43.48120949223561,54.09734272701095],[43.48596841424727,54.10567084053038],[43.470501917709456,54.1151886845537],[43.44313811614276,54.1235167980749],[43.452655960166,54.133034642098224],[43.46812245670372,54.137793564109444],[43.49548625827041,54.137793564109444],[43.50738356329947,54.12827572008612],[43.53593709536988,54.12946545059001],[43.550213861404686,54.137793564109444],[43.570439279954066,54.13184491159424],[43.58947496800124,54.13065518109212],[43.60970038655062,54.13541410310423],[43.621597691579595,54.147311408132765],[43.6299258051,54.143742216623664],[43.633494996608654,54.13065518109212],[43.658479337170405,54.1175681455597],[43.677515025216785,54.10686057103427],[43.68227394722835,54.09020434399372],[43.679894486222615,54.054512428906534],[43.666807450690634,54.03666647136103],[43.68822259974293,54.02238970532747],[43.70487882678356,54.0283383578408],[43.73581181985971,54.02001024432137],[43.769124273941074,54.03190754935079],[43.80600591953171,54.02238970532747],[43.81076484154337,54.002164286777735],[43.844077295624636,54.002164286777735],[43.86549244467764,54.01406159180627],[43.85954379216316,54.04261512387623],[43.88333840222119,54.054512428906534],[43.89404597674725,54.067599464437976],[43.91427139529663,54.059271350916774],[43.94520438837278,54.067599464437976],[43.966619537425075,54.0830659609765],[43.98565522547154,54.08663515248374],[44.010639566033205,54.09258380499982],[44.007070374524545,54.11637841505759],[44.01182929653612,54.12827572008612],[44.03086498458249,54.143742216623664],[44.084402857213945,54.16158817416819],[44.11890504179813,54.17824440120971],[44.149838034874364,54.209177394283905],[44.17482237543523,54.240110387360765],[44.19028887197304,54.26985364993284],[44.22717051756367,54.27104338043594],[44.277139198685575,54.31387367854044],[44.302123539247326,54.34123748010829],[44.342574376346,54.369791012178254],[44.31877976628796,54.388826700223916],[44.29022623421835,54.40786238827056],[44.308072191761816,54.4352261898384],[44.308072191761816,54.449502955872944],[44.29498515622993,54.46496945241147],[44.246206205610136,54.49828190649255],[44.2009964464991,54.522076516551394],[44.20694509901358,54.532784091077716],[44.20456563800784,54.57680411968611],[44.21289375152887,54.58513223320554],[44.248585666615966,54.58394250270342],[44.29498515622993,54.607737112761285],[44.24501647510722,54.611306304269405],[44.20575536851076,54.611306304269405],[44.19980671599618,54.64104956684237],[44.16768399241783,54.64699821935668],[44.14032019085104,54.64223929734635],[44.09273097073426,54.66365444639811],[44.1022488147574,54.693397708970195],[44.11057692827781,54.71719231902992],[44.12961261632419,54.73741773757868],[44.11176665878064,54.769540461157746],[44.08916177922551,54.77073019165986],[44.07012609117905,54.749315042608984],[44.035623906594154,54.748125312105],[44.02134714055935,54.74098692908778],[44.020157410056434,54.72789989355536],[43.9963627999976,54.73027935456136],[43.966619537425075,54.742176659589894],[43.92259950881695,54.749315042608984],[43.968998998430905,54.80404264574281],[43.933307083343806,54.83973456083],[43.8619232531689,54.82902698630279],[43.82623133808109,54.83378590831578],[43.74413993338012,54.82664752529669],[43.697740443766165,54.838544830326114],[43.65728960666749,54.85995997937974],[43.62148245236409,54.859645097866604],[43.61150254996778,54.847586049138016],[43.569861982366106,54.85591416265922],[43.56510306035409,54.83092982209658],[43.534170067278566,54.81665305606293],[43.55558521633077,54.77858167996965],[43.554395485827946,54.7619254529291],[43.549636563816726,54.75835626141911],[43.4972884216882,54.77263302745453],[43.47944246414438,54.74051030387547],[43.494908960682544,54.7071978497934],[43.494908960682544,54.68816216174676],[43.48301165565286,54.67983404822644],[43.49252949967609,54.6643675516889],[43.47468354213307,54.64890105515038],[43.45207866257724,54.659608629677685],[43.43542243553625,54.651280516156476],[43.449699201571676,54.63105509760683],[43.440181357548354,54.6286756366026],[43.40210998145516,54.63105509760683],[43.386643484916995,54.653659977163464],[43.361659144355514,54.650090785653475],[43.37236671888237,54.61320914006319],[43.38902294592256,54.60607075704597],[43.38307429340852,54.59655291302354],[43.41043809497565,54.585845338496235],[43.41043809497565,54.5787069554799],[43.396161328940316,54.571568572462674],[43.403299711957985,54.54896369290604],[43.403299711957985,54.52635881335119],[43.39140240692901,54.51684096932698],[43.39259213743184,54.50256420329333],[43.40567917296355,54.48709770675392],[43.43185324402786,54.48709770675392],[43.43661216603917,54.45973390518705],[43.416386747489696,54.451405791667625],[43.39140240692901,54.451405791667625],[43.39021267642548,54.4383187561352],[43.417576477992526,54.424041990099774],[43.43066351352503,54.38835007501348],[43.396161328940316,54.376452769984056],[43.39497159843749,54.35622735143441],[43.40686890346647,54.33243274137655],[43.403299711957985,54.31101759232301],[43.39021267642548,54.28960244327027],[43.36403860536196,54.28008459924695],[43.33191588178281,54.26699756371542],[43.30812127172495,54.276515407739716],[43.29146504468396,54.276515407739716],[43.243875824567446,54.29793055679059],[43.20223525696506,54.32053543634722],[43.18319956891842,54.299120287294485],[43.23710137831548,54.27946933395375],[43.30015709497016,54.25567472389412],[43.31681332201035,54.240208227357456],[43.3322798185486,54.2509158018829],[43.35131550659516,54.23901849685357],[43.338228471063445,54.221172539310814],[43.35012577609233,54.21046496478449],[43.31562359150761,54.18786008522875],[43.29658790346097,54.159306553159674],[43.328710627040124,54.13551194310004],[43.366782003133316,54.09625083650464]]]]}},{"type":"Feature","properties":{"kind":"district","id":"uyezd-1897-443","name":"Инсарский","provinceId":"gubernia-1897-20"},"geometry":{"type":"MultiPolygon","coordinates":[[[[44.010639566033205,54.09258380499982],[44.0279753131862,54.09240444132959],[44.04939046223867,54.09597363283771],[44.04701100123302,54.07693794479205],[44.06961588078876,54.062661178756535],[44.092220760343615,54.0519536042311],[44.080323455314996,54.02815899417235],[44.08389264682374,54.00555411461661],[44.11482563989936,53.98770815707208],[44.132671597443085,53.98889788757518],[44.14932782448354,54.0031746536106],[44.173122434542464,54.0031746536106],[44.196917044600504,54.0031746536106],[44.20762461912674,53.99365680958817],[44.20881434962992,53.98056977405486],[44.2159527326467,53.960344355505214],[44.20524515812117,53.94368812846555],[44.18501973957108,53.93654974544824],[44.20167596661243,53.92703190142403],[44.263541952763575,53.93298055393825],[44.279008449301735,53.92346270991493],[44.286146832319226,53.91275513538949],[44.28257764081048,53.893719447342846],[44.26949060527788,53.881822142312544],[44.2421268037111,53.890150255833746],[44.21833219365298,53.87587348979832],[44.2100040801323,53.84375076621926],[44.171932704039286,53.821145886664496],[44.13505105844856,53.814007503647176],[44.13505105844856,53.810438312138075],[44.16598405152497,53.810438312138075],[44.204055427617995,53.817576695155395],[44.20524515812117,53.828284269682605],[44.224280846167375,53.834232922196826],[44.23736788169917,53.8306637306887],[44.270680335781066,53.837802113705926],[44.302803059359775,53.8294740001857],[44.32897713042426,53.798541007109634],[44.34920254897355,53.76879774453569],[44.32897713042426,53.748572325986935],[44.33135659142974,53.72953663794029],[44.3658587760141,53.725967446431284],[44.370617698026024,53.70812148888764],[44.39560203858724,53.71763933291185],[44.41701718763981,53.70931121939154],[44.44676045021295,53.734295559951505],[44.47174479077417,53.733105829448505],[44.489590748317895,53.72001879391697],[44.47293452127655,53.69622418385822],[44.49197020932346,53.69622418385822],[44.50029832284413,53.67718849581158],[44.51814428038715,53.668860382291356],[44.52171347189589,53.6819474178228],[44.53004158541657,53.68551660933279],[44.54550808195473,53.67956795681768],[44.599045954586,53.67361930430248],[44.60261514609475,53.69146526184701],[44.652583827217185,53.6926549923501],[44.677568167778404,53.68670633983588],[44.71326008286594,53.6843268788289],[44.746572536947035,53.69741391436132],[44.758469841976456,53.725967446431284],[44.773936338514616,53.733105829448505],[44.78940283505207,53.76879774453569],[44.835802324665764,53.76403882252457],[44.85602774321505,53.76522855302846],[44.882201814279455,53.75452097850125],[44.90004777182318,53.7378647514615],[44.90718615484076,53.75927990051237],[44.934549956407544,53.75333124799815],[44.954775374957634,53.780695049566],[44.99165702054747,53.76760801403269],[45.004744056080156,53.780695049566],[45.01069270859447,53.822335617168385],[45.055902467704975,53.819956156161396],[45.07136896424314,53.84375076621926],[45.09040465228934,53.84494049672226],[45.11181980134181,53.85683780175257],[45.13918360290939,53.866355645775],[45.192721475540665,53.84018157471114],[45.21413662459314,53.84613022722536],[45.23079285163368,53.85683780175257],[45.243879887165484,53.87349402879222],[45.27481288024181,53.87349402879222],[45.28195126325939,53.88063241181132],[45.31764317834684,53.884201603319525],[45.318832908849224,53.90680648287527],[45.298607490299936,53.92227297941281],[45.24863880917741,53.95439570299099],[45.18082417051116,53.99127734858118],[45.160598751961956,54.01864115014814],[45.11657872335374,54.02340007216114],[45.05947165921372,54.0043643841136],[44.99879540356496,54.02221034165813],[44.989277559541996,54.05790225674541],[44.969052140992616,54.10192228535193],[44.997605673062665,54.105491476862014],[45.046384623681924,54.10430174635803],[45.04162570166999,54.138803930943105],[45.08207653876938,54.14594231396042],[45.08445599977503,54.16854719351616],[45.06185112022008,54.1828239595507],[45.067799772734396,54.21494668312879],[45.06185112022008,54.23993102369063],[45.07850734726063,54.242310484697526],[45.08683546078059,54.24706940670874],[45.053523006699415,54.268484555760594],[44.989277559541996,54.276812669281796],[44.954775374957634,54.30655593185476],[44.95239591395127,54.31369431487199],[44.97975971551885,54.30774566235777],[44.99165702054747,54.308935392860775],[44.95953429696876,54.341058116438944],[44.970241871495,54.36604245699981],[44.95120618344889,54.38031922303435],[44.92860130389323,54.38031922303435],[44.92622184288767,54.417200868625514],[44.910755346349504,54.425528982145835],[44.86197639573016,54.426718712648835],[44.851268821203924,54.438616017677276],[44.83104340265383,54.437426287174276],[44.82985367215145,54.47192847175846],[44.84413043818643,54.48620523779388],[44.82390501963634,54.49810254282419],[44.79297202656082,54.52189715288117],[44.73229577091205,54.506430656344506],[44.66210167124024,54.4921538903081],[44.59785622408273,54.47668739377154],[44.57168215301833,54.502861464835405],[44.53836969893724,54.501671734331424],[44.508626436364096,54.4933436208112],[44.47293452127655,54.47668739377154],[44.4431912587042,54.4552722447188],[44.41106853512541,54.44932359220458],[44.370617698026024,54.44932359220458],[44.34801281847037,54.429098173653955],[44.32540793891552,54.40530356359521],[44.36347931500853,54.38031922303435],[44.342574376346,54.369791012178254],[44.302123539247326,54.34123748010829],[44.277139198685575,54.31387367854044],[44.22717051756367,54.27104338043594],[44.19028887197304,54.26985364993284],[44.17482237543523,54.240110387360765],[44.149838034874364,54.209177394283905],[44.11890504179813,54.17824440120971],[44.084402857213945,54.16158817416819],[44.03086498458249,54.143742216623664],[44.01182929653612,54.12827572008612],[44.007070374524545,54.11637841505759],[44.010639566033205,54.09258380499982]]]]}},{"type":"Feature","properties":{"kind":"district","id":"uyezd-1897-444","name":"Наровчатский","provinceId":"gubernia-1897-20"},"geometry":{"type":"MultiPolygon","coordinates":[[[[44.3658587760141,53.725967446431284],[44.33135659142974,53.72953663794029],[44.32897713042426,53.748572325986935],[44.34920254897355,53.76879774453569],[44.32897713042426,53.798541007109634],[44.302803059359775,53.8294740001857],[44.270680335781066,53.837802113705926],[44.23736788169917,53.8306637306887],[44.224280846167375,53.834232922196826],[44.20524515812117,53.828284269682605],[44.204055427617995,53.817576695155395],[44.16598405152497,53.810438312138075],[44.13505105844856,53.810438312138075],[44.13505105844856,53.814007503647176],[44.171932704039286,53.821145886664496],[44.2100040801323,53.84375076621926],[44.21833219365298,53.87587348979832],[44.2421268037111,53.890150255833746],[44.26949060527788,53.881822142312544],[44.28257764081048,53.893719447342846],[44.286146832319226,53.91275513538949],[44.279008449301735,53.92346270991493],[44.263541952763575,53.93298055393825],[44.20167596661243,53.92703190142403],[44.18501973957108,53.93654974544824],[44.20524515812117,53.94368812846555],[44.2159527326467,53.960344355505214],[44.20881434962992,53.98056977405486],[44.20762461912674,53.99365680958817],[44.196917044600504,54.0031746536106],[44.173122434542464,54.0031746536106],[44.14932782448354,54.0031746536106],[44.132671597443085,53.98889788757518],[44.11482563989936,53.98770815707208],[44.08389264682374,54.00555411461661],[44.080323455314996,54.02815899417235],[44.092220760343615,54.0519536042311],[44.06961588078876,54.062661178756535],[44.04701100123302,54.07693794479205],[44.04939046223867,54.09597363283771],[44.0279753131862,54.09240444132959],[44.010639566033205,54.09258380499982],[43.98565522547154,54.08663515248374],[43.966619537425075,54.0830659609765],[43.94520438837278,54.067599464437976],[43.91427139529663,54.059271350916774],[43.89404597674725,54.067599464437976],[43.88333840222119,54.054512428906534],[43.85954379216316,54.04261512387623],[43.86549244467764,54.01406159180627],[43.844077295624636,54.002164286777735],[43.81076484154337,54.002164286777735],[43.80600591953171,54.02238970532747],[43.769124273941074,54.03190754935079],[43.73581181985971,54.02001024432137],[43.70487882678356,54.0283383578408],[43.68822259974293,54.02238970532747],[43.666807450690634,54.03666647136103],[43.679894486222615,54.054512428906534],[43.68227394722835,54.09020434399372],[43.677515025216785,54.10686057103427],[43.658479337170405,54.1175681455597],[43.633494996608654,54.13065518109212],[43.6299258051,54.143742216623664],[43.621597691579595,54.147311408132765],[43.60970038655062,54.13541410310423],[43.58947496800124,54.13065518109212],[43.570439279954066,54.13184491159424],[43.550213861404686,54.137793564109444],[43.53593709536988,54.12946545059001],[43.50738356329947,54.12827572008612],[43.49548625827041,54.137793564109444],[43.46812245670372,54.137793564109444],[43.452655960166,54.133034642098224],[43.44313811614276,54.1235167980749],[43.470501917709456,54.1151886845537],[43.48596841424727,54.10567084053038],[43.48120949223561,54.09734272701095],[43.44670730765151,54.09020434399372],[43.40744620105495,54.087824882987626],[43.382461860494004,54.08901461348974],[43.366782003133316,54.09625083650464],[43.284690598432086,54.09030218399042],[43.30253655597581,54.07007676544068],[43.288259789940476,54.05817946041135],[43.30015709497016,54.04747188588405],[43.34655658458385,54.03200538934651],[43.37748957765947,54.03081565884351],[43.40604310972934,54.017728623311086],[43.4000944572145,53.996313474260205],[43.35369496760081,53.996313474260205],[43.337038740560615,53.95110371514872],[43.31324413050196,53.94753452363962],[43.30610574748429,53.92730910509086],[43.338228471063445,53.91184260855243],[43.35131550659516,53.90470422553423],[43.34536685408031,53.87971988497337],[43.31681332201035,53.86544311893795],[43.301346825473075,53.870202040950936],[43.266844640888266,53.87258150195615],[43.26446517988262,53.86306365793371],[43.204978654736415,53.841648508880084],[43.231090884727664,53.82123401485022],[43.24298818975664,53.8069572488148],[43.226331962716,53.778403716745714],[43.25964441679807,53.767696142218504],[43.30366444540549,53.75460910668608],[43.285818487861846,53.69988150355225],[43.32270013345186,53.68798419852372],[43.36672016205999,53.67727662399828],[43.33816662999038,53.66299985796197],[43.31794121144029,53.65705120544775],[43.33340770797881,53.632066864885914],[43.36315097055133,53.62016955985747],[43.39233219561479,53.61928528031099],[43.402412077147886,53.618979829355354],[43.44048345324073,53.61660036834925],[43.46070887179002,53.629687403880794],[43.48093429034011,53.65229228343654],[43.452380758269705,53.701071234056144],[43.47617536832854,53.712968539085566],[43.49759051738074,53.6844150070156],[43.52138512743878,53.69988150355225],[43.57849219157889,53.69988150355225],[43.636788986221816,53.6844150070156],[43.70936254689964,53.69155339003282],[43.736726348466426,53.67727662399828],[43.797402604115184,53.67965608500252],[43.83666371071174,53.67727662399828],[43.877114547810415,53.69393285103892],[43.90209888837207,53.69393285103892],[43.92589349843011,53.721296652604906],[43.96515460502667,53.74033234065243],[44.00203625061668,53.74509126266276],[44.027020591177546,53.75579883718909],[44.06866115877993,53.74033234065243],[44.10316334336491,53.74271180165853],[44.12695795342286,53.73914261014854],[44.154321754989645,53.72486584411401],[44.2007212446036,53.71891719159889],[44.2435515427089,53.710589078079465],[44.29352022383072,53.715348000090685],[44.3280224084157,53.71891719159889],[44.3658587760141,53.725967446431284]]]]}},{"type":"Feature","properties":{"kind":"district","id":"uyezd-1897-445","name":"Мокшанский","provinceId":"gubernia-1897-20"},"geometry":{"type":"MultiPolygon","coordinates":[[[[44.3280224084157,53.71891719159889],[44.31542088383028,53.692454524569236],[44.32017980584274,53.67936748903779],[44.34873333791235,53.63534746043028],[44.34873333791235,53.60917338936633],[44.318990075339826,53.598465814839116],[44.278539238240356,53.56753282176395],[44.2392781316438,53.51518467963612],[44.19644783353939,53.453318693484974],[44.20596567756262,53.43547273593956],[44.23332947912931,53.42476516141413],[44.24879597566783,53.39740135984628],[44.2535548976794,53.36884782777729],[44.28686735176067,53.359329983753966],[44.30709277031005,53.33672510419912],[44.296385195783905,53.31649968564947],[44.280918699246186,53.30103318911095],[44.27972896874327,53.25463369949646],[44.32136953634566,53.2332185504447],[44.343974415900774,53.240356933461925],[44.3665792954559,53.25225423849223],[44.403460941046625,53.229649358936484],[44.43439393412206,53.23559801144982],[44.45223989166561,53.25106450798923],[44.44272204764238,53.270100196034974],[44.455809083174266,53.29032561458551],[44.49625992027374,53.279618040058295],[44.54860806240218,53.26653100452587],[44.596197282518254,53.309361302632155],[44.62475081458875,53.304602380620054],[44.649735155149614,53.33196618218612],[44.71160114130138,53.330776451684],[44.7270676378391,53.35457106174178],[44.79726173751109,53.351001870232764],[44.823435808575674,53.38907324632694],[44.84366122712496,53.42595489191624],[44.85912772366268,53.448559771471984],[44.92337317082028,53.4556981544893],[44.93764993685508,53.43904192744866],[44.99118780948644,53.436662466442655],[45.041156490609055,53.43309327493533],[45.079227866701984,53.41881650889901],[45.11313306907682,53.399255815221316],[45.11729924279572,53.40810893437358],[45.130386278327514,53.40929866487659],[45.135145200339444,53.422385700408114],[45.14585277486568,53.43785219694655],[45.1375246613451,53.441421388454756],[45.15299115788317,53.45926734599929],[45.18868307297071,53.46521599851351],[45.18749334246753,53.47592357303894],[45.1767857679413,53.48544141706226],[45.17916522894686,53.5104257576249],[45.20058037799933,53.51161548812613],[45.22437498805826,53.52708198466465],[45.24341067610437,53.540169020196096],[45.26363609465446,53.54492794220918],[45.27910259119182,53.56277389975184],[45.29099989622124,53.5877582403127],[45.33977884684058,53.621070694394774],[45.39450644997495,53.6389166519393],[45.44328540059429,53.65795233998594],[45.475408124173,53.67103937551747],[45.47778758517856,53.6781777585347],[45.49563354272229,53.6865058720559],[45.500392464734304,53.69602371607834],[45.51942815278122,53.706731290604665],[45.51942815278122,53.73647455317861],[45.54084330183369,53.74361293619583],[45.539653571330504,53.75788970223037],[45.54808158151767,53.76691971314529],[45.519500787007495,53.77038405187345],[45.470721836388506,53.77871216539465],[45.43859911280935,53.76919432137133],[45.42908126878612,53.78109162640066],[45.39457908420202,53.78466081790887],[45.35412824710255,53.79179920092609],[45.32676444553577,53.80250677545153],[45.32319525402711,53.82630138551126],[45.33866175056483,53.8346294990306],[45.35174878609681,53.84414734305392],[45.34104121157066,53.85485491758024],[45.3291439065416,53.84771653456302],[45.31129794899734,53.8465268040609],[45.30296983547694,53.85247545657512],[45.28869306944213,53.86556249210754],[45.27481288024181,53.87349402879222],[45.243879887165484,53.87349402879222],[45.23079285163368,53.85683780175257],[45.21413662459314,53.84613022722536],[45.192721475540665,53.84018157471114],[45.13918360290939,53.866355645775],[45.11181980134181,53.85683780175257],[45.09040465228934,53.84494049672226],[45.07136896424314,53.84375076621926],[45.055902467704975,53.819956156161396],[45.01069270859447,53.822335617168385],[45.004744056080156,53.780695049566],[44.99165702054747,53.76760801403269],[44.954775374957634,53.780695049566],[44.934549956407544,53.75333124799815],[44.90718615484076,53.75927990051237],[44.90004777182318,53.7378647514615],[44.882201814279455,53.75452097850125],[44.85602774321505,53.76522855302846],[44.835802324665764,53.76403882252457],[44.78940283505207,53.76879774453569],[44.773936338514616,53.733105829448505],[44.758469841976456,53.725967446431284],[44.746572536947035,53.69741391436132],[44.71326008286594,53.6843268788289],[44.677568167778404,53.68670633983588],[44.652583827217185,53.6926549923501],[44.60261514609475,53.69146526184701],[44.599045954586,53.67361930430248],[44.54550808195473,53.67956795681768],[44.53004158541657,53.68551660933279],[44.52171347189589,53.6819474178228],[44.51814428038715,53.668860382291356],[44.50029832284413,53.67718849581158],[44.49197020932346,53.69622418385822],[44.47293452127655,53.69622418385822],[44.489590748317895,53.72001879391697],[44.47174479077417,53.733105829448505],[44.44676045021295,53.734295559951505],[44.41701718763981,53.70931121939154],[44.39560203858724,53.71763933291185],[44.370617698026024,53.70812148888764],[44.3658587760141,53.725967446431284],[44.3280224084157,53.71891719159889]]]]}},{"type":"Feature","properties":{"kind":"district","id":"uyezd-1897-446","name":"Керенский","provinceId":"gubernia-1897-20"},"geometry":{"type":"MultiPolygon","coordinates":[[[[43.204978654736415,53.841648508880084],[43.13240509405841,53.840458778377084],[43.10980021450338,53.87734042396736],[43.09076452645682,53.88209934598035],[43.05388288086645,53.86901231044793],[43.0384163843282,53.87377123245915],[43.01819096577883,53.87258150195615],[43.01224231326469,53.86187392742973],[43.02532934879649,53.846407430891304],[43.020570426784474,53.83451012586286],[42.977740128679976,53.836889586868864],[42.977740128679976,53.854735544412506],[42.95156605761575,53.86782257994404],[42.95156605761575,53.88209934598035],[42.923012525545786,53.88447880698459],[42.8980281849844,53.870202040950936],[42.87542330542927,53.86068419692673],[42.843300581850116,53.86068419692673],[42.81593678028307,53.857115005418606],[42.793331900728035,53.841648508880084],[42.777865404189875,53.81904362932532],[42.756450255137665,53.794059288764366],[42.75763998564041,53.78097225323204],[42.76715782966373,53.771454409207735],[42.74336321960587,53.74171114663565],[42.71243022652954,53.753608451664185],[42.70291238250631,53.72862411110323],[42.66959992842513,53.70363977054237],[42.68506642496249,53.681034890987604],[42.72194807055286,53.67865542998062],[42.76358863815525,53.64772243690554],[42.71480968753599,53.6286867488589],[42.673169119933604,53.614409982823375],[42.632718282834674,53.606081869304035],[42.595836637244304,53.59537429477673],[42.642236126857995,53.58347698974741],[42.66603073691585,53.56682076270775],[42.677928041945535,53.547785074660126],[42.673169119933604,53.50971369856684],[42.70053292150065,53.50733423756084],[42.73979402809668,53.469262861467556],[42.719568609547295,53.462124478451216],[42.71718914854156,53.43832986839149],[42.7362248365882,53.43000175487215],[42.751691333125564,53.43476067688337],[42.7790551346927,53.43595040738726],[42.796901092236425,53.40620714481429],[42.77548594318422,53.40501741431129],[42.78500378720754,53.38479199576155],[42.78500378720754,53.37170496022922],[42.77548594318422,53.34196169765528],[42.75288106362919,53.33601304514194],[42.75288106362919,53.312218435084084],[42.765968099160986,53.307459513071095],[42.77072702117292,53.27533678949203],[42.76537096137475,53.25177012638156],[42.78674937986294,53.24656997053261],[42.80816452891515,53.239431587515384],[42.818872103441294,53.22991374349206],[42.791508301874515,53.21682670795964],[42.85337428802619,53.122837998229436],[42.90572243015464,53.12402772873342],[42.942604075744654,53.17280667935303],[42.97472679932372,53.176375870861236],[42.97948572133538,53.18470398438235],[42.95807057228237,53.21444724695355],[42.97115760781506,53.219206168965655],[43.01041871441082,53.20730886393632],[43.03897224648122,53.208498594440215],[43.05205928201311,53.213257516451435],[43.03897224648122,53.222775360474756],[43.062766856539255,53.23110347399596],[43.09251011911178,53.218016438463536],[43.127012303696766,53.22158562997264],[43.157945296772205,53.23586239600628],[43.19006802035127,53.25251862304683],[43.211483169403564,53.25251862304683],[43.26859023354367,53.24775970103659],[43.29357457410462,53.25608781455593],[43.32807675868951,53.25608781455593],[43.32569729768368,53.28583107712988],[43.29952322661911,53.31081541768985],[43.28405673008139,53.339368949760704],[43.28881565209296,53.35602517680125],[43.31379999265471,53.36911221233278],[43.33640487220983,53.39409655289454],[43.337942619118486,53.39870979362023],[43.33997406371858,53.40480412741997],[43.34354325522723,53.417891162952394],[43.3697173262911,53.43454738999303],[43.33640487220983,53.46191119156087],[43.2923848436017,53.499982567653184],[43.31617945366045,53.52020798620381],[43.34592271623306,53.53329502173623],[43.34235352472432,53.597540468893385],[43.375665978805586,53.60586858241281],[43.39233219561479,53.61928528031099],[43.36315097055133,53.62016955985747],[43.33340770797881,53.632066864885914],[43.31794121144029,53.65705120544775],[43.33816662999038,53.66299985796197],[43.36672016205999,53.67727662399828],[43.32270013345186,53.68798419852372],[43.285818487861846,53.69988150355225],[43.30366444540549,53.75460910668608],[43.25964441679807,53.767696142218504],[43.226331962716,53.778403716745714],[43.24298818975664,53.8069572488148],[43.231090884727664,53.82123401485022],[43.204978654736415,53.841648508880084]]]]}},{"type":"Feature","properties":{"kind":"district","id":"uyezd-1897-447","name":"Нижнеломовский","provinceId":"gubernia-1897-20"},"geometry":{"type":"MultiPolygon","coordinates":[[[[43.337942619118486,53.39870979362023],[43.35147479191298,53.39409655289454],[43.383597515492134,53.38576843937333],[43.42285862208789,53.37268140384188],[43.45974026767861,53.353645715796134],[43.474017033713416,53.33461002774949],[43.45736080667278,53.31557433970285],[43.41453050856757,53.292969460147106],[43.41453050856757,53.258467275562026],[43.43475592711766,53.239431587515384],[43.43237646611183,53.219206168965655],[43.41334077806466,53.20017048091901],[43.41334077806466,53.18470398438235],[43.46806838119893,53.18113479287237],[43.52517544533904,53.17280667935303],[43.59417981450812,53.22872401298898],[43.6001284670226,53.278692694112564],[43.62868199909221,53.278692694112564],[43.641769034624986,53.27036458059136],[43.675081488706255,53.25608781455593],[43.70244529027295,53.25370835355081],[43.70601448178169,53.239431587515384],[43.74765504938408,53.23229320449808],[43.77501885095077,53.218016438463536],[43.8047621135241,53.21206778594843],[43.82855672358213,53.1513915302994],[43.81071076603858,53.102612579679786],[43.84164375911402,53.087146083142244],[43.845212950622766,53.07048985610162],[43.87376648269318,53.06335147308439],[43.89756109275121,53.058592551073176],[43.954668156891316,53.09190500515435],[43.978462766949356,53.113320154206114],[44.00106764650528,53.13235584225276],[43.993929263487786,53.15258126080338],[44.02248279555748,53.14425314728217],[44.062933632656865,53.14306341678006],[44.10457420025845,53.140683955773966],[44.141455845849265,53.13949422527007],[44.15097368987241,53.131166111750645],[44.17357856942762,53.119268806720335],[44.210460215018344,53.10737150169278],[44.2568597046315,53.09785365766946],[44.275895392677874,53.08238716113103],[44.27827485368451,53.066920664592516],[44.29612081122806,53.05502335956318],[44.324674343297666,53.03003901900321],[44.331812726315064,53.049074707049854],[44.35322787536816,53.066920664592516],[44.354417605870985,53.08238716113103],[44.365125180397136,53.09190500515435],[44.329433265309234,53.140683955773966],[44.28184404519325,53.131166111750645],[44.2639980876489,53.14544287778518],[44.24853159111118,53.183514253878464],[44.22711644205898,53.21206778594843],[44.24020347759087,53.23467266550417],[44.260428896140155,53.24300077902351],[44.27972896874327,53.25463369949646],[44.280918699246186,53.30103318911095],[44.296385195783905,53.31649968564947],[44.30709277031005,53.33672510419912],[44.28686735176067,53.359329983753966],[44.2535548976794,53.36884782777729],[44.24879597566783,53.39740135984628],[44.23332947912931,53.42476516141413],[44.20596567756262,53.43547273593956],[44.19644783353939,53.453318693484974],[44.2392781316438,53.51518467963612],[44.278539238240356,53.56753282176395],[44.318990075339826,53.598465814839116],[44.34873333791235,53.60917338936633],[44.34873333791235,53.63534746043028],[44.32017980584274,53.67936748903779],[44.31542088383028,53.692454524569236],[44.3280224084157,53.71891719159889],[44.29352022383072,53.715348000090685],[44.2435515427089,53.710589078079465],[44.2007212446036,53.71891719159889],[44.154321754989645,53.72486584411401],[44.12695795342286,53.73914261014854],[44.10316334336491,53.74271180165853],[44.06866115877993,53.74033234065243],[44.027020591177546,53.75579883718909],[44.00203625061668,53.74509126266276],[43.96515460502667,53.74033234065243],[43.92589349843011,53.721296652604906],[43.90209888837207,53.69393285103892],[43.877114547810415,53.69393285103892],[43.83666371071174,53.67727662399828],[43.797402604115184,53.67965608500252],[43.736726348466426,53.67727662399828],[43.70936254689964,53.69155339003282],[43.636788986221816,53.6844150070156],[43.57849219157889,53.69988150355225],[43.52138512743878,53.69988150355225],[43.49759051738074,53.6844150070156],[43.47617536832854,53.712968539085566],[43.452380758269705,53.701071234056144],[43.48093429034011,53.65229228343654],[43.46070887179002,53.629687403880794],[43.44048345324073,53.61660036834925],[43.402412077147886,53.618979829355354],[43.39233219561479,53.61928528031099],[43.375665978805586,53.60586858241281],[43.34235352472432,53.597540468893385],[43.34592271623306,53.53329502173623],[43.31617945366045,53.52020798620381],[43.2923848436017,53.499982567653184],[43.33640487220983,53.46191119156087],[43.3697173262911,53.43454738999303],[43.34354325522723,53.417891162952394],[43.33997406371858,53.40480412741997],[43.337942619118486,53.39870979362023]]]]}},{"type":"Feature","properties":{"kind":"district","id":"uyezd-1897-469","name":"Городищенский","provinceId":"gubernia-1897-20"},"geometry":{"type":"MultiPolygon","coordinates":[[[[46.79125006039734,53.49971818309769],[46.757937606315444,53.516374410139214],[46.732953265754226,53.52946144567066],[46.6698975490999,53.52113333215043],[46.64253374753303,53.528271715167655],[46.61754940697181,53.540169020196096],[46.62230832898294,53.55920470824371],[46.61041102395432,53.57110201327215],[46.599703449428084,53.59727608433602],[46.599703449428084,53.628209077412976],[46.63539536451554,53.628209077412976],[46.67941539312296,53.63058853841907],[46.69488188966112,53.64367557395052],[46.7091586556961,53.66509072300325],[46.69131269815237,53.67936748903779],[46.68060512362614,53.69840317708443],[46.659189974573664,53.70197236859256],[46.640154286526666,53.687695602558996],[46.56758072584929,53.688885333062004],[46.53545800227058,53.694833985576224],[46.50690447020062,53.71267994311897],[46.48905851265689,53.72695670915439],[46.502145548188686,53.73052590066252],[46.527129888749904,53.72695670915439],[46.55568342081987,53.7281464396574],[46.584236952889924,53.73885401418461],[46.5854266833931,53.750751319213144],[46.57590883936925,53.76383835474459],[46.54854503780238,53.77335619876889],[46.50452500919425,53.77335619876889],[46.48905851265689,53.782874042791235],[46.46407417209567,53.78525350379733],[46.440279562037546,53.79001242580854],[46.427192526504946,53.7781151207801],[46.420054143487455,53.80190973083885],[46.40458764695009,53.80309946134186],[46.39150061141749,53.806668652850064],[46.387931419908746,53.82094541888452],[46.348670313312454,53.817376227375505],[46.32487570325442,53.80904811385608],[46.31178866772262,53.82094541888452],[46.31059893721944,53.83998110693116],[46.31535785923136,53.853068142464465],[46.31178866772262,53.8613962559839],[46.312978398225,53.87210383051023],[46.323685972751235,53.898277901574176],[46.28680432716131,53.90898547610139],[46.25111241207386,53.894708710065075],[46.20471292246017,53.894708710065075],[46.165451815863875,53.903036823585396],[46.13689828379391,53.9018470930823],[46.09763717719771,53.903036823585396],[46.09644744669453,53.94348766068558],[46.078601489150714,53.968472001246525],[46.05837607060151,53.96728227074432],[46.046478765572004,53.977989845269846],[46.02387388601715,53.96966173174953],[46.01554577249648,53.951815774205],[45.99294089294082,53.93515954716535],[46.004838197970244,53.92088278112992],[46.0012690064615,53.916123859118706],[45.99769981495275,53.89113951855687],[45.967956552379604,53.87924221352843],[45.93702355930399,53.91017520660439],[45.92512625427537,53.95419523521102],[45.90252137471972,53.951815774205],[45.87277811214657,53.957764426721],[45.83589646655665,53.95300550470801],[45.83708619705903,53.97323092325863],[45.82042997001848,53.99702553331649],[45.79901482096601,53.99702553331649],[45.7930661684517,53.98393849778407],[45.78481068915775,53.967879315357095],[45.76220580960263,53.95479227982556],[45.734842008035045,53.94884362731045],[45.737221469040875,53.93694632228103],[45.75863661809388,53.91553117322927],[45.73127281652639,53.885787910656305],[45.72056524200024,53.87032141411876],[45.71104739797701,53.84414734305392],[45.69439117093638,53.85009599556903],[45.68606305741615,53.8429576125518],[45.69558090143929,53.831060307522385],[45.67178629138125,53.813214349977855],[45.646801950819594,53.815593810983955],[45.61229976623541,53.79893758394341],[45.58612569517074,53.77990189589677],[45.573038659638854,53.77990189589677],[45.55876189360405,53.76562512986223],[45.54808158151767,53.76691971314529],[45.539653571330504,53.75788970223037],[45.54084330183369,53.74361293619583],[45.51942815278122,53.73647455317861],[45.51942815278122,53.706731290604665],[45.500392464734304,53.69602371607834],[45.49563354272229,53.6865058720559],[45.47778758517856,53.6781777585347],[45.475408124173,53.67103937551747],[45.44328540059429,53.65795233998594],[45.39450644997495,53.6389166519393],[45.33977884684058,53.621070694394774],[45.29099989622124,53.5877582403127],[45.27910259119182,53.56277389975184],[45.26363609465446,53.54492794220918],[45.24341067610437,53.540169020196096],[45.22437498805826,53.52708198466465],[45.20058037799933,53.51161548812613],[45.17916522894686,53.5104257576249],[45.1767857679413,53.48544141706226],[45.18749334246753,53.47592357303894],[45.18868307297071,53.46521599851351],[45.15299115788317,53.45926734599929],[45.1375246613451,53.441421388454756],[45.14585277486568,53.43785219694655],[45.135145200339444,53.422385700408114],[45.130386278327514,53.40929866487659],[45.11729924279572,53.40810893437358],[45.11313306907682,53.399255815221316],[45.10778139877186,53.38788351582393],[45.11491978178944,53.380745132806624],[45.11729924279572,53.37003755827941],[45.15418088838564,53.34743267872544],[45.194631725485024,53.3640889057651],[45.23270310157804,53.37122728878241],[45.23389283208131,53.361709444759086],[45.189872803473094,53.35100187023365],[45.162509001906315,53.33315591268912],[45.103022476760735,53.33196618218701],[45.105401937766295,53.31293049413948],[45.15299115788317,53.30936130263127],[45.17916522894686,53.31174076363639],[45.204149569508076,53.31174076363639],[45.21842633554306,53.30103318911095],[45.21604687453758,53.28675642307552],[45.18630361196435,53.26772073502977],[45.132765739333166,53.24273639446802],[45.0923149022345,53.23559801144982],[45.10778139877186,53.20585474887862],[45.12443762581321,53.17968067781298],[45.12324789531002,53.16540391177844],[45.12800681732195,53.148747684738694],[45.13871439184819,53.11662496115875],[45.149421966374426,53.10591738663242],[45.197011186490585,53.070225471546124],[45.201802743471106,53.06714518491556],[45.21366741353193,53.05951789701882],[45.25649771163697,53.04643086148737],[45.293379357226804,53.02739517343984],[45.32193288929685,53.03334382595584],[45.345727499355604,53.02858490394284],[45.380229683939966,53.02620544293675],[45.349296690864435,53.038102747966164],[45.3909372584662,53.076174124060344],[45.42424971254738,53.09996873411909],[45.45280324461734,53.114245500152734],[45.500392464734304,53.11186603914664],[45.49325408171681,53.082122776574565],[45.5337049188162,53.07974331556855],[45.55274060686231,53.08926115959187],[45.5848633304411,53.08331250707668],[45.5848633304411,53.09996873411909],[45.63364228106116,53.10234819512429],[45.66576500463907,53.09639954260999],[45.69907745872096,53.09520981210699],[45.72763099079101,53.09996873411909],[45.744287217831555,53.09639954260999],[45.75618452286098,53.11662496115875],[45.77878940241663,53.155886067756015],[45.807342934486684,53.18919852183719],[45.8192402395153,53.21299313189594],[45.85731161560912,53.1903882523402],[45.87396784264966,53.16540391177844],[45.885865147679084,53.14636822373269],[45.9298851762865,53.155886067756015],[45.98104358791212,53.167783372784456],[46.03101226903464,53.18087040831688],[46.06432472311573,53.19752663535653],[46.044099304566444,53.208234209883834],[46.07503229764197,53.22726989792959],[46.06908364512775,53.25106450798833],[46.07265283663649,53.26296181301855],[46.11548313474144,53.27247965704099],[46.15117504982889,53.28199750106431],[46.178538851395764,53.29508453659673],[46.23088699352377,53.2808077705613],[46.25349187307942,53.27842830955521],[46.312978398225,53.31293049413948],[46.3260654337576,53.31649968564947],[46.36532654035389,53.30936130263127],[46.40815683845884,53.33315591268912],[46.44622821455185,53.34505321771943],[46.47359201611872,53.32601752967279],[46.486679051650526,53.30817157212826],[46.51642231422367,53.310551033134274],[46.547355307299284,53.30222291961404],[46.547355307299284,53.31649968564947],[46.58304722238674,53.31649968564947],[46.606841832445575,53.317689416152476],[46.633015903509175,53.32601752967279],[46.663948896585595,53.33434564319213],[46.681616865132355,53.329825930308],[46.71510730821041,53.32125860765971],[46.731763535250955,53.33672510419822],[46.72224569122799,53.34862240922844],[46.72462515223427,53.355760792244865],[46.74723003178921,53.361709444759086],[46.75317868430343,53.379555402303616],[46.76150679782419,53.39145270733206],[46.7805424858711,53.41286785638479],[46.756747875812174,53.41881650889901],[46.732953265754226,53.428334352922334],[46.72700461323983,53.4556981544893],[46.73652245726297,53.47592357303894],[46.755558145309884,53.47592357303894],[46.78411167737985,53.472354381530735],[46.79125006039734,53.49971818309769]]]]}},{"type":"Feature","properties":{"kind":"district","id":"uyezd-1897-478","name":"Пензенский","provinceId":"gubernia-1897-20"},"geometry":{"type":"MultiPolygon","coordinates":[[[[44.77003012822224,52.830957448181806],[44.79977339079556,52.827388256672705],[44.83427557537974,52.85594178874178],[44.867588029461814,52.891633703830834],[44.89138263951985,52.9189975053969],[44.922315632595286,52.93565373243745],[44.94967943416278,52.94636130696378],[44.98775081025562,52.94398184595866],[45.01273515081737,52.94517157646166],[45.01273515081737,52.976104569537725],[45.03296056936675,52.978484030542845],[45.07460113696905,52.970155917021636],[45.09958547753,52.973725108531625],[45.11624170457063,52.99514025758347],[45.14360550613813,53.00108891009769],[45.15193361965844,53.014175945630114],[45.18762553474554,53.01179648462402],[45.18286661273388,53.03321163367676],[45.18524607373971,53.048678130215194],[45.201802743471106,53.06714518491556],[45.197011186490585,53.070225471546124],[45.149421966374426,53.10591738663242],[45.13871439184819,53.11662496115875],[45.12800681732195,53.148747684738694],[45.12324789531002,53.16540391177844],[45.12443762581321,53.17968067781298],[45.10778139877186,53.20585474887862],[45.0923149022345,53.23559801144982],[45.132765739333166,53.24273639446802],[45.18630361196435,53.26772073502977],[45.21604687453758,53.28675642307552],[45.21842633554306,53.30103318911095],[45.204149569508076,53.31174076363639],[45.17916522894686,53.31174076363639],[45.15299115788317,53.30936130263127],[45.105401937766295,53.31293049413948],[45.103022476760735,53.33196618218701],[45.162509001906315,53.33315591268912],[45.189872803473094,53.35100187023365],[45.23389283208131,53.361709444759086],[45.23270310157804,53.37122728878241],[45.194631725485024,53.3640889057651],[45.15418088838564,53.34743267872544],[45.11729924279572,53.37003755827941],[45.11491978178944,53.380745132806624],[45.10778139877186,53.38788351582393],[45.11313306907682,53.399255815221316],[45.079227866701984,53.41881650889901],[45.041156490609055,53.43309327493533],[44.99118780948644,53.436662466442655],[44.93764993685508,53.43904192744866],[44.92337317082028,53.4556981544893],[44.85912772366268,53.448559771471984],[44.84366122712496,53.42595489191624],[44.823435808575674,53.38907324632694],[44.79726173751109,53.351001870232764],[44.7270676378391,53.35457106174178],[44.71160114130138,53.330776451684],[44.649735155149614,53.33196618218612],[44.62475081458875,53.304602380620054],[44.596197282518254,53.309361302632155],[44.54860806240218,53.26653100452587],[44.49625992027374,53.279618040058295],[44.455809083174266,53.29032561458551],[44.44272204764238,53.270100196034974],[44.45223989166561,53.25106450798923],[44.43439393412206,53.23559801144982],[44.403460941046625,53.229649358936484],[44.3665792954559,53.25225423849223],[44.343974415900774,53.240356933461925],[44.32136953634566,53.2332185504447],[44.27972896874327,53.25463369949646],[44.260428896140155,53.24300077902351],[44.24020347759087,53.23467266550417],[44.22711644205898,53.21206778594843],[44.24853159111118,53.183514253878464],[44.2639980876489,53.14544287778518],[44.28184404519325,53.131166111750645],[44.329433265309234,53.140683955773966],[44.365125180397136,53.09190500515435],[44.354417605870985,53.08238716113103],[44.35322787536816,53.066920664592516],[44.331812726315064,53.049074707049854],[44.324674343297666,53.03003901900321],[44.29612081122806,53.05502335956318],[44.27827485368451,53.066920664592516],[44.24297951543118,53.05383362906018],[44.21204652235503,53.051454168055855],[44.144231883688775,53.03003901900321],[44.1109194296076,53.00386494793925],[44.146611344694605,52.98720872089693],[44.172785415759186,52.9812600683836],[44.193010834308566,52.97174222436028],[44.151370266706266,52.93129138726],[44.1323345786598,52.93129138726],[44.10616050759594,52.909876238208156],[44.16326757173604,52.875374053623084],[44.15018053620335,52.85633836557644],[44.14185242268304,52.821836180993145],[44.1323345786598,52.8028004929465],[44.128765387151056,52.77662642188166],[44.15018053620335,52.7881271500773],[44.22513355788692,52.80835256862606],[44.25725628146607,52.759573618006456],[44.27867143051828,52.76671200102376],[44.3084146930916,52.78336822806431],[44.34648606918453,52.79169634158552],[44.37979852326651,52.832147178683925],[44.40597259433038,52.835716370193026],[44.42976720438841,52.84999313622845],[44.47497696349946,52.84047529220513],[44.499961304060406,52.826198526170586],[44.517807261604666,52.80478337711794],[44.559447829206256,52.811921760135164],[44.61060624083187,52.80835256862606],[44.642728964410225,52.85475205823967],[44.7034052200589,52.84404448371423],[44.77003012822224,52.830957448181806]]]]}},{"type":"Feature","properties":{"kind":"district","id":"uyezd-1897-785","name":"Саранский","provinceId":"gubernia-1897-20"},"geometry":{"type":"MultiPolygon","coordinates":[[[[45.27481288024181,53.87349402879222],[45.28869306944213,53.86556249210754],[45.30296983547694,53.85247545657512],[45.31129794899734,53.8465268040609],[45.3291439065416,53.84771653456302],[45.34104121157066,53.85485491758024],[45.35174878609681,53.84414734305392],[45.33866175056483,53.8346294990306],[45.32319525402711,53.82630138551126],[45.32676444553577,53.80250677545153],[45.35412824710255,53.79179920092609],[45.39457908420202,53.78466081790887],[45.42908126878612,53.78109162640066],[45.43859911280935,53.76919432137133],[45.470721836388506,53.77871216539465],[45.519500787007495,53.77038405187345],[45.54808158151767,53.76691971314529],[45.55876189360405,53.76562512986223],[45.573038659638854,53.77990189589677],[45.58612569517074,53.77990189589677],[45.61229976623541,53.79893758394341],[45.646801950819594,53.815593810983955],[45.67178629138125,53.813214349977855],[45.69558090143929,53.831060307522385],[45.68606305741615,53.8429576125518],[45.69439117093638,53.85009599556903],[45.71104739797701,53.84414734305392],[45.72056524200024,53.87032141411876],[45.73127281652639,53.885787910656305],[45.75863661809388,53.91553117322927],[45.737221469040875,53.93694632228103],[45.734842008035045,53.94884362731045],[45.76220580960263,53.95479227982556],[45.78481068915775,53.967879315357095],[45.74673931306491,53.973827967872204],[45.71342685898284,53.973827967872204],[45.67892467439866,53.966689584854976],[45.65275060333408,53.961930662842875],[45.58136677315917,54.00833015245736],[45.53496728354601,54.042832337040664],[45.511172673487174,54.06781667760241],[45.56946946813011,54.08566263514694],[45.6396635678021,54.040452876034564],[45.67654521339291,54.01784799648068],[45.69439117093638,54.0166582659767],[45.69320144043346,54.040452876034564],[45.687252787919064,54.06543721659641],[45.69439117093638,54.07376533011761],[45.725324164011816,54.07257559961363],[45.75506742658523,54.057109103076975],[45.78719015016358,54.06186802508731],[45.80503610770704,54.07614479112362],[45.80503610770704,54.09399074866637],[45.75863661809388,54.10588805369659],[45.70747820646835,54.114216167216014],[45.71104739797701,54.13682104677078],[45.73841119954379,54.14039023827988],[45.73008308602348,54.1606156568305],[45.7098576674741,54.15823619582441],[45.67654521339291,54.16656430934384],[45.71223712847993,54.17846161437316],[45.719375511497326,54.193928110911685],[45.71580631998867,54.22486110398677],[45.73603173853796,54.25936328857184],[45.73603173853796,54.27839897661848],[45.76101607909971,54.293865473157],[45.79194907217515,54.28910655114392],[45.801466916198386,54.30457304768244],[45.78719015016358,54.3319368492494],[45.74435985205908,54.33788550176362],[45.71223712847993,54.345023884780844],[45.67178629138125,54.3283676577403],[45.628955993276044,54.3366957712615],[45.6253868017673,54.360490381319366],[45.60992030522958,54.38547472188111],[45.613489496738325,54.40213094892166],[45.5766078511476,54.41045906244287],[45.552813241089474,54.381905530372904],[45.51831105650458,54.40332067942377],[45.55400297159239,54.44496124702616],[45.567090007124364,54.44615097753014],[45.56590027662145,54.45209963004348],[45.549244049580814,54.46280720457069],[45.521880248013325,54.46637639607979],[45.493326715943624,54.47708397060522],[45.46596291437693,54.499688850160965],[45.495706176949454,54.511586155190386],[45.53020836153364,54.52110399921371],[45.51355213449292,54.55560618379691],[45.52663917002489,54.581780254861755],[45.51593159549875,54.60676459542262],[45.490947254937886,54.60676459542262],[45.45882453135873,54.61390297843994],[45.42313261627163,54.62699001397236],[45.408855850236826,54.662681929059545],[45.39814827571068,54.653164085036224],[45.40171746721943,54.63769758849957],[45.3993380062136,54.61985163095504],[45.412425041745486,54.60676459542262],[45.34817959458807,54.581780254861755],[45.31010821849443,54.569882949833314],[45.262518998378354,54.5579856448039],[45.21017085624991,54.55084726178667],[45.16734055814461,54.54489860927148],[45.131648643057595,54.51872453820761],[45.142356217583654,54.49136073663976],[45.11261295501113,54.48898127563464],[45.094766997466785,54.47113531809012],[45.06740319590009,54.49017100613764],[45.00315774874258,54.49136073663976],[44.95556852862571,54.496119658651864],[44.93653284057933,54.47470450959922],[44.92225607454444,54.47113531809012],[44.90559984750389,54.48065316211344],[44.88180523744497,54.49492992814975],[44.85920035788994,54.492550467143744],[44.84413043818643,54.48620523779388],[44.82985367215145,54.47192847175846],[44.83104340265383,54.437426287174276],[44.851268821203924,54.438616017677276],[44.86197639573016,54.426718712648835],[44.910755346349504,54.425528982145835],[44.92622184288767,54.417200868625514],[44.92860130389323,54.38031922303435],[44.95120618344889,54.38031922303435],[44.970241871495,54.36604245699981],[44.95953429696876,54.341058116438944],[44.99165702054747,54.308935392860775],[44.97975971551885,54.30774566235777],[44.95239591395127,54.31369431487199],[44.954775374957634,54.30655593185476],[44.989277559541996,54.276812669281796],[45.053523006699415,54.268484555760594],[45.08683546078059,54.24706940670874],[45.07850734726063,54.242310484697526],[45.06185112022008,54.23993102369063],[45.067799772734396,54.21494668312879],[45.06185112022008,54.1828239595507],[45.08445599977503,54.16854719351616],[45.08207653876938,54.14594231396042],[45.04162570166999,54.138803930943105],[45.046384623681924,54.10430174635803],[44.997605673062665,54.105491476862014],[44.969052140992616,54.10192228535193],[44.989277559541996,54.05790225674541],[44.99879540356496,54.02221034165813],[45.05947165921372,54.0043643841136],[45.11657872335374,54.02340007216114],[45.160598751961956,54.01864115014814],[45.18082417051116,53.99127734858118],[45.24863880917741,53.95439570299099],[45.298607490299936,53.92227297941281],[45.318832908849224,53.90680648287527],[45.31764317834684,53.884201603319525],[45.28195126325939,53.88063241181132],[45.27481288024181,53.87349402879222]]]]}},{"type":"Feature","properties":{"kind":"district","id":"uyezd-1897-787","name":"Чембарский","provinceId":"gubernia-1897-20"},"geometry":{"type":"MultiPolygon","coordinates":[[[[43.337942619118486,53.39870979362023],[43.33640487220983,53.39409655289454],[43.31379999265471,53.36911221233278],[43.28881565209296,53.35602517680125],[43.28405673008139,53.339368949760704],[43.29952322661911,53.31081541768985],[43.32569729768368,53.28583107712988],[43.32807675868951,53.25608781455593],[43.29357457410462,53.25608781455593],[43.26859023354367,53.24775970103659],[43.211483169403564,53.25251862304683],[43.19006802035127,53.25251862304683],[43.157945296772205,53.23586239600628],[43.127012303696766,53.22158562997264],[43.09251011911178,53.218016438463536],[43.062766856539255,53.23110347399596],[43.03897224648122,53.222775360474756],[43.05205928201311,53.213257516451435],[43.03897224648122,53.208498594440215],[43.01041871441082,53.20730886393632],[42.97115760781506,53.219206168965655],[42.95807057228237,53.21444724695355],[42.97948572133538,53.18470398438235],[42.97472679932372,53.176375870861236],[42.942604075744654,53.17280667935303],[42.90572243015464,53.12402772873342],[42.85337428802619,53.122837998229436],[42.791508301874515,53.21682670795964],[42.818872103441294,53.22991374349206],[42.80816452891515,53.239431587515384],[42.78674937986294,53.24656997053261],[42.76537096137475,53.25177012638156],[42.76477836865807,53.24916271842816],[42.75526052463484,53.23488595239451],[42.73384537558255,53.231316760884525],[42.70172265200348,53.227747569376305],[42.670789658927866,53.215850264347864],[42.65651289289262,53.18491727127181],[42.6469950488693,53.14684589517852],[42.62795936082266,53.14684589517852],[42.65651289289262,53.11234371059345],[42.69577399948864,53.083790178524374],[42.71837887904438,53.06237502947074],[42.74931187212,53.03025230589177],[42.81236758877468,52.98742200778727],[42.8980281849844,52.96362739772941],[42.97298120666796,52.94221224867667],[42.977740128679976,52.91365871660582],[43.005103930247024,52.89819222006828],[43.066969916398165,52.848223538946556],[43.140733207578904,52.78516782229143],[43.177614853169274,52.744716985192134],[43.21330676825691,52.70545587859674],[43.25256787485293,52.66738450250345],[43.26327544937979,52.65072827546193],[43.29119511309879,52.65527391058369],[43.32212810617503,52.63742795304094],[43.32807675868951,52.65646364108758],[43.3768557093085,52.660032832596684],[43.37447624830267,52.675499329134226],[43.33164595019817,52.706432322209395],[43.37447624830267,52.714760435730604],[43.44586007847758,52.72903720176505],[43.47798280205674,52.73974477629058],[43.508915795132175,52.73974477629058],[43.53271040519101,52.72546801025604],[43.56126393726062,52.67430959863033],[43.58624827782157,52.6636020241049],[43.60766342687457,52.66836094611611],[43.60766342687457,52.69453501717998],[43.62907857592687,52.72546801025604],[43.65882183849939,52.742124237296586],[43.68142671805523,52.732606393273265],[43.72782620766847,52.73498585427936],[43.74448243470991,52.7492626203139],[43.8146765343819,52.750452350817795],[43.82895330041671,52.73974477629058],[43.851558179971825,52.73974477629058],[43.851558179971825,52.754021542326896],[43.887250095059635,52.754021542326896],[43.91699335763216,52.757590733835016],[43.951495542217145,52.77186749986956],[43.9907566488129,52.76591884735622],[44.025258833397885,52.76710857785834],[44.09069401105822,52.76591884735622],[44.128765387151056,52.77662642188166],[44.1323345786598,52.8028004929465],[44.14185242268304,52.821836180993145],[44.15018053620335,52.85633836557644],[44.16326757173604,52.875374053623084],[44.10616050759594,52.909876238208156],[44.1323345786598,52.93129138726],[44.151370266706266,52.93129138726],[44.193010834308566,52.97174222436028],[44.172785415759186,52.9812600683836],[44.146611344694605,52.98720872089693],[44.1109194296076,53.00386494793925],[44.144231883688775,53.03003901900321],[44.21204652235503,53.051454168055855],[44.24297951543118,53.05383362906018],[44.27827485368451,53.066920664592516],[44.275895392677874,53.08238716113103],[44.2568597046315,53.09785365766946],[44.210460215018344,53.10737150169278],[44.17357856942762,53.119268806720335],[44.15097368987241,53.131166111750645],[44.141455845849265,53.13949422527007],[44.10457420025845,53.140683955773966],[44.062933632656865,53.14306341678006],[44.02248279555748,53.14425314728217],[43.993929263487786,53.15258126080338],[44.00106764650528,53.13235584225276],[43.978462766949356,53.113320154206114],[43.954668156891316,53.09190500515435],[43.89756109275121,53.058592551073176],[43.87376648269318,53.06335147308439],[43.845212950622766,53.07048985610162],[43.84164375911402,53.087146083142244],[43.81071076603858,53.102612579679786],[43.82855672358213,53.1513915302994],[43.8047621135241,53.21206778594843],[43.77501885095077,53.218016438463536],[43.74765504938408,53.23229320449808],[43.70601448178169,53.239431587515384],[43.70244529027295,53.25370835355081],[43.675081488706255,53.25608781455593],[43.641769034624986,53.27036458059136],[43.62868199909221,53.278692694112564],[43.6001284670226,53.278692694112564],[43.59417981450812,53.22872401298898],[43.52517544533904,53.17280667935303],[43.46806838119893,53.18113479287237],[43.41334077806466,53.18470398438235],[43.41334077806466,53.20017048091901],[43.43237646611183,53.219206168965655],[43.43475592711766,53.239431587515384],[43.41453050856757,53.258467275562026],[43.41453050856757,53.292969460147106],[43.45736080667278,53.31557433970285],[43.474017033713416,53.33461002774949],[43.45974026767861,53.353645715796134],[43.42285862208789,53.37268140384188],[43.383597515492134,53.38576843937333],[43.35147479191298,53.39409655289454],[43.337942619118486,53.39870979362023]]]]}}]}
