{"type":"FeatureCollection","features":[{"type":"Feature","properties":{"kind":"province","id":"gubernia-1897-10","name":"Санкт-Михельская губерния"},"geometry":{"type":"MultiPolygon","coordinates":[[[[26.2174594399792,62.01486489227729],[26.132535055785905,61.97218035603785],[26.070669069634583,61.9852673915693],[26.00523389197416,61.94719601547602],[25.94336790582284,61.910314369884844],[25.880312189168336,61.88295056831886],[25.817256472513655,61.86867380228344],[25.772046713402347,61.83298188719705],[25.7387342593209,61.84131000071737],[25.713749918760215,61.8532073057459],[25.67686827316958,61.855586766751905],[25.610243365005886,61.846068922728584],[25.57455144991861,61.82346404317195],[25.570982258410307,61.79610024160597],[25.560274683883716,61.77468509255412],[25.53172115181384,61.753269943501465],[25.503167619744055,61.72233695042452],[25.49008058421172,61.691403957348456],[25.494839506223293,61.61883039667188],[25.47818327918257,61.56410279353716],[25.444870825101123,61.51175465140933],[25.435485173355993,61.48082165833239],[25.48188466296986,61.42966324670854],[25.517576578057138,61.40110971463858],[25.52114576956544,61.372556182568616],[25.537801996606163,61.34043345898867],[25.540181457611993,61.31782857943381],[25.566355528676837,61.32020804043893],[25.609185826781516,61.33567453697745],[25.686518309471,61.32972588446225],[25.769799444674707,61.35471022502498],[25.8328551613293,61.301172352392285],[25.89710060848716,61.26429070680298],[25.928033601562777,61.25596259328267],[25.94944875061516,61.221460408697595],[25.929223332065337,61.1798198410961],[25.950638481118432,61.145317656511914],[25.94587955910686,61.12866142947039],[25.8852033034581,61.09891816689654],[25.920895218545375,61.07631328734168],[25.953017942124262,61.05965706030202],[26.019642850287156,61.07988247885078],[26.06842180090682,61.09059005337707],[26.072740081991622,61.12892581402593],[26.097724422552307,61.14201284955827],[26.248820196422976,61.12654635301983],[26.294823109202362,61.15787592293047],[26.326945832781337,61.15192727041536],[26.353119903845293,61.1281326603575],[26.380483705411898,61.110286702813866],[26.363827478371086,61.09957912828754],[26.426883195025766,61.072215326721555],[26.467334032125414,61.069835865714566],[26.49945675570359,61.087681823259096],[26.480421067657037,61.11742508583117],[26.419744812008275,61.14954780941024],[26.39595020195015,61.15787592293047],[26.38881181893266,61.18048080248532],[26.462575110113043,61.24948517165467],[26.531579479282566,61.260192746181886],[26.641034685550938,61.2649516681931],[26.6945725581815,61.19356783801864],[26.745730969807063,61.216701486686375],[26.808786686461655,61.24525501875634],[26.848047793058033,61.24525501875634],[26.864704020098756,61.23573717473302],[26.88017051663692,61.1798198410961],[26.92894946725662,61.16554307505979],[26.963451651840625,61.14412792600793],[27.011040871957764,61.131040890476484],[27.03721494302172,61.151266309025246],[27.08837335464725,61.151266309025246],[27.10502958168806,61.151266309025246],[27.120496078225425,61.1798198410961],[27.152618801804312,61.18219930210122],[27.25136643354627,61.17863011059309],[27.322750263721623,61.16792253606677],[27.34654487377975,61.16792253606677],[27.35606271780307,61.17744038009009],[27.35844217880881,61.19171714612454],[27.377477866855454,61.19409660712975],[27.381047058364555,61.20599391216094],[27.331078377241585,61.20480418165607],[27.321560533218264,61.225029600205715],[27.329888646739025,61.24644474925935],[27.29657619265678,61.27142908981932],[27.216864248961464,61.303551813399274],[27.19069017789751,61.31306965742348],[27.175223681360055,61.32734642345713],[27.154998262810143,61.32139777094203],[27.121685808728696,61.333295075972245],[27.114547425711294,61.31663884893081],[27.064578744588324,61.32020804043893],[27.027697098998487,61.33210534546835],[27.011040871957764,61.34995130301199],[26.952744077314833,61.342812919995566],[26.949174885805732,61.3570896860301],[26.995574375419512,61.378504835081955],[27.018457275192358,61.37949974376779],[27.02304120995352,61.371775861800444],[27.04133331643575,61.372928413226916],[27.069886848505536,61.363410569203594],[27.08535334504379,61.363410569203594],[27.107958224598732,61.38244625725024],[27.129373373651827,61.40386140630111],[27.185290707288218,61.4002922147929],[27.282848608527527,61.4002922147929],[27.479154141508705,61.366979760711715],[27.55410716319236,61.35032353367019],[27.640957489905166,61.34080568964687],[27.813468412828218,61.34437488115695],[27.853919249927156,61.35151326417329],[27.929136656167103,61.33617895991305],[27.960069649242808,61.332609768404836],[27.992192372821695,61.34212761242816],[28.02193563539404,61.34450707343328],[28.132580572164972,61.34926599544636],[28.244415239439263,61.35283518695448],[28.305091495088025,61.36473249198301],[28.33364502715781,61.37900925801844],[28.38004451677168,61.40994225109441],[28.462135921472825,61.45753147121101],[28.48949972304014,61.481326081268875],[28.495448375554272,61.50036176931552],[28.559693822712134,61.53010503188848],[28.58586789377618,61.53010503188848],[28.627508461378387,61.51344880484883],[28.633457113892607,61.489654194789196],[28.7036512135646,61.474187698252535],[28.878541597493395,61.5051206913286],[28.940143199088514,61.51269696126562],[29.049598405356885,61.52340453579292],[29.155484420116245,61.549578606855896],[29.27802666191704,61.59478836596738],[29.407707286734613,61.642377586084876],[29.517162493002985,61.66498246563973],[29.554044138592822,61.68282842318328],[29.54333656406703,61.718520338271446],[29.630186890779747,61.76135063637595],[29.720606409001654,61.81607823951076],[29.69681179894273,61.8351139275574],[29.639704734803068,61.86604692063159],[29.574269557142646,61.91125667974299],[29.682535032907836,61.9612253608648],[29.58854632317754,62.014763233497405],[29.521921415014646,62.0480756875777],[29.448158123833462,62.11113140423372],[29.411276478243714,62.22296607150658],[29.361307797120745,62.30148828469916],[29.32442615153011,62.36811319286241],[29.295872619460322,62.390718072417265],[29.247093668840623,62.397856455435466],[29.217350406268277,62.412133221469915],[29.18403795218683,62.397856455435466],[29.138828193075522,62.38714888091003],[29.116223313520578,62.406184568956675],[29.103136277988156,62.44544567555296],[29.1221719660348,62.460912172089614],[29.11860277452641,62.50255273969289],[29.061495710386037,62.51801923622954],[29.01509622077217,62.54419330729429],[28.98059403618816,62.563228995340936],[28.902071822995406,62.60130037143422],[28.86875936891387,62.61795659847574],[28.831877723323323,62.634612825515404],[28.784288503206895,62.636992286521505],[28.748596588119618,62.626284711995176],[28.76168362365124,62.60130037143422],[28.735509552587285,62.5870236053988],[28.7105252120258,62.58345441389068],[28.70695602051741,62.60249010193732],[28.71647386454073,62.61319767646364],[28.70457655951158,62.61795659847574],[28.671264105430133,62.60605929344544],[28.670074374926863,62.5858338748958],[28.632002998833755,62.567987917352156],[28.6058289277698,62.567987917352156],[28.59988027525478,62.552521420814614],[28.617726232798862,62.52753708025286],[28.591552161734818,62.52753708025286],[28.566567821173333,62.53586519377407],[28.528496445080226,62.54300357679129],[28.492804529992238,62.53110627176285],[28.45116396239074,62.50136300918989],[28.414282316800193,62.482327321143245],[28.328621720589947,62.484706782148365],[28.28817088349101,62.487086243154366],[28.34884713913977,62.45972244158652],[28.34884713913977,62.43949702303688],[28.331001181595777,62.410943490966915],[28.326242259584117,62.39190780292027],[28.355985522157262,62.37049265386851],[28.332190912099048,62.35859534883909],[28.276273578461858,62.35740561833697],[28.23344328035718,62.325282894757024],[28.19299244325744,62.318144511740684],[28.152541606158504,62.324093164254016],[28.118039421574586,62.319334242243684],[28.119229152077057,62.30624720671038],[28.08234750648651,62.30029855419616],[28.07877831497821,62.2729347526292],[27.98003068323625,62.26936556112108],[27.92318800365217,62.27725578772062],[27.90534204610889,62.28677363174394],[27.880357705547492,62.31651689431691],[27.838717137945196,62.34863961789509],[27.80897387537205,62.35934719242141],[27.71141597413354,62.36410611443352],[27.65073971848478,62.39146991599959],[27.575786696801035,62.4390591361162],[27.511541249643173,62.45214617164764],[27.45324445500104,62.47118185969428],[27.383050355328958,62.49973539176425],[27.39137846884892,62.46761266818616],[27.327133021691857,62.477130512209484],[27.28549245408965,62.478320242712485],[27.24504161699071,62.490217547740926],[27.208159971400075,62.50449431377733],[27.18674482234778,62.53423757635029],[27.12606856669893,62.53304784584729],[27.13558641072225,62.51401215780065],[27.12844802770476,62.49735593075913],[27.102273956640804,62.485458625730686],[27.08442799909672,62.49973539176425],[27.07491015507349,62.479509973214604],[27.07966907708515,62.46285374617396],[27.015423629927998,62.46523320718095],[26.982111175845752,62.49259700874791],[26.961885757296727,62.473561320701265],[26.951178182770136,62.4390591361162],[26.91548626768286,62.42954129209288],[26.882173813601412,62.44262832762432],[26.87384570008065,62.46404347667794],[26.859568934045758,62.466422937684044],[26.840533245999115,62.46047428516796],[26.81554890543772,62.45690509365974],[26.792944025882775,62.433110483601],[26.77390833783622,62.427161831087666],[26.738216422748145,62.427161831087666],[26.70728342967253,62.44143859712132],[26.706093699170058,62.41526452605834],[26.678729897602654,62.404556951531035],[26.701334777158397,62.38671099398837],[26.679919628105214,62.38195207197627],[26.690627202631806,62.35934719242141],[26.637089330000535,62.35101907890021],[26.62043310295981,62.34150123487689],[26.641848252012196,62.3105682418018],[26.6629990165082,62.287831169968754],[26.632066023432582,62.28307224795567],[26.601133030356966,62.303297666505415],[26.58090761180714,62.293779822482094],[26.583287072812883,62.28069278695055],[26.643963328461645,62.223585722809744],[26.584476803316154,62.2045500347631],[26.536887583199814,62.23548302783907],[26.47264213604195,62.21882680079941],[26.495247015597606,62.19741165174578],[26.45479617849867,62.17242731118492],[26.428622107433913,62.1688581196768],[26.37032531279178,62.145063509618055],[26.344151241726937,62.149822431630156],[26.35366908575017,62.12840728257653],[26.35366908575017,62.091525636987136],[26.36199719927102,62.060592643910276],[26.398878844861567,62.026090459326],[26.371515043294252,62.02252126781699],[26.359037369826016,62.014864892277735],[26.2174594399792,62.01486489227729]]]]}},{"type":"Feature","properties":{"kind":"district","id":"uyezd-1897-21","name":"Гейнолаский","provinceId":"gubernia-1897-10"},"geometry":{"type":"MultiPolygon","coordinates":[[[[26.217459439979024,62.01486489227685],[26.132535055785905,61.97218035603785],[26.070669069634583,61.9852673915693],[26.00523389197416,61.94719601547602],[25.94336790582284,61.910314369884844],[25.880312189168336,61.88295056831886],[25.817256472513655,61.86867380228344],[25.772046713402347,61.83298188719705],[25.7387342593209,61.84131000071737],[25.713749918760215,61.8532073057459],[25.67686827316958,61.855586766751905],[25.610243365005886,61.846068922728584],[25.57455144991861,61.82346404317195],[25.570982258410307,61.79610024160597],[25.560274683883716,61.77468509255412],[25.53172115181384,61.753269943501465],[25.503167619744055,61.72233695042452],[25.49008058421172,61.691403957348456],[25.494839506223293,61.61883039667188],[25.47818327918257,61.56410279353716],[25.444870825101123,61.51175465140933],[25.435485173355993,61.48082165833239],[25.48188466296986,61.42966324670854],[25.517576578057138,61.40110971463858],[25.52114576956544,61.372556182568616],[25.537801996606163,61.34043345898867],[25.540181457611993,61.31782857943381],[25.566355528676837,61.32020804043893],[25.609185826781516,61.33567453697745],[25.686518309471,61.32972588446225],[25.769799444674707,61.35471022502498],[25.8328551613293,61.301172352392285],[25.89710060848716,61.26429070680298],[25.928033601562777,61.25596259328267],[25.94944875061516,61.221460408697595],[25.929223332065337,61.1798198410961],[25.950638481118432,61.145317656511914],[25.94587955910686,61.12866142947039],[25.8852033034581,61.09891816689654],[25.920895218545375,61.07631328734168],[25.953017942124262,61.05965706030202],[26.019642850287156,61.07988247885078],[26.068421800906854,61.090590053377106],[26.072740081991622,61.12892581402593],[26.097724422552307,61.14201284955827],[26.248820196422976,61.12654635301983],[26.294823109202362,61.15787592293047],[26.326945832781337,61.15192727041536],[26.353119903845293,61.1281326603575],[26.380483705411898,61.110286702813866],[26.363827478371086,61.09957912828754],[26.426883195025766,61.072215326721555],[26.467334032125414,61.069835865714566],[26.49945675570359,61.087681823259096],[26.480421067657037,61.11742508583117],[26.419744812008275,61.14954780941024],[26.39595020195015,61.15787592293047],[26.38881181893266,61.18048080248532],[26.462575110113043,61.24948517165467],[26.531579479282566,61.260192746181886],[26.641034685550938,61.2649516681931],[26.6945725581815,61.19356783801864],[26.745730969807063,61.216701486686375],[26.808786686461655,61.24525501875634],[26.848047793058033,61.24525501875634],[26.864704020098756,61.23573717473302],[26.88017051663692,61.1798198410961],[26.92894946725662,61.16554307505979],[26.963451651840625,61.14412792600793],[27.011040871957764,61.131040890476484],[27.03721494302172,61.151266309025246],[27.08837335464725,61.151266309025246],[27.10502958168806,61.151266309025246],[27.120496078225425,61.1798198410961],[27.152618801804312,61.18219930210122],[27.25136643354627,61.17863011059309],[27.322750263721623,61.16792253606677],[27.34654487377975,61.16792253606677],[27.35606271780307,61.17744038009009],[27.35844217880881,61.19171714612454],[27.377477866855454,61.19409660712975],[27.381047058364555,61.20599391216094],[27.331078377241585,61.20480418165607],[27.321560533218264,61.225029600205715],[27.329888646739025,61.24644474925935],[27.29657619265678,61.27142908981932],[27.216864248961464,61.303551813399274],[27.19069017789751,61.31306965742348],[27.175223681360055,61.32734642345713],[27.154998262810143,61.32139777094203],[27.121685808728696,61.333295075972245],[27.114547425711294,61.31663884893081],[27.064578744588324,61.32020804043893],[27.027697098998487,61.33210534546835],[27.011040871957764,61.34995130301199],[26.952744077314833,61.342812919995566],[26.949174885805732,61.3570896860301],[26.995574375419512,61.378504835081955],[27.018457275192148,61.37949974376814],[27.022938176986916,61.379694565584956],[27.03721494302172,61.392781601118266],[27.03721494302172,61.41895567218124],[27.03959440402755,61.4510783957612],[27.020558715981085,61.467734622800855],[26.98248733988718,61.47368327531605],[26.967020843349726,61.50223680738601],[26.88611916915114,61.51889303442567],[26.88017051663692,61.530790339455976],[26.83258129651987,61.541497913982305],[26.802838033947435,61.56648225454228],[26.73264393427544,61.55934387152594],[26.707659593713956,61.58551794258892],[26.648173068568465,61.5878974035968],[26.636275763539313,61.55934387152594],[26.63508603303613,61.53673899197109],[26.613670883983747,61.54268764448442],[26.614860614487018,61.56291306303407],[26.583927621410602,61.593846056110124],[26.539907592803363,61.615261205161886],[26.555374089340816,61.62002012717497],[26.555374089340816,61.65095312025005],[26.530389748779243,61.691403957348456],[26.495887564195325,61.70449099288088],[26.47447241514294,61.727095872437516],[26.401898854465028,61.77944401456445],[26.428072925529072,61.793720780600765],[26.42093454251158,61.81751539065773],[26.392381010441795,61.830602426190154],[26.375724783400273,61.86629434127734],[26.336463676804694,61.8912786818382],[26.336463676804694,61.919832213908165],[26.36858640038278,61.942437093464804],[26.41379615949418,61.96028305100933],[26.37215559189197,61.9924057745875],[26.35903736982575,62.01486489227685],[26.217459439979024,62.01486489227685]]]]}},{"type":"Feature","properties":{"kind":"district","id":"uyezd-1897-526","name":"Рантасальмиский","provinceId":"gubernia-1897-10"},"geometry":{"type":"MultiPolygon","coordinates":[[[[29.54333656406703,61.718520338271446],[29.630186890779747,61.76135063637595],[29.720606409001654,61.81607823951076],[29.69681179894273,61.8351139275574],[29.639704734803068,61.86604692063159],[29.574269557142646,61.91125667974299],[29.682535032907836,61.9612253608648],[29.58854632317754,62.014763233497405],[29.521921415014646,62.0480756875777],[29.448158123833462,62.11113140423372],[29.411276478243714,62.22296607150658],[29.361307797120745,62.30148828469916],[29.32442615153011,62.36811319286241],[29.295872619460322,62.390718072417265],[29.247093668840623,62.397856455435466],[29.217350406268277,62.412133221469915],[29.18403795218683,62.397856455435466],[29.138828193075522,62.38714888091003],[29.116223313520578,62.406184568956675],[29.103136277988156,62.44544567555296],[29.1221719660348,62.460912172089614],[29.11860277452641,62.50255273969289],[29.061495710386037,62.51801923622954],[29.01509622077217,62.54419330729429],[28.98059403618816,62.563228995340936],[28.902071822995406,62.60130037143422],[28.86875936891387,62.61795659847574],[28.831877723323323,62.634612825515404],[28.784288503206895,62.636992286521505],[28.748596588119618,62.626284711995176],[28.76168362365124,62.60130037143422],[28.735509552587285,62.5870236053988],[28.7105252120258,62.58345441389068],[28.70695602051741,62.60249010193732],[28.71647386454073,62.61319767646364],[28.70457655951158,62.61795659847574],[28.671264105430133,62.60605929344544],[28.670074374926863,62.5858338748958],[28.632002998833755,62.567987917352156],[28.6058289277698,62.567987917352156],[28.59988027525478,62.552521420814614],[28.617726232798862,62.52753708025286],[28.591552161734818,62.52753708025286],[28.566567821173333,62.53586519377407],[28.528496445080226,62.54300357679129],[28.492804529992238,62.53110627176285],[28.45116396239074,62.50136300918989],[28.414282316800193,62.482327321143245],[28.328621720589947,62.484706782148365],[28.28817088349101,62.487086243154366],[28.34884713913977,62.45972244158652],[28.34884713913977,62.43949702303688],[28.331001181595777,62.410943490966915],[28.326242259584117,62.39190780292027],[28.355985522157262,62.37049265386851],[28.332190912099048,62.35859534883909],[28.276273578461858,62.35740561833697],[28.23344328035718,62.325282894757024],[28.19299244325744,62.318144511740684],[28.152541606158504,62.324093164254016],[28.118039421574586,62.319334242243684],[28.119229152077057,62.30624720671038],[28.08234750648651,62.30029855419616],[28.07877831497821,62.2729347526292],[27.98003068323625,62.26936556112108],[27.92318800365217,62.27725578772062],[27.96720803226021,62.25822009967398],[28.02193563539404,62.240374142129454],[28.054058358972927,62.22490764559093],[28.033832940423103,62.19516438301797],[28.038591862434764,62.15471354591956],[28.01479725237655,62.13210866636471],[28.01360752187408,62.11188324781506],[27.993382103324254,62.095227020773535],[28.004089677850757,62.07976052423511],[27.991002642318424,62.069052949708784],[27.97077722376851,62.07143241071479],[27.946982613710386,62.091657829265415],[27.929136656167103,62.091657829265415],[27.92199827314961,62.07619133272689],[27.888685819067366,62.06191456669147],[27.883926897055705,62.04168914814183],[27.86251174800341,62.03574049562849],[27.872029592026642,62.016704807580965],[27.832768485431064,62.013135616071864],[27.851804173477618,61.992910197522214],[27.900583124096517,61.96316693495102],[27.97077722376851,61.96911558746436],[28.01598698287991,61.95483882142893],[28.048109706457996,61.942941516401376],[28.083801621546073,61.945320977406496],[28.12544218914748,61.96554639595614],[28.17898006177884,61.97506423997946],[28.212292515861087,61.97268477897434],[28.239656317427603,61.96435666545225],[28.265830388491647,61.950079899417716],[28.263450927485817,61.934613402881055],[28.244415239439263,61.91557771483441],[28.22418982089015,61.90130094879801],[28.188497905802162,61.90130094879801],[28.158754643229727,61.90130094879801],[28.134960033171602,61.89416256578168],[28.140908685685734,61.873937147231146],[28.17422113976718,61.863229572704725],[28.17779033127637,61.8513322676754],[28.158754643229727,61.83348631013176],[28.149236799206495,61.82277873560544],[28.12901138065667,61.82277873560544],[28.12306272814174,61.810881430577],[28.155185451720715,61.790656012027256],[28.194446558317093,61.76805113247249],[28.214671976866917,61.74425652241375],[28.153995721218156,61.74068733090553],[28.137339494177432,61.73116948688221],[28.155185451720715,61.72046191235589],[28.1837389837905,61.719272181852794],[28.22656928189598,61.704995415817365],[28.255122813965855,61.68952891927894],[28.2812968850299,61.6823905362626],[28.32055799162619,61.68358026676472],[28.32412718313458,61.65978565670597],[28.344352601684403,61.66454457871808],[28.38718289978917,61.66692403972408],[28.4383413114147,61.65859592620288],[28.502586758571763,61.639560238156236],[28.512104602595084,61.61100670608627],[28.53708894315648,61.60386832306993],[28.572780858243757,61.59910940105783],[28.606093312326003,61.555089372450325],[28.65368253244243,61.563417485970646],[28.727445823622816,61.556279102953326],[28.80001938430064,61.5384331454088],[28.878541597493395,61.5051206913286],[28.940143199088514,61.51269696126562],[29.049598405356885,61.52340453579292],[29.155484420116245,61.549578606855896],[29.27802666191704,61.59478836596738],[29.407707286734613,61.642377586084876],[29.517162493002985,61.66498246563973],[29.554044138592822,61.68282842318328],[29.54333656406703,61.718520338271446]]]]}},{"type":"Feature","properties":{"kind":"district","id":"uyezd-1897-661","name":"С.-Михельский","provinceId":"gubernia-1897-10"},"geometry":{"type":"MultiPolygon","coordinates":[[[[27.853919249927156,61.35151326417329],[27.81584787383405,61.35746191668839],[27.780155958745972,61.365790030208714],[27.76349973170525,61.380066796243256],[27.780155958745972,61.3991024842899],[27.813468412828218,61.4074305978111],[27.846780866909665,61.405051136805],[27.831314370371413,61.43479439937797],[27.82774517886311,61.46096847044104],[27.838452753388903,61.47762469748247],[27.87652412948201,61.48357334999767],[27.92173388859332,61.48000415848768],[27.944338768148263,61.48238361949458],[27.952666881669025,61.49785011603221],[28.018102059329447,61.535921492125496],[28.015722598323617,61.57042367671056],[27.997876640779534,61.597787478276544],[27.937200385130772,61.64537669839315],[27.88009332099111,61.66917130845101],[27.834883561880602,61.69534537951586],[27.756361348687758,61.69534537951586],[27.71947970309721,61.71081187605429],[27.700444015050657,61.70248376253308],[27.680218596501543,61.7131913370595],[27.65761371694589,61.7143810675625],[27.644526681413556,61.70605295404316],[27.651665064430958,61.691776188007644],[27.635008837390235,61.679878882978315],[27.61359368833785,61.683448074486435],[27.581470964759674,61.70010430152796],[27.55291743268909,61.69891457102407],[27.525553631122573,61.688206996497655],[27.51484605659598,61.70367349303618],[27.55053797168326,61.72151945057972],[27.569573659729812,61.73103729460402],[27.546968780174957,61.746503791140675],[27.51127686508768,61.73579621661426],[27.51008713458432,61.753642174158784],[27.526743361625133,61.77148813170243],[27.530312553134234,61.78576489773697],[27.50175902106365,61.82145681282513],[27.44822114843309,61.848820614392],[27.443462226421428,61.87618441595985],[27.45060060943892,61.89522010400649],[27.485102794022925,61.92496336657955],[27.442272495918157,61.94042986311611],[27.40301138932178,61.96779366468307],[27.39944219781339,62.00348557977124],[27.379216779263565,62.01776234580578],[27.34590432518212,61.983260161222475],[27.366129743731943,61.97017312568917],[27.370888665743603,61.93567094110499],[27.389924353790157,61.909496870040144],[27.368509204737773,61.89997902601682],[27.24239777142859,61.8904611819935],[27.161496097230003,61.919014714063465],[27.117476068621965,61.94161959361921],[27.015159245371795,62.01300342379456],[26.902134847594944,62.04750560837874],[26.87477104602763,62.04274668636752],[26.848596974963673,62.066541296425385],[26.848596974963673,62.11413051654199],[26.83075101741959,62.151012162133156],[26.73200338567772,62.19503219073978],[26.714157428133728,62.23548302783907],[26.6629990165082,62.287831169968754],[26.632066023432582,62.28307224795567],[26.601133030356966,62.303297666505415],[26.58090761180714,62.293779822482094],[26.583287072812883,62.28069278695055],[26.643963328461645,62.223585722809744],[26.584476803316154,62.2045500347631],[26.536887583199814,62.23548302783907],[26.47264213604195,62.21882680079941],[26.495247015597606,62.19741165174578],[26.45479617849867,62.17242731118492],[26.428622107433913,62.1688581196768],[26.37032531279178,62.145063509618055],[26.344151241726937,62.149822431630156],[26.35366908575017,62.12840728257653],[26.35366908575017,62.091525636987136],[26.36199719927102,62.060592643910276],[26.398878844861567,62.026090459326],[26.371515043294252,62.02252126781699],[26.35903736982575,62.01486489227685],[26.37215559189197,61.9924057745875],[26.41379615949418,61.96028305100933],[26.36858640038278,61.942437093464804],[26.336463676804694,61.919832213908165],[26.336463676804694,61.8912786818382],[26.375724783400273,61.86629434127734],[26.392381010441795,61.830602426190154],[26.42093454251158,61.81751539065773],[26.428072925529072,61.793720780600765],[26.401898854465028,61.77944401456445],[26.47447241514294,61.727095872437516],[26.495887564195325,61.70449099288088],[26.530389748779243,61.691403957348456],[26.555374089340816,61.65095312025005],[26.555374089340816,61.62002012717497],[26.539907592803363,61.615261205161886],[26.583927621410602,61.593846056110124],[26.614860614487018,61.56291306303407],[26.613670883983747,61.54268764448442],[26.63508603303613,61.53673899197109],[26.636275763539313,61.55934387152594],[26.648173068568465,61.5878974035968],[26.707659593713956,61.58551794258892],[26.73264393427544,61.55934387152594],[26.802838033947435,61.56648225454228],[26.83258129651987,61.541497913982305],[26.88017051663692,61.530790339455976],[26.88611916915114,61.51889303442567],[26.967020843349726,61.50223680738601],[26.98248733988718,61.47368327531605],[27.020558715981085,61.467734622800855],[27.03959440402755,61.4510783957612],[27.03721494302172,61.41895567218124],[27.03721494302172,61.392781601118266],[27.022938176986916,61.379694565584956],[27.018457275192148,61.37949974376814],[27.02304120995352,61.371775861800444],[27.04133331643575,61.372928413226916],[27.069886848505536,61.363410569203594],[27.08535334504379,61.363410569203594],[27.107958224598732,61.38244625725024],[27.129373373651827,61.40386140630111],[27.185290707288218,61.4002922147929],[27.282848608527527,61.4002922147929],[27.479154141508705,61.366979760711715],[27.55410716319236,61.35032353367019],[27.640957489905166,61.34080568964687],[27.813468412828218,61.34437488115695],[27.853919249927156,61.35151326417329]]]]}},{"type":"Feature","properties":{"kind":"district","id":"uyezd-1897-662","name":"Иоккасский","provinceId":"gubernia-1897-10"},"geometry":{"type":"MultiPolygon","coordinates":[[[[27.853919249927156,61.35151326417329],[27.929136656167103,61.33617895991305],[27.960069649242808,61.332609768404836],[27.992192372821695,61.34212761242816],[28.02193563539404,61.34450707343328],[28.132580572164972,61.34926599544636],[28.244415239439263,61.35283518695448],[28.305091495088025,61.36473249198301],[28.33364502715781,61.37900925801844],[28.38004451677168,61.40994225109441],[28.462135921472825,61.45753147121101],[28.48949972304014,61.481326081268875],[28.495448375554272,61.50036176931552],[28.559693822712134,61.53010503188848],[28.58586789377618,61.53010503188848],[28.627508461378387,61.51344880484883],[28.633457113892607,61.489654194789196],[28.7036512135646,61.474187698252535],[28.878541597493395,61.5051206913286],[28.80001938430064,61.5384331454088],[28.727445823622816,61.556279102953326],[28.65368253244243,61.563417485970646],[28.606093312326003,61.555089372450325],[28.572780858243757,61.59910940105783],[28.53708894315648,61.60386832306993],[28.512104602595084,61.61100670608627],[28.502586758571763,61.639560238156236],[28.4383413114147,61.65859592620288],[28.38718289978917,61.66692403972408],[28.344352601684403,61.66454457871808],[28.32412718313458,61.65978565670597],[28.32055799162619,61.68358026676472],[28.2812968850299,61.6823905362626],[28.255122813965855,61.68952891927894],[28.22656928189598,61.704995415817365],[28.1837389837905,61.719272181852794],[28.155185451720715,61.72046191235589],[28.137339494177432,61.73116948688221],[28.153995721218156,61.74068733090553],[28.214671976866917,61.74425652241375],[28.194446558317093,61.76805113247249],[28.155185451720715,61.790656012027256],[28.12306272814174,61.810881430577],[28.12901138065667,61.82277873560544],[28.149236799206495,61.82277873560544],[28.158754643229727,61.83348631013176],[28.17779033127637,61.8513322676754],[28.17422113976718,61.863229572704725],[28.140908685685734,61.873937147231146],[28.134960033171602,61.89416256578168],[28.158754643229727,61.90130094879801],[28.188497905802162,61.90130094879801],[28.22418982089015,61.90130094879801],[28.244415239439263,61.91557771483441],[28.263450927485817,61.934613402881055],[28.265830388491647,61.950079899417716],[28.239656317427603,61.96435666545225],[28.212292515861087,61.97268477897434],[28.17898006177884,61.97506423997946],[28.12544218914748,61.96554639595614],[28.083801621546073,61.945320977406496],[28.048109706457996,61.942941516401376],[28.01598698287991,61.95483882142893],[27.97077722376851,61.96911558746436],[27.900583124096517,61.96316693495102],[27.851804173477618,61.992910197522214],[27.832768485431064,62.013135616071864],[27.872029592026642,62.016704807580965],[27.86251174800341,62.03574049562849],[27.883926897055705,62.04168914814183],[27.888685819067366,62.06191456669147],[27.92199827314961,62.07619133272689],[27.929136656167103,62.091657829265415],[27.946982613710386,62.091657829265415],[27.97077722376851,62.07143241071479],[27.991002642318424,62.069052949708784],[28.004089677850757,62.07976052423511],[27.993382103324254,62.095227020773535],[28.01360752187408,62.11188324781506],[28.01479725237655,62.13210866636471],[28.038591862434764,62.15471354591956],[28.033832940423103,62.19516438301797],[28.054058358972927,62.22490764559093],[28.02193563539404,62.240374142129454],[27.96720803226021,62.25822009967398],[27.92318800365217,62.27725578772062],[27.90534204610889,62.28677363174394],[27.880357705547492,62.31651689431691],[27.838717137945196,62.34863961789509],[27.80897387537205,62.35934719242141],[27.71141597413354,62.36410611443352],[27.65073971848478,62.39146991599959],[27.575786696801035,62.4390591361162],[27.511541249643173,62.45214617164764],[27.45324445500104,62.47118185969428],[27.383050355328958,62.49973539176425],[27.39137846884892,62.46761266818616],[27.327133021691857,62.477130512209484],[27.28549245408965,62.478320242712485],[27.24504161699071,62.490217547740926],[27.208159971400075,62.50449431377733],[27.18674482234778,62.53423757635029],[27.12606856669893,62.53304784584729],[27.13558641072225,62.51401215780065],[27.12844802770476,62.49735593075913],[27.102273956640804,62.485458625730686],[27.08442799909672,62.49973539176425],[27.07491015507349,62.479509973214604],[27.07966907708515,62.46285374617396],[27.015423629927998,62.46523320718095],[26.982111175845752,62.49259700874791],[26.961885757296727,62.473561320701265],[26.951178182770136,62.4390591361162],[26.91548626768286,62.42954129209288],[26.882173813601412,62.44262832762432],[26.87384570008065,62.46404347667794],[26.859568934045758,62.466422937684044],[26.840533245999115,62.46047428516796],[26.81554890543772,62.45690509365974],[26.792944025882775,62.433110483601],[26.77390833783622,62.427161831087666],[26.738216422748145,62.427161831087666],[26.70728342967253,62.44143859712132],[26.706093699170058,62.41526452605834],[26.678729897602654,62.404556951531035],[26.701334777158397,62.38671099398837],[26.679919628105214,62.38195207197627],[26.690627202631806,62.35934719242141],[26.637089330000535,62.35101907890021],[26.62043310295981,62.34150123487689],[26.641848252012196,62.3105682418018],[26.6629990165082,62.287831169968754],[26.714157428133728,62.23548302783907],[26.73200338567772,62.19503219073978],[26.83075101741959,62.151012162133156],[26.848596974963673,62.11413051654199],[26.848596974963673,62.066541296425385],[26.87477104602763,62.04274668636752],[26.902134847594944,62.04750560837874],[27.015159245371795,62.01300342379456],[27.117476068621965,61.94161959361921],[27.161496097230003,61.919014714063465],[27.24239777142859,61.8904611819935],[27.368509204737773,61.89997902601682],[27.389924353790157,61.909496870040144],[27.370888665743603,61.93567094110499],[27.366129743731943,61.97017312568917],[27.34590432518212,61.983260161222475],[27.379216779263565,62.01776234580578],[27.39944219781339,62.00348557977124],[27.40301138932178,61.96779366468307],[27.442272495918157,61.94042986311611],[27.485102794022925,61.92496336657955],[27.45060060943892,61.89522010400649],[27.443462226421428,61.87618441595985],[27.44822114843309,61.848820614392],[27.50175902106365,61.82145681282513],[27.530312553134234,61.78576489773697],[27.526743361625133,61.77148813170243],[27.51008713458432,61.753642174158784],[27.51127686508768,61.73579621661426],[27.546968780174957,61.746503791140675],[27.569573659729812,61.73103729460402],[27.55053797168326,61.72151945057972],[27.51484605659598,61.70367349303618],[27.525553631122573,61.688206996497655],[27.55291743268909,61.69891457102407],[27.581470964759674,61.70010430152796],[27.61359368833785,61.683448074486435],[27.635008837390235,61.679878882978315],[27.651665064430958,61.691776188007644],[27.644526681413556,61.70605295404316],[27.65761371694589,61.7143810675625],[27.680218596501543,61.7131913370595],[27.700444015050657,61.70248376253308],[27.71947970309721,61.71081187605429],[27.756361348687758,61.69534537951586],[27.834883561880602,61.69534537951586],[27.88009332099111,61.66917130845101],[27.937200385130772,61.64537669839315],[27.997876640779534,61.597787478276544],[28.015722598323617,61.57042367671056],[28.018102059329447,61.535921492125496],[27.952666881669025,61.49785011603221],[27.944338768148263,61.48238361949458],[27.92173388859332,61.48000415848768],[27.87652412948201,61.48357334999767],[27.838452753388903,61.47762469748247],[27.82774517886311,61.46096847044104],[27.831314370371413,61.43479439937797],[27.846780866909665,61.405051136805],[27.813468412828218,61.4074305978111],[27.780155958745972,61.3991024842899],[27.76349973170525,61.380066796243256],[27.780155958745972,61.365790030208714],[27.81584787383405,61.35746191668839],[27.853919249927156,61.35151326417329]]]]}}]}
