{"type":"FeatureCollection","features":[{"type":"Feature","properties":{"kind":"province","id":"gubernia-1897-13","name":"Ковенская губерния"},"geometry":{"type":"MultiPolygon","coordinates":[[[[24.627997580976082,55.125974544864164],[24.61966946745541,55.10217993480728],[24.598254318402937,55.08909289927388],[24.57326997784172,55.064108558713016],[24.530439679736684,55.078385324748446],[24.48760938163165,55.064108558713016],[24.434071509000468,55.060539367204015],[24.405517976930504,55.06410855871303],[24.385292558381124,55.07124694173132],[24.36674157535398,55.050977459088315],[24.35722373133066,55.02837257953347],[24.31439343322589,55.009336891486825],[24.294168014676067,54.96055794086721],[24.30963451121432,54.9486606358378],[24.328670199260873,54.956988749359],[24.344136695799037,54.956988749359],[24.348895617810697,54.945091444328696],[24.300116667191,54.91177899024751],[24.30963451121432,54.88322545817755],[24.327480468757514,54.87846653616642],[24.331049660266704,54.845154082084264],[24.31201397222006,54.8273081245416],[24.287029631658665,54.80946216699708],[24.25490690807978,54.81660055001608],[24.25252744707386,54.82968758554672],[24.21802526248994,54.848723273593365],[24.189471730420067,54.863000039627906],[24.14426197130867,54.87727680566333],[24.128795474771305,54.895122763206075],[24.0942932901865,54.89750222421306],[24.080016524151606,54.88917411069275],[24.05503218359012,54.89393303270485],[24.04432460906433,54.88322545817755],[24.038375956549398,54.86775896164001],[24.013391615987913,54.87132815314822],[23.99554565844463,54.89036384119486],[23.976509970398165,54.895122763206075],[23.964612665369014,54.88798438018974],[23.956284551848253,54.86656923113611],[23.94438724681919,54.863000039627906],[23.93486940279587,54.8689486921431],[23.911074792737654,54.895122763206075],[23.877762338656208,54.89393303270485],[23.83731150155656,54.905830337732404],[23.7278562952889,54.94271198332268],[23.68621572768669,54.940332522317476],[23.660041656622646,54.939142791814476],[23.633867585558892,54.949850366341735],[23.6100729754997,54.967696323885285],[23.586278365441487,55.029562310035544],[23.55891456387497,55.04859799808219],[23.5053766912437,55.05692611160339],[23.428044208554216,55.08310018266823],[23.355470647876302,55.07358233864491],[23.303122505748302,55.079530991158244],[23.263861399151924,55.08785910467847],[23.204374874005634,55.09142829618846],[23.12942185232198,55.103325601217875],[23.09491966773806,55.10808452322821],[23.052089369633205,55.10808452322821],[22.996172035996103,55.096187218199674],[22.97118769543462,55.096187218199674],[22.943750453713257,55.08915165139844],[22.883074198064495,55.091531112404446],[22.846192552473948,55.08915165139844],[22.786706027328457,55.078444076873],[22.721270849668034,55.065357041339695],[22.68676866508323,55.058218658323355],[22.654645941505052,55.055839197316374],[22.62383580778315,55.06519300532274],[22.58457470118717,55.11040276443146],[22.535795750568003,55.148474140526524],[22.458463267878074,55.142525488011415],[22.284762614452728,55.16037144555408],[22.221706897798224,55.15680225404596],[22.205050670756968,55.18892497762493],[22.200291748745485,55.229375814723426],[22.07418031543639,55.24484231126097],[21.998037563250087,55.27101638232483],[21.889772087485074,55.287672609365465],[21.874305590946822,55.32455425495664],[21.86121855541502,55.32812344646476],[21.773178498199123,55.32693371596264],[21.77674768970778,55.304328836406896],[21.738676313614672,55.297190453389675],[21.714881703556102,55.32336452445354],[21.68870763249179,55.35191805652448],[21.61137514980266,55.385230510604686],[21.59828811427086,55.43757865273339],[21.566165390692152,55.45542461027792],[21.535232397616358,55.49111652536431],[21.495971291019536,55.56369008604267],[21.48419416490263,55.584032394790285],[21.443623148891714,55.65410960426378],[21.381757162740126,55.73144208695335],[21.360342013687386,55.78379022908206],[21.337737134131732,55.81948214417022],[21.235420310881207,55.88610705233347],[21.174744055232445,55.87896866931439],[21.047442891420435,55.91585031490467],[21.046416269838023,55.93432950338959],[21.07568968503363,55.930734209248875],[21.101863756097586,55.92597528723854],[21.11851998313831,55.939062322770084],[21.144694054202354,55.942631514278204],[21.158970820237247,55.97356450735515],[21.193473004822053,55.97594396836027],[21.198231926833625,55.99141046489781],[21.160160550740517,56.00568723093333],[21.166109203254738,56.0366202240093],[21.147073515208184,56.04018941551752],[21.12089944414414,56.05208672054596],[21.136365940681593,56.0794505221138],[21.157781089734776,56.09491701865223],[21.17562704727797,56.08658890513102],[21.193473004822053,56.09015809663924],[21.212508692868607,56.12228082021919],[21.23273411141843,56.12822947273253],[21.236303302926732,56.14131650826583],[21.22202653689184,56.15559327430037],[21.23749303343009,56.169870040335795],[21.260097912984946,56.177008423352135],[21.27318494851737,56.19366465039366],[21.299359019581324,56.20199276391486],[21.319584438131148,56.2198387214585],[21.365983927744306,56.240064140008144],[21.395727190317363,56.24601279252148],[21.43141910540464,56.248392253528465],[21.456403445966213,56.265048480568126],[21.484956978036,56.27456632459145],[21.48376724753344,56.29836093465108],[21.520648893123276,56.28527389911777],[21.537305120164,56.29241228213597],[21.5444435031822,56.30668904817139],[21.562289460725484,56.31025823967961],[21.575376496257906,56.330483658229255],[21.59917110631603,56.341191232754696],[21.6420014044208,56.35189880728102],[21.662226822970712,56.3483296157729],[21.70029819906373,56.342380963257696],[21.721713348116115,56.347139885268916],[21.75145661068926,56.36617557331556],[21.783579334268147,56.36855503432254],[21.79190744778811,56.38878045287218],[21.825219901869644,56.400677757900624],[21.8513939729336,56.401867488403724],[21.869239930477683,56.39472910538552],[21.896603732044998,56.3852112613622],[21.969177292722822,56.39591883588852],[21.981074597751974,56.410195601923945],[21.989402711271847,56.412575062930046],[22.00011028579844,56.42447236795849],[22.033422739879885,56.42447236795849],[22.0572173499381,56.43280048147881],[22.090529804019546,56.43280048147881],[22.123842258101792,56.4375594034918],[22.141688215645075,56.44231832550213],[22.172621208720713,56.44707724751511],[22.192846627270537,56.43874913399391],[22.199985010288028,56.42209290695337],[22.21069258481462,56.406626410415825],[22.235676925375305,56.406626410415825],[22.253522882919388,56.41376479343216],[22.298732642029897,56.414954523935165],[22.336804018123004,56.400677757900624],[22.36773701119942,56.405436679911844],[22.392721351760105,56.403057218906724],[22.439120841373974,56.41138533242704],[22.46529491243802,56.406626410415825],[22.487899791993673,56.399488027397624],[22.52954035959588,56.392349644380396],[22.58069877122061,56.3864009918652],[22.602113920273794,56.38402153086096],[22.62048864692955,56.3751646482278],[22.640714065479376,56.36564680420359],[22.66926759754925,56.35255976867117],[22.707338973642358,56.37040572621481],[22.76563576828529,56.36921599571269],[22.812035257899158,56.36802626520969],[22.845347711980605,56.36921599571269],[22.86676286103299,56.389441414261455],[22.896506123606134,56.39182087526844],[22.910782889641027,56.40609764130298],[22.92505965567592,56.39776952778266],[22.938146691207542,56.40252844979476],[22.946474804728304,56.4156154853263],[22.969079684283958,56.41085656331419],[22.996443485850474,56.40609764130298],[23.023939479696,56.412971639764706],[23.00966271366102,56.390366760209844],[23.028698401707572,56.37252080266532],[23.060821125286548,56.36776188065322],[23.085805465847233,56.3582440366299],[23.11792818942621,56.35586457562388],[23.159568757028417,56.36181322813988],[23.1809839060808,56.37252080266532],[23.201209324630625,56.365382419647204],[23.27021369379935,56.37252080266532],[23.313043991904117,56.38679756869986],[23.32613102743645,56.37965918568352],[23.345166715483092,56.38203864668864],[23.371340786547048,56.38203864668864],[23.410601893143426,56.37727972467654],[23.43558623370491,56.374900263670526],[23.42844785068671,56.363002958642],[23.49626248935296,56.34039807908724],[23.524816021423547,56.334449426572036],[23.55336955349342,56.33801861808025],[23.575974433048277,56.34991592311056],[23.609286887130523,56.35348511461868],[23.629512305679548,56.35943376713388],[23.686619369820008,56.363002958642],[23.725880476415586,56.3701413416602],[23.738967511948008,56.37608999417353],[23.760382661000392,56.3689516111572],[23.7532442779829,56.34872619260658],[23.7496750864738,56.320172660537494],[23.790125923573537,56.31541373852539],[23.832956221678216,56.31660346902751],[23.830576760672386,56.332069965566916],[23.881735172297915,56.333259696069035],[23.935008660372983,56.334449426572036],[23.951664887413617,56.34158780959024],[23.96118273143694,56.35467484512177],[23.976649227975102,56.36776188065322],[23.993305455015914,56.37727972467654],[24.01115141255911,56.390366760209844],[24.01115141255911,56.35229538411568],[24.001633568535876,56.34158780959024],[24.000443838033316,56.324931582548714],[24.045653597143914,56.326121313050834],[24.109899044300978,56.332069965566916],[24.11822715782174,56.289239667460635],[24.22173371157527,56.29518831997575],[24.288358619738162,56.30232670299395],[24.28240996722403,56.318982930033606],[24.263374279177476,56.32850077405693],[24.264564009679948,56.33801861808025],[24.2764613147091,56.34039807908724],[24.297876463762194,56.326121313050834],[24.33475810935203,56.333259696069035],[24.362121910919345,56.335639157074155],[24.37996786846334,56.36657215015021],[24.404952209024113,56.3689516111572],[24.415659783550705,56.363002958642],[24.410900861539044,56.35229538411568],[24.44659277662632,56.34396727059536],[24.460869542661214,56.330880235063916],[24.48466415271943,56.330880235063916],[24.526304720321637,56.320172660537494],[24.5346328338416,56.32850077405693],[24.55366852188895,56.32850077405693],[24.567945287923845,56.332069965566916],[24.579842592952907,56.32850077405693],[24.60363720301112,56.33682888757724],[24.615534508040184,56.35110565361356],[24.627431813069247,56.35705430612689],[24.633380465584267,56.3689516111572],[24.63694965709257,56.38203864668864],[24.64884696212172,56.385607838196854],[24.684538877208997,56.383228377191735],[24.69762591274133,56.390366760209844],[24.707143756764562,56.407022987249505],[24.735697288834437,56.409402448256486],[24.755482066457404,56.41759836949862],[24.775707485006517,56.4080805254753],[24.807830208585404,56.41997783050374],[24.805450747579574,56.434254596538274],[24.818537783111996,56.434254596538274],[24.83162481864362,56.42235729150983],[24.864937272725065,56.42711621352194],[24.862557811719235,56.441392979556475],[24.880403769263317,56.456859476094905],[24.907767570830543,56.45329028458492],[24.923234067367996,56.44258271005859],[24.914905953848034,56.41997783050374],[24.931562180888758,56.4045113339653],[24.954167060443613,56.383096184913455],[24.976771939999267,56.379526993405335],[24.970823287485224,56.35573238334561],[24.975582209496796,56.33312750379084],[24.99461789754335,56.31171235473899],[25.016033046595734,56.305763702223885],[25.016033046595734,56.292676666692344],[25.026740621121526,56.28196909216602],[25.04696603967135,56.28196909216602],[25.05172496168301,56.26888205663271],[25.080278493752797,56.234379872049416],[25.085037415764457,56.20820580098457],[25.10407310381101,56.19154957394491],[25.10764229532011,56.202257148469464],[25.15880070694564,56.17965226891461],[25.217097501588572,56.17489334690348],[25.214718040582742,56.18798038243493],[25.219476962594403,56.19273930444614],[25.237322920137686,56.18917011293793],[25.25278941667585,56.1772728079086],[25.270635374219133,56.17251388589827],[25.278963487739894,56.159426850364966],[25.296809445283888,56.159426850364966],[25.35510623992602,56.1356322403071],[25.41102357356321,56.14871927583864],[25.443146297142185,56.157047389359846],[25.488356056252695,56.14633981483352],[25.550222042404727,56.145150084330425],[25.610898298053577,56.139201431815316],[25.67276428420481,56.136821970810196],[25.6799026672223,56.14871927583864],[25.68228212822813,56.17608307740649],[25.701317816274596,56.19511876545313],[25.702507546777955,56.22248256702009],[25.714404851807018,56.24984636858607],[25.73700973136196,56.24389771607274],[25.78221949047327,56.26174367361638],[25.82623951908051,56.28077936166302],[25.851223859641994,56.2724512481427],[25.858362242659396,56.25698475160427],[25.854793051151184,56.24032852456275],[25.83575736310383,56.2320004110443],[25.807688536054076,56.224421387099056],[25.807688536054076,56.214903543075735],[25.788652848007523,56.19348839402211],[25.756530124428636,56.17207324497035],[25.752960932919535,56.15303755692371],[25.713699826323868,56.086412648761346],[25.796980961527574,56.06261803870162],[25.83267287661485,56.04834127266806],[25.846949642649655,56.02930558462142],[25.87907236622872,56.018598010095005],[25.914764281315907,56.005510974561695],[25.951645926906544,55.99004447802504],[25.98852757249709,55.981716364503924],[26.008752991046116,55.97457798148661],[26.03373733160769,55.973388250983604],[26.049203828145853,55.94959364092575],[26.068239516192406,55.93412714438732],[26.044444906134192,55.923419569860904],[26.025409218087727,55.90438388181426],[26.025409218087727,55.89367630728883],[26.04206544512836,55.88772765477371],[26.068239516192406,55.89010711577883],[26.09322385675309,55.900814690306134],[26.112259544800445,55.88653792427071],[26.121777388823677,55.856794661697656],[26.151520651396112,55.834189782142886],[26.222904481571376,55.785410831523194],[26.255027205149553,55.76875460448176],[26.263355318670314,55.750908646938115],[26.29428831174593,55.7532881079451],[26.312134269290013,55.74020107241179],[26.34782618437729,55.72592430637815],[26.40017432650529,55.72592430637815],[26.487024653218096,55.72473457587514],[26.50962953277375,55.70688861833061],[26.535803603837707,55.696181043805176],[26.55840848339345,55.691422121792094],[26.590531206972337,55.691422121792094],[26.61670527803638,55.69975023531241],[26.634551235579664,55.714027001348725],[26.640499888094595,55.73544215040147],[26.65358692362613,55.73544215040147],[26.694037760725866,55.73306268939537],[26.72140156229238,55.72354484537205],[26.755903746877188,55.71164754034183],[26.76423186039786,55.698560504810295],[26.81063135001093,55.698560504810295],[26.832046499064113,55.71759619285694],[26.86654868364812,55.7390113419087],[26.884394641192202,55.77351352649475],[26.92603520879432,55.80087732806171],[26.987901194945643,55.836569243148006],[27.009316343998027,55.84608708717133],[27.056905564114366,55.856794661697656],[27.103305053728235,55.84370762616621],[27.12709966378645,55.85560493119465],[27.154463465353764,55.874640619242186],[27.18420672792691,55.87345088873918],[27.267487863130526,55.85084600918255],[27.33649223230005,55.831810321135904],[27.38170199141056,55.81991301610742],[27.386813426164238,55.804211511074726],[27.386813426164238,55.78636555353198],[27.382054504151867,55.75543256045512],[27.366588007614414,55.72806875888905],[27.33684474504118,55.70665360983542],[27.29520417743906,55.68642819128577],[27.269030106375016,55.668582233742136],[27.215492233743745,55.64359789318127],[27.173851666142337,55.62575193563764],[27.150057056084123,55.597198403567674],[27.127452176528468,55.57578325451502],[27.101278105464424,55.574593524012904],[27.0846218784237,55.56031675797837],[27.064396459873787,55.54841945294806],[27.02394562277494,55.56031675797837],[26.963269367126177,55.5674551409947],[26.908541763992346,55.55793729697138],[26.86095254387512,55.55793729697138],[26.832399011805332,55.55317837496017],[26.809794132249678,55.54366053093685],[26.799086557723886,55.52819403439841],[26.783620061185633,55.50558915484356],[26.81574278476461,55.48774319729903],[26.802655749232187,55.47584589227059],[26.781240600179803,55.4770356227736],[26.76815356464827,55.46989723975548],[26.740789763080866,55.45443074321883],[26.76934329515074,55.44134370768552],[26.76934329515074,55.430636133159105],[26.782430330683162,55.41516963662245],[26.801466018729716,55.40565179259913],[26.81217359325551,55.39732367907793],[26.82288116778201,55.37114960801406],[26.835968203314433,55.36282149449285],[26.851434699851886,55.3473549979562],[26.87403957940736,55.32475011839957],[26.850244969349415,55.32593984890257],[26.834778472811163,55.33902688443499],[26.81812224577044,55.340216614938],[26.789568713700564,55.346165267453195],[26.756256259619118,55.346165267453195],[26.72413353604023,55.346165267453195],[26.72056434453104,55.355683111476516],[26.70509784799359,55.35925230298464],[26.66821620240304,55.355683111476516],[26.626575634800833,55.354493380972535],[26.594452911222657,55.3473549979562],[26.56708910965543,55.35092418946441],[26.531397194568154,55.355683111476516],[26.486187435456756,55.366390686002845],[26.476669591433524,55.35925230298464],[26.426700910311265,55.378287991031286],[26.418372796790592,55.40684152310222],[26.377921959691566,55.43539505517219],[26.33985058359846,55.46751777875028],[26.308917590522842,55.479415083778804],[26.262518100908974,55.490122658305125],[26.233964568839188,55.47584589227059],[26.224446724815866,55.45681020422395],[26.176857504698816,55.440153977182426],[26.15068343363477,55.434205324669094],[26.13402720659396,55.4365847856743],[26.107853135530004,55.421118289135784],[26.07810987295686,55.40565179259913],[26.059074184910305,55.40922098410734],[26.02933092233796,55.417549097627656],[26.017433617308185,55.43301559416609],[25.98055197171835,55.4294464026561],[25.92582436858372,55.4365847856743],[25.910357872046266,55.42349775014277],[25.906788680537165,55.40208260108914],[25.88894272299397,55.38780583505461],[25.82707673684185,55.41160044511246],[25.78424643873708,55.416359367125544],[25.740226410129043,55.41397990611945],[25.72594964409415,55.425877211148865],[25.71762153057419,55.46513831774516],[25.72000099157993,55.4817945447857],[25.68090907605537,55.48765261775037],[25.654735004991682,55.49598073127247],[25.649976082979844,55.48170396523615],[25.657114465997335,55.46504773819649],[25.6142841678923,55.45909908568041],[25.619043089904228,55.43411474512043],[25.592869018839828,55.42221744009012],[25.596438210348573,55.40556121305047],[25.53457222419663,55.38414606399782],[25.513157075144157,55.38890498600904],[25.517915997156173,55.365110375950195],[25.50125977011554,55.3258492693548],[25.523864649670394,55.31871088633669],[25.523864649670394,55.33179792186911],[25.53457222419663,55.33417738287511],[25.553607912243628,55.3294184608639],[25.557177103752373,55.33774657438333],[25.54171060721412,55.34369522689933],[25.54171060721412,55.368679567459296],[25.559556564757937,55.368679567459296],[25.572643600290537,55.361541184442075],[25.58097171381041,55.34250549639543],[25.603576593366064,55.34488495740055],[25.605956054371628,55.33655684388023],[25.565505217273046,55.31752115583359],[25.5488489902317,55.31752115583359],[25.54171060721412,55.30562385080515],[25.557177103752373,55.300864928793935],[25.596438210348573,55.31038277281637],[25.629750664430464,55.31990061683969],[25.657114465997335,55.291347084769725],[25.635699316944685,55.28777789326071],[25.583351174816773,55.290157354266725],[25.56074629526112,55.277070318735184],[25.52743384117914,55.27231139672397],[25.519105727659266,55.275880588232184],[25.520295458161648,55.284208701752505],[25.473895968548756,55.31038277281637],[25.473895968548756,55.33774657438333],[25.458429472010593,55.33774657438333],[25.445342436478793,55.32228007784667],[25.40251213837376,55.31871088633669],[25.391804563847522,55.284208701752505],[25.353733187753704,55.280639510243404],[25.347784535239306,55.25446543917944],[25.334697499707506,55.25446543917944],[25.31209262015185,55.27826004923819],[25.26450340003498,55.279449779741284],[25.235949867964926,55.284208701752505],[25.210965527403708,55.279449779741284],[25.19906822237509,55.24970651716823],[25.149099541252653,55.25327570867644],[25.112217895661928,55.25089624767132],[25.08604382459824,55.200927566548614],[25.04797244850451,55.203307027553734],[25.018229185932075,55.19140972252529],[24.980157809838257,55.211635141074055],[24.946845355757077,55.22234271560136],[24.92186101519586,55.197358375039514],[24.907584249160877,55.16761511246655],[24.900445866143386,55.13549238888837],[24.89092802212033,55.11407723983572],[24.85761556803844,55.11764643134384],[24.845718263008933,55.1093183178245],[24.795749581886497,55.11407723983572],[24.733883595735353,55.12002589234994],[24.726745212717862,55.12954373637415],[24.721986290705935,55.16166645995233],[24.682725184109735,55.16047672945021],[24.6398948860047,55.16880484296955],[24.624428389467337,55.16642538196443],[24.627997580976082,55.125974544864164]]]]}},{"type":"Feature","properties":{"kind":"district","id":"uyezd-1897-91","name":"Тельшевский","provinceId":"gubernia-1897-13"},"geometry":{"type":"MultiPolygon","coordinates":[[[[21.48419416490263,55.584032394790285],[21.494658701162553,55.631668760727734],[21.52202250272907,55.68163744184946],[21.495848431665024,55.68877582486766],[21.47443328261273,55.69115528587278],[21.47681274361856,55.709001243417305],[21.438741367525452,55.72803693146395],[21.464915438589408,55.74707261951059],[21.48989977915098,55.74469315850361],[21.517263580717497,55.77205696007145],[21.593406332904422,55.76610830755723],[21.600544715921913,55.783954265099986],[21.63147770899753,55.77919534308877],[21.64099555302085,55.76372884655025],[21.667169624084806,55.76134938554513],[21.669549085090637,55.77086722956845],[21.726656149231097,55.76491857705334],[21.729035610236927,55.77919534308877],[21.7861426743765,55.781574804094774],[21.805178362423053,55.80655914465662],[21.883700575615897,55.785143995603875],[21.89083895863339,55.80774887515874],[21.933669256738067,55.80774887515874],[21.930100065229677,55.789902917615095],[21.938428178749728,55.774436421076665],[21.971740632831175,55.76491857705334],[22.00029416490096,55.78276453459689],[22.021709313954144,55.778005612586654],[22.012191469930823,55.76134938554513],[22.020519583450874,55.74707261951059],[22.04550392401236,55.73398558397915],[22.15138993877163,55.710190973919424],[22.166856435309082,55.69948339939398],[22.182322931847246,55.7030525909022],[22.20016888939133,55.69115528587278],[22.227532690957844,55.69115528587278],[22.25489649252516,55.68639636386254],[22.284639755098304,55.697103938387],[22.303675443144858,55.68877582486766],[22.298916521133197,55.67211959782614],[22.30486517364733,55.65784283179258],[22.284639755098304,55.647135257266164],[22.226342960455373,55.67449905883224],[22.20016888939133,55.66260175380282],[22.197789428385498,55.644755796259176],[22.20968673341465,55.631668760727734],[22.20968673341465,55.61739199469319],[22.231101882466945,55.60073576765167],[22.329849514208902,55.61263307268109],[22.42026903243072,55.62215091670441],[22.451202025506426,55.632858491229854],[22.457150678020557,55.64832498776926],[22.484514479587872,55.6590325622947],[22.494032323611105,55.68877582486766],[22.49099190121459,55.69908682255932],[22.44935133361309,55.709794397084764],[22.488612440208758,55.74548631217293],[22.577842227927306,55.768091191727784],[22.586170341448067,55.77998849675711],[22.527873546805136,55.81568041184528],[22.515976241776073,55.81449068134228],[22.521924894290205,55.83352636938892],[22.588549802453898,55.83352636938892],[22.589739532956457,55.85732097944668],[22.686107703692496,55.85732097944668],[22.688487164699037,55.872787475985206],[22.577842227927306,55.89420262503697],[22.55285788736662,55.876356667493326],[22.510027589261142,55.872787475985206],[22.511217319764413,55.85018259643035],[22.44697187260655,55.85256205743556],[22.44459241160072,55.88944370302673],[22.433884837074928,55.91204858258149],[22.427936184559996,55.937032923143335],[22.408900496513443,55.93465346213635],[22.404141574501782,55.942981575656574],[22.425556723554166,55.95130968917778],[22.44340268109825,55.9655864552133],[22.476715135179695,56.00008863979748],[22.482663787694626,56.01198594482592],[22.45411025562475,56.01793459734103],[22.43983348958906,56.03816001589077],[22.438643759086588,56.094077349526714],[22.414849149028374,56.11430276807734],[22.40295184399931,56.1392871086382],[22.38867507796433,56.19877363378325],[22.366070198408764,56.202342825293236],[22.360121545893744,56.22732716585321],[22.368449659414505,56.251121775912935],[22.33513720533306,56.27015746395958],[22.316101517286505,56.28324449949102],[22.322050169800637,56.29395207401735],[22.29468636823412,56.30584937904588],[22.267322566666806,56.310608301057094],[22.24590741761451,56.33202345011063],[22.213784694035535,56.36176671268369],[22.21069258481462,56.406626410415825],[22.199985010288028,56.42209290695337],[22.192846627270537,56.43874913399391],[22.172621208720713,56.44707724751511],[22.141688215645075,56.44231832550213],[22.123842258101792,56.4375594034918],[22.090529804019546,56.43280048147881],[22.0572173499381,56.43280048147881],[22.033422739879885,56.42447236795849],[22.00011028579844,56.42447236795849],[21.989402711271847,56.412575062930046],[21.981074597751974,56.410195601923945],[21.969177292722822,56.39591883588852],[21.896603732044998,56.3852112613622],[21.869239930477683,56.39472910538552],[21.8513939729336,56.401867488403724],[21.825219901869644,56.400677757900624],[21.79190744778811,56.38878045287218],[21.783579334268147,56.36855503432254],[21.75145661068926,56.36617557331556],[21.721713348116115,56.347139885268916],[21.70029819906373,56.342380963257696],[21.662226822970712,56.3483296157729],[21.6420014044208,56.35189880728102],[21.59917110631603,56.341191232754696],[21.575376496257906,56.330483658229255],[21.562289460725484,56.31025823967961],[21.5444435031822,56.30668904817139],[21.537305120164,56.29241228213597],[21.520648893123276,56.28527389911777],[21.48376724753344,56.29836093465108],[21.484956978036,56.27456632459145],[21.456403445966213,56.265048480568126],[21.43141910540464,56.248392253528465],[21.395727190317363,56.24601279252148],[21.365983927744306,56.240064140008144],[21.319584438131148,56.2198387214585],[21.299359019581324,56.20199276391486],[21.27318494851737,56.19366465039366],[21.260097912984946,56.177008423352135],[21.23749303343009,56.169870040335795],[21.22202653689184,56.15559327430037],[21.236303302926732,56.14131650826583],[21.23273411141843,56.12822947273253],[21.212508692868607,56.12228082021919],[21.193473004822053,56.09015809663924],[21.17562704727797,56.08658890513102],[21.157781089734776,56.09491701865223],[21.136365940681593,56.0794505221138],[21.12089944414414,56.05208672054596],[21.147073515208184,56.04018941551752],[21.166109203254738,56.0366202240093],[21.160160550740517,56.00568723093333],[21.198231926833625,55.99141046489781],[21.193473004822053,55.97594396836027],[21.158970820237247,55.97356450735515],[21.144694054202354,55.942631514278204],[21.11851998313831,55.939062322770084],[21.101863756097586,55.92597528723854],[21.07568968503363,55.930734209248875],[21.046416269838023,55.93432950338959],[21.047442891420435,55.91585031490467],[21.174744055232445,55.87896866931439],[21.235420310881207,55.88610705233347],[21.337737134131732,55.81948214417022],[21.360342013687386,55.78379022908206],[21.381757162740126,55.73144208695335],[21.443623148891714,55.65410960426378],[21.48419416490263,55.584032394790285]]]]}},{"type":"Feature","properties":{"kind":"district","id":"uyezd-1897-92","name":"Ковенский","provinceId":"gubernia-1897-13"},"geometry":{"type":"MultiPolygon","coordinates":[[[[23.931300211286768,55.5911151074115],[23.917023445251875,55.578028071879956],[23.914643984246045,55.551854000815204],[23.900367218211063,55.52805939075735],[23.906315870726083,55.51140316371671],[23.89441856569702,55.498316128185266],[23.749271444341282,55.485229092651956],[23.725476834283068,55.499505858687385],[23.694543841207363,55.51378262472192],[23.68383626668086,55.53638750427855],[23.718338451265577,55.53638750427855],[23.73023575629473,55.52211073824401],[23.745702252832093,55.53281831276856],[23.711200068248175,55.59349456841848],[23.699302763219023,55.63513513601988],[23.68145680567503,55.637514597025095],[23.670749231148438,55.656550285072626],[23.62434974153537,55.658929746077746],[23.602934592482185,55.65060163255752],[23.604124322985545,55.5982534904297],[23.62553947203784,55.576838341376956],[23.58270917393316,55.54947453980999],[23.562483755383337,55.54828480930699],[23.52441237929023,55.52330046874524],[23.461356662635637,55.53043885176335],[23.441131244085813,55.51973127723703],[23.407818790004278,55.52567992975223],[23.413767442519298,55.492367475670065],[23.462546393138908,55.48047017064074],[23.458977201629807,55.4614344825941],[23.404249598495976,55.4733317876244],[23.353091186870447,55.44239879454746],[23.2674305906602,55.4269322980108],[23.26862032116347,55.409086340466274],[23.301932775245007,55.38648146091142],[23.351901456367177,55.37101496437299],[23.3685576834079,55.36387658135479],[23.356660378378837,55.330564127273604],[23.37093714441373,55.32104628325028],[23.400680406986876,55.31509763073518],[23.442320974589084,55.30795924771884],[23.458977201629807,55.281785176654],[23.387593371455253,55.26631868011557],[23.332865768320623,55.254421375087034],[23.27218951267186,55.24609326156681],[23.229359214567094,55.24847272257193],[23.21270298752637,55.24014460905259],[23.185339185959055,55.237765148045604],[23.16154457590093,55.23062676502927],[23.141319157351816,55.23657541754349],[23.129421852321954,55.21634999899375],[23.0580380221474,55.21159107698263],[23.042571525609148,55.21516026849075],[23.0021206885103,55.21040134647865],[22.964049312417192,55.20921161597564],[22.930736858335745,55.15686347384782],[22.942634163364808,55.14020724680816],[22.966428773423022,55.115222906246316],[22.971187695434594,55.096187218199674],[22.99617203599608,55.096187218199674],[23.05208936963318,55.10808452322821],[23.094919667738036,55.10808452322821],[23.129421852321954,55.103325601217875],[23.20437487400561,55.09142829618846],[23.2638613991519,55.08785910467847],[23.303122505748277,55.079530991158244],[23.355470647876277,55.07358233864491],[23.42804420855419,55.08310018266823],[23.505376691243676,55.05692611160339],[23.558914563874946,55.04859799808219],[23.586278365441462,55.029562310035544],[23.610072975499676,54.967696323885285],[23.63386758555869,54.949850366340755],[23.660041656622646,54.93914279181443],[23.68621572768669,54.94033252231743],[23.7278562952889,54.942711983322646],[23.83731150155656,54.90583033773237],[23.877762338656208,54.89393303270481],[23.911074792737654,54.89512276320604],[23.93486940279587,54.868948692143064],[23.94438724681919,54.86300003962786],[23.956284551848253,54.866569231136076],[23.964612665369014,54.88798438018971],[23.976509970398165,54.89512276320604],[23.99554565844463,54.89036384119483],[24.013391615987913,54.871328153148184],[24.038375956549398,54.867758961639964],[24.04432460906433,54.883225458177506],[24.05503218359012,54.89393303270481],[24.080016524151606,54.88917411069271],[24.0942932901865,54.89750222421303],[24.128795474771305,54.89512276320604],[24.14426197130867,54.877276805663286],[24.189471730420067,54.86300003962786],[24.21802526248994,54.84872327359332],[24.25252744707386,54.82968758554668],[24.25490690807969,54.81660055001524],[24.287029631658665,54.80946216699704],[24.31201397222006,54.82730812454156],[24.331049660266704,54.84515408208422],[24.327480468757514,54.878466536166385],[24.30963451121432,54.883225458177506],[24.300116667191,54.91177899024747],[24.348895617810697,54.94509144432865],[24.344136695799037,54.956988749358956],[24.328670199260873,54.956988749358956],[24.30963451121432,54.948660635837754],[24.294168014676067,54.960557940867176],[24.31439343322589,55.00933689148678],[24.35722373133066,55.028372579533425],[24.36674157535398,55.05097745908828],[24.385292558381124,55.07124694173126],[24.372205522848525,55.0867134382688],[24.34960064329367,55.120025892349986],[24.38410282787803,55.14976915492295],[24.41622555145674,55.17237403447869],[24.444779083526704,55.202117297050776],[24.456676388556122,55.22591190710952],[24.456676388556122,55.23780921213982],[24.443589353023523,55.25089624767136],[24.40194878542176,55.23661948163682],[24.321047111223706,55.202117297050776],[24.298442231667963,55.20449675805687],[24.30439088418316,55.21758379359018],[24.292493579153742,55.22829136811562],[24.272268160604362,55.21758379359018],[24.22467894048749,55.2211529850983],[24.216350826966817,55.23067082912074],[24.20445352193811,55.24137840364804],[24.1854178338912,55.24137840364804],[24.156864301821237,55.21758379359018],[24.119982656230512,55.192599453028336],[24.085480471646328,55.21282487157808],[24.115223734219473,55.23067082912074],[24.108085351201893,55.24137840364804],[24.147346457798182,55.267552474712794],[24.14496699679182,55.28182924074645],[24.1854178338912,55.30086492879397],[24.190176755903128,55.318710886336724],[24.167571876347473,55.329418460863934],[24.184228103388108,55.340126035389375],[24.1913664864056,55.3567822624309],[24.184228103388108,55.37938714198664],[24.1466414323145,55.39718903543783],[24.124036552759645,55.418604184489595],[24.134744127285437,55.4257425675078],[24.15496954583526,55.418604184489595],[24.183523077905136,55.411465801471394],[24.185902538910877,55.43882960303924],[24.15496954583526,55.45548583008076],[24.135933857788796,55.44834744706256],[24.122846822256374,55.45905502158898],[24.071688410630845,55.4661934046062],[24.006253232970423,55.51259289422069],[23.974130509392335,55.500695589190386],[23.968181856877315,55.51973127723703],[23.970561317883146,55.53162858226733],[23.953905090842422,55.54828480930699],[23.9372488638017,55.54947453980999],[23.930110480784297,55.564941036348515],[23.9372488638017,55.574458880371836],[23.931300211286768,55.5911151074115]]]]}},{"type":"Feature","properties":{"kind":"district","id":"uyezd-1897-93","name":"Поневежский","provinceId":"gubernia-1897-13"},"geometry":{"type":"MultiPolygon","coordinates":[[[[24.184228103388108,55.37938714198664],[24.21278163545807,55.3936639080202],[24.254422203060635,55.416268787576925],[24.272268160604362,55.41032013506261],[24.29725250116567,55.394853638523294],[24.312718997703033,55.405561213050504],[24.33651360776187,55.412699596067824],[24.35554929580798,55.405561213050504],[24.459055849561686,55.45315043316623],[24.484040190122904,55.44958124165801],[24.484040190122904,55.47575531272197],[24.453107197047377,55.507878036300056],[24.465004502075995,55.515016419319146],[24.517352644204795,55.52096507183346],[24.50664506967856,55.54000075987912],[24.52092183571363,55.54713914289732],[24.544716445771666,55.568554291949084],[24.537578062754175,55.586400249492726],[24.556613750801084,55.61614351206569],[24.536388332250993,55.63161000860323],[24.531629410239866,55.655404618662956],[24.492368303643577,55.65659434916596],[24.48047099861416,55.68752734224016],[24.595874857397373,55.68871707274414],[24.59944404890612,55.71489114380889],[24.603013240414864,55.73749602336286],[24.58635701337343,55.7565317114095],[24.5875467438767,55.77318793845005],[24.643464077513446,55.78746470448547],[24.68034572310417,55.82553608057974],[24.730314404226608,55.83386419409996],[24.74459117026159,55.82196688906966],[24.756488475290297,55.82434635007576],[24.77195497182837,55.8552793431527],[24.806457156412733,55.8552793431527],[24.812405808927842,55.870745839689356],[24.801698234401517,55.888591797233886],[24.808836617419097,55.92071452081295],[24.84928745451768,55.93499128684651],[24.888548561113968,55.93975020885959],[24.920502093621035,55.938651057904266],[24.983557810275627,55.938651057904266],[24.9847475407781,55.95411755444279],[25.006162689830482,55.97910189500365],[25.003783228824652,55.99575812204509],[25.018059994859545,56.001706774558414],[25.04304433542103,56.013604079588724],[25.04185460491776,56.03145003713148],[25.057321101455923,56.03739868964658],[25.081115711514137,56.0409678811548],[25.109669243584012,56.0385884201487],[25.121566548613075,56.05048572517812],[25.116807626601414,56.07190087423166],[25.09182328604073,56.079039257248084],[25.066838945479244,56.08141871825498],[25.026388108380306,56.076659796241984],[25.008542150836313,56.06595222171654],[24.981178349269797,56.05881383869834],[24.960952930719973,56.06000356920144],[24.95143508669665,56.06833168272166],[24.924071285129337,56.06595222171654],[24.924071285129337,56.08141871825498],[24.905035597082783,56.089746831774406],[24.89075883104789,56.07071114372865],[24.875292334509638,56.084987909763186],[24.870533412498066,56.11711063334137],[24.902656136076953,56.105213328312836],[24.930019937644268,56.12424901635948],[24.93358912915257,56.13971551289799],[24.95024535619338,56.140905243401],[24.955004278204953,56.153992278932535],[24.978798888263967,56.164699853457975],[25.027577838882866,56.1765971584873],[25.04423406592359,56.19444311603094],[25.063269753970943,56.20871988206726],[25.068028675982514,56.221806917598784],[25.04304433542103,56.25630910218386],[25.05172496168301,56.26888205663271],[25.04696603967135,56.28196909216602],[25.026740621121526,56.28196909216602],[25.016033046595734,56.292676666692344],[25.016033046595734,56.305763702223885],[24.99461789754335,56.31171235473899],[24.975582209496796,56.33312750379084],[24.970823287485224,56.35573238334561],[24.976771939999267,56.379526993405335],[24.954167060443613,56.383096184913455],[24.931562180888758,56.4045113339653],[24.914905953848034,56.41997783050374],[24.923234067367996,56.44258271005859],[24.907767570830543,56.45329028458492],[24.880403769263317,56.456859476094905],[24.862557811719235,56.441392979556475],[24.864937272725065,56.42711621352194],[24.83162481864362,56.42235729150983],[24.818537783111996,56.434254596538274],[24.805450747579574,56.434254596538274],[24.807830208585404,56.41997783050374],[24.775707485006517,56.4080805254753],[24.755482066457404,56.41759836949862],[24.735697288834437,56.409402448256486],[24.707143756764562,56.407022987249505],[24.69762591274133,56.390366760209844],[24.684538877208997,56.383228377191735],[24.64884696212172,56.385607838196854],[24.63694965709257,56.38203864668864],[24.633380465584267,56.3689516111572],[24.627431813069247,56.35705430612689],[24.615534508040184,56.35110565361356],[24.60363720301112,56.33682888757724],[24.579842592952907,56.32850077405693],[24.567945287923845,56.332069965566916],[24.55366852188895,56.32850077405693],[24.5346328338416,56.32850077405693],[24.526304720321637,56.320172660537494],[24.48466415271943,56.330880235063916],[24.460869542661214,56.330880235063916],[24.44659277662632,56.34396727059536],[24.410900861539044,56.35229538411568],[24.415659783550705,56.363002958642],[24.404952209024113,56.3689516111572],[24.37996786846334,56.36657215015021],[24.362121910919345,56.335639157074155],[24.33475810935203,56.333259696069035],[24.297876463762194,56.326121313050834],[24.2764613147091,56.34039807908724],[24.264564009679948,56.33801861808025],[24.263374279177476,56.32850077405693],[24.28240996722403,56.318982930033606],[24.288358619738162,56.30232670299395],[24.22173371157527,56.29518831997575],[24.11822715782174,56.289239667460635],[24.109899044300978,56.332069965566916],[24.045653597143914,56.326121313050834],[24.000443838033316,56.324931582548714],[24.001633568535876,56.34158780959024],[24.01115141255911,56.35229538411568],[24.01115141255911,56.390366760209844],[23.993305455015914,56.37727972467654],[23.976649227975102,56.36776188065322],[23.96118273143694,56.35467484512177],[23.951664887413617,56.34158780959024],[23.935008660372983,56.334449426572036],[23.939026115540898,56.312150544303194],[23.94735422906077,56.28359701223235],[23.9425953070492,56.245525636139064],[23.917610966488514,56.21935156507422],[23.865262824359714,56.18009045847793],[23.860503902348054,56.15272665691097],[23.858124441342223,56.11108608930956],[23.806966029716783,56.100378514783145],[23.79625845519099,56.075394174221394],[23.826001717764047,56.05992767768385],[23.8378990227932,56.0337536066199],[23.766515192617845,56.015907649077235],[23.74510004356546,55.98616438650427],[23.726064355518908,55.96831842896063],[23.721305433507247,55.948093010410986],[23.73082327753057,55.896934598784384],[23.7403411215538,55.88979621576796],[23.712977319986486,55.83863780414137],[23.73558219954223,55.8160329245866],[23.766515192617845,55.78153074000242],[23.778412497646908,55.74583882491425],[23.79149953317933,55.69705987429553],[23.816483873740015,55.716095562342176],[23.861693632851413,55.718475023347295],[23.903334200453532,55.719664753850296],[23.929508271517577,55.69943933530065],[23.966389917107414,55.679213916751],[23.968769378113244,55.66969607272768],[23.980666683142307,55.66374742021435],[23.966389917107414,55.65422957619103],[23.964010456101583,55.60545062557142],[23.931300211286768,55.5911151074115],[23.9372488638017,55.574458880371836],[23.930110480784297,55.564941036348515],[23.9372488638017,55.54947453980999],[23.953905090842422,55.54828480930699],[23.970561317883146,55.53162858226733],[23.968181856877315,55.51973127723703],[23.974130509392335,55.500695589190386],[24.006253232970423,55.51259289422069],[24.071688410630845,55.4661934046062],[24.122846822256374,55.45905502158898],[24.135933857788796,55.44834744706256],[24.15496954583526,55.45548583008076],[24.185902538910877,55.43882960303924],[24.183523077905136,55.411465801471394],[24.15496954583526,55.418604184489595],[24.134744127285437,55.4257425675078],[24.124036552759645,55.418604184489595],[24.1466414323145,55.39718903543783],[24.184228103388108,55.37938714198664]]]]}},{"type":"Feature","properties":{"kind":"district","id":"uyezd-1897-114","name":"Вилькомирский","provinceId":"gubernia-1897-13"},"geometry":{"type":"MultiPolygon","coordinates":[[[[24.434071509000468,55.06053936720396],[24.48760938163165,55.06410855871306],[24.530439679736684,55.07838532474848],[24.57326997784172,55.06410855871306],[24.598254318402937,55.08909289927392],[24.61966946745541,55.102179934807324],[24.627997580976082,55.12597454486421],[24.6137208149411,55.15333834643294],[24.624428389467337,55.16642538196447],[24.6398948860047,55.16880484296959],[24.682725184109735,55.16047672945025],[24.721986290705935,55.16166645995237],[24.726745212717862,55.12954373637419],[24.733883595735353,55.120025892349986],[24.795749581886497,55.114077239835765],[24.845718263008933,55.109318317824545],[24.85761556803844,55.117646431343886],[24.89092802212033,55.114077239835765],[24.900445866143386,55.13549238888841],[24.907584249160877,55.16761511246659],[24.92186101519586,55.197358375039556],[24.946845355757077,55.2223427156014],[24.980157809838257,55.2116351410741],[25.018229185932075,55.191409722525336],[25.04797244850451,55.20330702755378],[25.08604382459824,55.20092756654866],[25.112217895661928,55.25089624767136],[25.149099541252653,55.25327570867648],[25.19906822237509,55.24970651716826],[25.210965527403708,55.27944977974133],[25.235949867964926,55.28420870175254],[25.26450340003498,55.27944977974133],[25.31209262015185,55.27826004923823],[25.334697499707506,55.254465439179484],[25.347784535239306,55.254465439179484],[25.353733187753704,55.28063951024344],[25.391804563847522,55.28420870175254],[25.40251213837376,55.318710886336724],[25.445342436478793,55.32228007784671],[25.458429472010593,55.33774657438337],[25.473895968548756,55.33774657438337],[25.473895968548756,55.31038277281641],[25.520295458161648,55.28420870175254],[25.519105727659266,55.275880588232226],[25.52743384117914,55.27231139672401],[25.56074629526112,55.27707031873523],[25.583351174816773,55.29015735426676],[25.635699316944862,55.28777789326067],[25.657114465997335,55.29134708476977],[25.629750664430464,55.31990061683973],[25.596438210348573,55.31038277281641],[25.557177103752373,55.30086492879397],[25.54171060721412,55.30562385080519],[25.5488489902317,55.31752115583363],[25.565505217273046,55.31752115583363],[25.605956054371628,55.336556843880274],[25.603576593366064,55.344884957400595],[25.58097171381041,55.342505496395475],[25.572643600290537,55.36154118444212],[25.559556564757937,55.36867956745934],[25.54171060721412,55.36867956745934],[25.54171060721412,55.343695226899364],[25.557177103752373,55.33774657438337],[25.553607912243628,55.329418460863934],[25.53457222419663,55.334177382875154],[25.523864649670394,55.331797921869146],[25.523864649670394,55.318710886336724],[25.50125977011554,55.32584926935483],[25.517915997156173,55.36511037595024],[25.513157075144157,55.388904986009074],[25.53457222419663,55.38414606399786],[25.596438210348573,55.405561213050504],[25.592869018839828,55.422217440090165],[25.619043089904228,55.43411474512047],[25.6142841678923,55.45909908568045],[25.657114465997335,55.46504773819653],[25.649976082979844,55.48170396523619],[25.654735004991682,55.4959807312725],[25.68090907605537,55.48765261775041],[25.72000099158002,55.48179454478574],[25.737846949123213,55.49726104132337],[25.76759021169636,55.52700430389545],[25.808041048795296,55.55793729697142],[25.793764282760403,55.58292163753326],[25.78186697773125,55.611475169603224],[25.72238045258585,55.63051085764987],[25.710483147556698,55.63883897116921],[25.747364793146534,55.64835681519253],[25.749744254152365,55.65549519821073],[25.72000099158002,55.66382331173096],[25.705724225545126,55.66977196424615],[25.733088027111553,55.69951522681912],[25.735467488117383,55.71260226235066],[25.72238045258585,55.71736118436188],[25.691447459509433,55.7268790283852],[25.67003231045705,55.72212010637398],[25.660514466433728,55.704274148830336],[25.62125335983815,55.69951522681912],[25.606976593802457,55.705463879332456],[25.631960934363942,55.71974064536877],[25.61411497681995,55.7328276809003],[25.62244309034062,55.75067363844394],[25.591510097265004,55.76257094347327],[25.56890521770935,55.76376067397538],[25.56533602620105,55.75305309944906],[25.573664139720922,55.73758660291241],[25.52250572809548,55.71974064536877],[25.490383004517305,55.71974064536877],[25.479675429990714,55.729258489392095],[25.478485699488242,55.74353525542574],[25.495141926528966,55.75781202146206],[25.499900848540626,55.76495040447848],[25.452311628423487,55.791124475543235],[25.440414323394336,55.83038558213961],[25.423758096353613,55.858939114209576],[25.379738067746374,55.88035426326134],[25.319061812097612,55.89820022080586],[25.292887741032857,55.89106183778766],[25.26195474795715,55.855369922701364],[25.216744988846553,55.860128844711696],[25.21198606683498,55.885113185274335],[25.21198606683498,55.90295914281797],[25.176294151747705,55.9100975258343],[25.115617896098943,55.91128725633731],[25.083495172519967,55.924374291868844],[25.09420274704656,55.946979171425475],[25.14774061967783,55.94459971041947],[25.167966038226943,55.94578944092247],[25.177483882250176,55.96958405098033],[25.173914690741874,55.98624027802087],[25.15249954168949,55.99099920003209],[25.10491032157235,55.99099920003209],[25.066838945479244,55.98624027802087],[25.04423406592359,55.97196351198545],[25.04542379642686,55.96006620695701],[25.032336760894527,55.946979171425475],[25.033526491397797,55.93270240539094],[25.027577838882866,55.924374291868844],[25.00259349832218,55.9136667173443],[24.972850235749036,55.90176941231399],[24.94786589518755,55.89938995130798],[24.932399398650098,55.9089077953313],[24.920502093621035,55.938651057904266],[24.888548561113968,55.93975020885959],[24.84928745451768,55.93499128684651],[24.808836617419097,55.92071452081295],[24.801698234401517,55.888591797233886],[24.812405808927842,55.870745839689356],[24.806457156412733,55.8552793431527],[24.77195497182837,55.8552793431527],[24.756488475290297,55.82434635007576],[24.74459117026159,55.82196688906966],[24.730314404226608,55.83386419409996],[24.68034572310417,55.82553608057974],[24.643464077513446,55.78746470448547],[24.5875467438767,55.77318793845005],[24.58635701337343,55.7565317114095],[24.603013240414864,55.73749602336286],[24.59944404890612,55.71489114380889],[24.595874857397373,55.68871707274414],[24.48047099861416,55.68752734224016],[24.492368303643577,55.65659434916596],[24.531629410239866,55.655404618662956],[24.536388332250993,55.63161000860323],[24.556613750801084,55.61614351206569],[24.537578062754175,55.586400249492726],[24.544716445771666,55.568554291949084],[24.52092183571363,55.54713914289732],[24.50664506967856,55.54000075987912],[24.517352644204795,55.52096507183346],[24.465004502075995,55.515016419319146],[24.453107197047377,55.507878036300056],[24.484040190122904,55.47575531272197],[24.484040190122904,55.44958124165801],[24.459055849561686,55.45315043316623],[24.35554929580798,55.405561213050504],[24.33651360776187,55.412699596067824],[24.312718997703033,55.405561213050504],[24.29725250116567,55.394853638523294],[24.272268160604362,55.41032013506261],[24.254422203060635,55.416268787576925],[24.21278163545807,55.3936639080202],[24.184228103388108,55.37938714198664],[24.1913664864056,55.3567822624309],[24.184228103388108,55.340126035389375],[24.167571876347473,55.329418460863934],[24.190176755903128,55.318710886336724],[24.1854178338912,55.30086492879397],[24.14496699679182,55.28182924074645],[24.147346457798182,55.267552474712794],[24.108085351201893,55.24137840364804],[24.115223734219473,55.23067082912074],[24.085480471646328,55.21282487157808],[24.119982656230512,55.192599453028336],[24.156864301821237,55.21758379359018],[24.1854178338912,55.24137840364804],[24.20445352193811,55.24137840364804],[24.216350826966817,55.23067082912074],[24.22467894048749,55.2211529850983],[24.272268160604362,55.21758379359018],[24.292493579153742,55.22829136811562],[24.30439088418316,55.21758379359018],[24.298442231667963,55.20449675805687],[24.321047111223706,55.202117297050776],[24.40194878542176,55.23661948163682],[24.443589353023523,55.25089624767136],[24.456676388556122,55.23780921213982],[24.456676388556122,55.22591190710952],[24.444779083526704,55.202117297050776],[24.41622555145674,55.17237403447869],[24.38410282787803,55.14976915492295],[24.34960064329367,55.120025892349986],[24.372205522848525,55.0867134382688],[24.385292558381124,55.07124694173126],[24.405517976930504,55.06410855871306],[24.434071509000468,55.06053936720396]]]]}},{"type":"Feature","properties":{"kind":"district","id":"uyezd-1897-690","name":"Новоалександровский","provinceId":"gubernia-1897-13"},"geometry":{"type":"MultiPolygon","coordinates":[[[[25.05172496168301,56.26888205663271],[25.04304433542103,56.25630910218386],[25.068028675982514,56.221806917598784],[25.063269753970943,56.20871988206726],[25.04423406592359,56.19444311603094],[25.027577838882866,56.1765971584873],[24.978798888263967,56.164699853457975],[24.955004278204953,56.153992278932535],[24.95024535619338,56.140905243401],[24.93358912915257,56.13971551289799],[24.930019937644268,56.12424901635948],[24.902656136076953,56.105213328312836],[24.870533412498066,56.11711063334137],[24.875292334509638,56.084987909763186],[24.89075883104789,56.07071114372865],[24.905035597082783,56.089746831774406],[24.924071285129337,56.08141871825498],[24.924071285129337,56.06595222171654],[24.95143508669665,56.06833168272166],[24.960952930719973,56.06000356920144],[24.981178349269797,56.05881383869834],[25.008542150836313,56.06595222171654],[25.026388108380306,56.076659796241984],[25.066838945479244,56.08141871825498],[25.09182328604073,56.079039257248084],[25.116807626601414,56.07190087423166],[25.121566548613075,56.05048572517812],[25.109669243584012,56.0385884201487],[25.081115711514137,56.0409678811548],[25.057321101455923,56.03739868964658],[25.04185460491776,56.03145003713148],[25.04304433542103,56.013604079588724],[25.018059994859545,56.001706774558414],[25.003783228824652,55.99575812204509],[25.006162689830482,55.97910189500365],[24.9847475407781,55.95411755444279],[24.983557810275627,55.938651057904266],[24.920502093621035,55.938651057904266],[24.932399398650098,55.9089077953313],[24.94786589518755,55.89938995130798],[24.972850235749036,55.90176941231399],[25.00259349832218,55.9136667173443],[25.027577838882866,55.924374291868844],[25.033526491397797,55.93270240539094],[25.032336760894527,55.946979171425475],[25.04542379642686,55.96006620695701],[25.04423406592359,55.97196351198545],[25.066838945479244,55.98624027802087],[25.10491032157235,55.99099920003209],[25.15249954168949,55.99099920003209],[25.173914690741874,55.98624027802087],[25.177483882250176,55.96958405098033],[25.167966038226943,55.94578944092247],[25.14774061967783,55.94459971041947],[25.09420274704656,55.946979171425475],[25.083495172519967,55.924374291868844],[25.115617896098943,55.91128725633731],[25.176294151747705,55.9100975258343],[25.21198606683498,55.90295914281797],[25.21198606683498,55.885113185274335],[25.216744988846553,55.860128844711696],[25.26195474795715,55.855369922701364],[25.292887741032857,55.89106183778766],[25.319061812097612,55.89820022080586],[25.379738067746374,55.88035426326134],[25.423758096353613,55.858939114209576],[25.440414323394336,55.83038558213961],[25.452311628423487,55.791124475543235],[25.499900848540626,55.76495040447848],[25.495141926528966,55.75781202146206],[25.478485699488242,55.74353525542574],[25.479675429990714,55.729258489392095],[25.490383004517305,55.71974064536877],[25.52250572809548,55.71974064536877],[25.573664139720922,55.73758660291241],[25.56533602620105,55.75305309944906],[25.56890521770935,55.76376067397538],[25.591510097265004,55.76257094347327],[25.62244309034062,55.75067363844394],[25.61411497681995,55.7328276809003],[25.631960934363942,55.71974064536877],[25.606976593802457,55.705463879332456],[25.62125335983815,55.69951522681912],[25.660514466433728,55.704274148830336],[25.67003231045705,55.72212010637398],[25.691447459509433,55.7268790283852],[25.72238045258585,55.71736118436188],[25.735467488117383,55.71260226235066],[25.733088027111553,55.69951522681912],[25.705724225545126,55.66977196424615],[25.72000099158002,55.66382331173096],[25.749744254152365,55.65549519821073],[25.747364793146534,55.64835681519253],[25.710483147556698,55.63883897116921],[25.72238045258585,55.63051085764987],[25.78186697773125,55.611475169603224],[25.793764282760403,55.58292163753326],[25.808041048795296,55.55793729697142],[25.76759021169636,55.52700430389545],[25.737846949123213,55.49726104132337],[25.72000099158002,55.48179454478574],[25.71762153057419,55.46513831774519],[25.72594964409415,55.4258772111489],[25.740226410129043,55.413979906119486],[25.78424643873708,55.41635936712558],[25.82707673684185,55.4116004451125],[25.88894272299397,55.38780583505464],[25.906788680537165,55.40208260108918],[25.910357872046266,55.42349775014281],[25.92582436858372,55.43658478567434],[25.98055197171835,55.42944640265614],[26.017433617308185,55.43301559416613],[26.02933092233796,55.4175490976277],[26.059074184910305,55.40922098410738],[26.07810987295686,55.40565179259917],[26.107853135530004,55.42111828913582],[26.13402720659396,55.43658478567434],[26.15068343363477,55.434205324669136],[26.176857504698816,55.44015397718246],[26.224446724815866,55.456810204223984],[26.233964568839188,55.47584589227063],[26.262518100908974,55.49012265830517],[26.308917590522842,55.47941508377885],[26.33985058359846,55.46751777875031],[26.377921959691566,55.43539505517222],[26.418372796790592,55.40684152310226],[26.426700910311265,55.37828799103132],[26.476669591433524,55.35925230298468],[26.486187435456756,55.36639068600288],[26.531397194568154,55.35568311147655],[26.56708910965543,55.35092418946445],[26.594452911222657,55.34735499795624],[26.626575634800833,55.35449338097257],[26.66821620240304,55.35568311147655],[26.70509784799359,55.35925230298468],[26.72056434453104,55.35568311147655],[26.72413353604023,55.34616526745323],[26.756256259619118,55.34616526745323],[26.789568713700564,55.34616526745323],[26.81812224577044,55.340216614938036],[26.834778472811163,55.33902688443503],[26.850244969349415,55.32593984890261],[26.87403957940754,55.324750118399606],[26.851434699851886,55.34735499795624],[26.835968203314433,55.36282149449289],[26.82288116778201,55.37114960801409],[26.81217359325551,55.397323679077964],[26.801466018729716,55.40565179259917],[26.782430330683162,55.415169636622494],[26.76934329515074,55.43063613315914],[26.76934329515074,55.44134370768556],[26.740789763080866,55.454430743218865],[26.76815356464827,55.469897239755525],[26.781240600179803,55.477035622773634],[26.802655749232187,55.47584589227063],[26.81574278476461,55.48774319729907],[26.783620061185633,55.5055891548436],[26.799086557723886,55.52819403439845],[26.809794132249678,55.54366053093688],[26.832399011805332,55.553178374960204],[26.86095254387512,55.55793729697142],[26.908541763992346,55.55793729697142],[26.963269367126177,55.56745514099474],[27.02394562277494,55.560316757978406],[27.064396459873787,55.548419452948096],[27.0846218784237,55.560316757978406],[27.101278105464424,55.57459352401294],[27.127452176528468,55.57578325451506],[27.150057056084123,55.59719840356771],[27.173851666142337,55.62575193563767],[27.215492233743745,55.64359789318131],[27.269030106375016,55.66858223374217],[27.29520417743906,55.68642819128581],[27.33684474504118,55.706653609835456],[27.366588007614414,55.72806875888909],[27.382054504151867,55.75543256045516],[27.386813426164238,55.78636555353202],[27.386813426164238,55.80421151107477],[27.38170199141056,55.81991301610746],[27.33649223230005,55.831810321135904],[27.267487863130526,55.85084600918255],[27.18420672792691,55.87345088873918],[27.154463465353764,55.874640619242186],[27.12709966378645,55.85560493119465],[27.103305053728235,55.84370762616621],[27.056905564114366,55.856794661697656],[27.009316343998027,55.84608708717133],[26.987901194945643,55.836569243148006],[26.92603520879432,55.80087732806171],[26.884394641192202,55.77351352649475],[26.86654868364812,55.7390113419087],[26.832046499064113,55.71759619285694],[26.81063135001093,55.698560504810295],[26.76423186039786,55.698560504810295],[26.755903746877188,55.71164754034183],[26.72140156229238,55.72354484537205],[26.694037760725866,55.73306268939537],[26.65358692362613,55.73544215040147],[26.640499888094595,55.73544215040147],[26.634551235579664,55.714027001348725],[26.61670527803638,55.69975023531241],[26.590531206972337,55.691422121792094],[26.55840848339345,55.691422121792094],[26.535803603837707,55.696181043805176],[26.50962953277375,55.70688861833061],[26.487024653218096,55.72473457587514],[26.40017432650529,55.72592430637815],[26.34782618437729,55.72592430637815],[26.312134269290013,55.74020107241179],[26.29428831174593,55.7532881079451],[26.263355318670314,55.750908646938115],[26.255027205149553,55.76875460448176],[26.222904481571376,55.785410831523194],[26.151520651396112,55.834189782142886],[26.121777388823677,55.856794661697656],[26.112259544800445,55.88653792427071],[26.09322385675309,55.900814690306134],[26.068239516192406,55.89010711577883],[26.04206544512836,55.88772765477371],[26.025409218087727,55.89367630728883],[26.025409218087727,55.90438388181426],[26.044444906134192,55.923419569860904],[26.068239516192406,55.93412714438732],[26.049203828145853,55.94959364092575],[26.03373733160769,55.973388250983604],[26.008752991046116,55.97457798148661],[25.98852757249709,55.981716364503924],[25.951645926906544,55.99004447802504],[25.914764281315907,56.005510974561695],[25.87907236622872,56.018598010095005],[25.846949642649655,56.02930558462142],[25.83267287661485,56.04834127266806],[25.796980961527574,56.06261803870162],[25.713699826323868,56.086412648761346],[25.752960932919535,56.15303755692371],[25.756530124428636,56.17207324497035],[25.788652848007523,56.19348839402211],[25.807688536054076,56.214903543075735],[25.807688536054076,56.224421387099056],[25.83575736310383,56.23200041104341],[25.854793051151184,56.24032852456275],[25.858362242659396,56.25698475160427],[25.851223859641994,56.2724512481427],[25.82623951908051,56.28077936166302],[25.78221949047327,56.26174367361638],[25.73700973136196,56.24389771607274],[25.714404851807018,56.24984636858607],[25.702507546777955,56.22248256702009],[25.701317816274596,56.19511876545313],[25.68228212822813,56.17608307740649],[25.6799026672223,56.14871927583864],[25.67276428420481,56.136821970810196],[25.610898298053577,56.139201431815316],[25.550222042404727,56.145150084330425],[25.488356056252695,56.14633981483352],[25.443146297142185,56.157047389359846],[25.41102357356321,56.14871927583864],[25.35510623992602,56.1356322403071],[25.296809445283888,56.159426850364966],[25.278963487739894,56.159426850364966],[25.270635374219133,56.17251388589827],[25.25278941667585,56.1772728079086],[25.237322920137686,56.18917011293793],[25.219476962594403,56.19273930444614],[25.214718040582742,56.18798038243493],[25.217097501588572,56.17489334690348],[25.15880070694564,56.17965226891461],[25.10764229532011,56.202257148469464],[25.10407310381101,56.19154957394491],[25.085037415764457,56.20820580098457],[25.080278493752797,56.234379872049416],[25.05172496168301,56.26888205663271]]]]}},{"type":"Feature","properties":{"kind":"district","id":"uyezd-1897-695","name":"Россиенский","provinceId":"gubernia-1897-13"},"geometry":{"type":"MultiPolygon","coordinates":[[[[23.407818790004278,55.52567992975223],[23.368484243253832,55.549577356026944],[23.342310172189787,55.559095200050265],[23.332792328166555,55.566233583066605],[23.347069094201448,55.56861304407359],[23.391089122809486,55.567423313569606],[23.40774534985021,55.59121792362835],[23.389899392306127,55.59478711513657],[23.36015612973307,55.58288981010813],[23.344689633195618,55.59478711513657],[23.30542852659915,55.59359738463356],[23.29829014358175,55.5650438525636],[23.269736611511963,55.56147466105627],[23.242372809944648,55.566233583066605],[23.25189065396788,55.60073576765167],[23.234044696424686,55.651894179276496],[23.20192197284571,55.66617094531281],[23.14481490870605,55.68639636386254],[23.085328383559848,55.69591420788586],[23.085328383559848,55.68282717235246],[23.018703475396865,55.67568878933613],[23.028221319420187,55.69591420788586],[23.056774851489973,55.71970881794363],[23.059154312495803,55.73517531448029],[23.028221319420187,55.73636504498427],[23.011565092379463,55.709001243417305],[22.99133967382955,55.70662178241032],[22.98896021282372,55.72446773995583],[22.978252638297928,55.73160612297217],[22.955647758742273,55.73041639246907],[22.915196921643336,55.720898548445746],[22.911627730134235,55.70662178241032],[22.871176893035297,55.69234501637578],[22.858089857502964,55.712570434925524],[22.84143363046224,55.70662178241032],[22.850951474485473,55.68163744184946],[22.83905416945641,55.66855040631802],[22.83191578643892,55.644755796259176],[22.802172523865774,55.641186604751056],[22.77837791380765,55.6614120233007],[22.72246058017046,55.66379148430582],[22.704614622627265,55.68401690285556],[22.689148126089012,55.69353474687888],[22.63085133144608,55.68401690285556],[22.611815643399527,55.69472447738277],[22.590400494347143,55.69591420788586],[22.57731345881552,55.7018628603991],[22.536862621715873,55.697103938387],[22.494032323611105,55.68877582486766],[22.484514479587872,55.6590325622947],[22.457150678020557,55.64832498776926],[22.451202025506426,55.632858491229854],[22.42026903243072,55.62215091670441],[22.329849514208902,55.61263307268109],[22.231101882466945,55.60073576765167],[22.20968673341465,55.61739199469319],[22.20968673341465,55.631668760727734],[22.197789428385498,55.644755796259176],[22.20016888939133,55.66260175380282],[22.226342960455373,55.67449905883224],[22.284639755098304,55.647135257266164],[22.30486517364733,55.65784283179258],[22.298916521133197,55.67211959782614],[22.303675443144858,55.68877582486766],[22.284639755098304,55.697103938387],[22.25489649252516,55.68639636386254],[22.227532690957844,55.69115528587278],[22.20016888939133,55.69115528587278],[22.182322931847246,55.7030525909022],[22.166856435309082,55.69948339939398],[22.15138993877163,55.710190973919424],[22.04550392401236,55.73398558397915],[22.020519583450874,55.74707261951059],[22.012191469930823,55.76134938554513],[22.021709313954144,55.778005612586654],[22.00029416490096,55.78276453459689],[21.971740632831175,55.76491857705334],[21.938428178749728,55.774436421076665],[21.930100065229677,55.789902917615095],[21.933669256738067,55.80774887515874],[21.89083895863339,55.80774887515874],[21.883700575615897,55.785143995603875],[21.805178362423053,55.80655914465662],[21.7861426743765,55.781574804094774],[21.729035610236927,55.77919534308877],[21.726656149231097,55.76491857705334],[21.669549085090637,55.77086722956845],[21.667169624084806,55.76134938554513],[21.64099555302085,55.76372884655025],[21.63147770899753,55.77919534308877],[21.600544715921913,55.783954265099986],[21.593406332904422,55.76610830755723],[21.517263580717497,55.77205696007145],[21.48989977915098,55.74469315850361],[21.464915438589408,55.74707261951059],[21.438741367525452,55.72803693146395],[21.47681274361856,55.709001243417305],[21.47443328261273,55.69115528587278],[21.495848431665024,55.68877582486766],[21.52202250272907,55.68163744184946],[21.494658701162553,55.631668760727734],[21.48419416490263,55.584032394790285],[21.495971291019536,55.56369008604267],[21.535232397616358,55.49111652536431],[21.566165390692152,55.45542461027792],[21.59828811427086,55.43757865273339],[21.61137514980266,55.385230510604686],[21.68870763249179,55.35191805652448],[21.714881703556102,55.32336452445354],[21.738676313614672,55.297190453389675],[21.77674768970778,55.304328836406896],[21.773178498199123,55.32693371596264],[21.86121855541502,55.32812344646476],[21.874305590946822,55.32455425495664],[21.889772087485074,55.287672609365465],[21.998037563250087,55.27101638232483],[22.07418031543639,55.24484231126097],[22.200291748745485,55.229375814723426],[22.205050670756968,55.18892497762493],[22.221706897798224,55.15680225404596],[22.284762614452728,55.16037144555408],[22.458463267878074,55.142525488011415],[22.535795750568003,55.148474140526524],[22.58457470118717,55.11040276443146],[22.623835807783102,55.065193005322726],[22.654645941505006,55.05583919731636],[22.686768665083182,55.05821865832334],[22.721270849667988,55.06535704133968],[22.78670602732841,55.078444076872984],[22.8461925524739,55.089151651398424],[22.88307419806445,55.09153111240443],[22.94375045371321,55.089151651398424],[22.971187695434594,55.096187218199674],[22.966428773423022,55.115222906246316],[22.942634163364808,55.14020724680816],[22.930736858335745,55.15686347384782],[22.964049312417192,55.20921161597564],[23.0021206885103,55.21040134647865],[23.042571525609148,55.21516026849075],[23.0580380221474,55.21159107698263],[23.129421852321954,55.21634999899375],[23.141319157351816,55.23657541754349],[23.16154457590093,55.23062676502927],[23.185339185959055,55.237765148045604],[23.21270298752637,55.24014460905259],[23.229359214567094,55.24847272257193],[23.27218951267186,55.24609326156681],[23.332865768320623,55.254421375087034],[23.387593371455253,55.26631868011557],[23.458977201629807,55.281785176654],[23.442320974589084,55.30795924771884],[23.400680406986876,55.31509763073518],[23.37093714441373,55.32104628325028],[23.356660378378837,55.330564127273604],[23.3685576834079,55.36387658135479],[23.351901456367177,55.37101496437299],[23.301932775245007,55.38648146091142],[23.26862032116347,55.409086340466274],[23.2674305906602,55.4269322980108],[23.353091186870447,55.44239879454746],[23.404249598495976,55.4733317876244],[23.458977201629807,55.4614344825941],[23.462546393138908,55.48047017064074],[23.413767442519298,55.492367475670065],[23.407818790004278,55.52567992975223]]]]}},{"type":"Feature","properties":{"kind":"district","id":"uyezd-1897-696","name":"Шавельский","provinceId":"gubernia-1897-13"},"geometry":{"type":"MultiPolygon","coordinates":[[[[22.62048864692955,56.3751646482278],[22.602113920273794,56.38402153086096],[22.58069877122061,56.3864009918652],[22.52954035959588,56.392349644380396],[22.487899791993673,56.399488027397624],[22.46529491243802,56.406626410415825],[22.439120841373974,56.41138533242704],[22.392721351760105,56.403057218906724],[22.36773701119942,56.405436679911844],[22.336804018123004,56.400677757900624],[22.298732642029897,56.414954523935165],[22.253522882919388,56.41376479343216],[22.235676925375305,56.406626410415825],[22.21069258481462,56.406626410415825],[22.213784694035535,56.36176671268369],[22.24590741761451,56.33202345011063],[22.267322566666806,56.310608301057094],[22.29468636823412,56.30584937904588],[22.322050169800637,56.29395207401735],[22.316101517286505,56.28324449949102],[22.33513720533306,56.27015746395958],[22.368449659414505,56.251121775912935],[22.360121545893744,56.22732716585321],[22.366070198408764,56.202342825293236],[22.38867507796433,56.19877363378325],[22.40295184399931,56.1392871086382],[22.414849149028374,56.11430276807734],[22.438643759086588,56.094077349526714],[22.43983348958906,56.03816001589077],[22.45411025562475,56.01793459734103],[22.482663787694626,56.01198594482592],[22.476715135179695,56.00008863979748],[22.44340268109825,55.9655864552133],[22.425556723554166,55.95130968917778],[22.404141574501782,55.942981575656574],[22.408900496513443,55.93465346213635],[22.427936184559996,55.937032923143335],[22.433884837074928,55.91204858258149],[22.44459241160072,55.88944370302673],[22.44697187260655,55.85256205743556],[22.511217319764413,55.85018259643035],[22.510027589261142,55.872787475985206],[22.55285788736662,55.876356667493326],[22.577842227927306,55.89420262503697],[22.688487164699037,55.872787475985206],[22.686107703692496,55.85732097944668],[22.589739532956457,55.85732097944668],[22.588549802453898,55.83352636938892],[22.521924894290205,55.83352636938892],[22.515976241776073,55.81449068134228],[22.527873546805136,55.81568041184528],[22.586170341448067,55.77998849675711],[22.577842227927306,55.768091191727784],[22.488612440208758,55.74548631217293],[22.44935133361309,55.709794397084764],[22.49099190121459,55.69908682255932],[22.494032323611105,55.68877582486766],[22.536862621715873,55.697103938387],[22.57731345881552,55.7018628603991],[22.590400494347143,55.69591420788586],[22.611815643399527,55.69472447738277],[22.63085133144608,55.68401690285556],[22.689148126089012,55.69353474687888],[22.704614622627265,55.68401690285556],[22.72246058017046,55.66379148430582],[22.77837791380765,55.6614120233007],[22.802172523865774,55.641186604751056],[22.83191578643892,55.644755796259176],[22.83905416945641,55.66855040631802],[22.850951474485473,55.68163744184946],[22.84143363046224,55.70662178241032],[22.858089857502964,55.712570434925524],[22.871176893035297,55.69234501637578],[22.911627730134235,55.70662178241032],[22.915196921643336,55.720898548445746],[22.955647758742273,55.73041639246907],[22.978252638297928,55.73160612297217],[22.98896021282372,55.72446773995583],[22.99133967382955,55.70662178241032],[23.011565092379463,55.709001243417305],[23.028221319420187,55.73636504498427],[23.059154312495803,55.73517531448029],[23.056774851489973,55.71970881794363],[23.028221319420187,55.69591420788586],[23.018703475396865,55.67568878933613],[23.085328383559848,55.68282717235246],[23.085328383559848,55.69591420788586],[23.14481490870605,55.68639636386254],[23.20192197284571,55.66617094531281],[23.234044696424686,55.651894179276496],[23.25189065396788,55.60073576765167],[23.242372809944648,55.566233583066605],[23.269736611511963,55.56147466105627],[23.29829014358175,55.5650438525636],[23.30542852659915,55.59359738463356],[23.344689633195618,55.59478711513657],[23.36015612973307,55.58288981010813],[23.389899392306127,55.59478711513657],[23.40774534985021,55.59121792362835],[23.391089122809486,55.567423313569606],[23.347069094201448,55.56861304407359],[23.332792328166555,55.566233583066605],[23.342310172189787,55.559095200050265],[23.368484243253832,55.549577356026944],[23.407818790004278,55.52567992975223],[23.441131244085813,55.51973127723703],[23.461356662635637,55.53043885176335],[23.52441237929023,55.52330046874524],[23.562483755383337,55.54828480930699],[23.58270917393316,55.54947453980999],[23.62553947203784,55.576838341376956],[23.604124322985545,55.5982534904297],[23.602934592482185,55.65060163255752],[23.62434974153537,55.658929746077746],[23.670749231148438,55.656550285072626],[23.68145680567503,55.637514597025095],[23.699302763219023,55.63513513601988],[23.711200068248175,55.59349456841848],[23.745702252832093,55.53281831276856],[23.73023575629473,55.52211073824401],[23.718338451265577,55.53638750427855],[23.68383626668086,55.53638750427855],[23.694543841207363,55.51378262472192],[23.725476834283068,55.499505858687385],[23.749271444341282,55.485229092651956],[23.89441856569702,55.498316128185266],[23.906315870726083,55.51140316371671],[23.900367218211063,55.52805939075735],[23.914643984246045,55.551854000815204],[23.917023445251875,55.578028071879956],[23.931300211286768,55.5911151074115],[23.964010456101583,55.60545062557142],[23.966389917107414,55.65422957619103],[23.980666683142307,55.66374742021435],[23.968769378113244,55.66969607272768],[23.966389917107414,55.679213916751],[23.929508271517577,55.69943933530065],[23.903334200453532,55.719664753850296],[23.861693632851413,55.718475023347295],[23.816483873740015,55.716095562342176],[23.79149953317933,55.69705987429553],[23.778412497646908,55.74583882491425],[23.766515192617845,55.78153074000242],[23.73558219954223,55.8160329245866],[23.712977319986486,55.83863780414137],[23.7403411215538,55.88979621576796],[23.73082327753057,55.896934598784384],[23.721305433507247,55.948093010410986],[23.726064355518908,55.96831842896063],[23.74510004356546,55.98616438650427],[23.766515192617845,56.015907649077235],[23.8378990227932,56.0337536066199],[23.826001717764047,56.05992767768385],[23.79625845519099,56.075394174221394],[23.806966029716783,56.100378514783145],[23.858124441342223,56.11108608930956],[23.860503902348054,56.15272665691097],[23.865262824359714,56.18009045847793],[23.917610966488514,56.21935156507422],[23.9425953070492,56.245525636139064],[23.94735422906077,56.28359701223235],[23.939026115540898,56.312150544303194],[23.935008660372983,56.334449426572036],[23.881735172297915,56.333259696069035],[23.830576760672386,56.332069965566916],[23.832956221678216,56.31660346902751],[23.790125923573537,56.31541373852539],[23.7496750864738,56.320172660537494],[23.7532442779829,56.34872619260658],[23.760382661000392,56.3689516111572],[23.738967511948008,56.37608999417353],[23.725880476415586,56.3701413416602],[23.686619369820008,56.363002958642],[23.629512305679548,56.35943376713388],[23.609286887130523,56.35348511461868],[23.575974433048277,56.34991592311056],[23.55336955349342,56.33801861808025],[23.524816021423547,56.334449426572036],[23.49626248935296,56.34039807908724],[23.42844785068671,56.363002958642],[23.43558623370491,56.374900263670526],[23.410601893143426,56.37727972467654],[23.371340786547048,56.38203864668864],[23.345166715483092,56.38203864668864],[23.32613102743645,56.37965918568352],[23.313043991904117,56.38679756869986],[23.27021369379935,56.37252080266532],[23.201209324630625,56.365382419647204],[23.1809839060808,56.37252080266532],[23.159568757028417,56.36181322813988],[23.11792818942621,56.35586457562388],[23.085805465847233,56.3582440366299],[23.060821125286548,56.36776188065322],[23.028698401707572,56.37252080266532],[23.00966271366102,56.390366760209844],[23.023939479696,56.412971639764706],[22.996443485850474,56.40609764130298],[22.969079684283958,56.41085656331419],[22.946474804728304,56.4156154853263],[22.938146691207542,56.40252844979476],[22.92505965567592,56.39776952778266],[22.910782889641027,56.40609764130298],[22.896506123606134,56.39182087526844],[22.86676286103299,56.389441414261455],[22.845347711980605,56.36921599571269],[22.812035257899158,56.36802626520969],[22.76563576828529,56.36921599571269],[22.707338973642358,56.37040572621481],[22.66926759754925,56.35255976867117],[22.640714065479376,56.36564680420359],[22.62048864692955,56.3751646482278]]]]}}]}
