{"type":"FeatureCollection","features":[{"type":"Feature","properties":{"kind":"province","id":"gubernia-1897-55","name":"Черниговская губерния"},"geometry":{"type":"MultiPolygon","coordinates":[[[[32.63114157082468,53.31928430541397],[32.60734696076665,53.31214592239665],[32.57165504567875,53.30143834787122],[32.52049663405322,53.29905888686521],[32.49194310198361,53.27169508529825],[32.47052795293132,53.24671074473641],[32.414610619294216,53.207449638141014],[32.343226789119306,53.175326914562035],[32.3289500230845,53.15034257400019],[32.29563756900244,53.14082472997687],[32.25756619290959,53.13963499947476],[32.24566888788053,53.13368634695965],[32.2504278098921,53.11821985042113],[32.23139212184493,53.113460928409914],[32.21235643379855,53.12773769444445],[32.18142344072302,53.115840389415126],[32.1659569441845,53.08490739633995],[32.11598826306269,53.07301009131062],[32.07791688696905,53.07538955231663],[32.0600709294255,53.08609712684206],[32.03627631936746,53.08847658784816],[32.011291978805716,53.07301009131062],[31.97322060271287,53.07657928281874],[31.93990814863089,53.092045779357264],[31.903026503040877,53.10394308438659],[31.826883750854396,53.11821985042113],[31.79436894872526,53.12939681365323],[31.788812374760756,53.13130688595355],[31.766207495205634,53.169378262046834],[31.745982076655455,53.19198314160258],[31.679357168492206,53.20863936864313],[31.609163068820212,53.23362370920496],[31.582988997756434,53.21577775166044],[31.556814926692567,53.2015009856259],[31.53302031663373,53.2015009856259],[31.516364089593097,53.20982909914524],[31.485431096517658,53.21101882964922],[31.45687756444725,53.21220856015134],[31.409288344331088,53.21815721266645],[31.392632117289743,53.21577775166044],[31.392632117289743,53.1955523331108],[31.390252656283913,53.181275567075275],[31.381924542763596,53.174137184058054],[31.37835535125494,53.16342960953173],[31.354560741196813,53.15153230450231],[31.35812993270556,53.13368634695965],[31.391442386786828,53.11940958092511],[31.433082954389214,53.100373892878466],[31.440221337406616,53.08966631835116],[31.45211864243559,53.07301009131062],[31.450928911932674,53.05159494225886],[31.4318932238863,53.03612844572034],[31.36764777672879,53.03969763722944],[31.303402329571373,53.04326682873766],[31.246295265431268,53.05040521175488],[31.21774173336157,53.03850790672546],[31.218931463864486,53.026610601697016],[31.277228258507506,53.00519545264437],[31.310540712588686,52.99686733912494],[31.33195586164098,52.98734949510073],[31.318868826109092,52.97664192057529],[31.297453677056797,52.97545219007131],[31.28436664152482,52.954037041018665],[31.278417989010332,52.9314321614647],[31.314109904097432,52.912396473418056],[31.343853166670755,52.91001701241116],[31.402149961312976,52.91001701241116],[31.433082954389214,52.8862224023533],[31.46520567796748,52.865996983802674],[31.502087323558293,52.862427792294554],[31.516364089593097,52.867186714306655],[31.5235024726105,52.867186714306655],[31.52826139462216,52.85409967877512],[31.518743550598927,52.83863318223669],[31.48781055752349,52.82078722469217],[31.4949489405408,52.791043962119105],[31.486620827020573,52.75535204703192],[31.486620827020573,52.73869581999138],[31.483051635511828,52.69943471339499],[31.502087323558293,52.67920929484624],[31.56157384870414,52.626861152717524],[31.57109169272737,52.60544600366488],[31.593696572282493,52.584030854613026],[31.647234444913853,52.56499516656638],[31.603214416305725,52.522164868461886],[31.6151117213355,52.50669837192345],[31.603214416305725,52.47219618733838],[31.621060373849986,52.45910915180596],[31.649613905919683,52.46029888230896],[31.685305821007493,52.42460696722266],[31.669839324468974,52.412709662193244],[31.641285792399366,52.40319181816992],[31.611542529826043,52.39962262666082],[31.607973338317297,52.37463828609907],[31.603214416305725,52.340136101515775],[31.594886302785408,52.3056339169307],[31.618680912844244,52.29611607290738],[31.6151117213355,52.28183930687284],[31.715049083580016,52.260424157820104],[31.779294530737523,52.249716583293775],[31.829263211860138,52.22592197323503],[31.8768524319763,52.21402466820659],[31.93039030460766,52.24614739178557],[31.943477340139548,52.22592197323503],[31.94585680114538,52.20093763267319],[31.926821113098914,52.181901944627526],[31.916113538572766,52.162866256580884],[31.93276976561349,52.14621002954025],[31.942287609636633,52.14621002954025],[31.944667070642463,52.13907164652302],[31.960133567180183,52.1295538024997],[31.958943836677268,52.12003595847638],[31.95061572315695,52.11289757545907],[31.956564375671437,52.10337973143575],[31.94585680114538,52.08553377389122],[31.929332766382668,52.07733785264918],[31.9031586953188,52.0904248881816],[31.871035971739648,52.10589138471826],[31.832964595646807,52.10708111522215],[31.785375375529934,52.10470165421516],[31.74016561641969,52.09161461868372],[31.709232623343453,52.08566596616852],[31.66640232523824,52.09875300170094],[31.62357202713374,52.09280434918762],[31.575982807016867,52.10351192371305],[31.528393586900084,52.10708111522215],[31.51411682086519,52.121357881256685],[31.492701671812984,52.114219498239464],[31.468907061754948,52.12849626427489],[31.441543260187455,52.145152491315436],[31.360641585989313,52.14039356930333],[31.332088053919705,52.14277303030943],[31.33089832341679,52.122547611758804],[31.314242096375356,52.11184003723426],[31.30353452184921,52.0797173136543],[31.286878294808663,52.044025398568],[31.245237727206277,52.048784320579216],[31.228581500165642,52.052353512087436],[31.207166351113436,52.07138920013496],[31.182182010552484,52.073768661140974],[31.164336053008135,52.08804542717462],[31.12745440741821,52.10470165421516],[31.088193300821654,52.10470165421516],[31.062019229757787,52.08804542717462],[31.025137584167062,52.083286505164295],[30.971599711536502,52.08566596616852],[30.940666718460264,52.083286505164295],[30.93114887443703,52.06900973912798],[30.912113186390656,52.053543242591324],[30.918061838905054,52.041645937561995],[30.894267228846306,52.01428213599415],[30.904974803373165,52.00476429197083],[30.874041810296927,51.99048752593629],[30.871662349291185,51.97859022090687],[30.858575313759207,51.977400490403866],[30.821693668168482,51.958364802357224],[30.79203977469981,51.95145198174397],[30.788470583191064,51.93360602419944],[30.81464465425493,51.92051898866791],[30.78133220017366,51.90505249212948],[30.732553249553963,51.90862168363947],[30.71827648351907,51.88125788207162],[30.684964029437,51.87530922955651],[30.679015376922514,51.85270435000166],[30.65997968887614,51.8336686619559],[30.648082383847076,51.80868432139415],[30.648082383847076,51.79678701636473],[30.640944000829673,51.78369998083231],[30.615959660267922,51.78369998083231],[30.62666723479407,51.75752590976845],[30.5933547807128,51.72302372518337],[30.564801248642393,51.70874695914883],[30.5639278344639,51.6860381904998],[30.563611518139478,51.677813966072776],[30.54814502160176,51.669485852553436],[30.51483256752049,51.68138315758276],[30.506504454000172,51.669485852553436],[30.51483256752049,51.652829625512794],[30.541006638584356,51.64569124249371],[30.53029906405821,51.61832744092773],[30.51483256752049,51.60643013589742],[30.516022298023405,51.594532830869866],[30.551714213110504,51.57668687332534],[30.567180709648223,51.521959270190536],[30.589785589204144,51.501733851641774],[30.596923972221546,51.48031870259001],[30.574319092666336,51.46842139756059],[30.574319092666336,51.439867865489745],[30.61120073825635,51.431539751970405],[30.623098043285413,51.41012460291766],[30.612390468759266,51.39346837587712],[30.607631546747694,51.3780018793386],[30.630236426302726,51.364914843806176],[30.633805617811472,51.360155921794075],[30.613580199262092,51.347068886263514],[30.57312936216342,51.3304126592211],[30.55528340461916,51.32089481519778],[30.562421787636563,51.29472074413391],[30.55528340461916,51.2828234391045],[30.531488794561124,51.2828234391045],[30.53147721830668,51.26796508435747],[30.50887233875076,51.26439589284934],[30.4981647642247,51.24892939631083],[30.507682608247844,51.23346289977239],[30.49102638120721,51.229893708264186],[30.489836650704294,51.21918613373786],[30.517200452271076,51.208478559210555],[30.52195937428265,51.191822332170005],[30.501733955733357,51.185873679655785],[30.485077728692723,51.1882531406618],[30.47080096265792,51.15613041708282],[30.463662579640516,51.12757688501286],[30.47080096265792,51.09545416143379],[30.449385813604824,51.07641847338804],[30.441057700084595,51.031208714277525],[30.466042040646347,51.00265518220756],[30.466042040646347,50.991947607681155],[30.444626891593252,50.99313733818327],[30.444626891593252,50.98005030265182],[30.451765274610654,50.97172218913062],[30.436298778072935,50.95625569259396],[30.438678239078765,50.94911730957665],[30.461283118634686,50.94435838756455],[30.46485231014343,50.92889189102611],[30.43748850857585,50.920563777506686],[30.43986796958168,50.911045933483365],[30.45402332262056,50.9032211016138],[30.48257685469097,50.90679029312193],[30.4920946987142,50.89251352708837],[30.483766585193884,50.88418541356627],[30.45640278362639,50.88537514406927],[30.442126017591498,50.87585730004595],[30.432608173568354,50.842544845964774],[30.405244372000773,50.827078349426344],[30.4004854499892,50.8092323918836],[30.412382755018974,50.79971454785938],[30.440936287088583,50.80447346987238],[30.452833592117646,50.794955625849056],[30.44450547859733,50.752125327742775],[30.455213053123476,50.73784856170824],[30.48019739368514,50.721192334667606],[30.493284429217027,50.69263880259764],[30.486146046199714,50.679551767065306],[30.46473089714662,50.67717230605921],[30.468300088655365,50.63672146896081],[30.499233081731603,50.608167936889956],[30.50042281223452,50.58318359632901],[30.519458500280894,50.553440333756036],[30.531355805309957,50.50466138313642],[30.52302769178964,50.48086677307857],[30.53611472732153,50.45707216301982],[30.555150415368793,50.43565701396797],[30.556340145871708,50.41662132592133],[30.54325311033902,50.409482942904106],[30.549201762854217,50.37854994982715],[30.575375833918084,50.35951426178051],[30.59917044397612,50.34999641775719],[30.595601252467464,50.3297709992103],[30.6122574795081,50.32382234669332],[30.622965054034957,50.327391538203315],[30.644380203087163,50.317873694179994],[30.644380203087163,50.29169962311603],[30.662226160630713,50.27742285707972],[30.683641309683008,50.271474204567276],[30.701487267227268,50.263146091045186],[30.731802919059692,50.28071157341036],[30.81865324577232,50.32116241051063],[30.857914352368788,50.33781863755118],[30.90074465047329,50.365182439119025],[30.987594977186717,50.405633276217515],[31.022097161770812,50.425858694766276],[31.058978807361626,50.46036087935135],[31.092291261442806,50.46155060985346],[31.12917290703362,50.4437046523108],[31.16486482212063,50.456791687843136],[31.172101660163943,50.459203967190255],[31.179141588155435,50.46155060985346],[31.239817843804286,50.48296575890709],[31.27432002838918,50.49962198594764],[31.31477086548785,50.502001446953734],[31.346893589066916,50.519847404496396],[31.375447121136613,50.531744709526706],[31.42184661075057,50.53888309254401],[31.425415802259316,50.519847404496396],[31.448020681814437,50.52103713499949],[31.483712596902247,50.53531390103491],[31.521783972995088,50.528175518017605],[31.56223481009456,50.52103713499949],[31.581270498141023,50.52460632650948],[31.59792672518157,50.53769336204003],[31.616962413228833,50.56029824159667],[31.633618640269468,50.569816085619095],[31.655033789321674,50.567436624613975],[31.670500285859394,50.562677702601874],[31.710378289753727,50.56593947302008],[31.763916162385087,50.5647497425161],[31.781762119928636,50.58854435257582],[31.837679453565826,50.64089249470365],[31.86742271613835,50.63970276419967],[31.891217326197097,50.66706656576751],[31.919770858266794,50.6979995588426],[31.94118600731909,50.680153601299935],[31.99472387995045,50.694430367334476],[32.01375956799683,50.694430367334476],[32.049451483084724,50.72060443839834],[32.07681528465142,50.77652177203615],[32.101799625213076,50.77533204153226],[32.15652722834665,50.77057311952193],[32.22434186701281,50.82173153114577],[32.242187824557064,50.840767219192415],[32.27431054813551,50.83838775818641],[32.29810515819346,50.832439105673075],[32.329038151269785,50.834818566679175],[32.417078208485236,50.85385425472484],[32.47537500312826,50.86218236824516],[32.5277231452567,50.85980290723906],[32.57174317386412,50.841956949696396],[32.595537783922865,50.82411099215187],[32.626470776998396,50.81816233963853],[32.671680536109434,50.825300722655854],[32.69904433767613,50.840767219192415],[32.71332110371094,50.85980290723906],[32.75615140181624,50.86218236824516],[32.80017143042436,50.87288994277148],[32.86917579959344,50.88121805629268],[32.919144480715346,50.88359751729878],[32.96078504831773,50.87526940377758],[33.001235885416314,50.85623371573138],[33.043635334615814,50.889604921936524],[33.097173207246286,50.89674330495384],[33.13762404434567,50.89079465243962],[33.18759272546819,50.902691957469834],[33.209007874520665,50.92291737601771],[33.218525718543724,50.95147090808767],[33.27087386067261,50.949091447081656],[33.32084254179425,50.975265518146415],[33.360103648390535,50.974075787643415],[33.396985293981174,50.99430120619404],[33.39817502448436,51.00738824172459],[33.42315936504558,51.0180958162518],[33.45885128013232,51.00500878071947],[33.49573292572305,50.997870397703046],[33.50096676073403,51.02799554907686],[33.48074134218394,51.047031237123505],[33.48787972520134,51.06963611667925],[33.48431053369259,51.07915396070257],[33.470033767657796,51.08629234371979],[33.46289538464039,51.106517762270414],[33.44504942709684,51.127932911322176],[33.408167781506116,51.14577886886671],[33.38556290195099,51.17076320942668],[33.36057856139004,51.185039975463084],[33.33083529881672,51.190988627977305],[33.28443580920356,51.19693728049241],[33.277297426185356,51.22073189055027],[33.28919473121513,51.23262919557969],[33.31417907177608,51.226680543065385],[33.32131745479357,51.218352429544176],[33.386752632453906,51.218352429544176],[33.3998396679858,51.23381892608269],[33.38080397993942,51.25523407513535],[33.37485532742485,51.276649224187196],[33.36176829189296,51.280218415695316],[33.34749152585735,51.3171000612856],[33.351060717366096,51.353981706876766],[33.417685625529344,51.352791976372785],[33.48668999469842,51.356361167882866],[33.535468945318215,51.334946018830124],[33.62231927203084,51.361120089893994],[33.604473314487294,51.370637933917315],[33.59614520096697,51.38015577794064],[33.583058165435,51.39443254397517],[33.62945765504824,51.39443254397517],[33.66514957013605,51.39919146598728],[33.68894418019409,51.40751957950849],[33.71630798176167,51.42179634554302],[33.740102591819706,51.432503920068456],[33.79364046445098,51.444401225098765],[33.840039954064224,51.44797041660698],[33.83409130154965,51.428934728560336],[33.850747528591086,51.420606615039134],[33.86502429462589,51.422986076045134],[33.890008635186845,51.42179634554302],[33.90547513172456,51.427744998056355],[33.92570055027474,51.432503920068456],[33.97566923139655,51.419416884537014],[33.993515188940904,51.434883381075444],[33.991135727935074,51.44321149459488],[33.98280761441404,51.4491601471091],[33.98280761441404,51.46462664364752],[33.999463841455395,51.48128287068816],[33.99708438044965,51.49436990622049],[33.98280761441404,51.501508289237805],[33.988756266929244,51.51578505527323],[33.98518707542058,51.53957966533109],[34.01374060749019,51.55385643136563],[34.00898168547862,51.566943466898934],[34.0220687210106,51.5907380769568],[34.048242792074376,51.60501484299134],[34.03158656503375,51.62999918355308],[34.03872494805115,51.649034871599724],[34.08036551565353,51.66807055964637],[34.12795473577032,51.68591651718903],[34.199338565945226,51.70019328322543],[34.22551263700909,51.69781382221934],[34.24216886404973,51.70376247473267],[34.283809431652024,51.69662409171545],[34.29927592818983,51.71803924076809],[34.35519326182693,51.71328031875599],[34.40040302093726,51.71565977976209],[34.42308627563298,51.724535835948046],[34.42776682250476,51.7263673542893],[34.4313360140135,51.737074928815716],[34.42895655300767,51.75611061686236],[34.40992086496121,51.77395657440502],[34.40754140395546,51.79299226245166],[34.40992086496121,51.803699836977984],[34.41111059546412,51.80845875899009],[34.40397221244672,51.810838219996185],[34.39088517691403,51.83344309955193],[34.36471110585016,51.84771986558647],[34.32069107724204,51.884601511175774],[34.27191212662305,51.85485824860369],[34.250496977570045,51.84177121307127],[34.18030287789805,51.85009932659248],[34.114867700237625,51.8596171706158],[34.086314168168016,51.885791241679755],[34.155318537337095,51.89887827721218],[34.14699042381678,51.91434477374874],[34.11605743074054,51.95955453286112],[34.13152392727906,51.98572860392507],[34.117247161243455,52.00833348347895],[34.09226282068259,52.02736917152559],[34.037535217548324,52.047594590075235],[33.99232545843799,52.06187135611076],[33.9649616568705,52.07733785264918],[33.93878758580663,52.07495839164309],[33.91261351474205,52.0797173136543],[33.90071620971299,52.09756327119883],[33.94222458503745,52.117656497470286],[33.9672089255984,52.14502029903636],[34.007659762697784,52.117656497470286],[34.05524898281386,52.114087305961185],[34.10402793343364,52.1152770364633],[34.11711496896554,52.1295538024997],[34.10759712494239,52.14621002954025],[34.0861819758901,52.15929706507267],[34.07071547935237,52.170004639598105],[34.06357709633417,52.19855817166807],[34.04811059979646,52.20569655468539],[34.013608415212275,52.21878359021772],[33.99100353565635,52.23900900876647],[33.963639734089654,52.25566523580889],[33.95293215956351,52.2996852644155],[33.92080943598435,52.31515176095402],[33.87678940737703,52.31396203045004],[33.86370237184505,52.325859335479464],[33.85775371932985,52.35679232855641],[33.84228722279214,52.37106909459086],[33.79112881116731,52.37701774710605],[33.73045255551855,52.36749990308273],[33.70665794545972,52.37820747760817],[33.68286333540168,52.360361520065425],[33.64122276779929,52.34846421503521],[33.618617888244174,52.34132583201789],[33.581736242654245,52.335377179503666],[33.56626974611573,52.323479874473364],[33.6067205832152,52.328238796486445],[33.66858656936679,52.322290143971244],[33.661448186349475,52.30801337793671],[33.63646384578772,52.30206472542249],[33.60196166120354,52.2996852644155],[33.57578759013896,52.27470092385464],[33.52700863951998,52.27945984586675],[33.45919400085372,52.28064957636886],[33.44015831280734,52.2973058034095],[33.441348043310256,52.31158256944581],[33.462763192362466,52.31277229994792],[33.458004270350806,52.329428526988565],[33.467522114374034,52.342515562520006],[33.469901575379865,52.36512044207575],[33.4651426533683,52.38772532163149],[33.45443507884215,52.411519931689355],[33.43777885180151,52.41508912319934],[33.41041505023402,52.44245292476532],[33.4151739722456,52.45672969079986],[33.4151739722456,52.46981672633228],[33.3949485536963,52.46743726532716],[33.37948205715858,52.47338591784227],[33.37591286564984,52.492421605888026],[33.37829232665567,52.52097513795799],[33.403276667216616,52.53168271248521],[33.39137936218756,52.54714920902185],[33.38424097917016,52.561425975056395],[33.38899990118173,52.58997950712636],[33.42826100777748,52.609015195173],[33.43777885180151,52.633999535734844],[33.477039958397356,52.656604415290495],[33.50202429895822,52.65898387629659],[33.51511133449091,52.66969145082292],[33.50678322096988,52.67801956434235],[33.469901575379865,52.68515794736046],[33.431830199286225,52.69348606088077],[33.431830199286225,52.70657309641231],[33.44967615683058,52.7113320184253],[33.49131672443217,52.712521748927415],[33.48893726342634,52.7446444725056],[33.44610696532183,52.7446444725056],[33.41279451123977,52.75178285552282],[33.385430709673074,52.75773150803802],[33.38899990118173,52.78985423161699],[33.37472313514692,52.808889919663635],[33.34141068106494,52.826735877208165],[33.35092852508818,52.85053048726602],[33.36401556062006,52.864807253300555],[33.400897206210786,52.85409967877512],[33.41874316375434,52.85528940927723],[33.424691816268826,52.84696129575603],[33.484178341414676,52.84934075676213],[33.534147022537375,52.874325097323876],[33.560321093601246,52.881463480341196],[33.55913136309833,52.89098132436452],[33.57697732064187,52.89811970738174],[33.60910004422094,52.90168889889173],[33.62337681025575,52.865996983802674],[33.656689264337814,52.873135366821764],[33.69000171841908,52.864807253300555],[33.74472932155336,52.89098132436452],[33.72569363350689,52.90882728190904],[33.69000171841908,52.91715539542838],[33.70665794545972,52.938570544482005],[33.73878066903878,52.952847310515565],[33.77685204513171,52.97664192057529],[33.78874935016148,52.95165758001345],[33.818492612734005,52.95165758001345],[33.844666683797875,52.96831380705409],[33.877979137879855,52.98497003409463],[33.9101018614583,53.01471329666769],[33.892255903914744,53.034938715218225],[33.864892102347966,53.034938715218225],[33.82206180424275,53.019472218679795],[33.81968234323692,53.04683602024578],[33.80064665519055,53.0706306303055],[33.773282853622966,53.0706306303055],[33.74472932155336,53.0575435947721],[33.711416867471286,53.04207709823554],[33.69238117942491,53.04207709823554],[33.629325462770325,53.07895874382484],[33.59125408667748,53.09323550986116],[33.62575627126158,53.11465065891301],[33.64955088132041,53.13725553846777],[33.674535221881364,53.14439392148509],[33.654309803331984,53.16105014852563],[33.66858656936679,53.186034489087476],[33.69714010143649,53.1931728721047],[33.71736551998586,53.20982909914524],[33.7328320165243,53.20982909914524],[33.73521147753013,53.21934694316856],[33.71736551998586,53.21934694316856],[33.691191448922,53.216967482164335],[33.665017377858135,53.23243397870098],[33.64122276779929,53.22410586518164],[33.587684895168735,53.23600317021098],[33.48774753292342,53.255038858256725],[33.45086588733349,53.260987510770946],[33.44610696532183,53.27526427680549],[33.424691816268826,53.29429996485213],[33.37829232665567,53.28240265982458],[33.3949485536963,53.26693616328615],[33.37710259615275,53.258608049764945],[33.327133915030046,53.252659397251605],[33.30690849648076,53.2395723617183],[33.2533706238494,53.23481343970708],[33.246232240832,53.21458802115832],[33.28430361692484,53.21339829065434],[33.31523661000108,53.207449638141014],[33.28430361692484,53.182465297579256],[33.25099116284357,53.17056799254895],[33.209350595241276,53.17056799254895],[33.165330566633855,53.15748095701751],[33.11774134651698,53.16105014852563],[33.08204943142917,53.178896106070155],[33.02018344527829,53.2383826312152],[33.010496639835274,53.24066187955558],[32.99995802672821,53.243141553228284],[32.959507189629534,53.23005451769586],[32.91191796951266,53.23005451769586],[32.88455416794588,53.255038858256725],[32.82387791229712,53.257418319262825],[32.77747842268316,53.24671074473641],[32.74654542960772,53.268125893788266],[32.698956209490845,53.26217724127493],[32.66445402490595,53.268125893788266],[32.66683348591249,53.28478212082881],[32.658505372391375,53.29667942585823],[32.63114157082468,53.31928430541397]]]]}},{"type":"Feature","properties":{"kind":"district","id":"uyezd-1897-239","name":"Остерский","provinceId":"gubernia-1897-55"},"geometry":{"type":"MultiPolygon","coordinates":[[[[31.172101660163943,50.459203967190255],[31.157858631381153,50.48032294090265],[31.16618674490147,50.493409976434094],[31.178084049931243,50.510066203474736],[31.17094566691384,50.53743000504258],[31.17927378043416,50.54337865755769],[31.17927378043416,50.55289650158101],[31.159048361884068,50.56360407610734],[31.15072024836375,50.5921576081773],[31.122166716294053,50.59572679968551],[31.101941297744762,50.64093655879513],[31.085285070703417,50.68257712639752],[31.08766453170916,50.71351011947358],[31.085285070703417,50.74444311255044],[31.101941297744762,50.75871987858498],[31.106700219756334,50.77894529713373],[31.086474801206244,50.79560152417437],[31.07933641818884,50.815826942724016],[31.057921269136635,50.82415505624522],[31.04364450310183,50.84081128328577],[31.029367737066227,50.8538983188173],[31.02341908455165,50.883641581390265],[31.022229354048736,50.93717945402207],[31.031747198072768,50.98119948262958],[31.08171587919467,51.047824390792826],[31.088854262212074,51.07399846185669],[31.078146687685926,51.119208220968176],[31.082905609697587,51.1656077105808],[31.104320758750593,51.26792453383311],[31.075767226680096,51.27744237785643],[31.040075311593085,51.28458076087374],[30.96988121192109,51.30004725741128],[30.867564388669944,51.32384186746914],[30.836631395594505,51.32503159797214],[30.767627026425426,51.3131342929437],[30.684345891221454,51.33335971149246],[30.613580199262092,51.347068886263514],[30.57312936216342,51.3304126592211],[30.55528340461916,51.32089481519778],[30.562421787636563,51.29472074413391],[30.55528340461916,51.2828234391045],[30.531488794561124,51.2828234391045],[30.53147721830668,51.26796508435743],[30.50887233875076,51.26439589284931],[30.4981647642247,51.248929396310785],[30.507682608247844,51.23346289977236],[30.49102638120721,51.22989370826414],[30.489836650704294,51.21918613373782],[30.517200452271076,51.20847855921052],[30.52195937428265,51.19182233216998],[30.501733955733357,51.18587367965576],[30.485077728692723,51.18825314066176],[30.47080096265792,51.156130417082785],[30.463662579640516,51.12757688501282],[30.47080096265792,51.09545416143376],[30.449385813604824,51.076418473388],[30.441057700084595,51.0312087142775],[30.466042040646347,51.00265518220753],[30.466042040646347,50.99194760768111],[30.444626891593252,50.99313733818323],[30.444626891593252,50.98005030265179],[30.451765274610654,50.97172218913058],[30.436298778072935,50.95625569259393],[30.438678239078765,50.949117309576614],[30.461283118634686,50.944358387564506],[30.46485231014343,50.92889189102608],[30.43748850857585,50.92056377750665],[30.43986796958168,50.91104593348333],[30.454023322620515,50.90322110161378],[30.48257685469099,50.90679029312196],[30.492094698714197,50.89251352708834],[30.483766585193848,50.88418541356623],[30.456402783626345,50.88537514406926],[30.442126017591534,50.875857300045936],[30.432608173568326,50.84254484596477],[30.405244372000766,50.8270783494263],[30.400485449989162,50.8092323918836],[30.412382755018996,50.79971454785937],[30.44093628708862,50.80447346987239],[30.452833592117656,50.79495562584907],[30.444505478597307,50.75212532774276],[30.45521305312343,50.73784856170823],[30.48019739368516,50.72119233466765],[30.493284429217056,50.692638802597685],[30.48614604619968,50.67955176706528],[30.464730897146637,50.67717230605922],[30.468300088655383,50.636721468960786],[30.499233081731575,50.60816793688991],[30.50042281223449,50.583183596329036],[30.519458500280905,50.55344033375604],[30.531355805309943,50.50466138313641],[30.52302769178965,50.48086677307856],[30.536114727321547,50.4570721630198],[30.555150415368757,50.43565701396801],[30.556340145871673,50.41662132592137],[30.54325311033898,50.409482942904106],[30.54920176285424,50.378549949827175],[30.575375833918088,50.35951426178053],[30.599170443976107,50.34999641775721],[30.595601252467418,50.32977099921027],[30.61225747950806,50.323822346693305],[30.622965054034978,50.3273915382033],[30.644380203087167,50.31787369417998],[30.644380203087167,50.291699623116074],[30.662226160630723,50.27742285707973],[30.68364130968297,50.27147420456731],[30.701487267227265,50.2631460910452],[30.731802919059692,50.28071157341036],[30.81865324577232,50.32116241051063],[30.857914352368788,50.33781863755118],[30.90074465047329,50.365182439119025],[30.987594977186717,50.405633276217515],[31.022097161770812,50.425858694766276],[31.058978807361626,50.46036087935135],[31.092291261442806,50.46155060985346],[31.12917290703362,50.4437046523108],[31.16486482212063,50.456791687843136],[31.172101660163943,50.459203967190255]]]]}},{"type":"Feature","properties":{"kind":"district","id":"uyezd-1897-242","name":"Козелецкий","provinceId":"gubernia-1897-55"},"geometry":{"type":"MultiPolygon","coordinates":[[[[31.837679453565826,50.64089249470365],[31.825826212629405,50.653230440659215],[31.794893219553167,50.67940451172308],[31.73064777239566,50.731752653851785],[31.693766126805734,50.744839689383326],[31.69495585730865,50.79242890950081],[31.665212594735326,50.83525920760532],[31.597397956069162,50.86381273967528],[31.564085501987893,50.86738193118438],[31.515306551368106,50.87571004470372],[31.492701671812984,50.94828360538217],[31.5010297853333,51.00063174751088],[31.502219515836217,51.042272315113266],[31.51649628187102,51.08272315221167],[31.52720385639717,51.126743180820064],[31.522444934385508,51.17314267043278],[31.49865032432747,51.208834585519966],[31.481994097286837,51.24333677010601],[31.466527600749117,51.29330545122774],[31.44035352968454,51.30401302575318],[31.414179458620673,51.3135308697765],[31.373728621521202,51.30044383424506],[31.336846975931277,51.277838954689315],[31.273791259276685,51.26951084116988],[31.161956592002394,51.267131380162894],[31.104320758750593,51.26792453383311],[31.082905609697587,51.1656077105808],[31.078146687685926,51.119208220968176],[31.088854262212074,51.07399846185669],[31.08171587919467,51.047824390792826],[31.031747198072768,50.98119948262958],[31.022229354048736,50.93717945402207],[31.02341908455165,50.883641581390265],[31.029367737066227,50.8538983188173],[31.04364450310183,50.84081128328577],[31.057921269136635,50.82415505624522],[31.07933641818884,50.815826942724016],[31.086474801206244,50.79560152417437],[31.106700219756334,50.77894529713373],[31.101941297744762,50.75871987858498],[31.085285070703417,50.74444311255044],[31.08766453170916,50.71351011947358],[31.085285070703417,50.68257712639752],[31.101941297744762,50.64093655879513],[31.122166716294053,50.59572679968551],[31.15072024836375,50.5921576081773],[31.159048361884068,50.56360407610734],[31.17927378043416,50.55289650158101],[31.17927378043416,50.54337865755769],[31.17094566691384,50.53743000504258],[31.178084049931243,50.510066203474736],[31.16618674490147,50.493409976434094],[31.157858631381153,50.48032294090265],[31.172101660163943,50.459203967190255],[31.179141588155435,50.46155060985346],[31.239817843804286,50.48296575890709],[31.27432002838918,50.49962198594764],[31.31477086548785,50.502001446953734],[31.346893589066916,50.519847404496396],[31.375447121136613,50.531744709526706],[31.42184661075057,50.53888309254401],[31.425415802259316,50.519847404496396],[31.448020681814437,50.52103713499949],[31.483712596902247,50.53531390103491],[31.521783972995088,50.528175518017605],[31.56223481009456,50.52103713499949],[31.581270498141023,50.52460632650948],[31.59792672518157,50.53769336204003],[31.616962413228833,50.56029824159667],[31.633618640269468,50.569816085619095],[31.655033789321674,50.567436624613975],[31.670500285859394,50.562677702601874],[31.710378289753727,50.56593947302008],[31.763916162385087,50.5647497425161],[31.781762119928636,50.58854435257582],[31.837679453565826,50.64089249470365]]]]}},{"type":"Feature","properties":{"kind":"district","id":"uyezd-1897-243","name":"Нежинский","provinceId":"gubernia-1897-55"},"geometry":{"type":"MultiPolygon","coordinates":[[[[31.837679453565826,50.64089249470365],[31.86742271613835,50.63970276419967],[31.891217326197097,50.66706656576751],[31.919770858266794,50.6979995588426],[31.94118600731909,50.680153601299935],[31.99472387995045,50.694430367334476],[32.01375956799683,50.694430367334476],[32.049451483084724,50.72060443839834],[32.07681528465142,50.77652177203615],[32.101799625213076,50.77533204153226],[32.15652722834665,50.77057311952193],[32.22434186701281,50.82173153114577],[32.242187824557064,50.840767219192415],[32.23866269714105,50.85429489565196],[32.23866269714105,50.87808950570982],[32.23985242764397,50.91497115130001],[32.24104215814688,50.93162737834243],[32.2208167395967,51.001821478013],[32.18393509400678,51.03156474058685],[32.175606980486464,51.054169620142595],[32.18393509400678,51.08034369120655],[32.10184368930581,51.09581018774311],[32.06139285220634,51.14577886886671],[32.056633930194764,51.208834585519966],[32.04354689466279,51.23024973457359],[32.01856255410112,51.23738811759082],[31.988819291528603,51.26594164966078],[31.975732255996625,51.30282329525106],[31.944799262920387,51.32542817480592],[31.912676539342034,51.35160224587067],[31.85794893620776,51.35160224587067],[31.819877560114918,51.35041251536856],[31.74611426893418,51.34208440184646],[31.673540708256354,51.3278076358129],[31.630710410151142,51.31472060028048],[31.5010297853333,51.3159103307826],[31.474855714269435,51.30163356474895],[31.466527600749117,51.29330545122774],[31.481994097286837,51.24333677010601],[31.49865032432747,51.208834585519966],[31.522444934385508,51.17314267043278],[31.52720385639717,51.126743180820064],[31.51649628187102,51.08272315221167],[31.502219515836217,51.042272315113266],[31.5010297853333,51.00063174751088],[31.492701671812984,50.94828360538217],[31.515306551368106,50.87571004470372],[31.564085501987893,50.86738193118438],[31.597397956069162,50.86381273967528],[31.665212594735326,50.83525920760532],[31.69495585730865,50.79242890950081],[31.693766126805734,50.744839689383326],[31.73064777239566,50.731752653851785],[31.794893219553167,50.67940451172308],[31.825826212629405,50.653230440659215],[31.837679453565826,50.64089249470365]]]]}},{"type":"Feature","properties":{"kind":"district","id":"uyezd-1897-244","name":"Борзнянский","provinceId":"gubernia-1897-55"},"geometry":{"type":"MultiPolygon","coordinates":[[[[32.76690304043494,51.39919146598728],[32.73002139484501,51.40276065749638],[32.693139749254286,51.415847693027914],[32.6300840325997,51.43607311157756],[32.58368454298653,51.44559095560088],[32.52181855683486,51.43607311157756],[32.45281418766578,51.426555267554235],[32.382620087993786,51.422986076045134],[32.35168709491755,51.414657962525794],[32.32551302385368,51.40038119648939],[32.273164881725236,51.39324281347306],[32.24699081066137,51.37420712542553],[32.23271404462656,51.38372496944885],[32.222006470099615,51.38015577794064],[32.22319620060253,51.36825847291131],[32.18631455501261,51.36468928140221],[32.098274497797064,51.345653593355564],[32.00071659655758,51.346843323859545],[31.912676539342034,51.35160224587067],[31.944799262920387,51.32542817480592],[31.975732255996625,51.30282329525106],[31.988819291528603,51.26594164966078],[32.01856255410112,51.23738811759082],[32.04354689466279,51.23024973457359],[32.056633930194764,51.208834585519966],[32.06139285220634,51.14577886886671],[32.10184368930581,51.09581018774311],[32.18393509400678,51.08034369120655],[32.175606980486464,51.054169620142595],[32.18393509400678,51.03156474058685],[32.2208167395967,51.001821478013],[32.24104215814688,50.93162737834243],[32.23985242764397,50.91497115130001],[32.23866269714105,50.87808950570982],[32.23866269714105,50.85429489565196],[32.242187824557064,50.840767219192415],[32.27431054813551,50.83838775818641],[32.29810515819346,50.832439105673075],[32.329038151269785,50.834818566679175],[32.417078208485236,50.85385425472484],[32.47537500312826,50.86218236824516],[32.5277231452567,50.85980290723906],[32.57174317386412,50.841956949696396],[32.595537783922865,50.82411099215187],[32.626470776998396,50.81816233963853],[32.671680536109434,50.825300722655854],[32.69904433767613,50.840767219192415],[32.71332110371094,50.85980290723906],[32.75615140181624,50.86218236824516],[32.80017143042436,50.87288994277148],[32.7859387284814,50.91021222928889],[32.76571330993211,50.980406328961145],[32.718124089815234,51.07915396070257],[32.71217543730066,51.11722533679674],[32.720503550821064,51.16005563490124],[32.7359700473595,51.24809569211625],[32.749057082891476,51.3218589832977],[32.76690304043494,51.39919146598728]]]]}},{"type":"Feature","properties":{"kind":"district","id":"uyezd-1897-245","name":"Конотопский","provinceId":"gubernia-1897-55"},"geometry":{"type":"MultiPolygon","coordinates":[[[[32.80017143042436,50.87288994277148],[32.86917579959344,50.88121805629268],[32.919144480715346,50.88359751729878],[32.96078504831773,50.87526940377758],[33.001235885416314,50.85623371573094],[33.04363533461583,50.88960492193655],[33.09717320724627,50.896743304953816],[33.13762404434567,50.89079465243958],[33.187592725468164,50.90269195746987],[33.20900787452064,50.92291737601772],[33.21852571854373,50.951470908087686],[33.270873860672566,50.94909144708163],[33.32084254179426,50.97526551814644],[33.36010364839052,50.974075787643415],[33.396985293981174,50.994301206193995],[33.398175024484374,51.007388241724584],[33.42315936504559,51.018095816251844],[33.45885128013231,51.005008780719436],[33.49573292572296,50.99787039770217],[33.50096676073403,51.02799554907686],[33.48074134218394,51.047031237123505],[33.48787972520134,51.06963611667925],[33.48431053369259,51.07915396070257],[33.470033767657796,51.08629234371979],[33.46289538464039,51.106517762270414],[33.44504942709684,51.127932911322176],[33.408167781506116,51.14577886886671],[33.38556290195099,51.17076320942668],[33.36057856139004,51.185039975463084],[33.33083529881672,51.190988627977305],[33.28443580920356,51.19693728049241],[33.277297426185356,51.22073189055027],[33.28919473121513,51.23262919557969],[33.31417907177608,51.226680543065385],[33.32131745479357,51.218352429544176],[33.386752632453906,51.218352429544176],[33.3998396679858,51.23381892608269],[33.38080397993942,51.25523407513535],[33.37485532742485,51.276649224187196],[33.36176829189296,51.280218415695316],[33.34749152585735,51.3171000612856],[33.351060717366096,51.353981706876766],[33.417685625529344,51.352791976372785],[33.48668999469842,51.356361167882866],[33.535468945318215,51.334946018830124],[33.62231927203084,51.361120089893994],[33.604473314487294,51.370637933917315],[33.59614520096697,51.38015577794064],[33.583058165435,51.39443254397517],[33.550935441855934,51.39681200498127],[33.531899753809554,51.39681200498127],[33.52476137079206,51.40395038799849],[33.502156491236946,51.40989904051271],[33.470033767657796,51.40157092699249],[33.44029050508527,51.414657962525794],[33.41173697301486,51.41108877101581],[33.392701284968396,51.415847693027914],[33.37009640541328,51.40751957950849],[33.35344017837264,51.41346823202181],[33.315368802278996,51.39800173548517],[33.27015904316796,51.362309820396106],[33.2237595535548,51.33018709681891],[33.18687790796399,51.33256655782314],[33.17617033343792,51.340894671344344],[33.164273028408864,51.32542817480592],[33.1250119218124,51.33375628832712],[33.069094588175204,51.3278076358129],[33.05481782214041,51.352791976372785],[33.00722860202424,51.357550898384986],[32.92989611933413,51.40157092699249],[32.82638956558087,51.40632984900459],[32.79069765049306,51.43369365057244],[32.772851692949516,51.415847693027914],[32.76690304043494,51.39919146598728],[32.749057082891476,51.3218589832977],[32.7359700473595,51.24809569211625],[32.720503550821064,51.16005563490124],[32.71217543730066,51.11722533679674],[32.718124089815234,51.07915396070257],[32.76571330993211,50.980406328961145],[32.7859387284814,50.91021222928889],[32.80017143042436,50.87288994277148]]]]}},{"type":"Feature","properties":{"kind":"district","id":"uyezd-1897-246","name":"Черниговский","provinceId":"gubernia-1897-55"},"geometry":{"type":"MultiPolygon","coordinates":[[[[31.466527600749117,51.29330545122774],[31.474855714269435,51.30163356474895],[31.5010297853333,51.3159103307826],[31.630710410151142,51.31472060028048],[31.673540708256354,51.3278076358129],[31.74611426893418,51.34208440184646],[31.819877560114918,51.35041251536856],[31.85794893620776,51.35160224587067],[31.912676539342034,51.35160224587067],[31.897210042804314,51.36706874240831],[31.881743546266595,51.38967362196396],[31.85794893620776,51.40157092699249],[31.84962082268744,51.422986076045134],[31.825826212629405,51.422986076045134],[31.8115494465946,51.43369365057244],[31.821067290617833,51.4574882606303],[31.835344056652637,51.49318017571838],[31.872225702242563,51.566943466898934],[31.894830581798484,51.62524026154187],[31.915056000347864,51.65498352411484],[31.846051631178785,51.651414332605825],[31.79132402804451,51.658552715623046],[31.73302723340149,51.666880829142386],[31.62595148813957,51.663311637634266],[31.52958331740371,51.669260290148486],[31.48913248030424,51.662121907132146],[31.462958409240372,51.64784514109574],[31.44035352968454,51.64070675807852],[31.373728621521202,51.67045002065149],[31.32613940140513,51.69067543920211],[31.291637216820234,51.69662409171545],[31.15005928697333,51.69543436121333],[31.095331683839056,51.69662409171545],[31.065588421266533,51.70495220523665],[31.04060408070558,51.70614193573877],[31.02037866215549,51.69543436121333],[30.989445669079963,51.69186516970423],[30.937097526951607,51.693054900208125],[30.881180193314417,51.68710624769213],[30.815745015653995,51.68234732568091],[30.770535256543752,51.67996786467481],[30.726515227935625,51.684726786686916],[30.692013043351352,51.69662409171545],[30.655131397760716,51.69662409171545],[30.58255783708289,51.68234732568091],[30.5639278344639,51.686038190499836],[30.563611518139478,51.677813966072776],[30.54814502160176,51.669485852553436],[30.51483256752049,51.68138315758276],[30.506504454000172,51.669485852553436],[30.51483256752049,51.652829625512794],[30.541006638584356,51.64569124249371],[30.53029906405821,51.61832744092773],[30.51483256752049,51.60643013589742],[30.516022298023405,51.594532830869866],[30.551714213110504,51.57668687332534],[30.567180709648223,51.521959270190536],[30.589785589204144,51.501733851641774],[30.596923972221546,51.48031870259001],[30.574319092666336,51.46842139756059],[30.574319092666336,51.439867865489745],[30.61120073825635,51.431539751970405],[30.623098043285413,51.41012460291766],[30.612390468759266,51.39346837587712],[30.607631546747694,51.3780018793386],[30.630236426302726,51.364914843806176],[30.633805617811472,51.360155921794075],[30.613580199262092,51.347068886263514],[30.684345891221454,51.33335971149246],[30.767627026425426,51.3131342929437],[30.836631395594505,51.32503159797214],[30.867564388669944,51.32384186746914],[30.96988121192109,51.30004725741128],[31.040075311593085,51.28458076087374],[31.075767226680096,51.27744237785643],[31.104320758750593,51.26792453383311],[31.161956592002394,51.267131380162894],[31.273791259276685,51.26951084116988],[31.336846975931277,51.277838954689315],[31.373728621521202,51.30044383424506],[31.414179458620673,51.3135308697765],[31.44035352968454,51.30401302575318],[31.466527600749117,51.29330545122774]]]]}},{"type":"Feature","properties":{"kind":"district","id":"uyezd-1897-247","name":"Городнянский","provinceId":"gubernia-1897-55"},"geometry":{"type":"MultiPolygon","coordinates":[[[[30.5639278344639,51.686038190499836],[30.58255783708289,51.68234732568091],[30.655131397760716,51.69662409171545],[30.692013043351352,51.69662409171545],[30.726515227935625,51.684726786686916],[30.770535256543752,51.67996786467481],[30.815745015653995,51.68234732568091],[30.881180193314417,51.68710624769213],[30.937097526951607,51.693054900208125],[30.989445669079963,51.69186516970423],[31.02037866215549,51.69543436121333],[31.04060408070558,51.70614193573877],[31.065588421266533,51.70495220523665],[31.095331683839056,51.69662409171545],[31.15005928697333,51.69543436121333],[31.291637216820234,51.69662409171545],[31.32613940140513,51.69067543920211],[31.373728621521202,51.67045002065149],[31.44035352968454,51.64070675807852],[31.462958409240372,51.64784514109574],[31.48913248030424,51.662121907132146],[31.52958331740371,51.669260290148486],[31.62595148813957,51.663311637634266],[31.73302723340149,51.666880829142386],[31.79132402804451,51.658552715623046],[31.846051631178785,51.651414332605825],[31.915056000347864,51.65498352411484],[31.944799262920387,51.68115759517879],[31.95193764593859,51.737074928815716],[31.966214411973393,51.7691976523938],[31.995957674545917,51.806079297984084],[32.024511206616324,51.83463283005405],[32.024511206616324,51.84653013508249],[32.031649589633815,51.85723770960979],[32.01499336259238,51.92981127028726],[31.991198752534345,52.01666159700015],[31.975732255996625,52.039266476555895],[31.957886298453076,52.048784320579216],[31.928143035879753,52.049974051081335],[31.89839977330723,52.048784320579216],[31.89839977330723,52.05949189510466],[31.929332766382668,52.07733785264918],[31.9031586953188,52.0904248881816],[31.871035971739648,52.10589138471826],[31.832964595646807,52.10708111522215],[31.785375375529934,52.10470165421516],[31.74016561641969,52.09161461868372],[31.709232623343453,52.08566596616852],[31.66640232523824,52.09875300170094],[31.62357202713374,52.09280434918762],[31.575982807016867,52.10351192371305],[31.528393586900084,52.10708111522215],[31.51411682086519,52.121357881256685],[31.492701671812984,52.114219498239464],[31.468907061754948,52.12849626427489],[31.441543260187455,52.145152491315436],[31.360641585989313,52.14039356930333],[31.332088053919705,52.14277303030943],[31.33089832341679,52.122547611758804],[31.314242096375356,52.11184003723426],[31.30353452184921,52.0797173136543],[31.286878294808663,52.044025398568],[31.245237727206277,52.048784320579216],[31.228581500165642,52.052353512087436],[31.207166351113436,52.07138920013496],[31.182182010552484,52.073768661140974],[31.164336053008135,52.08804542717462],[31.12745440741821,52.10470165421516],[31.088193300821654,52.10470165421516],[31.062019229757787,52.08804542717462],[31.025137584167062,52.083286505164295],[30.971599711536502,52.08566596616852],[30.940666718460264,52.083286505164295],[30.93114887443703,52.06900973912798],[30.912113186390656,52.053543242591324],[30.918061838905054,52.041645937561995],[30.894267228846306,52.01428213599415],[30.904974803373165,52.00476429197083],[30.874041810296927,51.99048752593629],[30.871662349291185,51.97859022090687],[30.858575313759207,51.977400490403866],[30.821693668168482,51.958364802357224],[30.79203977469981,51.95145198174397],[30.788470583191064,51.93360602419944],[30.81464465425493,51.92051898866791],[30.78133220017366,51.90505249212948],[30.732553249553963,51.90862168363947],[30.71827648351907,51.88125788207162],[30.684964029437,51.87530922955651],[30.679015376922514,51.85270435000166],[30.65997968887614,51.8336686619559],[30.648082383847076,51.80868432139415],[30.648082383847076,51.79678701636473],[30.640944000829673,51.78369998083231],[30.615959660267922,51.78369998083231],[30.62666723479407,51.75752590976845],[30.5933547807128,51.72302372518337],[30.564801248642393,51.70874695914883],[30.5639278344639,51.686038190499836]]]]}},{"type":"Feature","properties":{"kind":"district","id":"uyezd-1897-248","name":"Сосницкий","provinceId":"gubernia-1897-55"},"geometry":{"type":"MultiPolygon","coordinates":[[[[32.79069765049306,51.43369365057244],[32.80140522501992,51.450349877612986],[32.85018417563891,51.49080071471148],[32.873978785697744,51.51816451627835],[32.83114848759244,51.53601047382288],[32.795456572505344,51.55742562287561],[32.76690304043494,51.59549699896802],[32.75738519641179,51.64427594958762],[32.70146786277461,51.68710624769213],[32.687191096739795,51.72279816277931],[32.6943294797572,51.731126276300515],[32.764523579429195,51.732316006802634],[32.804974416528665,51.778715496418016],[32.83590740960402,51.821545794522514],[32.84304579262151,51.84177121307127],[32.83114848759244,51.85842744011191],[32.797836033511174,51.88222205017154],[32.777610614961084,51.903637199222416],[32.76571330993211,51.92862153978426],[32.753816004903044,51.95122641933991],[32.6800527137224,51.9964361784514],[32.651499181652696,52.02023078850837],[32.61461753606197,52.044025398568],[32.64555052913741,52.11540922874158],[32.59439211751268,52.11065030673036],[32.55394128041321,52.09875300170094],[32.53014667035509,52.10351192371305],[32.490885563758624,52.0761481221452],[32.49445475526737,52.065440547619765],[32.47303960621507,52.06782000862586],[32.45043472665995,52.06187135611076],[32.43377849961851,52.06306108661376],[32.36596386095235,52.06068162560864],[32.348117903408806,52.047594590075235],[32.29220056977161,52.055922703596444],[32.28387245625139,52.06663027812188],[32.23985242764397,52.07495839164309],[32.191073477024176,52.083286505164295],[32.16727886696614,52.06663027812188],[32.13277668238125,52.053543242591324],[32.09708476729415,52.048784320579216],[32.0304598591309,52.06187135611076],[31.986439830522773,52.06068162560864],[31.957886298453076,52.048784320579216],[31.975732255996625,52.039266476555895],[31.991198752534345,52.01666159700015],[32.01499336259238,51.92981127028726],[32.031649589633815,51.85723770960979],[32.024511206616324,51.84653013508249],[32.024511206616324,51.83463283005405],[31.995957674545917,51.806079297984084],[31.966214411973393,51.7691976523938],[31.95193764593859,51.737074928815716],[31.944799262920387,51.68115759517879],[31.915056000347864,51.65498352411484],[31.894830581798484,51.62524026154187],[31.872225702242563,51.566943466898934],[31.835344056652637,51.49318017571838],[31.821067290617833,51.4574882606303],[31.8115494465946,51.43369365057244],[31.825826212629405,51.422986076045134],[31.84962082268744,51.422986076045134],[31.85794893620776,51.40157092699249],[31.881743546266595,51.38967362196396],[31.897210042804314,51.36706874240831],[31.912676539342034,51.35160224587067],[32.00071659655758,51.346843323859545],[32.098274497797064,51.345653593355564],[32.18631455501261,51.36468928140221],[32.22319620060253,51.36825847291131],[32.222006470099615,51.38015577794064],[32.23271404462656,51.38372496944885],[32.24699081066137,51.37420712542553],[32.273164881725236,51.39324281347306],[32.32551302385368,51.40038119648939],[32.35168709491755,51.414657962525794],[32.382620087993786,51.422986076045134],[32.45281418766578,51.426555267554235],[32.52181855683486,51.43607311157756],[32.58368454298653,51.44559095560088],[32.6300840325997,51.43607311157756],[32.693139749254286,51.415847693027914],[32.73002139484501,51.40276065749638],[32.76690304043494,51.39919146598728],[32.772851692949516,51.415847693027914],[32.79069765049306,51.43369365057244]]]]}},{"type":"Feature","properties":{"kind":"district","id":"uyezd-1897-249","name":"Новозыбковский","provinceId":"gubernia-1897-55"},"geometry":{"type":"MultiPolygon","coordinates":[[[[31.957886298453076,52.048784320579216],[31.986439830522773,52.06068162560864],[32.0304598591309,52.06187135611076],[32.09708476729415,52.048784320579216],[32.13277668238125,52.053543242591324],[32.16727886696614,52.06663027812188],[32.191073477024176,52.083286505164295],[32.23985242764397,52.07495839164309],[32.28387245625139,52.06663027812188],[32.29220056977161,52.055922703596444],[32.348117903408806,52.047594590075235],[32.36596386095235,52.06068162560864],[32.43377849961851,52.06306108661376],[32.45043472665995,52.06187135611076],[32.47303960621507,52.06782000862586],[32.49445475526737,52.065440547619765],[32.490885563758624,52.0761481221452],[32.53014667035509,52.10351192371305],[32.55394128041321,52.09875300170094],[32.59439211751268,52.11065030673036],[32.64555052913741,52.11540922874158],[32.65017725887115,52.123605149984506],[32.651366989373976,52.14383056853424],[32.660884833397205,52.18904032764475],[32.67040267742124,52.243767930779555],[32.68229998245022,52.27708038486074],[32.60615723026373,52.31396203045004],[32.55618854914103,52.328238796486445],[32.53834259159757,52.38058693861418],[32.52525555606488,52.411519931689355],[32.54429124411206,52.44840157728052],[32.51335825103582,52.484093492367705],[32.47766633594872,52.504318910917355],[32.44197442086091,52.51383675494068],[32.409851697282555,52.523354598964],[32.45268199538705,52.554287592039174],[32.44911280387831,52.57927193260092],[32.436025768346425,52.609015195173],[32.40866196677964,52.6209125002033],[32.388436548230345,52.63637899674174],[32.371780321188915,52.67207091182901],[32.36702139917735,52.703003904904094],[32.388436548230345,52.72917797596806],[32.320621909564096,52.713711479429534],[32.20640778128397,52.68753740836567],[32.11836772406852,52.66374279830781],[32.07791688696905,52.66374279830781],[32.048173624396526,52.65422495428449],[31.979169255227447,52.67207091182901],[31.95299518416278,52.674450372835025],[31.922062191087342,52.664932528811704],[31.906595694549623,52.648276301769286],[31.814986445824623,52.64946603227327],[31.78762264425784,52.66850172031991],[31.701962048048127,52.67326064233113],[31.618680912844244,52.64589684076506],[31.56157384870414,52.626861152717524],[31.57109169272737,52.60544600366488],[31.593696572282493,52.584030854613026],[31.647234444913853,52.56499516656638],[31.603214416305725,52.522164868461886],[31.6151117213355,52.50669837192345],[31.603214416305725,52.47219618733838],[31.621060373849986,52.45910915180596],[31.649613905919683,52.46029888230896],[31.685305821007493,52.42460696722266],[31.669839324468974,52.412709662193244],[31.641285792399366,52.40319181816992],[31.611542529826043,52.39962262666082],[31.607973338317297,52.37463828609907],[31.603214416305725,52.340136101515775],[31.594886302785408,52.3056339169307],[31.618680912844244,52.29611607290738],[31.6151117213355,52.28183930687284],[31.715049083580016,52.260424157820104],[31.779294530737523,52.249716583293775],[31.829263211860138,52.22592197323503],[31.8768524319763,52.21402466820659],[31.93039030460766,52.24614739178557],[31.943477340139548,52.22592197323503],[31.94585680114538,52.20093763267319],[31.926821113098914,52.181901944627526],[31.916113538572766,52.162866256580884],[31.93276976561349,52.14621002954025],[31.942287609636633,52.14621002954025],[31.944667070642463,52.13907164652302],[31.960133567180183,52.1295538024997],[31.958943836677268,52.12003595847638],[31.95061572315695,52.11289757545907],[31.956564375671437,52.10337973143575],[31.94585680114538,52.08553377389122],[31.929332766382668,52.07733785264918],[31.89839977330723,52.05949189510466],[31.89839977330723,52.048784320579216],[31.928143035879753,52.049974051081335],[31.957886298453076,52.048784320579216]]]]}},{"type":"Feature","properties":{"kind":"district","id":"uyezd-1897-250","name":"Новгород-Северский","provinceId":"gubernia-1897-55"},"geometry":{"type":"MultiPolygon","coordinates":[[[[32.797836033511174,51.88222205017154],[32.829958757089614,51.89173989419486],[32.95369072939288,51.91553450425272],[32.98700318347415,51.91196531274451],[33.00722860202424,51.892929624696976],[33.03697186459685,51.88222205017154],[33.073853510187575,51.88222205017154],[33.13690922684137,51.87032474514123],[33.21186224852573,51.85604797910581],[33.224949284057715,51.86080690111791],[33.228518475566375,51.87151447564433],[33.24636443310992,51.879842589165534],[33.26777958216213,51.87151447564433],[33.29633311423254,51.86080690111791],[33.32726610730798,51.85009932659248],[33.36176829189296,51.86556582312913],[33.392701284968396,51.88222205017154],[33.43672131357653,51.888170702684874],[33.52357164028915,51.900068007714296],[33.517622987774665,51.93813938380846],[33.504535952242776,51.973831298895654],[33.54022786732979,51.98453887342109],[33.6116116975047,51.99048752593629],[33.644924151586764,51.979779951408986],[33.68537498868544,51.983349142918975],[33.71511825125876,51.975021029397766],[33.74129232232262,51.975021029397766],[33.73058474779648,52.00119510046173],[33.72225663427607,52.032128093538674],[33.74962043584286,52.053543242591324],[33.78888154243941,52.07257893063708],[33.82219399652068,52.0797173136543],[33.84598860657951,52.0797173136543],[33.90071620971299,52.09756327119883],[33.94222458503745,52.117656497470286],[33.9672089255984,52.14502029903636],[34.007659762697784,52.117656497470286],[34.05524898281386,52.114087305961185],[34.10402793343364,52.1152770364633],[34.11711496896554,52.1295538024997],[34.10759712494239,52.14621002954025],[34.0861819758901,52.15929706507267],[34.07071547935237,52.170004639598105],[34.06357709633417,52.19855817166807],[34.04811059979646,52.20569655468539],[34.013608415212275,52.21878359021772],[33.99100353565635,52.23900900876647],[33.963639734089654,52.25566523580889],[33.95293215956351,52.2996852644155],[33.92080943598435,52.31515176095402],[33.87678940737703,52.31396203045004],[33.86370237184505,52.325859335479464],[33.85775371932985,52.35679232855641],[33.84228722279214,52.37106909459086],[33.79112881116731,52.37701774710605],[33.73045255551855,52.36749990308273],[33.70665794545972,52.37820747760817],[33.68286333540168,52.360361520065425],[33.64122276779929,52.34846421503521],[33.618617888244174,52.34132583201789],[33.581736242654245,52.335377179503666],[33.56626974611573,52.323479874473364],[33.6067205832152,52.328238796486445],[33.66858656936679,52.322290143971244],[33.661448186349475,52.30801337793671],[33.63646384578772,52.30206472542249],[33.60196166120354,52.2996852644155],[33.57578759013896,52.27470092385464],[33.52700863951998,52.27945984586675],[33.45919400085372,52.28064957636886],[33.44015831280734,52.2973058034095],[33.441348043310256,52.31158256944581],[33.462763192362466,52.31277229994792],[33.458004270350806,52.329428526988565],[33.467522114374034,52.342515562520006],[33.469901575379865,52.36512044207575],[33.43064046878331,52.37106909459086],[33.38899990118173,52.37463828609907],[33.34141068106494,52.369879364088746],[33.32475445402431,52.35917178956153],[33.30095984396627,52.37463828609907],[33.28787280843349,52.36868963358485],[33.26407819837554,52.369879364088746],[33.211730056247106,52.397243165654814],[33.18912517669189,52.39843289615871],[33.16176137512511,52.38772532163149],[33.14986407009533,52.35441286755031],[33.129638651546045,52.33061825749245],[33.06301374338271,52.3056339169307],[32.98449153019048,52.27945984586675],[32.959507189629534,52.27589065435676],[32.905969316998174,52.29016742039218],[32.858380096881305,52.3008749949186],[32.822688181794206,52.27708038486074],[32.80960114626231,52.2628036188262],[32.79770384123245,52.2628036188262],[32.79532438022671,52.28302903737496],[32.7739092311745,52.28778795938618],[32.747735160110636,52.27945984586675],[32.701335670496675,52.27113173234554],[32.68229998245022,52.27708038486074],[32.67040267742124,52.243767930779555],[32.660884833397205,52.18904032764475],[32.651366989373976,52.14383056853424],[32.65017725887115,52.123605149984506],[32.64555052913741,52.11540922874158],[32.61461753606197,52.044025398568],[32.651499181652696,52.02023078850837],[32.6800527137224,51.9964361784514],[32.753816004903044,51.95122641933991],[32.76571330993211,51.92862153978426],[32.777610614961084,51.903637199222416],[32.797836033511174,51.88222205017154]]]]}},{"type":"Feature","properties":{"kind":"district","id":"uyezd-1897-251","name":"Суражский","provinceId":"gubernia-1897-55"},"geometry":{"type":"MultiPolygon","coordinates":[[[[32.65731564188846,52.83030506871549],[32.62638264881302,52.8838429413472],[32.591880464228126,52.9266732394517],[32.56451666266143,52.9314321614647],[32.56570639316435,52.97783165107741],[32.57046531517592,53.026610601697016],[32.56689612366718,53.0718203608085],[32.587121542216465,53.07419982181452],[32.59069073372521,53.087286857346044],[32.5752242371875,53.105132814888705],[32.58593181171364,53.115840389415126],[32.57998315919916,53.12059931142723],[32.58831127271938,53.13011715545144],[32.52763501707142,53.19198314160258],[32.47052795293132,53.24671074473641],[32.414610619294216,53.207449638141014],[32.343226789119306,53.175326914562035],[32.3289500230845,53.15034257400019],[32.29563756900244,53.14082472997687],[32.25756619290959,53.13963499947476],[32.24566888788053,53.13368634695965],[32.2504278098921,53.11821985042113],[32.23139212184493,53.113460928409914],[32.21235643379855,53.12773769444445],[32.18142344072302,53.115840389415126],[32.1659569441845,53.08490739633995],[32.11598826306269,53.07301009131062],[32.07791688696905,53.07538955231663],[32.0600709294255,53.08609712684206],[32.03627631936746,53.08847658784816],[32.011291978805716,53.07301009131062],[31.97322060271287,53.07657928281874],[31.93990814863089,53.092045779357264],[31.903026503040877,53.10394308438659],[31.826883750854396,53.11821985042113],[31.794368948725264,53.12939681365333],[31.788812374760756,53.13130688595355],[31.766207495205634,53.169378262046834],[31.745982076655455,53.19198314160258],[31.679357168492206,53.20863936864313],[31.609163068820212,53.23362370920496],[31.582988997756434,53.21577775166044],[31.556814926692567,53.2015009856259],[31.53302031663373,53.2015009856259],[31.516364089593097,53.20982909914524],[31.485431096517658,53.21101882964922],[31.45687756444725,53.21220856015134],[31.409288344331088,53.21815721266645],[31.392632117289743,53.21577775166044],[31.392632117289743,53.1955523331108],[31.390252656283913,53.181275567075275],[31.381924542763596,53.174137184058054],[31.37835535125494,53.16342960953173],[31.354560741196813,53.15153230450231],[31.35812993270556,53.13368634695965],[31.391442386786828,53.11940958092511],[31.433082954389214,53.100373892878466],[31.440221337406616,53.08966631835116],[31.45211864243559,53.07301009131062],[31.450928911932674,53.05159494225886],[31.4318932238863,53.03612844572034],[31.36764777672879,53.03969763722944],[31.303402329571373,53.04326682873766],[31.246295265431268,53.05040521175488],[31.21774173336157,53.03850790672546],[31.218931463864486,53.026610601697016],[31.277228258507506,53.00519545264437],[31.310540712588686,52.99686733912494],[31.33195586164098,52.98734949510073],[31.318868826109092,52.97664192057529],[31.297453677056797,52.97545219007131],[31.28436664152482,52.954037041018665],[31.278417989010332,52.9314321614647],[31.314109904097432,52.912396473418056],[31.343853166670755,52.91001701241116],[31.402149961312976,52.91001701241116],[31.433082954389214,52.8862224023533],[31.46520567796748,52.865996983802674],[31.502087323558293,52.862427792294554],[31.516364089593097,52.867186714306655],[31.5235024726105,52.867186714306655],[31.52826139462216,52.85409967877512],[31.518743550598927,52.83863318223669],[31.48781055752349,52.82078722469217],[31.4949489405408,52.791043962119105],[31.486620827020573,52.75535204703192],[31.486620827020573,52.73869581999138],[31.483051635511828,52.69943471339499],[31.502087323558293,52.67920929484624],[31.56157384870414,52.626861152717524],[31.618680912844244,52.64589684076506],[31.701962048048127,52.67326064233113],[31.78762264425784,52.66850172031991],[31.814986445824623,52.64946603227327],[31.906595694549623,52.648276301769286],[31.922062191087342,52.664932528811704],[31.95299518416278,52.674450372835025],[31.979169255227447,52.67207091182901],[32.048173624396526,52.65422495428449],[32.07791688696905,52.66374279830781],[32.11836772406852,52.66374279830781],[32.20640778128397,52.68753740836567],[32.320621909564096,52.713711479429534],[32.388436548230345,52.72917797596806],[32.412231158288385,52.7422650114995],[32.463389569913915,52.76486989105524],[32.52406582556196,52.78985423161699],[32.54786043562071,52.786285040107984],[32.57165504567875,52.77557746558254],[32.59782911674341,52.791043962119105],[32.63352103183051,52.787474770610984],[32.66445402490595,52.80651045865763],[32.65731564188846,52.83030506871549]]]]}},{"type":"Feature","properties":{"kind":"district","id":"uyezd-1897-252","name":"Стародубский","provinceId":"gubernia-1897-55"},"geometry":{"type":"MultiPolygon","coordinates":[[[[32.388436548230345,52.72917797596806],[32.36702139917735,52.703003904904094],[32.371780321188915,52.67207091182901],[32.388436548230345,52.63637899674174],[32.40866196677964,52.6209125002033],[32.436025768346425,52.609015195173],[32.44911280387831,52.57927193260092],[32.45268199538705,52.554287592039174],[32.409851697282555,52.523354598964],[32.44197442086091,52.51383675494068],[32.47766633594872,52.504318910917355],[32.51335825103582,52.484093492367705],[32.54429124411206,52.44840157728052],[32.52525555606488,52.411519931689355],[32.53834259159757,52.38058693861418],[32.55618854914103,52.328238796486445],[32.60615723026373,52.31396203045004],[32.68229998245022,52.27708038486074],[32.701335670496675,52.27113173234554],[32.747735160110636,52.27945984586675],[32.7739092311745,52.28778795938618],[32.79532438022671,52.28302903737496],[32.79770384123245,52.2628036188262],[32.80960114626231,52.2628036188262],[32.822688181794206,52.27708038486074],[32.858380096881305,52.3008749949186],[32.905969316998174,52.29016742039218],[32.959507189629534,52.27589065435676],[32.98449153019048,52.27945984586675],[33.06301374338271,52.3056339169307],[33.129638651546045,52.33061825749245],[33.14986407009533,52.35441286755031],[33.16176137512511,52.38772532163149],[33.18912517669189,52.39843289615871],[33.211730056247106,52.397243165654814],[33.26407819837554,52.369879364088746],[33.28787280843349,52.36868963358485],[33.30095984396627,52.37463828609907],[33.32475445402431,52.35917178956153],[33.34141068106494,52.369879364088746],[33.38899990118173,52.37463828609907],[33.43064046878331,52.37106909459086],[33.469901575379865,52.36512044207575],[33.4651426533683,52.38772532163149],[33.45443507884215,52.411519931689355],[33.43777885180151,52.41508912319934],[33.41041505023402,52.44245292476532],[33.4151739722456,52.45672969079986],[33.4151739722456,52.46981672633228],[33.3949485536963,52.46743726532716],[33.37948205715858,52.47338591784227],[33.37591286564984,52.492421605888026],[33.37829232665567,52.52097513795799],[33.403276667216616,52.53168271248521],[33.39137936218756,52.54714920902185],[33.38424097917016,52.561425975056395],[33.38899990118173,52.58997950712636],[33.42826100777748,52.609015195173],[33.43777885180151,52.633999535734844],[33.477039958397356,52.656604415290495],[33.50202429895822,52.65898387629659],[33.51511133449091,52.66969145082292],[33.50678322096988,52.67801956434235],[33.469901575379865,52.68515794736046],[33.431830199286225,52.69348606088077],[33.431830199286225,52.70657309641231],[33.44967615683058,52.7113320184253],[33.49131672443217,52.712521748927415],[33.48893726342634,52.7446444725056],[33.44610696532183,52.7446444725056],[33.41279451123977,52.75178285552282],[33.385430709673074,52.75773150803802],[33.35092852508818,52.7446444725056],[33.291441999942236,52.73631635898528],[33.24742197133482,52.739885550495266],[33.201022481720955,52.75178285552282],[33.13439757355762,52.75178285552282],[33.04635751634216,52.75773150803802],[33.01066560125426,52.76486989105524],[32.97616341667017,52.78152611809578],[32.92619473554747,52.78866450111488],[32.87741578492847,52.80175153664641],[32.8155497987768,52.81126938066973],[32.71442270602857,52.82078722469217],[32.65731564188846,52.83030506871549],[32.66445402490595,52.80651045865763],[32.63352103183051,52.787474770610984],[32.59782911674341,52.791043962119105],[32.57165504567875,52.77557746558254],[32.54786043562071,52.786285040107984],[32.52406582556196,52.78985423161699],[32.463389569913915,52.76486989105524],[32.412231158288385,52.7422650114995],[32.388436548230345,52.72917797596806]]]]}},{"type":"Feature","properties":{"kind":"district","id":"uyezd-1897-257","name":"Мглинский","provinceId":"gubernia-1897-55"},"geometry":{"type":"MultiPolygon","coordinates":[[[[32.47052795293132,53.24671074473641],[32.52763501707142,53.19198314160258],[32.58831127271938,53.13011715545144],[32.57998315919916,53.12059931142723],[32.58593181171364,53.115840389415126],[32.5752242371875,53.105132814888705],[32.59069073372521,53.087286857346044],[32.587121542216465,53.07419982181452],[32.56689612366718,53.0718203608085],[32.57046531517592,53.026610601697016],[32.56570639316435,52.97783165107741],[32.56451666266143,52.9314321614647],[32.591880464228126,52.9266732394517],[32.62638264881302,52.8838429413472],[32.65731564188846,52.83030506871549],[32.71442270602857,52.82078722469217],[32.8155497987768,52.81126938066973],[32.87741578492847,52.80175153664641],[32.92619473554747,52.78866450111488],[32.97616341667017,52.78152611809578],[33.01066560125426,52.76486989105524],[33.04635751634216,52.75773150803802],[33.13439757355762,52.75178285552282],[33.201022481720955,52.75178285552282],[33.24742197133482,52.739885550495266],[33.291441999942236,52.73631635898528],[33.35092852508818,52.7446444725056],[33.385430709673074,52.75773150803802],[33.38899990118173,52.78985423161699],[33.37472313514692,52.808889919663635],[33.34141068106494,52.826735877208165],[33.35092852508818,52.85053048726602],[33.36401556062006,52.864807253300555],[33.400897206210786,52.85409967877512],[33.41874316375434,52.85528940927723],[33.424691816268826,52.84696129575603],[33.484178341414676,52.84934075676213],[33.534147022537375,52.874325097323876],[33.560321093601246,52.881463480341196],[33.55913136309833,52.89098132436452],[33.57697732064187,52.89811970738174],[33.60910004422094,52.90168889889173],[33.62337681025575,52.865996983802674],[33.656689264337814,52.873135366821764],[33.69000171841908,52.864807253300555],[33.74472932155336,52.89098132436452],[33.72569363350689,52.90882728190904],[33.69000171841908,52.91715539542838],[33.70665794545972,52.938570544482005],[33.73878066903878,52.952847310515565],[33.77685204513171,52.97664192057529],[33.78874935016148,52.95165758001345],[33.818492612734005,52.95165758001345],[33.844666683797875,52.96831380705409],[33.877979137879855,52.98497003409463],[33.9101018614583,53.01471329666769],[33.892255903914744,53.034938715218225],[33.864892102347966,53.034938715218225],[33.82206180424275,53.019472218679795],[33.81968234323692,53.04683602024578],[33.80064665519055,53.0706306303055],[33.773282853622966,53.0706306303055],[33.74472932155336,53.0575435947721],[33.711416867471286,53.04207709823554],[33.69238117942491,53.04207709823554],[33.629325462770325,53.07895874382484],[33.59125408667748,53.09323550986116],[33.62575627126158,53.11465065891301],[33.64955088132041,53.13725553846777],[33.674535221881364,53.14439392148509],[33.654309803331984,53.16105014852563],[33.66858656936679,53.186034489087476],[33.69714010143649,53.1931728721047],[33.71736551998586,53.20982909914524],[33.7328320165243,53.20982909914524],[33.73521147753013,53.21934694316856],[33.71736551998586,53.21934694316856],[33.691191448922,53.216967482164335],[33.665017377858135,53.23243397870098],[33.64122276779929,53.22410586518164],[33.587684895168735,53.23600317021098],[33.48774753292342,53.255038858256725],[33.45086588733349,53.260987510770946],[33.44610696532183,53.27526427680549],[33.424691816268826,53.29429996485213],[33.37829232665567,53.28240265982458],[33.3949485536963,53.26693616328615],[33.37710259615275,53.258608049764945],[33.327133915030046,53.252659397251605],[33.30690849648076,53.2395723617183],[33.2533706238494,53.23481343970708],[33.246232240832,53.21458802115832],[33.28430361692484,53.21339829065434],[33.31523661000108,53.207449638141014],[33.28430361692484,53.182465297579256],[33.25099116284357,53.17056799254895],[33.209350595241276,53.17056799254895],[33.165330566633855,53.15748095701751],[33.11774134651698,53.16105014852563],[33.08204943142917,53.178896106070155],[33.02018344527829,53.2383826312152],[33.01049663983537,53.240661879555844],[32.99995802672821,53.243141553228284],[32.959507189629534,53.23005451769586],[32.91191796951266,53.23005451769586],[32.88455416794588,53.255038858256725],[32.82387791229712,53.257418319262825],[32.77747842268316,53.24671074473641],[32.74654542960772,53.268125893788266],[32.698956209490845,53.26217724127493],[32.66445402490595,53.268125893788266],[32.66683348591249,53.28478212082881],[32.658505372391375,53.29667942585823],[32.63114157082468,53.31928430541397],[32.60734696076665,53.31214592239665],[32.57165504567875,53.30143834787122],[32.52049663405322,53.29905888686521],[32.49194310198361,53.27169508529825],[32.47052795293132,53.24671074473641]]]]}},{"type":"Feature","properties":{"kind":"district","id":"uyezd-1897-316","name":"Кролевецкий","provinceId":"gubernia-1897-55"},"geometry":{"type":"MultiPolygon","coordinates":[[[[33.62945765504824,51.39443254397517],[33.63421657706061,51.428934728560336],[33.62707819404241,51.444401225098765],[33.606852775493124,51.47176502666484],[33.60923223649887,51.501508289237805],[33.586627356943744,51.55147697036042],[33.577109512920515,51.58359969393948],[33.535468945318215,51.60501484299134],[33.491448916710084,51.61810187852278],[33.450998079611416,51.61810187852278],[33.43672131357653,51.62999918355308],[33.42125481703809,51.67045002065149],[33.4069780510032,51.71565977976209],[33.39864993748289,51.75492088635838],[33.35581963937847,51.7668181913878],[33.34987098686318,51.8167868725113],[33.36890667491036,51.83344309955193],[33.36176829189296,51.86556582312913],[33.32726610730798,51.85009932659248],[33.29633311423254,51.86080690111791],[33.26777958216213,51.87151447564433],[33.24636443310992,51.879842589165534],[33.228518475566375,51.87151447564433],[33.224949284057715,51.86080690111791],[33.21186224852573,51.85604797910581],[33.13690922684137,51.87032474514123],[33.073853510187575,51.88222205017154],[33.03697186459685,51.88222205017154],[33.00722860202424,51.892929624696976],[32.98700318347415,51.91196531274451],[32.95369072939288,51.91553450425272],[32.829958757089614,51.89173989419486],[32.797836033511174,51.88222205017154],[32.83114848759244,51.85842744011191],[32.84304579262151,51.84177121307127],[32.83590740960402,51.821545794522514],[32.804974416528665,51.778715496418016],[32.764523579429195,51.732316006802634],[32.6943294797572,51.731126276300515],[32.687191096739795,51.72279816277931],[32.70146786277461,51.68710624769213],[32.75738519641179,51.64427594958762],[32.76690304043494,51.59549699896802],[32.795456572505344,51.55742562287561],[32.83114848759244,51.53601047382288],[32.873978785697744,51.51816451627835],[32.85018417563891,51.49080071471148],[32.80140522501992,51.450349877612986],[32.79069765049306,51.43369365057244],[32.82638956558087,51.40632984900459],[32.92989611933413,51.40157092699249],[33.00722860202424,51.357550898384986],[33.05481782214041,51.352791976372785],[33.069094588175204,51.3278076358129],[33.1250119218124,51.33375628832712],[33.164273028408864,51.32542817480592],[33.17617033343792,51.340894671344344],[33.18687790796399,51.33256655782314],[33.2237595535548,51.33018709681891],[33.27015904316796,51.362309820396106],[33.315368802278996,51.39800173548517],[33.35344017837264,51.41346823202181],[33.37009640541328,51.40751957950849],[33.392701284968396,51.415847693027914],[33.41173697301486,51.41108877101581],[33.44029050508527,51.414657962525794],[33.470033767657796,51.40157092699249],[33.502156491236946,51.40989904051271],[33.52476137079206,51.40395038799849],[33.531899753809554,51.39681200498127],[33.550935441855934,51.39681200498127],[33.583058165435,51.39443254397517],[33.62945765504824,51.39443254397517]]]]}},{"type":"Feature","properties":{"kind":"district","id":"uyezd-1897-742","name":"Глуховский","provinceId":"gubernia-1897-55"},"geometry":{"type":"MultiPolygon","coordinates":[[[[33.62945765504824,51.39443254397517],[33.66514957013605,51.39919146598728],[33.68894418019409,51.40751957950849],[33.71630798176167,51.42179634554302],[33.740102591819706,51.432503920068456],[33.79364046445098,51.444401225098765],[33.840039954064224,51.44797041660698],[33.83409130154965,51.428934728560336],[33.850747528591086,51.420606615039134],[33.86502429462589,51.422986076045134],[33.890008635186845,51.42179634554302],[33.90547513172456,51.427744998056355],[33.92570055027474,51.432503920068456],[33.97566923139655,51.419416884537014],[33.993515188940904,51.434883381075444],[33.991135727935074,51.44321149459488],[33.98280761441404,51.4491601471091],[33.98280761441404,51.46462664364752],[33.999463841455395,51.48128287068816],[33.99708438044965,51.49436990622049],[33.98280761441404,51.501508289237805],[33.988756266929244,51.51578505527323],[33.98518707542058,51.53957966533109],[34.01374060749019,51.55385643136563],[34.00898168547862,51.566943466898934],[34.0220687210106,51.5907380769568],[34.048242792074376,51.60501484299134],[34.03158656503375,51.62999918355308],[34.03872494805115,51.649034871599724],[34.08036551565353,51.66807055964637],[34.12795473577032,51.68591651718903],[34.199338565945226,51.70019328322543],[34.22551263700909,51.69781382221934],[34.24216886404973,51.70376247473267],[34.283809431652024,51.69662409171545],[34.29927592818983,51.71803924076809],[34.35519326182693,51.71328031875599],[34.40040302093726,51.71565977976209],[34.42308627563298,51.724535835948046],[34.42776682250476,51.7263673542893],[34.4313360140135,51.737074928815716],[34.42895655300767,51.75611061686236],[34.40992086496121,51.77395657440502],[34.40754140395546,51.79299226245166],[34.40992086496121,51.803699836977984],[34.41111059546412,51.80845875899009],[34.40397221244672,51.810838219996185],[34.39088517691403,51.83344309955193],[34.36471110585016,51.84771986558647],[34.32069107724204,51.884601511175774],[34.27191212662305,51.85485824860369],[34.250496977570045,51.84177121307127],[34.18030287789805,51.85009932659248],[34.114867700237625,51.8596171706158],[34.086314168168016,51.885791241679755],[34.155318537337095,51.89887827721218],[34.14699042381678,51.91434477374874],[34.11605743074054,51.95955453286112],[34.13152392727906,51.98572860392507],[34.117247161243455,52.00833348347895],[34.09226282068259,52.02736917152559],[34.037535217548324,52.047594590075235],[33.99232545843799,52.06187135611076],[33.9649616568705,52.07733785264918],[33.93878758580663,52.07495839164309],[33.91261351474205,52.0797173136543],[33.90071620971299,52.09756327119883],[33.84598860657951,52.0797173136543],[33.82219399652068,52.0797173136543],[33.78888154243941,52.07257893063708],[33.74962043584286,52.053543242591324],[33.72225663427607,52.032128093538674],[33.73058474779648,52.00119510046173],[33.74129232232262,51.975021029397766],[33.71511825125876,51.975021029397766],[33.68537498868544,51.983349142918975],[33.644924151586764,51.979779951408986],[33.6116116975047,51.99048752593629],[33.54022786732979,51.98453887342109],[33.504535952242776,51.973831298895654],[33.517622987774665,51.93813938380846],[33.52357164028915,51.900068007714296],[33.43672131357653,51.888170702684874],[33.392701284968396,51.88222205017154],[33.36176829189296,51.86556582312913],[33.36890667491036,51.83344309955193],[33.34987098686318,51.8167868725113],[33.35581963937847,51.7668181913878],[33.39864993748289,51.75492088635838],[33.4069780510032,51.71565977976209],[33.42125481703809,51.67045002065149],[33.43672131357653,51.62999918355308],[33.450998079611416,51.61810187852278],[33.491448916710084,51.61810187852278],[33.535468945318215,51.60501484299134],[33.577109512920515,51.58359969393948],[33.586627356943744,51.55147697036042],[33.60923223649887,51.501508289237805],[33.606852775493124,51.47176502666484],[33.62707819404241,51.444401225098765],[33.63421657706061,51.428934728560336],[33.62945765504824,51.39443254397517]]]]}}]}
