{"type":"FeatureCollection","features":[{"type":"Feature","properties":{"kind":"province","id":"gubernia-1897-28","name":"Петербургская губерния"},"geometry":{"type":"MultiPolygon","coordinates":[[[[29.868378291814878,60.1628261065663],[29.87677829181488,60.1614261065663],[29.911278291814877,60.1483261065663],[29.91837829181488,60.1209261065663],[29.90407829181488,60.087626106566304],[29.91957829181488,60.0721261065663],[29.94687829181488,60.041226106566306],[29.955278291814878,60.028126106566305],[29.943378291814877,60.0139261065663],[29.95047829181488,60.006726106566305],[30.004078291814878,59.9984261065663],[30.07187829181488,59.9972261065663],[30.12067829181488,59.9865261065663],[30.165878291814877,59.9972261065663],[30.19437829181488,59.9948261065663],[30.220578291814878,59.974626106566305],[30.20627829181488,59.957926106566305],[30.17537829181488,59.9627261065663],[30.17537829181488,59.9496261065663],[30.20627829181488,59.929426106566304],[30.230078291814877,59.9270261065663],[30.237178291814878,59.9163261065663],[30.219378291814877,59.8961261065663],[30.15867829181488,59.872326106566305],[30.118278291814878,59.8675261065663],[30.09497829181488,59.8675261065663],[30.08712378395036,59.867588594130495],[30.030223783950362,59.867588594130495],[29.98022378395036,59.8698885941305],[29.951723783950364,59.8758885941305],[29.944523783950363,59.888988594130495],[29.879123783950362,59.9091885941305],[29.84462378395036,59.9043885941305],[29.74112378395036,59.9293885941305],[29.729223783950363,59.938888594130496],[29.700623783950363,59.9424885941305],[29.69352378395036,59.9376885941305],[29.667323783950362,59.9412885941305],[29.630423783950363,59.9400885941305],[29.526923783950362,59.9674885941305],[29.429423783950362,59.9614885941305],[29.380623783950362,59.9757885941305],[29.348523783950363,59.9757885941305],[29.311623783950363,59.987688594130496],[29.26522378395036,59.9817885941305],[29.235423783950363,59.9745885941305],[29.19382378395036,59.9888885941305],[29.180723783950363,59.9829885941305],[29.15572378395036,59.9864885941305],[29.10222378395036,59.9840885941305],[29.087923783950362,59.9710885941305],[29.07012378395036,59.9733885941305],[29.04272378395036,59.9603885941305],[29.024923783950364,59.9269885941305],[28.99992378395036,59.9162885941305],[28.973723783950362,59.9150885941305],[29.005823783950362,59.9008885941305],[29.03202378395036,59.9043885941305],[29.04152378395036,59.888988594130495],[29.03802378395036,59.8651885941305],[29.001123783950362,59.8472885941305],[28.963023783950362,59.818788594130496],[28.92252378395036,59.8139885941305],[28.89042378395036,59.8115885941305],[28.88452378395036,59.8056885941305],[28.86312378395036,59.808088594130496],[28.84762378395036,59.808088594130496],[28.835719736552974,59.78901945674441],[28.80240728247144,59.781881073727185],[28.766715367383984,59.780691343223204],[28.77028455889273,59.796157839761634],[28.7488694098399,59.79734757026375],[28.728643991290877,59.79734757026375],[28.747679679337075,59.780691343223204],[28.687003423688314,59.77236322970386],[28.676295849162344,59.786639995737424],[28.64536285608646,59.79734757026375],[28.638224473069148,59.80805514479203],[28.570409834403073,59.823521641327794],[28.540666571830105,59.8282805633407],[28.514492500765883,59.84493679038222],[28.4966465432218,59.84017786836914],[28.484749238192915,59.84731625138645],[28.460954628134434,59.83422921585403],[28.43002163505855,59.82233191082559],[28.422883252041238,59.79734757026375],[28.405037294497955,59.77474269070987],[28.413365408018183,59.747378889141224],[28.40384756399433,59.723584279083276],[28.410985947012442,59.6831334419839],[28.381242684439474,59.67361559796058],[28.349119960860765,59.660528562430905],[28.32175615929354,59.65814910142401],[28.296771818732143,59.67242586745846],[28.27059774766792,59.68194371148178],[28.23133664107181,59.67599505896667],[28.200403647996016,59.67599505896667],[28.184937151458474,59.68194371148178],[28.18017822944699,59.6985999385233],[28.181367959949906,59.722394548581164],[28.161142541399993,59.740240506123826],[28.14805550586828,59.778311882218084],[28.117122512792488,59.781881073727185],[28.08737925021952,59.786639995737424],[28.062394909658124,59.786639995737424],[28.045738682616957,59.76165565517745],[28.025513264067843,59.75570700266234],[27.995770001494964,59.75213781115413],[28.00766730652376,59.729532931598385],[27.998149462500617,59.70930751304874],[27.977924043950793,59.70335886053372],[27.980303504956623,59.68551290299088],[27.993390540489134,59.66528748444124],[28.00528784551793,59.654579909913934],[28.02670299457076,59.64863125740069],[28.021944072559187,59.630785299858026],[28.06120517915521,59.60223176778611],[28.064774370663866,59.567729583201036],[28.057635987646552,59.52727874610352],[28.035031108090987,59.495156022524455],[28.021068931350708,59.4815816840273],[28.048116245439843,59.463959279559354],[28.08261843002456,59.444923591513515],[28.109982231591076,59.42945709497597],[28.13258711114682,59.415180328940544],[28.12782818913516,59.40090356290601],[28.13853576366095,59.39019598837968],[28.156381721204944,59.38067814435636],[28.168279026234096,59.358073264801504],[28.148053607684272,59.33903757675486],[28.12901791963843,59.32357108021643],[28.161140643216545,59.316432697198245],[28.146731684903564,59.30889773734725],[28.115798691827948,59.30175935432905],[28.101521925792966,59.29224151030573],[28.07177866321982,59.29224151030573],[28.049173783664255,59.29224151030573],[28.02180998209765,59.28867231879761],[27.983738606003744,59.27796474427031],[27.945667229910725,59.27082636125397],[27.907595853817618,59.260118786727645],[27.86833474722115,59.2363241766689],[27.876662860741913,59.21490902761616],[27.87428339973617,59.194683609066516],[27.836212023642265,59.16850953800255],[27.81241741358405,59.14828411945291],[27.80408930006409,59.15185331096112],[27.779104959502604,59.13757654492659],[27.774346037490943,59.118540856879946],[27.76720765447354,59.095935977325084],[27.76601792397098,59.08046948078666],[27.745792505421157,59.07095163676334],[27.748171966426987,59.04239810469426],[27.719618434357113,59.03406999117394],[27.71485951234554,59.00670618960609],[27.28893599230165,58.73306817393588],[27.369837666500235,58.58435186107184],[27.448677336938534,58.44867428868905],[27.472154489750405,58.408271746639954],[27.49475936930615,58.36901064004357],[27.49713883031198,58.34283656897882],[27.476913411762066,58.32023168942485],[27.475723681259506,58.29048842685188],[27.463826376230443,58.278591121822465],[27.480482603271167,58.267883547295256],[27.514984787855173,58.18817160360145],[27.564953468978143,58.14415157499296],[27.579230235013036,58.11321858191788],[27.633957838146866,58.08823424135515],[27.668460022731672,58.08585478035003],[27.840970945653925,58.07752666682883],[28.03132782612097,58.06087043978819],[28.061071088693318,58.06562936180039],[28.144352223897734,58.08347531934491],[28.18123386948828,58.09061370236125],[28.22882308960471,58.097752085378474],[28.250238238657094,58.109649390407895],[28.258566352177766,58.12749534795144],[28.27165338770939,58.12749534795144],[28.287714749499276,58.10429560314424],[28.290887364173184,58.09001883711059],[28.314681974231398,58.07732837841194],[28.33371766227795,58.05670638302763],[28.378134267720384,58.053533768354086],[28.40668779979026,58.01387608492313],[28.44634548322112,58.0154623922608],[28.578008992209952,58.002771933562144],[28.58118160688466,58.044015924330765],[28.57397712772815,58.07673351316127],[28.659637723937685,58.095769201207915],[28.672724759470018,58.108856236739356],[28.763144277691126,58.095769201207915],[28.7881286182527,58.06840539964095],[28.833338377364008,58.06721566913795],[28.865461100942895,58.0922000096997],[28.8963940940186,58.131461116294304],[28.961829271678223,58.140978960317625],[29.00346983928043,58.13622003830721],[29.032023371351016,58.16953249238759],[29.228328904331395,58.15168653484572],[29.218811060308163,58.131461116294304],[29.247364592378037,58.11123569774457],[29.217621329804892,58.06959513014307],[29.247364592378037,58.04580052008619],[29.318748422553302,58.02676483203777],[29.346112224119906,58.03390321505775],[29.385373330716284,58.023195640529465],[29.37228629518466,58.014867527010125],[29.380614408704623,58.006539413488035],[29.42106524580356,58.010108604998024],[29.448429047370876,57.997021569464714],[29.482931231955593,57.98750372544317],[29.494828536984745,57.98750372544317],[29.52814099106619,57.9934523779565],[29.554315062130147,57.997021569464714],[29.57691994168509,58.001780491478684],[29.57097128917096,58.022005910026465],[29.588817246714953,58.04580052008619],[29.591196707719984,58.07911297416639],[29.61380158727564,58.094579470705796],[29.656631885381206,58.101717853722135],[29.6709086514161,58.08030270466939],[29.697082722480143,58.07792324366427],[29.688754608960092,58.095769201207915],[29.72920544605903,58.0886308181906],[29.750620595111414,58.0922000096997],[29.797020084725283,58.093389740202795],[29.807727659251874,58.07316432165306],[29.867214184397366,58.06959513014307],[29.896957446969623,58.07792324366427],[29.921941787531107,58.094579470705796],[29.98380777368243,58.107666506237244],[30.012361305753014,58.12194327227276],[30.05162241234868,58.12432273327877],[30.09326297995089,58.14454815182752],[30.103970554476682,58.1350303078042],[30.131334356043997,58.1481173433376],[30.156318696604682,58.17191195339537],[30.24078956231237,58.20165521596843],[30.25744578935318,58.189757910937146],[30.312173392487722,58.20284494647046],[30.30503500947023,58.23496767004863],[30.330019350031005,58.24805470558017],[30.327639889025175,58.255193088598276],[30.30503500947023,58.25876228010836],[30.293137704440458,58.28136715966312],[30.31098366198445,58.30040284770976],[30.29670689594956,58.319438535756404],[30.31098366198445,58.326576918772744],[30.318122045001854,58.337284493300935],[30.30622473997279,58.34561260682125],[30.277671207902205,58.34799206782637],[30.265773902873942,58.369407216877335],[30.280050668908835,58.38368398291267],[30.263394441867312,58.39082236593087],[30.24078956231237,58.41461697598882],[30.19676953370433,58.42056562850384],[30.216994952253444,58.43246293353228],[30.233651179294966,58.43722185554536],[30.24197929281493,58.45030889107681],[30.264584172370583,58.445549969063904],[30.294327434943728,58.46101646560224],[30.327639889025175,58.456257543592],[30.333588541540106,58.47053430962556],[30.340726924557597,58.46934457912345],[30.345485846568458,58.45863700459712],[30.363331804112452,58.46934457912345],[30.35500369059249,58.487190536667086],[30.391885336182327,58.52407218225648],[30.372849648136484,58.544297600807994],[30.334778272042666,58.547866792316114],[30.333588541540106,58.5847484379064],[30.29789662645283,58.59664574293573],[30.29670689594956,58.61211223947238],[30.318122045001854,58.62281981400057],[30.326450158522615,58.633527388526005],[30.331209080533476,58.65851172908687],[30.335968002545936,58.7191879847351],[30.34667557707173,58.727516098255236],[30.35381396008913,58.727516098255236],[30.372849648136484,58.726326367752236],[30.375229109141515,58.717998254231915],[30.418059407247082,58.7191879847351],[30.429956712275434,58.723946906747116],[30.444233478310327,58.737033942280426],[30.45494105283683,58.737033942280426],[30.46683835786598,58.72989555926045],[30.526324883011384,58.74655178630188],[30.551309223572957,58.74893124730798],[30.57034491162022,58.74298259479376],[30.62269305374831,58.75369016932008],[30.62269305374831,58.7655874743495],[30.633400628274103,58.7691566658586],[30.647677394308996,58.76082855233642],[30.66433362135052,58.7703463963616],[30.66552335185299,58.782243701390044],[30.652436316321367,58.785812892900125],[30.61674440123329,58.781053970886155],[30.597708713186737,58.782243701390044],[30.584621677655203,58.81317669446611],[30.588190869163505,58.82745346050153],[30.542981110052995,58.84529941804419],[30.529894074520573,58.871473489109036],[30.50847892546819,58.88456052464066],[30.472787010380912,58.876232411121144],[30.446612939316868,58.8928886381608],[30.440664286801937,58.92263190073395],[30.41211075473215,58.935718936267165],[30.413300485234622,58.9773595038668],[30.390695605679767,58.9773595038668],[30.35738315159832,58.97022112085055],[30.341916655060068,58.98449788688678],[30.344296116066698,59.026138454488276],[30.341916655060068,59.06064063907148],[30.366900995621553,59.091573632146655],[30.379988031153975,59.08562497963332],[30.369280456627383,59.06896875259269],[30.366900995621553,59.05112279504816],[30.377608570147345,59.04517414253492],[30.390695605679767,59.05350225605515],[30.40378264121219,59.05469198655824],[30.422818329257943,59.041604951026706],[30.45613078334019,59.04874333404304],[30.51085838647402,59.05350225605515],[30.529894074520573,59.0832455186282],[30.57034491162022,59.09395309315266],[30.61198547922172,59.102281206674846],[30.659574699338858,59.11774770321141],[30.697425754968016,59.14493524840786],[30.714081982008828,59.17943743299293],[30.71765117351784,59.20561150405591],[30.731927939552822,59.2091806955659],[30.750963627599376,59.21988827009231],[30.76643012413754,59.232975305623754],[30.810450152744778,59.246062341155294],[30.82829611028886,59.244872610652195],[30.86755721688524,59.22940611411563],[30.87826479141103,59.249631532665276],[30.87707506090847,59.26747749020892],[30.891351826943453,59.26985695121404],[30.896110748955113,59.28651317825556],[30.87826479141103,59.30078994429001],[30.862798294873578,59.30078994429001],[30.83067557129469,59.29841048328489],[30.804501500230646,59.30078994429001],[30.791414464698313,59.315066710325524],[30.7747582376575,59.34124078138851],[30.76167120212588,59.36622512194937],[30.791414464698313,59.3864505404999],[30.794983656207325,59.399537576031435],[30.781896620674992,59.41857326407808],[30.797363117213155,59.43166029961139],[30.849711259341245,59.45069598765714],[30.87112640839363,59.467352214697684],[30.919905359013327,59.46616248419557],[30.948458891083114,59.46854194520078],[30.948458891083114,59.481628980732225],[30.981771345164567,59.500664668778874],[31.071250829408598,59.4879448340198],[31.125978432543207,59.493893486534944],[31.171188191653755,59.53196486262823],[31.218777411770134,59.55338001168002],[31.26874609289314,59.5652773167094],[31.296109894459676,59.54981082017275],[31.309196929992027,59.54029297614852],[31.332991540050216,59.54267243715458],[31.3686834551375,59.547431359164875],[31.406754831230614,59.54267243715458],[31.453154320844476,59.537913515141554],[31.48646677492593,59.537913515141554],[31.50152946536491,59.5139691560189],[31.518589498504866,59.49984213904827],[31.548207798064652,59.506440392680815],[31.553091683089633,59.52244701860491],[31.59354252018869,59.52839567111823],[31.601209672318532,59.48768044946428],[31.591691828295495,59.469834491920665],[31.585743175780408,59.45674745638735],[31.576225331757314,59.45198853437614],[31.584553445278004,59.44009122934767],[31.57265614024857,59.42462473280921],[31.580984253768463,59.403209583757416],[31.609537785839223,59.381794434704716],[31.591691828295495,59.37703551269351],[31.56789721823742,59.381794434704716],[31.558379374213587,59.36751766866928],[31.563138296225475,59.33658467559326],[31.542912877675406,59.31516952654238],[31.544102608178605,59.274718689442125],[31.561948565722332,59.26758030642486],[31.56789721823742,59.25092407938337],[31.595261019803445,59.24616515737216],[31.616676168856714,59.25449327089245],[31.65355781444663,59.24735488787519],[31.63571185690364,59.22831919982946],[31.611917246845564,59.198575937256464],[31.622624821371062,59.183109440718],[31.64285023992113,59.177160788203764],[31.66902431098481,59.2045245897707],[31.697577843054773,59.22593973882249],[31.734459488645427,59.23783704385187],[31.759443829205907,59.24616515737216],[31.77610005624723,59.27233922843698],[31.766582212223398,59.28185707246121],[31.739218410656576,59.28780572497362],[31.72256218361599,59.284236533466355],[31.723751914118395,59.29851329950088],[31.745167063170925,59.305651682518146],[31.766582212223398,59.32468737056479],[31.801084396808506,59.32111817905479],[31.84272496441031,59.33063602307902],[31.878416879497763,59.34729225012052],[31.890314184526403,59.3687073991714],[31.895073106538348,59.391312278729856],[31.89864229804789,59.41153769727771],[31.92124717760197,59.41867608029406],[31.94266232665524,59.41272742778074],[31.960508284199022,59.41748634979194],[31.995010468783335,59.41748634979194],[31.997389929789676,59.39607120073924],[32.00333858230323,59.37822524319472],[32.049738071917716,59.37941497369866],[32.09494783102906,59.382984165207745],[32.13301920712212,59.391312278729856],[32.155624086676994,59.38060470420169],[32.20321330679394,59.391312278729856],[32.21511061182258,59.403209583757416],[32.21986953383447,59.41986581079982],[32.243664143892545,59.41867608029406],[32.272217675962565,59.427004193814355],[32.26745875395062,59.47102422242551],[32.2829252504888,59.47102422242551],[32.31504797406751,59.46150637840037],[32.34241177563433,59.447229612364026],[32.372155038207495,59.437711768341615],[32.400708570277516,59.41748634979194],[32.42212371932999,59.41748634979194],[32.44353886838246,59.43176311582738],[32.46614374793813,59.43176311582738],[32.4970767410137,59.45317826488099],[32.555373535656884,59.45555772588432],[32.574409223703015,59.47221395292581],[32.60415248627618,59.479352335944895],[32.630326557340595,59.48649071896034],[32.64698278438118,59.50552640700698],[32.65293143689627,59.545977244107235],[32.65888008940982,59.591187003216874],[32.6719671249424,59.63758649283136],[32.68981308248533,59.64829406735862],[32.73978176360862,59.65662218087891],[32.80997586328044,59.66732975540435],[32.830201281829716,59.67803732993161],[32.84090885635675,59.67922706043282],[32.8468575088703,59.66732975540435],[32.86232400540848,59.666140024901324],[32.870652118928376,59.686365443450995],[32.870652118928376,59.70540113149855],[32.88135969345541,59.719677897532165],[32.884928884964154,59.74466223809395],[32.870652118928376,59.774405500666944],[32.84923696987664,59.795820649719644],[32.82187316830982,59.80176930223388],[32.80997586328044,59.81009741575326],[32.76833529567864,59.818425529273554],[32.73502284159747,59.827943373297785],[32.73621257209987,59.85292771385957],[32.76119691266109,59.871963401907124],[32.802837480262156,59.86839421039622],[32.823062898812225,59.871963401907124],[32.823062898812225,59.89813747296921],[32.830201281829716,59.90884504749647],[32.86113427490528,59.91122450850071],[32.8873083459697,59.89694774246618],[32.905154303513484,59.881481245929535],[32.91110295602857,59.86363528838501],[32.9384667575946,59.861255827379864],[32.94917433212163,59.86958394089925],[32.965830559162214,59.86363528838501],[32.996763552237724,59.861255827379864],[33.00985058777036,59.84697906134352],[33.02412735380534,59.8541174443626],[33.039593850342726,59.861255827379864],[33.08837280096202,59.86839421039622],[33.10264956699706,59.881481245929535],[33.13477229057577,59.88624016794074],[33.13953121258771,59.905275855986474],[33.168084744657676,59.92074235252494],[33.18474097169826,59.9314499270522],[33.18474097169826,59.94215750157764],[33.15737717013144,59.94810615409369],[33.13001336856462,59.96238292012822],[33.11811606353518,59.979039147167896],[33.160946361640185,59.99450564370636],[33.18355124119586,59.99926456571757],[33.17998204968711,60.01948998426815],[33.16332582264579,60.021869445273296],[33.13953121258771,60.05042297734326],[33.11097768051769,60.0956327364529],[33.080044687442125,60.130134921038916],[33.064578190904,60.13727330405618],[33.07647549593338,60.153929531095855],[33.080044687442125,60.1729652191425],[33.14191067359326,60.19081117668702],[33.23351992231835,60.20389821222034],[33.25969399338197,60.17177548864038],[33.2787296814289,60.17058575813735],[33.30609348299572,60.143221956570414],[33.33345728456328,60.14084249556436],[33.35249297260947,60.12537599902771],[33.38461569618897,60.13489384305012],[33.417928150270086,60.11466842450045],[33.41911788077249,60.100391658465924],[33.44648168234011,60.100391658465924],[33.47503521441007,60.11942734651166],[33.510727129496786,60.120617077014685],[33.546419044585036,60.120617077014685],[33.56545473263196,60.10753004148319],[33.627320718783096,60.10515058047804],[33.64397694582368,60.11347869399742],[33.63564883230379,60.12656572953074],[33.65111532884117,60.14798087858162],[33.6677715558817,60.152739800592826],[33.673720208396844,60.16582683612614],[33.6689612863849,60.18962144618308],[33.67847913040873,60.21222632573881],[33.64992559833877,60.22531336127213],[33.65944344236186,60.24434904931877],[33.70584293197555,60.24434904931877],[33.740345116559865,60.24434904931877],[33.79983164170619,60.230072283282425],[33.81172894673483,60.219364708756984],[33.80697002472368,60.20508794272337],[33.834333826289765,60.18843171568187],[33.858128436349375,60.19913929020731],[33.90095873445358,60.19081117668702],[33.930701997026745,60.19081117668702],[33.94378903255853,60.20270848171549],[33.950927415576075,60.22531336127213],[33.969963103622206,60.231262013785454],[33.99970636619537,60.23483120529363],[33.98067067814924,60.250297701833006],[33.96401445110865,60.250297701833006],[33.96163499010231,60.27885123390297],[33.96401445110865,60.31335341848717],[33.948547954569676,60.3193020710014],[33.93427118853549,60.33119937602987],[33.937840380044236,60.34428641156319],[33.974722025634094,60.35499398609045],[33.99613717468742,60.349045333576214],[34.03539828128282,60.34190695055713],[34.08298750139977,60.34190695055713],[34.08774642341166,60.36451183011286],[34.111541033469734,60.38592697916556],[34.146914350886505,60.40633910910765],[34.131766452019065,60.42875727726914],[34.12105887749283,60.45493134833396],[34.10440265045224,60.45374161783093],[34.11748968598408,60.42875727726914],[34.11392049447534,60.40615239771432],[34.1020231894467,60.39544482318797],[34.08179777089657,60.3883064401698],[34.058003160838496,60.37402967413709],[34.01755232373989,60.37878859614648],[34.00327555770491,60.39425509268494],[33.96401445110865,60.3883064401698],[33.914045769985364,60.382357787657384],[33.89144089043049,60.38354751816041],[33.87359493288676,60.39544482318797],[33.801021372208595,60.40853185871947],[33.773657570641774,60.42280862475582],[33.73201700303997,60.42994700777399],[33.72963754203363,60.44184431280246],[33.70346347097001,60.447792965316694],[33.679668860911136,60.46325946185607],[33.6677715558817,60.479915688895744],[33.65944344236186,60.50608975995965],[33.63445910180059,60.509658951469646],[33.60233637822188,60.501330837948444],[33.5773520376606,60.48110541940059],[33.55593688860813,60.47515676688363],[33.52976281754451,60.479915688895744],[33.52500389553256,60.4656389228594],[33.491691441450655,60.47515676688363],[33.464327639883834,60.47158757537545],[33.46194817887829,60.48110541940059],[33.444102221334504,60.488243802416946],[33.44053302982496,60.47515676688363],[33.41435895876134,60.48110541940059],[33.390564348702526,60.488243802416946],[33.37033893015399,60.479915688895744],[33.35130324210627,60.479915688895744],[33.338216206575225,60.48229514990089],[33.32512917104265,60.49538218543239],[33.30728321349886,60.501330837948444],[33.31680105752275,60.48110541940059],[33.29300644746468,60.48110541940059],[33.27635022042256,60.478725958392715],[33.25612480187402,60.48348488040392],[33.24184803583904,60.479915688895744],[33.227571269804,60.46325946185607],[33.20496639024833,60.46682865336243],[33.19068962421335,60.47634649738666],[33.18236151069266,60.47277730587848],[33.18474097169826,60.458500539842134],[33.16570528365213,60.46325946185607],[33.147859326108346,60.46682865336243],[33.13120309906782,60.45969027034698],[33.1050290280034,60.47039784487242],[33.064578190904,60.489433532919975],[33.03483492833078,60.50490002945662],[33.032455467325235,60.521556256498116],[32.98605597771228,60.521556256498116],[32.95750244564152,60.509658951469646],[32.912292686530975,60.49895137694239],[32.905154303513484,60.48348488040392],[32.884928884964154,60.47634649738666],[32.863513735911624,60.48110541940059],[32.85590928296079,60.48701999391729],[32.84209858685915,60.49776164643936],[32.79212990573666,60.5251254480072],[32.69338227399487,60.54773032756293],[32.63270601834614,60.55962763259049],[32.21511061182258,60.69168771841487],[31.829637928877673,60.8094710382029],[31.544102608178605,60.89632136491582],[31.14197369819317,60.70358502344334],[30.756501015249057,60.51626856537314],[30.692255568091127,60.48533557229803],[30.643476617471492,60.46986907575865],[30.60183604987003,60.44964365720989],[30.56852359578778,60.44012581318657],[30.546033131986633,60.44008283709536],[30.53057829181488,60.4531261065663],[30.516278291814878,60.4460261065663],[30.493678291814877,60.4424261065663],[30.48177829181488,60.4186261065663],[30.46397829181488,60.4139261065663],[30.44967829181488,60.4210261065663],[30.44367829181488,60.436526106566305],[30.42227829181488,60.440126106566304],[30.39847829181488,60.4353261065663],[30.35447829181488,60.441226106566305],[30.30217829181488,60.4555261065663],[30.28427829181488,60.4698261065663],[30.25457829181488,60.463926106566305],[30.21407829181488,60.454326106566306],[30.17247829181488,60.4627261065663],[30.142678291814878,60.4865261065663],[30.11417829181488,60.4829261065663],[30.08437829181488,60.4829261065663],[30.06537829181488,60.492426106566306],[30.06417829181488,60.474626106566305],[30.077278291814878,60.457926106566305],[30.098678291814878,60.4460261065663],[30.098678291814878,60.4317261065663],[30.11177829181488,60.3960261065663],[30.06537829181488,60.3520261065663],[30.03087829181488,60.342526106566304],[30.016578291814877,60.3520261065663],[29.995178291814877,60.338926106566305],[30.02497829181488,60.3139261065663],[30.00947829181488,60.3056261065663],[30.02727829181488,60.2818261065663],[29.99397829181488,60.2735261065663],[29.98207829181488,60.2675261065663],[29.93327829181488,60.2711261065663],[29.909478291814878,60.2628261065663],[29.929778291814877,60.2521261065663],[29.89997829181488,60.2461261065663],[29.86307829181488,60.2497261065663],[29.84167829181488,60.250926106566304],[29.838178291814877,60.2271261065663],[29.85357829181488,60.197426106566304],[29.868378291814878,60.1628261065663]]]]}},{"type":"Feature","properties":{"kind":"district","id":"uyezd-1897-26","name":"Шлиссельбургский","provinceId":"gubernia-1897-28"},"geometry":{"type":"MultiPolygon","coordinates":[[[[30.546033131986633,60.44008283709536],[30.519859060921817,60.42937526256992],[30.519859060921817,60.411529305028125],[30.50796175589352,60.38773469496846],[30.491305528852024,60.37226819842999],[30.496064450863628,60.357991432395465],[30.5186693304193,60.34609412736518],[30.505582294887688,60.32824816982247],[30.510341216898553,60.31397140378613],[30.48416714583459,60.29612544624433],[30.503202833881915,60.27590002769466],[30.48416714583459,60.26757191417255],[30.48178768482876,60.186670239974774],[30.517479599916044,60.174772934946304],[30.50796175589352,60.162875629916925],[30.509151486396036,60.152168055391485],[30.49487472036037,60.14859886388331],[30.4770287628171,60.12361452332061],[30.422301159683286,60.117665870807286],[30.41040385465419,60.109337757285175],[30.443716308735645,60.089112338735504],[30.45561361376474,60.07364584219886],[30.47464930181127,60.07007665068886],[30.488926067846194,60.05104096264404],[30.54484340148332,60.05223069314616],[30.56506882003316,60.03676419660769],[30.548412592991667,60.0201079695662],[30.526997443939308,60.001072281519555],[30.53651528796337,59.978467401966554],[30.519859060921817,59.96538036643324],[30.530566635447656,59.94277548687842],[30.560309898020762,59.94872413939174],[30.568638011542305,59.935637103860245],[30.566258550536475,59.891617075253635],[30.60432992662959,59.8642532736867],[30.59124289109718,59.84283812463218],[30.603140196126276,59.804766748540715],[30.596001813108842,59.77621321646893],[30.571017472547318,59.73695210987259],[30.590350009706185,59.72076481181924],[30.637939229822525,59.716005889807136],[30.66768249239496,59.73266211684768],[30.704564137985507,59.73028265584256],[30.733117670055293,59.72552373383046],[30.745014975084445,59.69578047125739],[30.76524039363427,59.67555505270775],[30.786655542686653,59.65413990365599],[30.799742578218986,59.630345293598126],[30.82948584079142,59.60179176152816],[30.86755721688524,59.564910115936996],[30.93537185555149,59.550633349901574],[31.016273529749277,59.53992577537515],[30.98177134516456,59.50066466877887],[31.071250829408598,59.4879448340198],[31.125978432543207,59.493893486534944],[31.171188191653755,59.53196486262823],[31.218777411770134,59.55338001168002],[31.26874609289314,59.5652773167094],[31.296109894459676,59.54981082017275],[31.309196929992027,59.54029297614852],[31.332991540050216,59.54267243715458],[31.3686834551375,59.547431359164875],[31.406754831230614,59.54267243715458],[31.453154320844476,59.537913515141554],[31.48646677492593,59.537913515141554],[31.50152946536491,59.5139691560189],[31.518589498504866,59.49984213904827],[31.548207798064652,59.506440392680815],[31.553091683089633,59.52244701860491],[31.593542520188578,59.52839567111823],[31.605439825217672,59.568846508217575],[31.647080392819873,59.600969231797535],[31.695859343439565,59.60929734531783],[31.77914047864317,59.622384380849326],[31.769622634619907,59.63071249436962],[31.741069102550114,59.64142006889597],[31.761294521099956,59.677111983984105],[31.723223145006045,59.69376821102378],[31.702997726457,59.7032860550471],[31.697049073942082,59.73421904812312],[31.6613571588548,59.74611635315341],[31.63518308779078,59.75801365818188],[31.63518308779078,59.76991096321035],[31.662546889357316,59.78775692075487],[31.651839314831534,59.82701802735119],[31.61376793873842,59.85557155942115],[31.597111711697664,59.87579697797082],[31.586404137171087,59.884125091491114],[31.579265754153653,59.90316077953776],[31.603060364211842,59.905540240543814],[31.597111711697664,59.916247815069255],[31.642321470808213,59.92219646758531],[31.62209605225837,59.95431919116254],[31.549522491580547,59.96383703518677],[31.532205303149055,59.94400819346993],[31.458442011968714,59.91902385290996],[31.385868451290833,59.913075200394815],[31.372781415758425,59.91902385290996],[31.340658692180284,59.92021358341208],[31.32400246513953,59.93686981045357],[31.30734623809883,59.95352603749325],[31.235962407923466,59.95233630699113],[31.215736989373625,59.933300618946305],[31.19670130132704,59.92616223592631],[31.137214776181622,59.9297314274354],[31.08367690355027,59.9380595409566],[31.078917981538666,59.955905498500215],[31.076538520532836,59.978510378055034],[31.097953669585195,59.999925527107735],[31.09081528656776,60.0284790591777],[31.10509205260263,60.03442771169284],[31.116989357631724,60.02728932867467],[31.124127740649215,60.043945555716164],[31.108661244111772,60.04751474722434],[31.082487173047753,60.07249908778613],[31.082487173047753,60.09510396734095],[31.071779598521175,60.118898577398795],[31.068210407012828,60.152211031481784],[31.061072023995393,60.18076456355175],[31.047984988462986,60.185523485562044],[31.047984988462986,60.1664877975154],[31.028949300416457,60.1664877975154],[30.980170349796765,60.17600564153872],[30.94804762621783,60.22002567014624],[30.94804762621783,60.23311270567956],[30.961134661750236,60.24501001070803],[30.95280654822949,60.283081386801314],[30.92663247716547,60.30092734434584],[30.913545441633858,60.34970629496547],[30.89807894509562,60.36636252200515],[30.887371370569042,60.400864706590255],[30.873094604534174,60.41395174212175],[30.869525413025826,60.443695004694746],[30.846920533470154,60.45083338771201],[30.83264376743523,60.45083338771201],[30.821936192909448,60.463920423246236],[30.819556731903617,60.487715033303175],[30.801710774359606,60.49604314682347],[30.798141582850462,60.50437126034467],[30.777916164301416,60.50437126034467],[30.756501015249057,60.51626856537314],[30.692255568091127,60.48533557229803],[30.643476617471492,60.46986907575865],[30.60183604987003,60.44964365720989],[30.56852359578778,60.44012581318657],[30.546033131986633,60.44008283709536]]]]}},{"type":"Feature","properties":{"kind":"district","id":"uyezd-1897-78","name":"Гдовский","provinceId":"gubernia-1897-28"},"geometry":{"type":"MultiPolygon","coordinates":[[[[27.448677336938534,58.44867428868905],[27.472154489750405,58.408271746639954],[27.49475936930615,58.36901064004357],[27.49713883031198,58.34283656897882],[27.476913411762066,58.32023168942485],[27.475723681259506,58.29048842685188],[27.463826376230443,58.278591121822465],[27.480482603271167,58.267883547295256],[27.514984787855173,58.18817160360145],[27.564953468978143,58.14415157499296],[27.579230235013036,58.11321858191788],[27.633957838146866,58.08823424135515],[27.668460022731672,58.08585478035003],[27.840970945653925,58.07752666682883],[28.03132782612097,58.06087043978819],[28.061071088693318,58.06562936180039],[28.144352223897734,58.08347531934491],[28.18123386948828,58.09061370236125],[28.22882308960471,58.097752085378474],[28.250238238657094,58.109649390407895],[28.258566352177766,58.12749534795144],[28.27165338770939,58.12749534795144],[28.287714749499276,58.10429560314424],[28.290887364173184,58.09001883711059],[28.314681974231398,58.07732837841194],[28.33371766227795,58.05670638302763],[28.378134267720384,58.053533768354086],[28.40668779979026,58.01387608492313],[28.44634548322112,58.0154623922608],[28.578008992209952,58.002771933562144],[28.58118160688466,58.044015924330765],[28.573977127728117,58.07673351316137],[28.556131170184923,58.09576920120793],[28.566838744710715,58.13027138579211],[28.554941439681564,58.136220038307215],[28.554941439681564,58.145737882330536],[28.570407936219816,58.14811734333762],[28.58587443275718,58.16477357037718],[28.54661332616089,58.17905033641172],[28.53709548213757,58.19570656345324],[28.515680333085186,58.200465485465344],[28.49783437554199,58.192137371943346],[28.47879868749464,58.19451683295024],[28.463332190957185,58.188568180434245],[28.453814346933154,58.200465485465344],[28.464521921459745,58.21117305998999],[28.4383478503957,58.25400335809529],[28.472850034980418,58.26233147161649],[28.48950626202123,58.26114174111349],[28.522818716102677,58.26709039362859],[28.54661332616089,58.26233147161649],[28.568028475213186,58.25162389709017],[28.601340929295432,58.26233147161649],[28.622756078347816,58.24924443608327],[28.68938098651071,58.26471093262161],[28.65011987991433,58.31111042223432],[28.670345298464156,58.323007727264724],[28.662017184944283,58.33728449330094],[28.68819125600744,58.34442287631728],[28.757195625176962,58.34799206782638],[28.763144277691094,58.36940721687735],[28.829769185855586,58.374166138891226],[28.841666490883938,58.367027755874005],[28.865461100942863,58.36821748637425],[28.861891909433762,58.40152994045721],[28.892824902509467,58.41937589800085],[28.873789214462825,58.4752932316368],[28.929706548099215,58.49432891968344],[28.979675229222185,58.50741595521674],[29.049869328894268,58.49432891968344],[29.130771003092853,58.502657033203846],[29.145047769127835,58.51931326024537],[29.141478577618646,58.531210565274606],[29.16646291818013,58.54786679231613],[29.147427230132866,58.57166140237487],[29.127201811583753,58.57285113287797],[29.10935585403976,58.58474843790641],[29.078422860964853,58.58712789891153],[29.086750974484016,58.607353317461175],[29.085561243982344,58.63352738852602],[29.049869328894268,58.64542469355446],[29.041541215373506,58.66565011210429],[29.01417741380699,58.67516795612761],[28.932086009105845,58.677547417133525],[28.886876249995247,58.6668398426072],[28.877358405971215,58.678737147637506],[28.877358405971215,58.688254991658965],[28.865461100942863,58.69658310518017],[28.84761514339887,58.69182418316895],[28.817871880825724,58.71561879322681],[28.821441072334913,58.741792864291654],[28.84880487390143,58.75963882183352],[28.85475352641636,58.77867450988016],[28.8987735550236,58.8036588504428],[28.84880487390143,58.834591843517885],[28.790508079259208,58.81555615547124],[28.758385355680232,58.80603831144792],[28.74767778115364,58.79889992843158],[28.736970206627937,58.7977101979276],[28.734590745621308,58.81317669446612],[28.726262632101346,58.827453460501545],[28.69889883053403,58.84648914854819],[28.675104220475816,58.85005834005631],[28.64655068840603,58.84886860955429],[28.617997156336244,58.84886860955429],[28.58825389376381,58.85600699257071],[28.563269553202325,58.85243780106161],[28.55137224817255,58.85243780106161],[28.53828521264093,58.86195564508573],[28.54542359565833,58.88575025514447],[28.573977127728117,58.89288863816081],[28.582305241248168,58.90240648218413],[28.60015119879216,58.89764756017203],[28.609669042816193,58.88218106363449],[28.662017184944283,58.87385295011417],[28.667965837458325,58.88812971614959],[28.727452362603817,58.89050917715569],[28.770282660708585,58.884560524640676],[28.827389724848956,58.87028375860605],[28.85951244842802,58.85600699257071],[28.916619512567593,58.85600699257071],[28.95350115815814,58.85243780106161],[28.978485498719714,58.83340211301497],[28.99871091726874,58.82388426899165],[29.00465956978287,58.841730226536086],[29.076043399958223,58.84886860955429],[29.084371513478985,58.866714567096054],[29.06771528643826,58.886939985645796],[29.045110406882607,58.89883729067601],[29.135529925104514,58.919062709225656],[29.137909386110344,58.94999570230074],[29.17360130119762,58.96427246833714],[29.16884237918596,58.984497886886786],[29.180739684215112,58.990446539400125],[29.196206180753276,58.97973896487389],[29.2616413584129,58.997584922418326],[29.290194890482685,59.02018980197309],[29.27115920243622,59.033276837504715],[29.243795400869615,59.04279468152981],[29.2164315993023,59.04874333404305],[29.177170492705923,59.036846029013816],[29.128391542087023,59.05231252555136],[29.102217471022268,59.0630201000767],[29.102217471022268,59.07848659661602],[29.068905016940732,59.09395309315268],[29.045110406882607,59.09990174566974],[29.041541215373506,59.1153682422063],[29.018936335817852,59.12488608622962],[28.993951995257078,59.12369635572573],[28.95588061916397,59.151060157292605],[28.89520436351521,59.17009584533925],[28.878548136474485,59.189131533386956],[28.85237406541053,59.19626991640409],[28.830958916357346,59.22720290948024],[28.830958916357346,59.23910021451046],[28.816682150322453,59.2450488670237],[28.811923228311592,59.27003320758642],[28.770282660708585,59.27479212959685],[28.726262632101346,59.26051536356222],[28.6929501780199,59.2533769805449],[28.613238234324584,59.25456671104702],[28.573977127728117,59.24266940601858],[28.52995709912008,59.23791048400558],[28.508541950067695,59.24266940601858],[28.49545491453616,59.25456671104702],[28.49783437554199,59.28430997362017],[28.456193807939783,59.302155931164606],[28.43120946737821,59.302155931164606],[28.393138091284303,59.302155931164606],[28.352687254186254,59.304535392169726],[28.320564530607278,59.295017548146404],[28.292010998537492,59.295017548146404],[28.27178557998838,59.29144835663641],[28.249180700432724,59.300966200661506],[28.22776555137963,59.30334566166681],[28.206350402327246,59.31048404468483],[28.17541740925154,59.31643269719817],[28.16114064321656,59.31643269719825],[28.146731684903564,59.30889773734725],[28.115798691827948,59.30175935432905],[28.101521925792966,59.29224151030573],[28.07177866321982,59.29224151030573],[28.049173783664255,59.29224151030573],[28.02180998209765,59.28867231879761],[27.983738606003744,59.27796474427031],[27.945667229910725,59.27082636125397],[27.907595853817618,59.260118786727645],[27.86833474722115,59.2363241766689],[27.876662860741913,59.21490902761616],[27.87428339973617,59.194683609066516],[27.836212023642265,59.16850953800255],[27.81241741358405,59.14828411945291],[27.80408930006409,59.15185331096112],[27.779104959502604,59.13757654492659],[27.774346037490943,59.118540856879946],[27.76720765447354,59.095935977325084],[27.76601792397098,59.08046948078666],[27.745792505421157,59.07095163676334],[27.748171966426987,59.04239810469426],[27.719618434357113,59.03406999117394],[27.71485951234554,59.00670618960609],[27.28893599230165,58.73306817393588],[27.369837666500235,58.58435186107184],[27.448677336938534,58.44867428868905]]]]}},{"type":"Feature","properties":{"kind":"district","id":"uyezd-1897-519","name":"Лужский","provinceId":"gubernia-1897-28"},"geometry":{"type":"MultiPolygon","coordinates":[[[[28.83333837736396,58.06721566913801],[28.86546110094285,58.09220000969975],[28.896394094018554,58.13146111629436],[28.961829271678177,58.14097896031768],[29.003469839280385,58.13622003830726],[29.03202337135097,58.169532492387646],[29.22832890433135,58.15168653484578],[29.218811060308116,58.13146111629436],[29.24736459237799,58.11123569774462],[29.217621329804846,58.06959513014313],[29.24736459237799,58.045800520086246],[29.318748422553256,58.02676483203783],[29.34611222411986,58.033903215057805],[29.385373330716238,58.02319564052952],[29.372286295184615,58.01486752701018],[29.380614408704577,58.006539413488085],[29.421065245803515,58.01010860499808],[29.44842904737083,57.99702156946476],[29.482931231955547,57.98750372544322],[29.4948285369847,57.98750372544322],[29.528140991066145,57.99345237795656],[29.5543150621301,57.99702156946476],[29.576919941685045,58.00178049147874],[29.570971289170913,58.02200591002652],[29.588817246714907,58.045800520086246],[29.591196707719938,58.07911297416645],[29.613801587275592,58.09457947070585],[29.65663188538116,58.10171785372219],[29.670908651416052,58.08030270466945],[29.697082722480097,58.07792324366433],[29.688754608960046,58.09576920120797],[29.729205446058984,58.08863081819065],[29.750620595111368,58.09220000969975],[29.797020084725236,58.09338974020285],[29.807727659251828,58.07316432165311],[29.86721418439732,58.06959513014313],[29.896957446969576,58.07792324366433],[29.92194178753106,58.09457947070585],[29.983807773682383,58.107666506237294],[30.012361305752968,58.121943272272816],[30.051622412348635,58.12432273327882],[30.093262979950843,58.14454815182758],[30.103970554476636,58.13503030780426],[30.13133435604395,58.14811734333766],[30.156318696604636,58.17191195339542],[30.240789562312322,58.201655215968486],[30.257445789353135,58.1897579109372],[30.31217339248769,58.202844946470556],[30.3050350094702,58.23496767004865],[30.330019350030973,58.248054705580174],[30.327639889025143,58.25519308859829],[30.3050350094702,58.25876228010837],[30.293137704440426,58.281367159663134],[30.31098366198442,58.300402847709776],[30.296706895949526,58.31943853575642],[30.31098366198442,58.32657691877276],[30.31812204500182,58.33728449330094],[30.30622473997276,58.34561260682126],[30.277671207902173,58.34799206782638],[30.26577390287391,58.36940721687735],[30.280050668908803,58.383683982912686],[30.26339444186728,58.39082236593089],[30.240789562312337,58.414616975988835],[30.1967695337043,58.42056562850385],[30.216994952253412,58.43246293353229],[30.233651179294935,58.437221855545374],[30.241979292814896,58.450308891076816],[30.26458417237055,58.44554996906392],[30.294327434943696,58.461016465602256],[30.327639889025143,58.45625754359202],[30.333588541540074,58.47053430962558],[30.340726924557565,58.46934457912346],[30.345485846568426,58.458637004597136],[30.36333180411242,58.46934457912346],[30.355003690592458,58.4871905366671],[30.391885336182295,58.52407218225649],[30.37284964813645,58.54429760080801],[30.334778272042634,58.54786679231613],[30.333588541540074,58.58474843790641],[30.297896626452797,58.596645742935735],[30.296706895949526,58.612112239472395],[30.31812204500182,58.62281981400058],[30.326450158522583,58.63352738852602],[30.331209080533444,58.65851172908688],[30.335968002545904,58.719187984735115],[30.346675577071696,58.72751609825525],[30.3538139600891,58.72751609825525],[30.37284964813645,58.72632636775225],[30.375229109141483,58.71799825423193],[30.41805940724705,58.719187984735115],[30.429956712275402,58.72394690674713],[30.444233478310295,58.73703394228043],[30.454941052836798,58.73703394228043],[30.46683835786595,58.729895559260456],[30.526324883011352,58.74655178630189],[30.551309223572925,58.74893124730799],[30.57034491162019,58.74298259479377],[30.62269305374828,58.753690169320095],[30.62269305374828,58.765587474349516],[30.63340062827407,58.76915666585862],[30.647677394308964,58.760828552336434],[30.664333621350487,58.77034639636162],[30.665523351852958,58.78224370139006],[30.652436316321335,58.78581289290014],[30.61674440123326,58.78105397088616],[30.597708713186705,58.78224370139006],[30.58462167765517,58.81317669446612],[30.588190869163473,58.827453460501545],[30.542981110052963,58.845299418044206],[30.52989407452054,58.87147348910905],[30.508478925468157,58.884560524640676],[30.47278701038088,58.87623241112115],[30.446612939316836,58.89288863816081],[30.440664286801905,58.92263190073396],[30.41211075473212,58.93571893626718],[30.41330048523459,58.97735950386681],[30.390695605679735,58.97735950386681],[30.357383151598288,58.97022112085057],[30.341916655060036,58.984497886886786],[30.344296116066666,59.02613845448829],[30.341916655060036,59.060640639071494],[30.36690099562152,59.09157363214666],[30.379988031153943,59.08562497963334],[30.36928045662735,59.068968752592696],[30.36690099562152,59.05112279504817],[30.377608570147313,59.04517414253493],[30.390695605679735,59.053502256055154],[30.403782641212157,59.054691986558254],[30.42281832925791,59.04160495102671],[30.456130783340157,59.04874333404305],[30.510858386473988,59.053502256055154],[30.52989407452054,59.08324551862822],[30.57034491162019,59.09395309315268],[30.611985479221687,59.10228120667486],[30.659574699338826,59.11774770321142],[30.697425754968016,59.14493524840786],[30.685528449938953,59.168729858465625],[30.66768249239496,59.19490392952959],[30.626041924793462,59.21156015657111],[30.599867853729418,59.23059584461775],[30.595108931717846,59.256769915682504],[30.60819596724947,59.26390829869884],[30.601057584231977,59.27461587322526],[30.571314321658832,59.28056452574036],[30.56774513015053,59.30792832730821],[30.51539698802253,59.323394823844865],[30.46542830689956,59.31149751881544],[30.391665015719177,59.30911805781032],[30.363111483649302,59.30911805781032],[30.335747682082076,59.31982563233665],[30.3036249585031,59.31744617133153],[30.29410711447978,59.30078994429001],[30.295296844983138,59.27461587322526],[30.264363851906722,59.254390454675516],[30.24532816386008,59.26509802920194],[30.234620589334288,59.26509802920194],[30.227482206316886,59.248441802162276],[30.19298002173217,59.23654449713197],[30.176323794691356,59.21631907858223],[30.158477837147363,59.21988827009231],[30.135872957592508,59.2091806955659],[30.122785922060086,59.19609366003259],[30.04188424786221,59.165160666957505],[30.026417751324047,59.174678510980826],[30.005002602271663,59.167540127962624],[30.013330715791625,59.15326336192808],[29.9966744887509,59.13898659589266],[29.958603112657794,59.13422767388144],[29.93123931109048,59.14374551790476],[29.900306318014863,59.165160666957505],[29.855096558904265,59.1580222839393],[29.812266260799586,59.14374551790476],[29.77419488470568,59.122330368853],[29.756348927162396,59.099725489296375],[29.718322753906275,59.07891845703125],[29.663146972656047,59.056640625000036],[29.607910156250135,59.04083251953122],[29.58325195312482,59.04083251953122],[29.52563476562525,59.045654296875014],[29.47283935546868,59.05798339843843],[29.424865722656175,59.076232910157124],[29.38677978515641,59.089904785156264],[29.33398437499993,59.098449707031236],[29.27526855468728,59.12176513671878],[29.235900878906047,59.107055664063395],[29.22357177734379,59.096069335938374],[29.175842285156158,59.088562011718764],[29.146362304687752,59.100891113281286],[29.125427246093423,59.098449707031236],[29.08361816406276,59.107055664063395],[29.041541215373506,59.1153682422063],[29.045110406882607,59.09990174566974],[29.068905016940732,59.09395309315268],[29.102217471022268,59.07848659661602],[29.102217471022268,59.0630201000767],[29.128391542087023,59.05231252555136],[29.177170492705923,59.036846029013816],[29.2164315993023,59.04874333404305],[29.243795400869615,59.04279468152981],[29.27115920243622,59.033276837504715],[29.290194890482685,59.02018980197309],[29.2616413584129,58.997584922418326],[29.196206180753276,58.97973896487389],[29.180739684215112,58.990446539400125],[29.16884237918596,58.984497886886786],[29.17360130119762,58.96427246833714],[29.137909386110344,58.94999570230074],[29.135529925104514,58.919062709225656],[29.045110406882607,58.89883729067601],[29.06771528643826,58.886939985645796],[29.084371513478985,58.866714567096054],[29.076043399958223,58.84886860955429],[29.00465956978287,58.841730226536086],[28.99871091726874,58.82388426899165],[28.978485498719714,58.83340211301497],[28.95350115815814,58.85243780106161],[28.916619512567593,58.85600699257071],[28.85951244842802,58.85600699257071],[28.827389724848956,58.87028375860605],[28.770282660708585,58.884560524640676],[28.727452362603817,58.89050917715569],[28.667965837458325,58.88812971614959],[28.662017184944283,58.87385295011417],[28.609669042816193,58.88218106363449],[28.60015119879216,58.89764756017203],[28.582305241248168,58.90240648218413],[28.573977127728117,58.89288863816081],[28.54542359565833,58.88575025514447],[28.53828521264093,58.86195564508573],[28.55137224817255,58.85243780106161],[28.563269553202325,58.85243780106161],[28.58825389376381,58.85600699257071],[28.617997156336244,58.84886860955429],[28.64655068840603,58.84886860955429],[28.675104220475816,58.85005834005631],[28.69889883053403,58.84648914854819],[28.726262632101346,58.827453460501545],[28.734590745621308,58.81317669446612],[28.736970206627937,58.7977101979276],[28.74767778115364,58.79889992843158],[28.758385355680232,58.80603831144792],[28.790508079259208,58.81555615547124],[28.84880487390143,58.834591843517885],[28.8987735550236,58.8036588504428],[28.85475352641636,58.77867450988016],[28.84880487390143,58.75963882183352],[28.821441072334913,58.741792864291654],[28.817871880825724,58.71561879322681],[28.84761514339887,58.69182418316895],[28.865461100942863,58.69658310518017],[28.877358405971215,58.688254991658965],[28.877358405971215,58.678737147637506],[28.886876249995247,58.6668398426072],[28.932086009105845,58.677547417133525],[29.01417741380699,58.67516795612761],[29.041541215373506,58.66565011210429],[29.049869328894268,58.64542469355446],[29.085561243982344,58.63352738852602],[29.086750974484016,58.607353317461175],[29.078422860964853,58.58712789891153],[29.10935585403976,58.58474843790641],[29.127201811583753,58.57285113287797],[29.147427230132866,58.57166140237487],[29.16646291818013,58.54786679231613],[29.141478577618646,58.531210565274606],[29.145047769127835,58.51931326024537],[29.130771003092853,58.502657033203846],[29.049869328894268,58.49432891968344],[28.979675229222185,58.50741595521674],[28.929706548099215,58.49432891968344],[28.873789214462825,58.4752932316368],[28.892824902509467,58.41937589800085],[28.861891909433762,58.40152994045721],[28.865461100942863,58.36821748637425],[28.841666490883938,58.367027755874005],[28.829769185855586,58.374166138891226],[28.763144277691094,58.36940721687735],[28.757195625176962,58.34799206782638],[28.68819125600744,58.34442287631728],[28.662017184944283,58.33728449330094],[28.670345298464156,58.323007727264724],[28.65011987991433,58.31111042223432],[28.68938098651071,58.26471093262161],[28.622756078347816,58.24924443608327],[28.601340929295432,58.26233147161649],[28.568028475213186,58.25162389709017],[28.54661332616089,58.26233147161649],[28.522818716102677,58.26709039362859],[28.48950626202123,58.26114174111349],[28.472850034980418,58.26233147161649],[28.4383478503957,58.25400335809529],[28.464521921459745,58.21117305998999],[28.453814346933154,58.200465485465344],[28.463332190957185,58.188568180434245],[28.47879868749464,58.19451683295024],[28.49783437554199,58.192137371943346],[28.515680333085186,58.200465485465344],[28.53709548213757,58.19570656345324],[28.54661332616089,58.17905033641172],[28.58587443275718,58.16477357037718],[28.570407936219816,58.14811734333762],[28.554941439681564,58.145737882330536],[28.554941439681564,58.136220038307215],[28.566838744710715,58.13027138579211],[28.556131170184923,58.09576920120793],[28.573977127728117,58.07673351316137],[28.65963772393764,58.095769201208],[28.672724759469972,58.10885623673944],[28.76314427769108,58.095769201208],[28.788128618252653,58.06840539964104],[28.83333837736396,58.06721566913801]]]]}},{"type":"Feature","properties":{"kind":"district","id":"uyezd-1897-618","name":"Ямбургский","provinceId":"gubernia-1897-28"},"geometry":{"type":"MultiPolygon","coordinates":[[[[28.021068931350715,59.481581684027304],[28.04811624543985,59.46395927955936],[28.082618430024567,59.444923591513515],[28.109982231591083,59.42945709497597],[28.132587111146826,59.41518032894055],[28.127828189135165,59.40090356290601],[28.138535763660958,59.39019598837969],[28.15638172120495,59.38067814435637],[28.168279026234103,59.35807326480151],[28.14805360768428,59.33903757675487],[28.129017919638436,59.32357108021644],[28.16114064321656,59.31643269719825],[28.17541740925154,59.31643269719817],[28.206350402327246,59.31048404468483],[28.22776555137963,59.30334566166681],[28.249180700432724,59.300966200661506],[28.27178557998838,59.29144835663641],[28.292010998537492,59.295017548146404],[28.320564530607278,59.295017548146404],[28.352687254186254,59.304535392169726],[28.393138091284303,59.302155931164606],[28.43120946737821,59.302155931164606],[28.456193807939783,59.302155931164606],[28.49783437554199,59.28430997362017],[28.49545491453616,59.25456671104702],[28.508541950067695,59.24266940601858],[28.52995709912008,59.23791048400558],[28.573977127728117,59.24266940601858],[28.613238234324584,59.25456671104702],[28.6929501780199,59.2533769805449],[28.726262632101346,59.26051536356222],[28.770282660708585,59.27479212959685],[28.811923228311592,59.27003320758642],[28.816682150322453,59.2450488670237],[28.830958916357346,59.23910021451046],[28.830958916357346,59.22720290948024],[28.85237406541053,59.19626991640409],[28.878548136474485,59.189131533386956],[28.89520436351521,59.17009584533925],[28.95588061916397,59.151060157292605],[28.993951995257078,59.12369635572573],[29.018936335817852,59.12488608622962],[29.041541215373506,59.1153682422063],[29.08361816406276,59.107055664063395],[29.125427246093423,59.098449707031236],[29.146362304687752,59.100891113281286],[29.175842285156158,59.088562011718764],[29.22357177734379,59.096069335938374],[29.235900878906047,59.107055664063395],[29.27526855468728,59.12176513671878],[29.33398437499993,59.098449707031236],[29.38677978515641,59.089904785156264],[29.424865722656175,59.076232910157124],[29.47283935546868,59.05798339843843],[29.52563476562525,59.045654296875014],[29.58325195312482,59.04083251953122],[29.607910156250135,59.04083251953122],[29.663146972656047,59.056640625000036],[29.718322753906275,59.07891845703125],[29.756348927162396,59.099725489296375],[29.704000785033685,59.10329468080636],[29.661170486928917,59.096156297788156],[29.588596926251093,59.11281252482968],[29.480331450485902,59.13898659589266],[29.431552499866203,59.15445309243118],[29.41370654232301,59.18419635500415],[29.392291393270625,59.18657581600927],[29.389911932264795,59.20204231254779],[29.402998967796417,59.21156015657111],[29.395860584779015,59.22702665310865],[29.373255705223272,59.23178557512075],[29.31019998856948,59.23654449713197],[29.31138971907204,59.28175425624337],[29.35897893918838,59.28532344775158],[29.36730705270914,59.31744617133153],[29.36254813069748,59.34124078138851],[29.373255705223272,59.34718943390361],[29.402998967796417,59.35075862541183],[29.42084492534041,59.37574296597269],[29.43958376427545,59.40263783855334],[29.439623783950363,59.4192885941305],[29.406223783950363,59.4597885941305],[29.38132378395036,59.4442885941305],[29.361023783950362,59.4608885941305],[29.37652378395036,59.479988594130496],[29.37172378395036,59.512088594130496],[29.324223783950362,59.5037885941305],[29.298023783950363,59.5215885941305],[29.25042378395036,59.544188594130496],[29.221823783950363,59.533488594130496],[29.194523783950363,59.5406885941305],[29.18142378395036,59.5644885941305],[29.139723783950362,59.5727885941305],[29.08262378395036,59.5893885941305],[29.075523783950363,59.6179885941305],[29.01362378395036,59.6179885941305],[28.966023783950362,59.6155885941305],[28.924423783950363,59.6167885941305],[28.917323783950362,59.6345885941305],[28.88402378395036,59.6381885941305],[28.84952378395036,59.6381885941305],[28.84472378395036,59.6583885941305],[28.875623783950363,59.6548885941305],[28.886323783950363,59.6786885941305],[28.885123783950363,59.7000885941305],[28.85662378395036,59.7190885941305],[28.85542378395036,59.7476885941305],[28.84472378395036,59.7761885941305],[28.83572378395036,59.7889885941305],[28.80240728247144,59.781881073727185],[28.766715367383984,59.780691343223204],[28.77028455889273,59.796157839761634],[28.7488694098399,59.79734757026375],[28.728643991290877,59.79734757026375],[28.747679679337075,59.780691343223204],[28.687003423688314,59.77236322970386],[28.676295849162344,59.786639995737424],[28.64536285608646,59.79734757026375],[28.638224473069148,59.80805514479203],[28.570409834403073,59.823521641327794],[28.540666571830105,59.8282805633407],[28.514492500765883,59.84493679038222],[28.4966465432218,59.84017786836914],[28.484749238192915,59.84731625138645],[28.460954628134434,59.83422921585403],[28.43002163505855,59.82233191082559],[28.422883252041238,59.79734757026375],[28.405037294497955,59.77474269070987],[28.413365408018183,59.747378889141224],[28.40384756399433,59.723584279083276],[28.410985947012442,59.6831334419839],[28.381242684439474,59.67361559796058],[28.349119960860765,59.660528562430905],[28.32175615929354,59.65814910142401],[28.296771818732143,59.67242586745846],[28.27059774766792,59.68194371148178],[28.23133664107181,59.67599505896667],[28.200403647996016,59.67599505896667],[28.184937151458474,59.68194371148178],[28.18017822944699,59.6985999385233],[28.181367959949906,59.722394548581164],[28.161142541399993,59.740240506123826],[28.14805550586828,59.778311882218084],[28.117122512792488,59.781881073727185],[28.08737925021952,59.786639995737424],[28.062394909658124,59.786639995737424],[28.045738682616957,59.76165565517745],[28.025513264067843,59.75570700266234],[27.995770001494964,59.75213781115413],[28.00766730652376,59.729532931598385],[27.998149462500617,59.70930751304874],[27.977924043950793,59.70335886053372],[27.980303504956623,59.68551290299088],[27.993390540489134,59.66528748444124],[28.00528784551793,59.654579909913934],[28.02670299457076,59.64863125740069],[28.021944072559187,59.630785299858026],[28.06120517915521,59.60223176778611],[28.064774370663866,59.567729583201036],[28.057635987646552,59.52727874610352],[28.035031108090987,59.495156022524455],[28.021068931350715,59.481581684027304]]]]}},{"type":"Feature","properties":{"kind":"district","id":"uyezd-1897-641","name":"Царскосельский","provinceId":"gubernia-1897-28"},"geometry":{"type":"MultiPolygon","coordinates":[[[[30.697425754968016,59.14493524840786],[30.714081982008828,59.17943743299293],[30.71765117351784,59.20561150405591],[30.731927939552822,59.2091806955659],[30.750963627599376,59.21988827009231],[30.76643012413754,59.232975305623754],[30.810450152744778,59.246062341155294],[30.82829611028886,59.244872610652195],[30.86755721688524,59.22940611411563],[30.87826479141103,59.249631532665276],[30.87707506090847,59.26747749020892],[30.891351826943453,59.26985695121404],[30.896110748955113,59.28651317825556],[30.87826479141103,59.30078994429001],[30.862798294873578,59.30078994429001],[30.83067557129469,59.29841048328489],[30.804501500230646,59.30078994429001],[30.791414464698313,59.315066710325524],[30.7747582376575,59.34124078138851],[30.76167120212588,59.36622512194937],[30.791414464698313,59.3864505404999],[30.794983656207325,59.399537576031435],[30.781896620674992,59.41857326407808],[30.797363117213155,59.43166029961139],[30.849711259341245,59.45069598765714],[30.87112640839363,59.467352214697684],[30.919905359013327,59.46616248419557],[30.948458891083114,59.46854194520078],[30.948458891083114,59.481628980732225],[30.98177134516456,59.50066466877887],[31.016273529749277,59.53992577537515],[30.93537185555149,59.550633349901574],[30.86755721688524,59.564910115936996],[30.82948584079142,59.60179176152816],[30.799742578218986,59.630345293598126],[30.786655542686653,59.65413990365599],[30.76524039363427,59.67555505270775],[30.745014975084445,59.69578047125739],[30.733117670055293,59.72552373383046],[30.704564137985507,59.73028265584256],[30.66768249239496,59.73266211684768],[30.637939229822525,59.716005889807136],[30.590350009706185,59.72076481181924],[30.571017472547318,59.73695210987259],[30.551981784500764,59.75479806741711],[30.51866933041914,59.775023485966756],[30.487736337343257,59.77026456395554],[30.478218493320202,59.777402946972856],[30.478218493320202,59.7893002520013],[30.45204442225589,59.80000782652674],[30.431819003706067,59.79286944350951],[30.424680620688754,59.80833594004794],[30.381850322584075,59.81785378407215],[30.339020024479396,59.7940591740134],[30.291430804362346,59.80357701803584],[30.278343768830634,59.81547432306525],[30.24027239273664,59.81904351457426],[30.233134009719326,59.83451001111278],[30.214098321673216,59.842838124632124],[30.16531937105325,59.840458663626116],[30.1308171864688,59.838079202620904],[30.10226365439866,59.838079202620904],[30.091556079872777,59.80000782652674],[30.039207937744155,59.779782407977976],[29.980911143101135,59.7512288759089],[29.924993809464745,59.72386507434017],[29.888112163874464,59.689362889755984],[29.871455936833296,59.669137471206334],[29.828625638728617,59.65724016617692],[29.827435908225702,59.64296340014238],[29.81196941168736,59.63344555611906],[29.748913695032858,59.62511744259883],[29.72392935447226,59.60132283254097],[29.701324474916607,59.60013310203699],[29.70013474441378,59.58704606650643],[29.726308815478003,59.56444118695069],[29.758431539056712,59.55968226493859],[29.758431539056712,59.551354151418266],[29.70608339692818,59.551354151418266],[29.70846285793392,59.535887654879836],[29.733447198495316,59.532318463371624],[29.762000730565457,59.51447250582798],[29.810779681184535,59.5228006193483],[29.8464715962719,59.5156622363301],[29.87264566733621,59.466883285710495],[29.827435908225702,59.44427840615661],[29.81434887269319,59.47402166872958],[29.738206120506888,59.453796250179934],[29.70608339692818,59.47878059073991],[29.670391481840813,59.471642207723576],[29.679909325863957,59.43951948414353],[29.664442829326415,59.43000164012021],[29.616853609209365,59.44308867565263],[29.5752130416076,59.44308867565263],[29.584730885630655,59.40144810805123],[29.562126006075,59.40620703006244],[29.499070289421297,59.41572487408576],[29.483603792882956,59.39668918604001],[29.43958376427545,59.40263783855334],[29.42084492534041,59.37574296597269],[29.402998967796417,59.35075862541183],[29.373255705223272,59.34718943390361],[29.36254813069748,59.34124078138851],[29.36730705270914,59.31744617133153],[29.35897893918838,59.28532344775158],[29.31138971907204,59.28175425624337],[29.31019998856948,59.23654449713197],[29.373255705223272,59.23178557512075],[29.395860584779015,59.22702665310865],[29.402998967796417,59.21156015657111],[29.389911932264795,59.20204231254779],[29.392291393270625,59.18657581600927],[29.41370654232301,59.18419635500415],[29.431552499866203,59.15445309243118],[29.480331450485902,59.13898659589266],[29.588596926251093,59.11281252482968],[29.661170486928917,59.096156297788156],[29.704000785033685,59.10329468080636],[29.756348927162396,59.099725489296375],[29.77419488470568,59.122330368853],[29.812266260799586,59.14374551790476],[29.855096558904265,59.1580222839393],[29.900306318014863,59.165160666957505],[29.93123931109048,59.14374551790476],[29.958603112657794,59.13422767388144],[29.9966744887509,59.13898659589266],[30.013330715791625,59.15326336192808],[30.005002602271663,59.167540127962624],[30.026417751324047,59.174678510980826],[30.04188424786221,59.165160666957505],[30.122785922060086,59.19609366003259],[30.135872957592508,59.2091806955659],[30.158477837147363,59.21988827009231],[30.176323794691356,59.21631907858223],[30.19298002173217,59.23654449713197],[30.227482206316886,59.248441802162276],[30.234620589334288,59.26509802920194],[30.24532816386008,59.26509802920194],[30.264363851906722,59.254390454675516],[30.295296844983138,59.27461587322526],[30.29410711447978,59.30078994429001],[30.3036249585031,59.31744617133153],[30.335747682082076,59.31982563233665],[30.363111483649302,59.30911805781032],[30.391665015719177,59.30911805781032],[30.46542830689956,59.31149751881544],[30.51539698802253,59.323394823844865],[30.56774513015053,59.30792832730821],[30.571314321658832,59.28056452574036],[30.601057584231977,59.27461587322526],[30.60819596724947,59.26390829869884],[30.595108931717846,59.256769915682504],[30.599867853729418,59.23059584461775],[30.626041924793462,59.21156015657111],[30.66768249239496,59.19490392952959],[30.685528449938953,59.168729858465625],[30.697425754968016,59.14493524840786]]]]}},{"type":"Feature","properties":{"kind":"district","id":"uyezd-1897-643","name":"Новоладожский","provinceId":"gubernia-1897-28"},"geometry":{"type":"MultiPolygon","coordinates":[[[[31.593542520188578,59.52839567111823],[31.601209672318532,59.48768044946428],[31.591691828295495,59.469834491920665],[31.585743175780408,59.45674745638735],[31.576225331757314,59.45198853437614],[31.584553445278004,59.44009122934767],[31.57265614024857,59.42462473280921],[31.580984253768463,59.403209583757416],[31.609537785839223,59.381794434704716],[31.591691828295495,59.37703551269351],[31.56789721823742,59.381794434704716],[31.558379374213587,59.36751766866928],[31.563138296225475,59.33658467559326],[31.542912877675406,59.31516952654238],[31.544102608178605,59.274718689442125],[31.561948565722332,59.26758030642486],[31.56789721823742,59.25092407938337],[31.595261019803445,59.24616515737216],[31.616676168856714,59.25449327089245],[31.65355781444663,59.24735488787519],[31.63571185690364,59.22831919982946],[31.611917246845564,59.198575937256464],[31.622624821371062,59.183109440718],[31.64285023992113,59.177160788203764],[31.66902431098481,59.2045245897707],[31.697577843054773,59.22593973882249],[31.734459488645427,59.23783704385187],[31.759443829205907,59.24616515737216],[31.77610005624723,59.27233922843698],[31.766582212223398,59.28185707246121],[31.739218410656576,59.28780572497362],[31.72256218361599,59.284236533466355],[31.723751914118395,59.29851329950088],[31.745167063170925,59.305651682518146],[31.766582212223398,59.32468737056479],[31.801084396808506,59.32111817905479],[31.84272496441031,59.33063602307902],[31.878416879497763,59.34729225012052],[31.890314184526403,59.3687073991714],[31.895073106538348,59.391312278729856],[31.89864229804789,59.41153769727771],[31.92124717760197,59.41867608029406],[31.94266232665524,59.41272742778074],[31.960508284199022,59.41748634979194],[31.995010468783335,59.41748634979194],[31.997389929789676,59.39607120073924],[32.00333858230323,59.37822524319472],[32.049738071917716,59.37941497369866],[32.09494783102906,59.382984165207745],[32.13301920712212,59.391312278729856],[32.155624086676994,59.38060470420169],[32.20321330679394,59.391312278729856],[32.21511061182258,59.403209583757416],[32.21986953383447,59.41986581079982],[32.243664143892545,59.41867608029406],[32.272217675962565,59.427004193814355],[32.26745875395062,59.47102422242551],[32.2829252504888,59.47102422242551],[32.31504797406751,59.46150637840037],[32.34241177563433,59.447229612364026],[32.372155038207495,59.437711768341615],[32.400708570277516,59.41748634979194],[32.42212371932999,59.41748634979194],[32.44353886838246,59.43176311582738],[32.46614374793813,59.43176311582738],[32.4970767410137,59.45317826488099],[32.555373535656884,59.45555772588432],[32.574409223703015,59.47221395292581],[32.60415248627618,59.479352335944895],[32.630326557340595,59.48649071896034],[32.64698278438118,59.50552640700698],[32.65293143689627,59.545977244107235],[32.65888008940982,59.591187003216874],[32.6719671249424,59.63758649283136],[32.68981308248533,59.64829406735862],[32.73978176360862,59.65662218087891],[32.80997586328044,59.66732975540435],[32.830201281829716,59.67803732993161],[32.84090885635675,59.67922706043282],[32.8468575088703,59.66732975540435],[32.86232400540848,59.666140024901324],[32.870652118928376,59.686365443450995],[32.870652118928376,59.70540113149855],[32.88135969345541,59.719677897532165],[32.884928884964154,59.74466223809395],[32.870652118928376,59.774405500666944],[32.84923696987664,59.795820649719644],[32.82187316830982,59.80176930223388],[32.80997586328044,59.81009741575326],[32.76833529567864,59.818425529273554],[32.73502284159747,59.827943373297785],[32.73621257209987,59.85292771385957],[32.76119691266109,59.871963401907124],[32.802837480262156,59.86839421039622],[32.823062898812225,59.871963401907124],[32.823062898812225,59.89813747296921],[32.830201281829716,59.90884504749647],[32.86113427490528,59.91122450850071],[32.8873083459697,59.89694774246618],[32.905154303513484,59.881481245929535],[32.91110295602857,59.86363528838501],[32.9384667575946,59.861255827379864],[32.94917433212163,59.86958394089925],[32.965830559162214,59.86363528838501],[32.996763552237724,59.861255827379864],[33.00985058777036,59.84697906134352],[33.02412735380534,59.8541174443626],[33.039593850342726,59.861255827379864],[33.08837280096202,59.86839421039622],[33.10264956699706,59.881481245929535],[33.13477229057577,59.88624016794074],[33.13953121258771,59.905275855986474],[33.168084744657676,59.92074235252494],[33.18474097169826,59.9314499270522],[33.18474097169826,59.94215750157764],[33.15737717013144,59.94810615409369],[33.13001336856462,59.96238292012822],[33.11811606353518,59.979039147167896],[33.160946361640185,59.99450564370636],[33.18355124119586,59.99926456571757],[33.17998204968711,60.01948998426815],[33.16332582264579,60.021869445273296],[33.13953121258771,60.05042297734326],[33.11097768051769,60.0956327364529],[33.080044687442125,60.130134921038916],[33.064578190904,60.13727330405618],[33.07647549593338,60.153929531095855],[33.080044687442125,60.1729652191425],[33.14191067359326,60.19081117668702],[33.23351992231835,60.20389821222034],[33.25969399338197,60.17177548864038],[33.2787296814289,60.17058575813735],[33.30609348299572,60.143221956570414],[33.33345728456328,60.14084249556436],[33.35249297260947,60.12537599902771],[33.38461569618897,60.13489384305012],[33.417928150270086,60.11466842450045],[33.41911788077249,60.100391658465924],[33.44648168234011,60.100391658465924],[33.47503521441007,60.11942734651166],[33.510727129496786,60.120617077014685],[33.546419044585036,60.120617077014685],[33.56545473263196,60.10753004148319],[33.627320718783096,60.10515058047804],[33.64397694582368,60.11347869399742],[33.63564883230379,60.12656572953074],[33.65111532884117,60.14798087858162],[33.6677715558817,60.152739800592826],[33.673720208396844,60.16582683612614],[33.6689612863849,60.18962144618308],[33.67847913040873,60.21222632573881],[33.64992559833877,60.22531336127213],[33.65944344236186,60.24434904931877],[33.70584293197555,60.24434904931877],[33.740345116559865,60.24434904931877],[33.79983164170619,60.230072283282425],[33.81172894673483,60.219364708756984],[33.80697002472368,60.20508794272337],[33.834333826289765,60.18843171568187],[33.858128436349375,60.19913929020731],[33.90095873445358,60.19081117668702],[33.930701997026745,60.19081117668702],[33.94378903255853,60.20270848171549],[33.950927415576075,60.22531336127213],[33.969963103622206,60.231262013785454],[33.99970636619537,60.23483120529363],[33.98067067814924,60.250297701833006],[33.96401445110865,60.250297701833006],[33.96163499010231,60.27885123390297],[33.96401445110865,60.31335341848717],[33.948547954569676,60.3193020710014],[33.93427118853549,60.33119937602987],[33.937840380044236,60.34428641156319],[33.974722025634094,60.35499398609045],[33.99613717468742,60.349045333576214],[34.03539828128282,60.34190695055713],[34.08298750139977,60.34190695055713],[34.08774642341166,60.36451183011286],[34.111541033469734,60.38592697916556],[34.146914350886505,60.40633910910765],[34.131766452019065,60.42875727726914],[34.12105887749283,60.45493134833396],[34.10440265045224,60.45374161783093],[34.11748968598408,60.42875727726914],[34.11392049447534,60.40615239771432],[34.1020231894467,60.39544482318797],[34.08179777089657,60.3883064401698],[34.058003160838496,60.37402967413709],[34.01755232373989,60.37878859614648],[34.00327555770491,60.39425509268494],[33.96401445110865,60.3883064401698],[33.914045769985364,60.382357787657384],[33.89144089043049,60.38354751816041],[33.87359493288676,60.39544482318797],[33.801021372208595,60.40853185871947],[33.773657570641774,60.42280862475582],[33.73201700303997,60.42994700777399],[33.72963754203363,60.44184431280246],[33.70346347097001,60.447792965316694],[33.679668860911136,60.46325946185607],[33.6677715558817,60.479915688895744],[33.65944344236186,60.50608975995965],[33.63445910180059,60.509658951469646],[33.60233637822188,60.501330837948444],[33.5773520376606,60.48110541940059],[33.55593688860813,60.47515676688363],[33.52976281754451,60.479915688895744],[33.52500389553256,60.4656389228594],[33.491691441450655,60.47515676688363],[33.464327639883834,60.47158757537545],[33.46194817887829,60.48110541940059],[33.444102221334504,60.488243802416946],[33.44053302982496,60.47515676688363],[33.41435895876134,60.48110541940059],[33.390564348702526,60.488243802416946],[33.37033893015399,60.479915688895744],[33.35130324210627,60.479915688895744],[33.338216206575225,60.48229514990089],[33.32512917104265,60.49538218543239],[33.30728321349886,60.501330837948444],[33.31680105752275,60.48110541940059],[33.29300644746468,60.48110541940059],[33.27635022042256,60.478725958392715],[33.25612480187402,60.48348488040392],[33.24184803583904,60.479915688895744],[33.227571269804,60.46325946185607],[33.20496639024833,60.46682865336243],[33.19068962421335,60.47634649738666],[33.18236151069266,60.47277730587848],[33.18474097169826,60.458500539842134],[33.16570528365213,60.46325946185607],[33.147859326108346,60.46682865336243],[33.13120309906782,60.45969027034698],[33.1050290280034,60.47039784487242],[33.064578190904,60.489433532919975],[33.03483492833078,60.50490002945662],[33.032455467325235,60.521556256498116],[32.98605597771228,60.521556256498116],[32.95750244564152,60.509658951469646],[32.912292686530975,60.49895137694239],[32.905154303513484,60.48348488040392],[32.884928884964154,60.47634649738666],[32.863513735911624,60.48110541940059],[32.855909282960965,60.48701999391747],[32.84209858685915,60.49776164643936],[32.79212990573666,60.5251254480072],[32.69338227399487,60.54773032756293],[32.63270601834614,60.55962763259049],[32.21511061182258,60.69168771841487],[31.829637928877673,60.8094710382029],[31.544102608178605,60.89632136491582],[31.14197369819317,60.70358502344334],[30.756501015249057,60.51626856537314],[30.777916164301416,60.50437126034467],[30.798141582850462,60.50437126034467],[30.801710774359606,60.49604314682347],[30.819556731903617,60.487715033303175],[30.821936192909448,60.463920423246236],[30.83264376743523,60.45083338771201],[30.846920533470154,60.45083338771201],[30.869525413025826,60.443695004694746],[30.873094604534174,60.41395174212175],[30.887371370569042,60.400864706590255],[30.89807894509562,60.36636252200515],[30.913545441633858,60.34970629496547],[30.92663247716547,60.30092734434584],[30.95280654822949,60.283081386801314],[30.961134661750236,60.24501001070803],[30.94804762621783,60.23311270567956],[30.94804762621783,60.22002567014624],[30.980170349796765,60.17600564153872],[31.028949300416457,60.1664877975154],[31.047984988462986,60.1664877975154],[31.047984988462986,60.185523485562044],[31.061072023995393,60.18076456355175],[31.068210407012828,60.152211031481784],[31.071779598521175,60.118898577398795],[31.082487173047753,60.09510396734095],[31.082487173047753,60.07249908778613],[31.108661244111772,60.04751474722434],[31.124127740649215,60.043945555716164],[31.116989357631724,60.02728932867467],[31.10509205260263,60.03442771169284],[31.09081528656776,60.0284790591777],[31.097953669585195,59.999925527107735],[31.076538520532836,59.978510378055034],[31.078917981538666,59.955905498500215],[31.08367690355027,59.9380595409566],[31.137214776181622,59.9297314274354],[31.19670130132704,59.92616223592631],[31.215736989373625,59.933300618946305],[31.235962407923466,59.95233630699113],[31.30734623809883,59.95352603749325],[31.32400246513953,59.93686981045357],[31.340658692180284,59.92021358341208],[31.372781415758425,59.91902385290996],[31.385868451290833,59.913075200394815],[31.458442011968714,59.91902385290996],[31.532205303149055,59.94400819346993],[31.549522491580547,59.96383703518677],[31.62209605225837,59.95431919116254],[31.642321470808213,59.92219646758531],[31.597111711697664,59.916247815069255],[31.603060364211842,59.905540240543814],[31.579265754153653,59.90316077953776],[31.586404137171087,59.884125091491114],[31.597111711697664,59.87579697797082],[31.61376793873842,59.85557155942115],[31.651839314831534,59.82701802735119],[31.662546889357316,59.78775692075487],[31.63518308779078,59.76991096321035],[31.63518308779078,59.75801365818188],[31.6613571588548,59.74611635315341],[31.697049073942082,59.73421904812312],[31.702997726457,59.7032860550471],[31.723223145006045,59.69376821102378],[31.761294521099956,59.677111983984105],[31.741069102550114,59.64142006889597],[31.769622634619907,59.63071249436962],[31.77914047864317,59.622384380849326],[31.695859343439565,59.60929734531783],[31.647080392819873,59.600969231797535],[31.605439825217672,59.568846508217575],[31.593542520188578,59.52839567111823]]]]}},{"type":"Feature","properties":{"kind":"district","id":"uyezd-1897-840","name":"Петергофский","provinceId":"gubernia-1897-28"},"geometry":{"type":"MultiPolygon","coordinates":[[[[28.83572378395036,59.7889885941305],[28.84472378395036,59.7761885941305],[28.85542378395036,59.7476885941305],[28.85662378395036,59.7190885941305],[28.885123783950363,59.7000885941305],[28.886323783950363,59.6786885941305],[28.875623783950363,59.6548885941305],[28.84472378395036,59.6583885941305],[28.84952378395036,59.6381885941305],[28.88402378395036,59.6381885941305],[28.917323783950362,59.6345885941305],[28.924423783950363,59.6167885941305],[28.966023783950362,59.6155885941305],[29.01362378395036,59.6179885941305],[29.075523783950363,59.6179885941305],[29.08262378395036,59.5893885941305],[29.139723783950362,59.5727885941305],[29.18142378395036,59.5644885941305],[29.194523783950363,59.5406885941305],[29.221823783950363,59.533488594130496],[29.25042378395036,59.544188594130496],[29.298023783950363,59.5215885941305],[29.324223783950362,59.5037885941305],[29.37172378395036,59.512088594130496],[29.37652378395036,59.479988594130496],[29.361023783950362,59.4608885941305],[29.38132378395036,59.4442885941305],[29.406223783950363,59.4597885941305],[29.439623783950363,59.4192885941305],[29.43958376427545,59.40263783855334],[29.483603792882956,59.39668918604001],[29.499070289421297,59.41572487408576],[29.562126006075,59.40620703006244],[29.584730885630655,59.40144810805123],[29.5752130416076,59.44308867565263],[29.616853609209365,59.44308867565263],[29.664442829326415,59.43000164012021],[29.679909325863957,59.43951948414353],[29.670391481840813,59.471642207723576],[29.70608339692818,59.47878059073991],[29.738206120506888,59.453796250179934],[29.81434887269319,59.47402166872958],[29.827435908225702,59.44427840615661],[29.87264566733621,59.466883285710495],[29.8464715962719,59.5156622363301],[29.810779681184535,59.5228006193483],[29.762000730565457,59.51447250582798],[29.733447198495316,59.532318463371624],[29.70846285793392,59.535887654879836],[29.70608339692818,59.551354151418266],[29.758431539056712,59.551354151418266],[29.758431539056712,59.55968226493859],[29.726308815478003,59.56444118695069],[29.70013474441378,59.58704606650643],[29.701324474916607,59.60013310203699],[29.72392935447226,59.60132283254097],[29.748913695032858,59.62511744259883],[29.81196941168736,59.63344555611906],[29.827435908225702,59.64296340014238],[29.828625638728617,59.65724016617692],[29.871455936833296,59.669137471206334],[29.888112163874464,59.689362889755984],[29.924993809464745,59.72386507434017],[29.980911143101135,59.7512288759089],[30.039207937744155,59.779782407977976],[30.091556079872777,59.80000782652674],[30.10226365439866,59.838079202620904],[30.08712378395036,59.867588594130495],[30.030223783950362,59.867588594130495],[29.98022378395036,59.8698885941305],[29.951723783950364,59.8758885941305],[29.944523783950363,59.888988594130495],[29.879123783950362,59.9091885941305],[29.84462378395036,59.9043885941305],[29.74112378395036,59.9293885941305],[29.729223783950363,59.938888594130496],[29.700623783950363,59.9424885941305],[29.69352378395036,59.9376885941305],[29.667323783950362,59.9412885941305],[29.630423783950363,59.9400885941305],[29.526923783950362,59.9674885941305],[29.429423783950362,59.9614885941305],[29.380623783950362,59.9757885941305],[29.348523783950363,59.9757885941305],[29.311623783950363,59.987688594130496],[29.26522378395036,59.9817885941305],[29.235423783950363,59.9745885941305],[29.19382378395036,59.9888885941305],[29.180723783950363,59.9829885941305],[29.15572378395036,59.9864885941305],[29.10222378395036,59.9840885941305],[29.087923783950362,59.9710885941305],[29.07012378395036,59.9733885941305],[29.04272378395036,59.9603885941305],[29.024923783950364,59.9269885941305],[28.99992378395036,59.9162885941305],[28.973723783950362,59.9150885941305],[29.005823783950362,59.9008885941305],[29.03202378395036,59.9043885941305],[29.04152378395036,59.888988594130495],[29.03802378395036,59.8651885941305],[29.001123783950362,59.8472885941305],[28.963023783950362,59.818788594130496],[28.92252378395036,59.8139885941305],[28.89042378395036,59.8115885941305],[28.88452378395036,59.8056885941305],[28.86312378395036,59.808088594130496],[28.84762378395036,59.808088594130496],[28.83572378395036,59.7889885941305]]]]}},{"type":"Feature","properties":{"kind":"district","id":"uyezd-1897-841","name":"Петроградский","provinceId":"gubernia-1897-28"},"geometry":{"type":"MultiPolygon","coordinates":[[[[29.868400263976916,60.16286715023094],[29.87677829181488,60.1614261065663],[29.911278291814877,60.1483261065663],[29.91837829181488,60.1209261065663],[29.90407829181488,60.087626106566304],[29.91957829181488,60.0721261065663],[29.94687829181488,60.041226106566306],[29.955278291814878,60.028126106566305],[29.943378291814877,60.0139261065663],[29.95047829181488,60.006726106566305],[30.004078291814878,59.9984261065663],[30.07187829181488,59.9972261065663],[30.12067829181488,59.9865261065663],[30.165878291814877,59.9972261065663],[30.19437829181488,59.9948261065663],[30.220578291814878,59.974626106566305],[30.20627829181488,59.957926106566305],[30.17537829181488,59.9627261065663],[30.17537829181488,59.9496261065663],[30.20627829181488,59.929426106566304],[30.230078291814877,59.9270261065663],[30.237178291814878,59.9163261065663],[30.219378291814877,59.8961261065663],[30.15867829181488,59.872326106566305],[30.118278291814878,59.8675261065663],[30.09497829181488,59.8675261065663],[30.10226365439866,59.838079202620904],[30.1308171864688,59.838079202620904],[30.16531937105325,59.840458663626116],[30.214098321673216,59.842838124632124],[30.233134009719326,59.83451001111278],[30.24027239273664,59.81904351457426],[30.278343768830634,59.81547432306525],[30.291430804362346,59.80357701803584],[30.339020024479396,59.7940591740134],[30.381850322584075,59.81785378407215],[30.424680620688754,59.80833594004794],[30.431819003706067,59.79286944350951],[30.45204442225589,59.80000782652674],[30.478218493320202,59.7893002520013],[30.478218493320202,59.777402946972856],[30.487736337343257,59.77026456395554],[30.51866933041914,59.775023485966756],[30.551981784500764,59.75479806741711],[30.571017472547318,59.73695210987259],[30.596001813108842,59.77621321646893],[30.603140196126276,59.804766748540715],[30.59124289109718,59.84283812463218],[30.60432992662959,59.8642532736867],[30.566258550536475,59.891617075253635],[30.568638011542305,59.935637103860245],[30.560309898020762,59.94872413939174],[30.530566635447656,59.94277548687842],[30.519859060921817,59.96538036643324],[30.53651528796337,59.978467401966554],[30.526997443939308,60.001072281519555],[30.548412592991667,60.0201079695662],[30.56506882003316,60.03676419660769],[30.54484340148332,60.05223069314616],[30.488926067846194,60.05104096264404],[30.47464930181127,60.07007665068886],[30.45561361376474,60.07364584219886],[30.443716308735645,60.089112338735504],[30.41040385465419,60.109337757285175],[30.422301159683286,60.117665870807286],[30.4770287628171,60.12361452332061],[30.49487472036037,60.14859886388331],[30.509151486396036,60.152168055391485],[30.50796175589352,60.162875629916925],[30.517479599916044,60.174772934946304],[30.48178768482876,60.186670239974774],[30.48416714583459,60.26757191417255],[30.503202833881915,60.27590002769466],[30.48416714583459,60.29612544624433],[30.510341216898553,60.31397140378613],[30.505582294887688,60.32824816982247],[30.5186693304193,60.34609412736518],[30.496064450863628,60.357991432395465],[30.491305528852024,60.37226819842999],[30.50796175589352,60.38773469496846],[30.519859060921817,60.411529305028125],[30.519859060921817,60.42937526256992],[30.546033131986633,60.44008283709536],[30.5305666354479,60.45316987262781],[30.516289869413274,60.44603148961049],[30.49368498985771,60.44246229810237],[30.481787684828824,60.418667688043534],[30.46394172728474,60.413908766031426],[30.449664961250114,60.421047149048746],[30.443716308735628,60.43651364558717],[30.422301159682977,60.44008283709539],[30.398506549624408,60.43532391508506],[30.354486521016813,60.44127256759928],[30.30213837888828,60.45554933363381],[30.284292421344997,60.46982609966835],[30.25454915877203,60.46387744715413],[30.21409832167318,60.4543596031317],[30.17245775407053,60.46268771665113],[30.14271449149756,60.486482326709876],[30.114160959428308,60.482913135200775],[30.08441769685543,60.482913135200775],[30.06538200880843,60.492430979224096],[30.064192278305516,60.47458502168135],[30.077279313837227,60.45792879463893],[30.098694462890055,60.44603148961049],[30.098694462890055,60.431754723575956],[30.111781498422566,60.39606280848788],[30.06538200880843,60.352042779880286],[30.03087982422389,60.342524935856964],[30.016603058189265,60.352042779880286],[29.995187909136614,60.33895574434884],[30.024931171709493,60.31397140378611],[30.00946467517124,60.30564329026677],[30.027310632715324,60.28184868020891],[29.9939981786337,60.27352056668771],[29.982100873604015,60.26757191417251],[29.933321922984938,60.27114110568259],[29.909527312926368,60.262812992161386],[29.92975273147628,60.252105417635946],[29.900009468903313,60.246156765120745],[29.863127823313032,60.249725956628964],[29.841712674260293,60.250915687131965],[29.838143482751637,60.227121077075],[29.853609979289978,60.197377814502026],[29.868400263976916,60.16286715023094]]]]}}]}
