{"type":"FeatureCollection","features":[{"type":"Feature","properties":{"kind":"province","id":"gubernia-1897-51","name":"Курская губерния"},"geometry":{"type":"MultiPolygon","coordinates":[[[[34.23751949974595,51.21174813027298],[34.32436982645849,51.24149139284604],[34.35768228054056,51.25695788938358],[34.361251472049304,51.270044924916],[34.39218446512474,51.27718330793323],[34.42906611071547,51.264096272400806],[34.44810179876193,51.264096272400806],[34.480224522341,51.25695788938358],[34.50282940189621,51.264096272400806],[34.54803916100645,51.26290654189869],[34.57064404056237,51.21769678278818],[34.584920806597175,51.21412759127908],[34.59324892011749,51.24744004536026],[34.674150594315634,51.246250314858145],[34.6646327502924,51.2272146268115],[34.69080682135698,51.19747136423844],[34.74315496348471,51.155830796636145],[34.79788256661899,51.15702052713915],[34.81215933265379,51.173676754179695],[34.84309232573003,51.170107562670594],[34.85617936126192,51.172487023676695],[34.85736909176484,51.19747136423844],[34.89187127634902,51.19985082524365],[34.90733777288754,51.20460974725576],[34.92756319143683,51.20342001675364],[34.92875292193975,51.21531732178119],[34.9751524115537,51.237922201336936],[35.00079771350507,51.22919751098284],[35.01507447953988,51.2101618229362],[35.03292043708414,51.20897209243231],[35.0519561251306,51.22443858897074],[35.08526857921187,51.23276670249194],[35.101924806252505,51.21373101444442],[35.09121723172636,51.19945424840899],[35.09478642323511,51.18398775187234],[35.11025291977362,51.16852125533391],[35.119770763796765,51.15424448929937],[35.1364269908374,51.145916375778164],[35.14832429586646,51.12807041823541],[35.151893487375204,51.11141419119487],[35.166170253410016,51.09832715566156],[35.15665240938678,51.086429850633024],[35.1364269908374,51.088809311639125],[35.122150224802596,51.086429850633024],[35.119770763796765,51.05787631856306],[35.168549714415754,51.00195898492623],[35.14832429586646,50.99957952392013],[35.130478338322916,51.013856289955555],[35.10906318927071,50.99957952392013],[35.07218154367989,50.99244114090291],[35.04124855060454,50.99957952392013],[35.02221286255728,50.98649248838771],[35.02459232356311,50.95674922581563],[35.08288911820604,50.911539466704234],[35.087648040217616,50.88893458714849],[35.10787345876779,50.88893458714849],[35.12096049429968,50.8948832396636],[35.166170253410016,50.88774485664638],[35.237554083584925,50.868709168599736],[35.24350273610012,50.88179620413216],[35.28752276470753,50.877037282119076],[35.32559414080117,50.87227836010884],[35.33392225432149,50.91629838871536],[35.37794228292891,50.91748811921934],[35.405218226202074,50.916458838341036],[35.40408412360464,50.902466481295924],[35.381479244049515,50.896517828780816],[35.41122250662204,50.84773887816121],[35.407653315113386,50.81561615458392],[35.42430954215402,50.78706262251396],[35.476657684282465,50.77516531748374],[35.471898762270804,50.727576097367134],[35.455242535230255,50.71805825334381],[35.44691442170985,50.69426364328595],[35.440965769194655,50.652623075683564],[35.410032776119216,50.649053884174464],[35.39337654907858,50.63477711814082],[35.405273854107556,50.6169311605954],[35.423119811651105,50.60860304707508],[35.41955062014236,50.591946820034536],[35.40408412360464,50.585998167521204],[35.410032776119216,50.56577274897067],[35.423119811651105,50.55982409645547],[35.43396318885205,50.53912310361805],[35.436206847182994,50.5348397558955],[35.438586308188825,50.51937325935707],[35.45405280472734,50.51104514583764],[35.46476037925349,50.494388918795224],[35.49093445031727,50.47416350024558],[35.53376474842257,50.46821484773136],[35.550420975463204,50.45512781219894],[35.55517989747477,50.431333202141076],[35.56231828049218,50.38374398202447],[35.57897450753281,50.37184667699603],[35.58016423803573,50.333775300902744],[35.58611289055021,50.32544718738154],[35.6206150751352,50.31949853486821],[35.62180480563802,50.35043152794329],[35.713414054362225,50.344482875428184],[35.782418423531304,50.37660559900725],[35.796695189566194,50.40040020906511],[35.82048979962504,50.436092124152296],[35.860940636723704,50.4420407766675],[35.97277530399799,50.44560996817562],[36.09055862378686,50.443230507171386],[36.11316350334198,50.421815358117755],[36.13933757440585,50.414676975100534],[36.16194245396177,50.39326182604779],[36.200013830054615,50.38493371252845],[36.2214289791069,50.36827748548782],[36.263069546709204,50.36827748548782],[36.25117224168023,50.34924179744118],[36.28805388727015,50.32068826537032],[36.32493553286088,50.3064114993349],[36.33802256839277,50.31830880436432],[36.36062744794798,50.31949853486821],[36.37014529197192,50.28856554179126],[36.38680151901256,50.3052217688319],[36.41892424259091,50.3171190738622],[36.43677020013526,50.30403203832978],[36.44747777466141,50.30998069084489],[36.489118342262906,50.31236015184912],[36.50815403031008,50.29927311631768],[36.53908702338552,50.29332446380248],[36.5521740589175,50.277857967265824],[36.56169190294073,50.24454551318465],[36.57120974696396,50.207663867593475],[36.58429678249665,50.196956293067146],[36.62831681110398,50.20052548457625],[36.669957378706364,50.21123305910169],[36.74015147837836,50.192197371055045],[36.77227420195671,50.201715215078366],[36.82105315257641,50.22907901664621],[36.84603749313736,50.23978659117165],[36.86626291168754,50.24216605217863],[36.85912452867005,50.25406335720797],[36.85912452867005,50.28856554179126],[36.84365803213162,50.31236015184912],[36.8626937201788,50.33258557039876],[36.906713748786125,50.33258557039876],[36.920990514821014,50.343293144926065],[36.9400262028682,50.33020610939364],[37.00665111103153,50.345672605932165],[37.04313617978768,50.35593953953048],[37.13117623700314,50.364267653051684],[37.18947303164616,50.372595766571024],[37.25014928729421,50.39520064612775],[37.29060012439359,50.41185687316829],[37.31796392596037,50.441600135741254],[37.37507099010039,50.44992824926069],[37.39410667814765,50.42732336970494],[37.45576836641796,50.44300007011315],[37.464300777819645,50.445169327249474],[37.509510536929895,50.47491258982244],[37.533305146988724,50.5034661218924],[37.593981402636686,50.536778575973585],[37.62015547370136,50.58555752659319],[37.70224687840232,50.592695909610505],[37.7498360985192,50.596265101120494],[37.847393999757884,50.62243917218436],[37.91401890792122,50.640285129728],[37.97469516356998,50.62005971117836],[38.018715192177396,50.608162406148935],[38.01276653966282,50.6367159382189],[38.0674941427971,50.675977044815184],[38.10913471039949,50.71166895990247],[38.116273093416886,50.74617114448753],[38.13292932045752,50.76758629353939],[38.1246012069372,50.78305279007782],[38.094857944364676,50.817554974661114],[38.04488926324198,50.8127960526499],[38.03656114972175,50.834211201703525],[38.085340100340645,50.84610850673108],[38.125790937440115,50.87942096081403],[38.18646719308888,50.917492336906435],[38.25071264024639,50.96389182652092],[38.29830186036246,50.982927514567564],[38.312578626398064,51.009101585630546],[38.30544024338066,51.043603770215704],[38.31733754840964,51.067398380273474],[38.31545067965302,51.074945855300406],[38.31376835690098,51.08167514630899],[38.254281831755044,51.08286487681288],[38.218589916667234,51.08167514630899],[38.19122611510054,51.06620864977047],[38.156723930515554,51.043603770215704],[38.129360128948775,51.063829188766235],[38.09842713587334,51.086434068320116],[38.0746325258145,51.10546975636676],[38.06154549028261,51.10665948687074],[38.05559683776812,51.10190056485864],[38.06630441229427,51.079295685302895],[38.06868387330002,51.063829188766235],[38.06273522078553,51.05074215323293],[38.038940610727494,51.053121614239025],[38.021094653183226,51.062639458262346],[37.99240892883561,51.08802037565876],[37.986460276321125,51.10943552470963],[37.99954731185301,51.16654258885045],[38.032859765934276,51.18438854639409],[38.055464645490204,51.215321539470054],[38.05903383699886,51.24863399355124],[38.030480304928446,51.24625453254523],[38.04475707096405,51.26529022059187],[38.053085184484374,51.28551563914152],[38.07806952504532,51.302171866182064],[38.07331060303366,51.311689710205385],[38.02334192191105,51.31763836272059],[38.02691111341979,51.33191512875601],[38.053085184484374,51.36284812183109],[38.05665437599312,51.396160575912276],[38.0626030285076,51.43185249100132],[38.02096246090522,51.42352437748012],[37.95195809173614,51.42828329949134],[37.8781948005554,51.43185249100132],[37.84488234647422,51.441370335024644],[37.848451537982875,51.450888179047965],[37.822277466918294,51.462785484076406],[37.79015474333994,51.48776982463825],[37.80086231786609,51.49728766866157],[37.78777528233411,51.51751308721033],[37.78539582132837,51.54606661928118],[37.784715755669026,51.548922895050346],[37.779447168813796,51.57105095984116],[37.76517040277899,51.5877071868817],[37.755652558755045,51.62339910196898],[37.73661687070859,51.63529640699831],[37.73661687070859,51.619829910460766],[37.74613471473182,51.58175853436846],[37.743755253725986,51.5555844633045],[37.72471956567952,51.56986122933815],[37.70806333863889,51.615070988449546],[37.69973522511866,51.65671155605193],[37.70568387763315,51.690024010133115],[37.71877091316503,51.694782932145216],[37.72828875718827,51.71262888968797],[37.74018606221724,51.754269457291244],[37.748514175737554,51.77925379785122],[37.72709902668535,51.835171131489034],[37.72167914328336,51.86019953614236],[37.78925509976804,51.86962666629646],[37.76427075920718,51.885093162833115],[37.73214803562802,51.911267233898755],[37.72144046110188,51.93268238294972],[37.72619938311354,51.94457968797994],[37.71192261707873,51.980271603067216],[37.67623070199163,51.982651064072336],[37.64053878690382,51.995738099605646],[37.61912363785153,51.99454836910175],[37.59057010578112,52.00763540463409],[37.50966843158298,52.00882513513629],[37.48587382152503,51.99454836910175],[37.47278678599305,51.96718456753568],[37.453751097946586,51.96004618451846],[37.43471540989941,51.94338995747604],[37.3990234948124,51.95647699300936],[37.37879807626222,51.97789214206112],[37.3419164306723,52.032619745195035],[37.3133628986026,52.01477378765229],[37.28718882753802,52.00168675211898],[37.24911745144518,52.01953270966351],[37.18249254328184,52.04094785871527],[37.21699472786602,52.07188085179133],[37.17297469925861,52.1063830363764],[37.156318472217265,52.13136737693824],[37.117057365621505,52.1551619869961],[37.06589895399598,52.15159279548611],[37.03972488293211,52.136126298949456],[36.98975620180941,52.105193305872504],[36.923131293646165,52.099244653358284],[36.923131293646165,52.123039263417034],[36.843419349950935,52.11114195838762],[36.811296626371785,52.1099522278855],[36.780363633296346,52.123039263417034],[36.774414980781856,52.149213334480905],[36.756569023238306,52.17300794453876],[36.72920522167081,52.18133605805997],[36.68637492356631,52.18252578856208],[36.66971869652488,52.17062848353275],[36.654252199987155,52.17181821403665],[36.64949327797559,52.18728471057507],[36.63164732043204,52.19680255459839],[36.62926785942629,52.20988959012904],[36.6149910933914,52.213458781639034],[36.60190405785872,52.20632039862171],[36.57810944780068,52.213458781639034],[36.58048890880651,52.22892527817568],[36.5935759443384,52.2420123137081],[36.56145322076004,52.2420123137081],[36.54003807170704,52.22892527817568],[36.494828312596795,52.243202044212],[36.492448851590964,52.27413503728806],[36.448428822982834,52.30387829985925],[36.44485963147409,52.32053452690157],[36.419875290913225,52.33957021494821],[36.39013202833982,52.35622644198885],[36.35919903526438,52.372882669029394],[36.32403588928898,52.382664897608294],[36.31332831476291,52.37314705358497],[36.24551367609675,52.362439479058565],[36.22409852704446,52.336265407994695],[36.18364768994499,52.31841945045194],[36.142007122343486,52.31603998944594],[36.0932281717237,52.31722971994805],[36.05872598713952,52.31722971994805],[36.00637784501116,52.30176322340962],[35.9802037739465,52.30176322340962],[35.9587886248942,52.28510699636899],[35.90406102175993,52.28748645737598],[35.88264587270781,52.30057349290742],[35.857661532146764,52.30176322340962],[35.82910800007636,52.2934351098902],[35.79460581549226,52.2934351098902],[35.764862552918856,52.2910556488841],[35.750585786884045,52.28272753536298],[35.73749875135216,52.281537804860776],[35.71608360229995,52.26012265580901],[35.68039168721205,52.26131238631113],[35.668494382183084,52.25536373379691],[35.65302788564536,52.25893292530512],[35.64351004162213,52.25060481178569],[35.6268538145807,52.2470356202757],[35.61257704854589,52.24465615927058],[35.59830028251109,52.239897237258475],[35.58164405547045,52.23751777625238],[35.513829416804285,52.21253343569241],[35.509070494792624,52.22562047122394],[35.48408615423088,52.22443074072183],[35.45434289165836,52.23870750675636],[35.39842555802116,52.23275885424117],[35.406753671541566,52.22205127971573],[35.38176933098053,52.22799993222995],[35.335369841366656,52.25893292530512],[35.317523883823114,52.274399421843555],[35.29016008225633,52.28272753536298],[35.27112439420915,52.31366052843984],[35.224724904595995,52.30771187592473],[35.21639679107488,52.339834599503796],[35.165238379450145,52.36362920956165],[35.12002862033901,52.342214060509804],[35.112890237321615,52.31366052843984],[35.09266481877232,52.30771187592473],[35.06649074770766,52.28986591838198],[35.048644790164104,52.270830230335335],[35.02841937161482,52.26845076932844],[35.022470719100326,52.27796861335176],[35.02960910211773,52.312470797935944],[35.005814492058896,52.34340379101192],[34.97607122948637,52.355301096042226],[34.95584581093708,52.36957786207587],[34.92372308735784,52.37195732308286],[34.904069602744755,52.36944836760038],[34.90719905259513,52.36772717018263],[34.92385527963656,52.354640134650296],[34.932183393156876,52.335604446603654],[34.92742447114531,52.3094303755397],[34.90957851360096,52.28563576548184],[34.8703174070052,52.26422061643008],[34.87745579002261,52.25351304190278],[34.8988709390749,52.25589250290887],[34.8988709390749,52.24399519787946],[34.88221471203427,52.23090816234712],[34.86436875449071,52.208303282792265],[34.80845142085353,52.19878543876983],[34.776328697275176,52.19402651675773],[34.75729300922799,52.21663139631258],[34.7073243281061,52.226149240336795],[34.688288640058914,52.21306220480437],[34.68471944855017,52.16904217619597],[34.719221633135156,52.15952433217265],[34.74896489570768,52.10003780702663],[34.728739477158385,52.08100211897999],[34.694237292573405,52.066725352946335],[34.657355646983476,52.067915083448455],[34.61809454038692,52.04649993439669],[34.57288478127659,52.04649993439669],[34.57407451177951,52.070294544454555],[34.540762057697435,52.08219184948397],[34.48603445456317,52.04649993439669],[34.422978737908664,52.01675667182283],[34.387286822821565,51.982254487239544],[34.389666283827395,51.954890685670804],[34.36706140427227,51.93228580611595],[34.3337489501902,51.93823445863017],[34.32899002817863,51.915629579075315],[34.35992302125478,51.906111735051994],[34.387286822821565,51.88588631650235],[34.43368631243552,51.915629579075315],[34.45034253947615,51.90254254354298],[34.40394304986219,51.87160955046781],[34.38609709231865,51.86685062845571],[34.384907361815735,51.85257386242117],[34.40632251086802,51.835917635380625],[34.40397221244672,51.810838219996185],[34.41111059546412,51.80845875899009],[34.40992086496121,51.803699836977984],[34.40754140395546,51.79299226245166],[34.40992086496121,51.77395657440502],[34.42895655300767,51.75611061686236],[34.4313360140135,51.737074928815716],[34.42776682250476,51.7263673542893],[34.42308627563298,51.724535835948046],[34.40040302093726,51.71565977976209],[34.35519326182693,51.71328031875599],[34.29927592818983,51.71803924076809],[34.283809431652024,51.69662409171545],[34.24216886404973,51.70376247473267],[34.22551263700909,51.69781382221934],[34.199338565945226,51.70019328322543],[34.12795473577032,51.68591651718903],[34.08036551565353,51.66807055964637],[34.03872494805115,51.649034871599724],[34.03158656503375,51.62999918355308],[34.048242792074376,51.60501484299134],[34.0220687210106,51.5907380769568],[34.00898168547862,51.566943466898934],[34.01374060749019,51.55385643136563],[33.98518707542058,51.53957966533109],[33.988756266929244,51.51578505527323],[33.98280761441404,51.501508289237805],[33.99708438044965,51.49436990622049],[33.999463841455395,51.48128287068816],[33.98280761441404,51.46462664364752],[33.98280761441404,51.4491601471091],[33.991135727935074,51.44321149459488],[33.993515188940904,51.434883381075444],[33.97566923139655,51.419416884537014],[33.92570055027474,51.432503920068456],[33.90547513172456,51.427744998056355],[33.890008635186845,51.42179634554302],[33.86502429462589,51.422986076045134],[33.850747528591086,51.420606615039134],[33.83409130154965,51.428934728560336],[33.840039954064224,51.44797041660698],[33.79364046445098,51.444401225098765],[33.740102591819706,51.432503920068456],[33.71630798176167,51.42179634554302],[33.68894418019409,51.40751957950849],[33.66514957013605,51.39919146598728],[33.62945765504824,51.39443254397517],[33.583058165435,51.39443254397517],[33.59614520096697,51.38015577794064],[33.604473314487294,51.370637933917315],[33.62231927203084,51.361120089893994],[33.535468945318215,51.334946018830124],[33.48668999469842,51.356361167882866],[33.417685625529344,51.352791976372785],[33.351060717366096,51.353981706876766],[33.34749152585735,51.3171000612856],[33.36176829189296,51.280218415695316],[33.37485532742485,51.276649224187196],[33.38080397993942,51.25523407513535],[33.3998396679858,51.23381892608269],[33.386752632453906,51.218352429544176],[33.32131745479357,51.218352429544176],[33.31417907177608,51.226680543065385],[33.28919473121513,51.23262919557969],[33.277297426185356,51.22073189055027],[33.28443580920356,51.19693728049241],[33.33083529881672,51.190988627977305],[33.36057856139004,51.185039975463084],[33.38556290195099,51.17076320942668],[33.408167781506116,51.14577886886671],[33.44504942709684,51.127932911322176],[33.46289538464039,51.106517762270414],[33.470033767657796,51.08629234371979],[33.48431053369259,51.07915396070257],[33.48787972520134,51.06963611667925],[33.48074134218394,51.047031237123505],[33.50096676073403,51.02799554907686],[33.49573292572305,50.997870397703046],[33.511199422261114,50.98954228418184],[33.54927079835423,50.99073201468494],[33.6099470540029,51.0192855467549],[33.671813040154845,51.051408270333965],[33.70988441624786,51.06687476687239],[33.75271471435289,51.0621158448594],[33.76503062826285,51.03971476173139],[33.73290790468414,51.00223825089054],[33.71226387725342,50.970506596135195],[33.74140188003033,50.97737122119905],[33.76519649008837,50.97856095170117],[33.809216518696495,50.98688906522237],[33.829441937245875,50.98569933472025],[33.83895978126911,50.97618149069693],[33.85323654730471,50.97261229918695],[33.861564660825024,50.96785337717573],[33.880600348871404,50.97023283818183],[33.885359270883065,50.98688906522237],[33.92224091647379,51.020201519303555],[33.980537711116014,51.02852963282476],[34.01741935670674,51.04637559036742],[34.02336800922122,51.05827289539772],[34.016229626203824,51.06422154791194],[34.02574747022705,51.085636696963796],[34.05311127179384,51.088016157969804],[34.088803186881556,51.10467238501044],[34.11021833593385,51.14036430009763],[34.11616698844834,51.155830796636145],[34.11497725794543,51.171297293174575],[34.15780755605073,51.21055839977086],[34.23751949974595,51.21174813027298]]]]}},{"type":"Feature","properties":{"kind":"district","id":"uyezd-1897-317","name":"Путивльский","provinceId":"gubernia-1897-51"},"geometry":{"type":"MultiPolygon","coordinates":[[[[33.583058165435,51.39443254397517],[33.59614520096697,51.38015577794064],[33.604473314487294,51.370637933917315],[33.62231927203084,51.361120089893994],[33.535468945318215,51.334946018830124],[33.48668999469842,51.356361167882866],[33.417685625529344,51.352791976372785],[33.351060717366096,51.353981706876766],[33.34749152585735,51.3171000612856],[33.36176829189296,51.280218415695316],[33.37485532742485,51.276649224187196],[33.38080397993942,51.25523407513535],[33.3998396679858,51.23381892608269],[33.386752632453906,51.218352429544176],[33.32131745479357,51.218352429544176],[33.31417907177608,51.226680543065385],[33.28919473121513,51.23262919557969],[33.277297426185356,51.22073189055027],[33.28443580920356,51.19693728049241],[33.33083529881672,51.190988627977305],[33.36057856139004,51.185039975463084],[33.38556290195099,51.17076320942668],[33.408167781506116,51.14577886886671],[33.44504942709684,51.127932911322176],[33.46289538464039,51.106517762270414],[33.470033767657796,51.08629234371979],[33.48431053369259,51.07915396070257],[33.48787972520134,51.06963611667925],[33.48074134218394,51.047031237123505],[33.50096676073403,51.02799554907686],[33.49573292572296,50.99787039770217],[33.51119942226114,50.98954228418188],[33.5492707983542,50.99073201468491],[33.60994705400293,51.01928554675487],[33.6718130401548,51.05140827033392],[33.70988441624786,51.06687476687239],[33.75271471435286,51.06211584485936],[33.76503062826282,51.039714761731375],[33.73290790468411,51.002238250890514],[33.71226387725346,50.97050659613524],[33.74140188003033,50.97737122119905],[33.76519649008837,50.97856095170117],[33.809216518696495,50.98688906522237],[33.829441937245875,50.98569933472025],[33.83895978126911,50.97618149069693],[33.85323654730471,50.97261229918695],[33.861564660825024,50.96785337717573],[33.880600348871404,50.97023283818183],[33.885359270883065,50.98688906522237],[33.92224091647379,51.020201519303555],[33.980537711116014,51.02852963282476],[34.01741935670674,51.04637559036742],[34.02336800922122,51.05827289539772],[34.016229626203824,51.06422154791194],[34.02574747022705,51.085636696963796],[34.05311127179384,51.088016157969804],[34.088803186881556,51.10467238501044],[34.11021833593385,51.14036430009763],[34.11616698844834,51.155830796636145],[34.11497725794543,51.171297293174575],[34.15780755605073,51.21055839977086],[34.23751949974595,51.21174813027298],[34.3041444079092,51.231973548822715],[34.23751949974595,51.26290654189869],[34.22800165572272,51.27242438592201],[34.23276057773429,51.28313196044745],[34.262503840306906,51.28194222994533],[34.28391898935982,51.322393067043734],[34.28272925885699,51.34737740760558],[34.31485198243534,51.34856713810769],[34.331508209475984,51.35332606012068],[34.3326979399789,51.3652233651501],[34.31604171293826,51.38306932269276],[34.281539528354074,51.38306932269276],[34.2541757267865,51.3997255497334],[34.224432464213976,51.3997255497334],[34.20896596767625,51.42827908180425],[34.243468152260434,51.42827908180425],[34.26369357080982,51.43303800381547],[34.274401145336675,51.44969423085601],[34.27083195382793,51.472299110410866],[34.274401145336675,51.49728345097262],[34.25655518779233,51.49728345097262],[34.25655518779233,51.52583698304356],[34.28034979785116,51.532975366059894],[34.269642223325015,51.547252132096204],[34.281539528354074,51.567477550644966],[34.31009306042368,51.58175431667951],[34.345784975511584,51.57580566416529],[34.38861527361608,51.61030784875035],[34.43501476322996,51.632912728305215],[34.45048125976767,51.65194841635274],[34.45524018177933,51.67693275691272],[34.449291529264755,51.711434941497785],[34.43382503272704,51.71976305501722],[34.42308627563298,51.724535835948046],[34.40040302093726,51.71565977976209],[34.35519326182693,51.71328031875599],[34.29927592818983,51.71803924076809],[34.283809431652024,51.69662409171545],[34.24216886404973,51.70376247473267],[34.22551263700909,51.69781382221934],[34.199338565945226,51.70019328322543],[34.12795473577032,51.68591651718903],[34.08036551565353,51.66807055964637],[34.03872494805115,51.649034871599724],[34.03158656503375,51.62999918355308],[34.048242792074376,51.60501484299134],[34.0220687210106,51.5907380769568],[34.00898168547862,51.566943466898934],[34.01374060749019,51.55385643136563],[33.98518707542058,51.53957966533109],[33.988756266929244,51.51578505527323],[33.98280761441404,51.501508289237805],[33.99708438044965,51.49436990622049],[33.999463841455395,51.48128287068816],[33.98280761441404,51.46462664364752],[33.98280761441404,51.4491601471091],[33.991135727935074,51.44321149459488],[33.993515188940904,51.434883381075444],[33.97566923139655,51.419416884537014],[33.92570055027474,51.432503920068456],[33.90547513172456,51.427744998056355],[33.890008635186845,51.42179634554302],[33.86502429462589,51.422986076045134],[33.850747528591086,51.420606615039134],[33.83409130154965,51.428934728560336],[33.840039954064224,51.44797041660698],[33.79364046445098,51.444401225098765],[33.740102591819706,51.432503920068456],[33.71630798176167,51.42179634554302],[33.68894418019409,51.40751957950849],[33.66514957013605,51.39919146598728],[33.62945765504824,51.39443254397517],[33.583058165435,51.39443254397517]]]]}},{"type":"Feature","properties":{"kind":"district","id":"uyezd-1897-318","name":"Рыльский","provinceId":"gubernia-1897-51"},"geometry":{"type":"MultiPolygon","coordinates":[[[[35.10840222787949,51.34618767710346],[35.08936653983311,51.3568952516289],[35.063192468769245,51.3568952516289],[34.99299836909725,51.380689861686754],[34.983480525074015,51.393776897219176],[34.983480525074015,51.411622854763706],[34.94897834048912,51.43184827331246],[34.957306454009355,51.45921207487933],[35.0179827096582,51.45921207487933],[35.03701839770458,51.46516072739355],[35.047725972231525,51.477058032423855],[35.04653624172861,51.487765606949296],[35.00608540462914,51.487765606949296],[34.981101064068184,51.50323210348782],[34.951357801494865,51.52226779153446],[34.93946049646589,51.5413034795811],[34.895440467857675,51.57342620316017],[34.864507474782236,51.59960027422403],[34.83595394271263,51.626964075790994],[34.81334906315671,51.640051111322435],[34.81334906315671,51.65551760786096],[34.826436098688596,51.68645060093604],[34.84309232573003,51.69358898395326],[34.86569720528515,51.69239925345026],[34.882353432325786,51.69120952294814],[34.89068154584611,51.706676019486665],[34.91328642540202,51.7102452109939],[34.91923507791651,51.72928089904054],[34.940650226968714,51.73760901256175],[34.940650226968714,51.75307550910017],[34.92280426942526,51.75902416161439],[34.925183730431,51.76854200563771],[34.94421941847746,51.77211119714681],[34.969203759038415,51.77330092764893],[34.97039348954204,51.79352634619867],[34.95254753199778,51.80423392072588],[34.94659887948329,51.81494149525132],[34.959685915015186,51.82089014776652],[34.958683549924515,51.83191616376381],[34.95519137756017,51.83172991457103],[34.905222696437555,51.816263418031625],[34.78743937664869,51.8115044960205],[34.76364476659065,51.82102234004382],[34.71367608546795,51.813883957026505],[34.67441497887219,51.83410937557615],[34.59827222668571,51.83410937557615],[34.57923653863854,51.82221207054771],[34.54235489304861,51.813883957026505],[34.52450893550506,51.79127907747174],[34.51380136097892,51.8115044960205],[34.48881702041716,51.79365853847774],[34.469781332370786,51.78295096395053],[34.45431483583307,51.804366113003184],[34.41505372923651,51.816263418031625],[34.40397221244672,51.810838219996185],[34.41111059546412,51.80845875899009],[34.40992086496121,51.803699836977984],[34.40754140395546,51.79299226245166],[34.40992086496121,51.77395657440502],[34.42895655300767,51.75611061686236],[34.4313360140135,51.737074928815716],[34.42776682250476,51.7263673542893],[34.42308627563298,51.724535835948046],[34.43382503272704,51.71976305501722],[34.449291529264755,51.711434941497785],[34.45524018177933,51.67693275691272],[34.45048125976767,51.65194841635274],[34.43501476322996,51.632912728305215],[34.38861527361608,51.61030784875035],[34.345784975511584,51.57580566416529],[34.31009306042368,51.58175431667951],[34.281539528354074,51.567477550644966],[34.269642223325015,51.547252132096204],[34.28034979785116,51.532975366059894],[34.25655518779233,51.52583698304356],[34.25655518779233,51.49728345097262],[34.274401145336675,51.49728345097262],[34.27083195382793,51.472299110410866],[34.274401145336675,51.44969423085601],[34.26369357080982,51.43303800381547],[34.243468152260434,51.42827908180425],[34.20896596767625,51.42827908180425],[34.224432464213976,51.3997255497334],[34.2541757267865,51.3997255497334],[34.281539528354074,51.38306932269276],[34.31604171293826,51.38306932269276],[34.3326979399789,51.3652233651501],[34.331508209475984,51.35332606012068],[34.31485198243534,51.34856713810769],[34.28272925885699,51.34737740760558],[34.28391898935982,51.322393067043734],[34.262503840306906,51.28194222994533],[34.23276057773429,51.28313196044745],[34.22800165572272,51.27242438592201],[34.23751949974595,51.26290654189869],[34.3041444079092,51.231973548822715],[34.32436982645849,51.24149139284604],[34.35768228054056,51.25695788938358],[34.361251472049304,51.270044924916],[34.39218446512474,51.27718330793323],[34.42906611071547,51.264096272400806],[34.44810179876193,51.264096272400806],[34.480224522341,51.25695788938358],[34.50282940189621,51.264096272400806],[34.54803916100645,51.26290654189869],[34.57064404056237,51.21769678278818],[34.584920806597175,51.21412759127908],[34.59324892011749,51.24744004536026],[34.674150594315634,51.246250314858145],[34.6646327502924,51.2272146268115],[34.69080682135698,51.19747136423844],[34.74315496348471,51.155830796636145],[34.79788256661899,51.15702052713915],[34.81215933265379,51.173676754179695],[34.84309232573003,51.170107562670594],[34.85617936126192,51.172487023676695],[34.85736909176484,51.19747136423844],[34.89187127634902,51.19985082524365],[34.90733777288754,51.20460974725576],[34.92756319143683,51.20342001675364],[34.92875292193975,51.21531732178119],[34.9751524115537,51.237922201336936],[35.00608540462914,51.25100923686936],[35.020362170663944,51.26885519441389],[35.00846486563497,51.28789088246053],[35.022741631669774,51.29740872648385],[35.028690284184265,51.31525468402651],[35.04653624172861,51.31168549251829],[35.0739000432953,51.300977917991084],[35.09888438385626,51.325962258552835],[35.10840222787949,51.34618767710346]]]]}},{"type":"Feature","properties":{"kind":"district","id":"uyezd-1897-319","name":"Суджанский","provinceId":"gubernia-1897-51"},"geometry":{"type":"MultiPolygon","coordinates":[[[[34.9751524115537,51.237922201336936],[35.00079771350507,51.22919751098284],[35.01507447953988,51.2101618229362],[35.03292043708414,51.20897209243231],[35.0519561251306,51.22443858897074],[35.08526857921187,51.23276670249194],[35.101924806252505,51.21373101444442],[35.09121723172636,51.19945424840899],[35.09478642323511,51.18398775187234],[35.11025291977362,51.16852125533391],[35.119770763796765,51.15424448929937],[35.1364269908374,51.145916375778164],[35.14832429586646,51.12807041823541],[35.151893487375204,51.11141419119487],[35.166170253410016,51.09832715566156],[35.15665240938678,51.086429850633024],[35.1364269908374,51.088809311639125],[35.122150224802596,51.086429850633024],[35.119770763796765,51.05787631856306],[35.168549714415754,51.00195898492623],[35.14832429586646,50.99957952392013],[35.130478338322916,51.013856289955555],[35.10906318927071,50.99957952392013],[35.07218154367989,50.99244114090291],[35.04124855060454,50.99957952392013],[35.02221286255728,50.98649248838771],[35.02459232356311,50.95674922581563],[35.08288911820604,50.911539466704234],[35.087648040217616,50.88893458714849],[35.10787345876779,50.88893458714849],[35.12096049429968,50.8948832396636],[35.166170253410016,50.88774485664638],[35.237554083584925,50.868709168599736],[35.24350273610012,50.88179620413216],[35.28752276470753,50.877037282119076],[35.32559414080117,50.87227836010884],[35.33392225432149,50.91629838871536],[35.37794228292891,50.91748811921934],[35.405218226202074,50.916458838340944],[35.440997999583416,50.91510865821324],[35.49453587221477,50.91510865821324],[35.54331482283456,50.923436771732675],[35.59447323446009,50.8984524311727],[35.600421886974665,50.91867784972146],[35.593283503957174,50.932954615755996],[35.61231919200364,50.936523807265985],[35.61231919200364,50.947231381791426],[35.62540622753553,50.96626706983895],[35.6587186816168,50.96745680034107],[35.706307901733666,50.932954615755996],[35.73605116430699,50.96507733933506],[35.775312270902745,50.96507733933506],[35.80386580297316,50.97935410537049],[35.815763108002216,51.00552817643435],[35.82528095202545,51.013856289955555],[35.841937179066086,51.020994672972876],[35.843126909569,51.03289197800132],[35.79553768945213,51.0364611695113],[35.76817388788535,51.05073793554584],[35.76103550486795,51.0685838930885],[35.75508685235346,51.086429850633024],[35.75389712185054,51.12212176572031],[35.66466733413208,51.12569095722941],[35.64206245457625,51.13401907074875],[35.65039056809648,51.14115745376783],[35.68370302217855,51.155434219801485],[35.69441059670461,51.170900716339915],[35.706307901733666,51.18636721287844],[35.789589036937556,51.19826451790688],[35.78839930643473,51.21730020595352],[35.76936361838826,51.238715355006164],[35.77055334889118,51.255371582046806],[35.7931582284463,51.27321753959133],[35.76936361838826,51.29582241914521],[35.77888146241149,51.33151433423426],[35.77293280989701,51.35530894429212],[35.799106880960785,51.35530894429212],[35.8074349944819,51.37791382384786],[35.81814256900796,51.399328972898736],[35.841937179066086,51.400518703401744],[35.82647068252837,51.42074412195237],[35.83003987403703,51.43859007949503],[35.81814256900796,51.45286684553143],[35.83003987403703,51.50640471816128],[35.86454205862121,51.52306094520191],[35.844316640071824,51.53733771123822],[35.81695283850513,51.536147980734334],[35.77412254039983,51.52306094520191],[35.76698415738243,51.536147980734334],[35.74913819983888,51.53138905872312],[35.73486143380408,51.5218712146998],[35.73486143380408,51.532578789225234],[35.72177439827139,51.53495825023222],[35.706307901733666,51.56589124330819],[35.6729954476524,51.571839895821526],[35.64444191558199,51.53852744174034],[35.66109814262263,51.51235337067648],[35.598042425968835,51.50283552665316],[35.600421886974665,51.48498956910863],[35.55164293635488,51.477851186091314],[35.526658595793926,51.46000522854865],[35.47668991467131,51.44810792351835],[35.42553150304569,51.43859007949503],[35.36604497789985,51.3862419373672],[35.352957942367865,51.37672409334388],[35.36961416940851,51.35887813580122],[35.32916333230983,51.37077544082877],[35.30893791375974,51.37077544082877],[35.27562545967847,51.36363705781146],[35.235174622579095,51.36006786630334],[35.168549714415754,51.37196517133266],[35.119770763796765,51.36363705781146],[35.10840222787949,51.34618767710346],[35.09888438385626,51.325962258552835],[35.0739000432953,51.300977917991084],[35.04653624172861,51.31168549251829],[35.028690284184265,51.31525468402651],[35.022741631669774,51.29740872648385],[35.00846486563497,51.28789088246053],[35.020362170663944,51.26885519441389],[35.00608540462914,51.25100923686936],[34.9751524115537,51.237922201336936]]]]}},{"type":"Feature","properties":{"kind":"district","id":"uyezd-1897-320","name":"Льговский","provinceId":"gubernia-1897-51"},"geometry":{"type":"MultiPolygon","coordinates":[[[[35.583369083099456,51.82935045356503],[35.50365713940423,51.83410937557615],[35.48938037336863,51.824591531551945],[35.46796522431642,51.82697099255893],[35.47034468532216,51.85314506362279],[35.46082684129893,51.878129404184634],[35.48224199035123,51.87931913468675],[35.496518756386834,51.888836978710074],[35.52150309694778,51.87574994317853],[35.52150309694778,51.89359590072129],[35.50365713940423,51.91144185826582],[35.476293337836736,51.93166727681457],[35.427514387217755,51.92809808530636],[35.365648401066075,51.9043034752485],[35.340664060504324,51.91144185826582],[35.307351606423055,51.89954455323551],[35.25738292530044,51.9043034752485],[35.230019123733655,51.87574994317853],[35.20979370518357,51.86028344664011],[35.125322839476766,51.86028344664011],[35.08963092438967,51.85790398563401],[35.04442116527863,51.83648883658225],[34.958683549924515,51.83191616376381],[34.959685915015186,51.82089014776652],[34.94659887948329,51.81494149525132],[34.95254753199778,51.80423392072588],[34.97039348954204,51.79352634619867],[34.969203759038415,51.77330092764893],[34.94421941847746,51.77211119714681],[34.925183730431,51.76854200563771],[34.92280426942526,51.75902416161439],[34.940650226968714,51.75307550910017],[34.940650226968714,51.73760901256175],[34.91923507791651,51.72928089904054],[34.91328642540202,51.7102452109939],[34.89068154584611,51.706676019486665],[34.882353432325786,51.69120952294814],[34.86569720528515,51.69239925345026],[34.84309232573003,51.69358898395326],[34.826436098688596,51.68645060093604],[34.81334906315671,51.65551760786096],[34.81334906315671,51.640051111322435],[34.83595394271263,51.626964075790994],[34.864507474782236,51.59960027422403],[34.895440467857675,51.57342620316017],[34.93946049646589,51.5413034795811],[34.951357801494865,51.52226779153446],[34.981101064068184,51.50323210348782],[35.00608540462914,51.487765606949296],[35.04653624172861,51.487765606949296],[35.047725972231525,51.477058032423855],[35.03701839770458,51.46516072739355],[35.0179827096582,51.45921207487933],[34.957306454009355,51.45921207487933],[34.94897834048912,51.43184827331246],[34.983480525074015,51.411622854763706],[34.983480525074015,51.393776897219176],[34.99299836909725,51.380689861686754],[35.063192468769245,51.3568952516289],[35.08936653983311,51.3568952516289],[35.10840222787949,51.34618767710346],[35.119770763796765,51.36363705781146],[35.168549714415754,51.37196517133266],[35.235174622579095,51.36006786630334],[35.27562545967847,51.36363705781146],[35.30893791375974,51.37077544082877],[35.32916333230983,51.37077544082877],[35.36961416940851,51.35887813580122],[35.352957942367865,51.37672409334388],[35.36604497789985,51.3862419373672],[35.42553150304569,51.43859007949503],[35.47668991467131,51.44810792351835],[35.526658595793926,51.46000522854865],[35.55164293635488,51.477851186091314],[35.600421886974665,51.48498956910863],[35.598042425968835,51.50283552665316],[35.66109814262263,51.51235337067648],[35.64444191558199,51.53852744174034],[35.6729954476524,51.571839895821526],[35.706307901733666,51.56589124330819],[35.7015489797221,51.60158315839449],[35.72058466776848,51.60277288889847],[35.73486143380408,51.621808576945114],[35.74556900833022,51.6575004920323],[35.76698415738243,51.69676159862868],[35.76698415738243,51.72650486120076],[35.75270739134763,51.75624812377373],[35.72415385927722,51.76576596779705],[35.72415385927722,51.780042733831586],[35.68251329167563,51.784801655843694],[35.6515802985994,51.79907842187823],[35.63373434105584,51.82168330143397],[35.58971431244772,51.82168330143397],[35.583369083099456,51.82935045356503]]]]}},{"type":"Feature","properties":{"kind":"district","id":"uyezd-1897-321","name":"Фатежский","provinceId":"gubernia-1897-51"},"geometry":{"type":"MultiPolygon","coordinates":[[[[35.72415385927722,51.780042733831586],[35.737208664420976,51.79357462797999],[35.74315731693528,51.817369238037855],[35.74553677794084,51.83997411759262],[35.76338273548457,51.85068169211992],[35.77528004051399,51.83997411759262],[35.77646977101726,51.823317890552076],[35.80264384208086,51.825697351558084],[35.81811033861902,51.825697351558084],[35.84309467918024,51.812610316026635],[35.86926875024464,51.82688708206118],[35.92161689237273,51.8411638480966],[35.96682665148333,51.85900980563926],[35.963257459974585,51.878045493686884],[35.95611907695701,51.893511990223445],[35.97753422600957,51.90065037324254],[36.009656949588276,51.895891451229545],[36.03107209864075,51.888753068212324],[36.0405899426638,51.888753068212324],[36.044159134172546,51.91016821726497],[36.069143474733856,51.91968606128829],[36.06081536121398,51.95299851536947],[36.09531754579825,51.977982855930335],[36.180978142008236,51.977982855930335],[36.24641331966812,51.975603394925216],[36.27853604324683,52.00177746598908],[36.26306954670938,52.02557207604783],[36.318986880346216,52.08505860119297],[36.343971220907434,52.09457644521629],[36.314227958334286,52.117181324772034],[36.27020792972687,52.14930404835012],[36.29162307877944,52.15168350935622],[36.386801519012465,52.1409759348298],[36.483169689748685,52.136217012818676],[36.522430796344885,52.1433553958359],[36.56526109444992,52.13740674332168],[36.537897292882334,52.17428838891196],[36.5283794488592,52.199272729472824],[36.53075890986484,52.21473922601125],[36.54003807170704,52.22892527817568],[36.494828312596795,52.243202044212],[36.492448851590964,52.27413503728806],[36.448428822982834,52.30387829985925],[36.44485963147409,52.32053452690157],[36.419875290913225,52.33957021494821],[36.39013202833982,52.35622644198885],[36.35919903526438,52.372882669029394],[36.32403588928898,52.382664897608294],[36.31332831476291,52.37314705358497],[36.24551367609675,52.362439479058565],[36.22409852704446,52.336265407994695],[36.18364768994499,52.31841945045194],[36.142007122343486,52.31603998944594],[36.0932281717237,52.31722971994805],[36.05872598713952,52.31722971994805],[36.00637784501116,52.30176322340962],[35.9802037739465,52.30176322340962],[35.9587886248942,52.28510699636899],[35.90406102175993,52.28748645737598],[35.88264587270781,52.30057349290742],[35.857661532146764,52.30176322340962],[35.82910800007636,52.2934351098902],[35.79460581549226,52.2934351098902],[35.764862552918856,52.2910556488841],[35.750585786884045,52.28272753536298],[35.73749875135216,52.281537804860776],[35.71608360229995,52.26012265580901],[35.68039168721205,52.26131238631113],[35.668494382183084,52.25536373379691],[35.65302788564536,52.25893292530512],[35.64351004162213,52.25060481178569],[35.6268538145807,52.2470356202757],[35.62381992019813,52.22315125002932],[35.602404771145835,52.206495022988776],[35.57742043058497,52.194597717959354],[35.54648743750873,52.194597717959354],[35.53459013247967,52.18151068242693],[35.52626201895936,52.15057768935185],[35.51793390543904,52.126783079293105],[35.50365713940423,52.117265235269784],[35.48105225984831,52.120834426777904],[35.46915495481934,52.120834426777904],[35.473913876830906,52.08990143370282],[35.49294956487738,52.06372736263896],[35.50841606141589,52.057778710123756],[35.51912363594195,52.044691674592315],[35.53577986298259,51.99234353246449],[35.56076420354354,51.966169461399645],[35.57742043058497,51.9388056598318],[35.59645611863135,51.92333916329514],[35.59645611863135,51.87931913468675],[35.571471778070396,51.874560212674645],[35.571471778070396,51.86504236865221],[35.589317735613946,51.86028344664011],[35.583369083099456,51.82935045356503],[35.58971431244772,51.82168330143397],[35.63373434105584,51.82168330143397],[35.6515802985994,51.79907842187823],[35.68251329167563,51.784801655843694],[35.72415385927722,51.780042733831586]]]]}},{"type":"Feature","properties":{"kind":"district","id":"uyezd-1897-324","name":"Щигровский","provinceId":"gubernia-1897-51"},"geometry":{"type":"MultiPolygon","coordinates":[[[[36.27853604324683,52.00177746598908],[36.303520383808674,51.99820827448096],[36.342781490404434,51.980362316936436],[36.377283674989414,51.99106989146276],[36.39988855454445,51.963706089895794],[36.453426427175806,51.93991147983794],[36.501015647291965,51.938721749335826],[36.555743250426154,51.94229094084315],[36.555743250426154,51.90659902575685],[36.5593124419349,51.885183876704104],[36.589055704508226,51.87090711066957],[36.580727590987905,51.85187142262293],[36.56169190294073,51.812610316026635],[36.591435165514056,51.76383136540703],[36.61522977557209,51.75788271289272],[36.63783465512721,51.72457025880976],[36.65568061267156,51.70791403176922],[36.66876764820345,51.667463194670724],[36.76037689692765,51.64604804561709],[36.77703312396828,51.65318642863619],[36.775843393465365,51.67460157768804],[36.822242883079326,51.660324811653496],[36.83651964911413,51.67817076919616],[36.851986145651935,51.67222211668194],[36.86864237269329,51.68887834372258],[36.856745067664306,51.734088102833084],[36.898385635265896,51.767400556916044],[36.967390004434975,51.77215947892637],[37.03520464310114,51.79476435848211],[37.092311707241244,51.79476435848211],[37.12324470031668,51.78048759244757],[37.16845445942772,51.745985407862506],[37.2160436795446,51.732898372330965],[37.27553020469044,51.68055023020226],[37.29099670122817,51.7067243012671],[37.382605949952364,51.72813945031975],[37.39569298548425,51.745985407862506],[37.417108134537344,51.75431352138371],[37.44685139710987,51.77810813144148],[37.50633792225572,51.79595408898601],[37.55630660337842,51.803092472003314],[37.615793128523464,51.811420585522654],[37.646726121599706,51.7876259754648],[37.66576180964617,51.79833354999023],[37.670520731657746,51.816179507533874],[37.682418036686805,51.82688708206118],[37.691935880710034,51.84949196161692],[37.72167914328336,51.86019953614236],[37.78925509976804,51.86962666629646],[37.76427075920718,51.885093162833115],[37.73214803562802,51.911267233898755],[37.72144046110188,51.93268238294972],[37.72619938311354,51.94457968797994],[37.71192261707873,51.980271603067216],[37.67623070199163,51.982651064072336],[37.64053878690382,51.995738099605646],[37.61912363785153,51.99454836910175],[37.59057010578112,52.00763540463409],[37.50966843158298,52.00882513513629],[37.48587382152503,51.99454836910175],[37.47278678599305,51.96718456753568],[37.453751097946586,51.96004618451846],[37.43471540989941,51.94338995747604],[37.3990234948124,51.95647699300936],[37.37879807626222,51.97789214206112],[37.3419164306723,52.032619745195035],[37.3133628986026,52.01477378765229],[37.28718882753802,52.00168675211898],[37.24911745144518,52.01953270966351],[37.18249254328184,52.04094785871527],[37.21699472786602,52.07188085179133],[37.17297469925861,52.1063830363764],[37.156318472217265,52.13136737693824],[37.117057365621505,52.1551619869961],[37.06589895399598,52.15159279548611],[37.03972488293211,52.136126298949456],[36.98975620180941,52.105193305872504],[36.923131293646165,52.099244653358284],[36.923131293646165,52.123039263417034],[36.843419349950935,52.11114195838762],[36.811296626371785,52.1099522278855],[36.780363633296346,52.123039263417034],[36.774414980781856,52.149213334480905],[36.756569023238306,52.17300794453876],[36.72920522167081,52.18133605805997],[36.68637492356631,52.18252578856208],[36.66971869652488,52.17062848353275],[36.654252199987155,52.17181821403665],[36.64949327797559,52.18728471057507],[36.63164732043204,52.19680255459839],[36.62926785942629,52.20988959012904],[36.6149910933914,52.213458781639034],[36.60190405785872,52.20632039862171],[36.57810944780068,52.213458781639034],[36.58048890880651,52.22892527817568],[36.5935759443384,52.2420123137081],[36.56145322076004,52.2420123137081],[36.54003807170704,52.22892527817568],[36.53075890986484,52.21473922601125],[36.5283794488592,52.199272729472824],[36.537897292882334,52.17428838891196],[36.56526109444992,52.13740674332168],[36.522430796344885,52.1433553958359],[36.483169689748685,52.136217012818676],[36.386801519012465,52.1409759348298],[36.29162307877944,52.15168350935622],[36.27020792972687,52.14930404835012],[36.314227958334286,52.117181324772034],[36.343971220907434,52.09457644521629],[36.318986880346216,52.08505860119297],[36.26306954670938,52.02557207604783],[36.27853604324683,52.00177746598908]]]]}},{"type":"Feature","properties":{"kind":"district","id":"uyezd-1897-325","name":"Корочанский","provinceId":"gubernia-1897-51"},"geometry":{"type":"MultiPolygon","coordinates":[[[[36.773067355625855,51.148300054473125],[36.786154391157744,51.125695174916494],[36.783774930151914,51.10428002586464],[36.768308433614195,51.084054607315],[36.748083015064104,51.08167514630899],[36.714770560982835,51.069777841279574],[36.696924603439285,51.05669080574715],[36.68740675941534,51.02575781267295],[36.656473766339815,51.004342663619326],[36.621971581755716,50.986496706076665],[36.59460778018823,50.988876167080896],[36.57319263113593,50.987686436578784],[36.583900205662076,50.96746101803002],[36.55534667359238,50.9496150604855],[36.50537799246977,50.92819991143374],[36.47325526889061,50.909164223387094],[36.44827092832966,50.88536961332737],[36.453426427175806,50.86796429671085],[36.49982591678905,50.87748214073417],[36.540276753888435,50.86677456620785],[36.5521740589175,50.878671871238154],[36.59976327903437,50.86439510520175],[36.596194087525625,50.83822103413789],[36.62117842808658,50.82870319011457],[36.66162926518605,50.7989599275415],[36.68304441423825,50.77635504798674],[36.731823364858045,50.78944208351818],[36.76275635793348,50.78587289201006],[36.77703312396828,50.79182154452428],[36.7924996205068,50.78825235301607],[36.81748396106775,50.77397558698162],[36.84841695414319,50.777544778490636],[36.88172940822526,50.7620782819522],[36.91623159280935,50.734714480384355],[36.93050835884496,50.70973013982438],[36.9757181179552,50.70378148730927],[36.96976946544072,50.67046903322809],[36.944785124879765,50.67046903322809],[36.92455970633047,50.658571728197785],[36.92455970633047,50.64310523166024],[36.91504186230644,50.6288284656257],[36.88172940822526,50.61336196908728],[36.87221156420203,50.59908520305274],[36.84603749313736,50.59432628104064],[36.83889911011996,50.580049515006095],[36.85555533716139,50.54435759991882],[36.822242883079326,50.52651164237429],[36.82581207458807,50.51461433734585],[36.89719590476298,50.51104514583764],[36.9126624013007,50.503906762818545],[36.91742132331227,50.46464565622226],[36.911472670797785,50.4420407766675],[36.93764674186245,50.43490239365018],[36.97452838745229,50.419435897111754],[37.00189218901987,50.38136452101935],[37.00665111103153,50.345672605932165],[37.04313617978768,50.35593953953048],[37.13117623700314,50.364267653051684],[37.18947303164616,50.372595766571024],[37.25014928729421,50.39520064612775],[37.29060012439359,50.41185687316829],[37.31796392596037,50.441600135741254],[37.28227201087327,50.440410405237365],[37.26918497534139,50.452307710266695],[37.23944171276806,50.451117979764575],[37.21921629421868,50.47610232032456],[37.208508719692624,50.49037908636096],[37.19780114516648,50.522501809939044],[37.170437343598984,50.527260731950264],[37.15735030806701,50.55105534200812],[37.15972976907284,50.57603968256987],[37.185903840137414,50.60578294514293],[37.27513362785587,50.612921328161036],[37.30130769891965,50.602213753633826],[37.3203433869662,50.617680250172256],[37.3405688055163,50.609352136651054],[37.35365584104818,50.63076728570379],[37.354845571551095,50.65932081777464],[37.3405688055163,50.675977044815184],[37.307256351434226,50.672407853306176],[37.319153656463286,50.690253810849725],[37.35127638004235,50.71166895990247],[37.35960449356267,50.756878719012974],[37.43336778474341,50.7759144070606],[37.43693697625207,50.78781171208992],[37.447644550778215,50.833021471199544],[37.45597266429853,50.86514419477772],[37.55828948754968,50.86038527276739],[37.554720296040934,50.88655934383135],[37.488095387877685,50.918682067410415],[37.47976727435737,50.95794317400581],[37.442885628766554,50.94128694696518],[37.4393164372579,50.93057937243974],[37.45716239480144,50.913923145397334],[37.45121374228696,50.90559503187799],[37.388158025632364,50.900836109865885],[37.38696829512945,50.922251258918536],[37.342948266522036,50.922251258918536],[37.34532772752787,50.96032263501093],[37.28584120238202,50.96746101803002],[37.16329896058149,50.97221994004026],[37.14069408102637,50.96627128752604],[37.13117623700314,50.988876167080896],[37.11452000996259,51.02694754317507],[37.06931025085155,51.04836269222781],[37.06693078984572,51.075726493793795],[36.99078803765915,51.086434068320116],[36.94438854804528,51.11855679189918],[36.90512744144944,51.12926436642648],[36.894419866922576,51.136402749443704],[36.88728148390518,51.149489784975245],[36.86229714334422,51.16971520352489],[36.809949001215784,51.16852547302277],[36.773067355625855,51.148300054473125]]]]}},{"type":"Feature","properties":{"kind":"district","id":"uyezd-1897-326","name":"Тимский","provinceId":"gubernia-1897-51"},"geometry":{"type":"MultiPolygon","coordinates":[[[[36.86229714334422,51.16971520352489],[36.91689255420057,51.17130151086167],[36.972809887836966,51.17249124136565],[36.99898395890163,51.18200908538897],[37.01207099443352,51.20104477343463],[37.03348614348573,51.231977766510695],[37.05252183153219,51.24625453254523],[37.07512671108812,51.24744426304912],[37.07869590259677,51.226029113995494],[37.115577548186785,51.217701000475266],[37.13699269723979,51.222459922487374],[37.13937215824562,51.26766968159788],[37.12866458371947,51.29027456115362],[37.15840784629199,51.3259664762409],[37.151269463274595,51.34500216428843],[37.15483865478334,51.35333027780777],[37.19172030037326,51.34262270328145],[37.23574032898139,51.32715620674391],[37.27500143557795,51.33548432026511],[37.30831388965922,51.33072539825203],[37.32140092519111,51.34619189479055],[37.34043661323837,51.36403785233507],[37.37374906731955,51.374745426860514],[37.38683610285153,51.40210922842747],[37.40349232989216,51.422334646978],[37.42609720944809,51.43423195200556],[37.40349232989216,51.43780114351466],[37.40349232989216,51.449698448544076],[37.42609720944809,51.452077909550084],[37.448702089003206,51.4532676400522],[37.47249669906124,51.46873413659072],[37.48796319559976,51.50085686016969],[37.486773465096846,51.536548775257856],[37.512947536160624,51.55320500229752],[37.52246538018386,51.56986122933815],[37.55220864275718,51.56748176833206],[37.558157295271755,51.55439473280061],[37.568864869797814,51.55320500229752],[37.59741840186742,51.56153311581784],[37.64381789148147,51.56629203782994],[37.66642277103659,51.58294826487057],[37.70806333863889,51.615070988449546],[37.69973522511866,51.65671155605193],[37.70568387763315,51.690024010133115],[37.71877091316503,51.694782932145216],[37.72828875718827,51.71262888968797],[37.74018606221724,51.754269457291244],[37.748514175737554,51.77925379785122],[37.72709902668535,51.835171131489034],[37.72167914328336,51.86019953614236],[37.691935880710034,51.84949196161692],[37.682418036686805,51.82688708206118],[37.670520731657746,51.816179507533874],[37.66576180964617,51.79833354999023],[37.646726121599706,51.7876259754648],[37.615793128523464,51.811420585522654],[37.55630660337842,51.803092472003314],[37.50633792225572,51.79595408898601],[37.44685139710987,51.77810813144148],[37.417108134537344,51.75431352138371],[37.39569298548425,51.745985407862506],[37.382605949952364,51.72813945031975],[37.29099670122817,51.7067243012671],[37.27553020469044,51.68055023020226],[37.2160436795446,51.732898372330965],[37.16845445942772,51.745985407862506],[37.12324470031668,51.78048759244757],[37.092311707241244,51.79476435848211],[37.03520464310114,51.79476435848211],[36.967390004434975,51.77215947892637],[36.898385635265896,51.767400556916044],[36.856745067664306,51.734088102833084],[36.86864237269329,51.68887834372258],[36.851986145651935,51.67222211668194],[36.83651964911413,51.67817076919616],[36.822242883079326,51.660324811653496],[36.775843393465365,51.67460157768804],[36.77703312396828,51.65318642863619],[36.76037689692765,51.64604804561709],[36.66876764820345,51.667463194670724],[36.67180807059961,51.64362452051951],[36.69203348914899,51.610312066438425],[36.62302911997991,51.56272284632182],[36.638495616518426,51.543687158274196],[36.59209612690447,51.50442605167879],[36.57306043885801,51.48420063312915],[36.57187070835509,51.469923867093726],[36.58733720489281,51.465164945082506],[36.60637289293928,51.47468278910583],[36.621839389476996,51.47230332809973],[36.61113181495085,51.4592162925674],[36.59090639640156,51.43661141301254],[36.564732325336976,51.43185249100132],[36.54331717628469,51.42352437748012],[36.57187070835509,51.396160575912276],[36.58971666589864,51.40091949792438],[36.60637289293928,51.39854003691837],[36.6004242404247,51.381883809877735],[36.58376801338416,51.36165839132897],[36.57425016936092,51.34262270328145],[36.62778804199148,51.33548432026511],[36.675377262108356,51.33429458976211],[36.695602680657736,51.32358701523481],[36.70631025518459,51.310499979702385],[36.695602680657736,51.292654022159724],[36.669428609593865,51.27718752562218],[36.669428609593865,51.26291075958578],[36.738432978762944,51.222459922487374],[36.74795082278618,51.16892204985557],[36.773067355625855,51.148300054473125],[36.809949001215784,51.16852547302277],[36.86229714334422,51.16971520352489]]]]}},{"type":"Feature","properties":{"kind":"district","id":"uyezd-1897-327","name":"Обоянский","provinceId":"gubernia-1897-51"},"geometry":{"type":"MultiPolygon","coordinates":[[[[36.57425016936092,51.34262270328145],[36.53379933226145,51.34976108629867],[36.48383065113884,51.373555696358395],[36.4528976580634,51.371176235352294],[36.42077493448424,51.384263270883835],[36.39935978543204,51.396160575912276],[36.36128840933911,51.38545300138595],[36.32083757223964,51.38545300138595],[36.26967916061411,51.40924761144558],[36.16855206786668,51.4104373419477],[36.14118826629918,51.42471410798224],[36.10430662070926,51.43661141301254],[36.080512010651134,51.449698448544076],[36.122152578252724,51.450888179047965],[36.13167042227595,51.465164945082506],[36.124532039258554,51.47468278910583],[36.10192715970343,51.47230332809973],[36.07099416662719,51.48301090262517],[36.03292279053435,51.44374979602888],[35.99961033645228,51.43661141301254],[35.984143839914566,51.42947302999532],[35.957969768850695,51.43661141301254],[35.88539620817287,51.41519626395892],[35.86636052012649,51.41162707245079],[35.841937179066086,51.400518703401744],[35.81814256900796,51.399328972898736],[35.8074349944819,51.37791382384786],[35.799106880960785,51.35530894429212],[35.77293280989701,51.35530894429212],[35.77888146241149,51.33151433423426],[35.76936361838826,51.29582241914521],[35.7931582284463,51.27321753959133],[35.77055334889118,51.255371582046806],[35.76936361838826,51.238715355006164],[35.78839930643473,51.21730020595352],[35.789589036937556,51.19826451790688],[35.706307901733666,51.18636721287844],[35.69441059670461,51.170900716339915],[35.68370302217855,51.155434219801485],[35.65039056809648,51.14115745376783],[35.64206245457625,51.13401907074875],[35.66466733413208,51.12569095722941],[35.75389712185054,51.12212176572031],[35.75508685235346,51.086429850633024],[35.76103550486795,51.0685838930885],[35.76817388788535,51.05073793554584],[35.79553768945213,51.0364611695113],[35.843126909569,51.03289197800132],[35.841937179066086,51.020994672972876],[35.82528095202545,51.013856289955555],[35.815763108002216,51.00552817643435],[35.80386580297316,50.97935410537049],[35.775312270902745,50.96507733933506],[35.782418423531304,50.95124543191464],[35.78122869302848,50.9345892048741],[35.83714602666558,50.932209743868],[35.90852985684049,50.92150216934257],[35.94422177192838,50.90841513381024],[35.970395842992254,50.898897289786916],[35.96563692098059,50.86201564419752],[36.01441587160038,50.84535941715511],[36.086989432278116,50.829892920618455],[36.145286226920334,50.819185346091245],[36.163132184464686,50.79063181402216],[36.20358302156327,50.77159612597552],[36.21667005709524,50.77159612597552],[36.236895475645426,50.77397558698162],[36.27853604324692,50.77397558698162],[36.28210523475567,50.80728804106271],[36.393939902029956,50.78944208351818],[36.41297559007643,50.79777019703939],[36.432011278122886,50.809667502067924],[36.43320100862651,50.84297995615088],[36.453426427175806,50.86796429671085],[36.44827092832966,50.88536961332737],[36.47325526889061,50.909164223387094],[36.50537799246977,50.92819991143374],[36.55534667359238,50.9496150604855],[36.583900205662076,50.96746101803002],[36.57319263113593,50.987686436578784],[36.59460778018823,50.988876167080896],[36.621971581755716,50.986496706076665],[36.656473766339815,51.004342663619326],[36.68740675941534,51.02575781267295],[36.696924603439285,51.05669080574715],[36.714770560982835,51.069777841279574],[36.748083015064104,51.08167514630899],[36.768308433614195,51.084054607315],[36.783774930151914,51.10428002586464],[36.786154391157744,51.125695174916494],[36.773067355625855,51.148300054473125],[36.74795082278618,51.16892204985557],[36.738432978762944,51.222459922487374],[36.669428609593865,51.26291075958578],[36.669428609593865,51.27718752562218],[36.695602680657736,51.292654022159724],[36.70631025518459,51.310499979702385],[36.695602680657736,51.32358701523481],[36.675377262108356,51.33429458976211],[36.62778804199148,51.33548432026511],[36.57425016936092,51.34262270328145]]]]}},{"type":"Feature","properties":{"kind":"district","id":"uyezd-1897-328","name":"Курский","provinceId":"gubernia-1897-51"},"geometry":{"type":"MultiPolygon","coordinates":[[[[35.706307901733666,51.56589124330819],[35.72177439827139,51.53495825023222],[35.73486143380408,51.532578789225234],[35.73486143380408,51.5218712146998],[35.74913819983888,51.53138905872312],[35.76698415738243,51.536147980734334],[35.77412254039983,51.52306094520191],[35.81695283850513,51.536147980734334],[35.844316640071824,51.53733771123822],[35.86454205862121,51.52306094520191],[35.83003987403703,51.50640471816128],[35.81814256900796,51.45286684553143],[35.83003987403703,51.43859007949503],[35.82647068252837,51.42074412195237],[35.841937179066086,51.400518703401744],[35.86636052012649,51.41162707245079],[35.88539620817287,51.41519626395892],[35.957969768850695,51.43661141301254],[35.984143839914566,51.42947302999532],[35.99961033645228,51.43661141301254],[36.03292279053435,51.44374979602888],[36.07099416662719,51.48301090262517],[36.10192715970343,51.47230332809973],[36.124532039258554,51.47468278910583],[36.13167042227595,51.465164945082506],[36.122152578252724,51.450888179047965],[36.080512010651134,51.449698448544076],[36.10430662070926,51.43661141301254],[36.14118826629918,51.42471410798224],[36.16855206786668,51.4104373419477],[36.26967916061411,51.40924761144558],[36.32083757223964,51.38545300138595],[36.36128840933911,51.38545300138595],[36.39935978543204,51.396160575912276],[36.42077493448424,51.384263270883835],[36.4528976580634,51.371176235352294],[36.48383065113884,51.373555696358395],[36.53379933226145,51.34976108629867],[36.57425016936092,51.34262270328145],[36.58376801338416,51.36165839132897],[36.6004242404247,51.381883809877735],[36.60637289293928,51.39854003691837],[36.58971666589864,51.40091949792438],[36.57187070835509,51.396160575912276],[36.54331717628469,51.42352437748012],[36.564732325336976,51.43185249100132],[36.59090639640156,51.43661141301254],[36.61113181495085,51.4592162925674],[36.621839389476996,51.47230332809973],[36.60637289293928,51.47468278910583],[36.58733720489281,51.465164945082506],[36.57187070835509,51.469923867093726],[36.57306043885801,51.48420063312915],[36.59209612690447,51.50442605167879],[36.638495616518426,51.543687158274196],[36.62302911997991,51.56272284632182],[36.69203348914899,51.610312066438425],[36.67180807059961,51.64362452051951],[36.66876764820345,51.667463194670724],[36.65568061267156,51.70791403176922],[36.63783465512721,51.72457025880976],[36.61522977557209,51.75788271289272],[36.591435165514056,51.76383136540703],[36.56169190294073,51.812610316026635],[36.580727590987905,51.85187142262293],[36.589055704508226,51.87090711066957],[36.5593124419349,51.885183876704104],[36.555743250426154,51.90659902575685],[36.555743250426154,51.94229094084315],[36.501015647291965,51.938721749335826],[36.453426427175806,51.93991147983794],[36.39988855454445,51.963706089895794],[36.377283674989414,51.99106989146276],[36.342781490404434,51.980362316936436],[36.303520383808674,51.99820827448096],[36.27853604324683,52.00177746598908],[36.24641331966812,51.975603394925216],[36.180978142008236,51.977982855930335],[36.09531754579825,51.977982855930335],[36.06081536121398,51.95299851536947],[36.069143474733856,51.91968606128829],[36.044159134172546,51.91016821726497],[36.0405899426638,51.888753068212324],[36.03107209864075,51.888753068212324],[36.009656949588276,51.895891451229545],[35.97753422600957,51.90065037324254],[35.95611907695701,51.893511990223445],[35.963257459974585,51.878045493686884],[35.96682665148333,51.85900980563926],[35.92161689237273,51.8411638480966],[35.86926875024464,51.82688708206118],[35.84309467918024,51.812610316026635],[35.81811033861902,51.825697351558084],[35.80264384208086,51.825697351558084],[35.77646977101726,51.823317890552076],[35.77528004051399,51.83997411759262],[35.76338273548457,51.85068169211992],[35.74553677794084,51.83997411759262],[35.74315731693528,51.817369238037855],[35.737208664420976,51.79357462797999],[35.72415385927722,51.780042733831586],[35.72415385927722,51.76576596779705],[35.75270739134763,51.75624812377373],[35.76698415738243,51.72650486120076],[35.76698415738243,51.69676159862868],[35.74556900833022,51.6575004920323],[35.73486143380408,51.621808576945114],[35.72058466776848,51.60277288889847],[35.7015489797221,51.60158315839449],[35.706307901733666,51.56589124330819]]]]}},{"type":"Feature","properties":{"kind":"district","id":"uyezd-1897-335","name":"Грайворонский","provinceId":"gubernia-1897-51"},"geometry":{"type":"MultiPolygon","coordinates":[[[[36.09055862378686,50.443230507171386],[36.14171703541168,50.46464565622226],[36.22261870960982,50.494388918795224],[36.2487927806744,50.51580406784797],[36.269018199223694,50.53840894740371],[36.269018199223694,50.54673706092491],[36.21785978759816,50.55863436595335],[36.196444638545955,50.574100862490894],[36.2214289791069,50.5824289760121],[36.25474143318888,50.574100862490894],[36.301140922802844,50.580049515006095],[36.29995119229993,50.59313655053852],[36.27258739073244,50.61098250808118],[36.240464667154086,50.63477711814082],[36.202393291060446,50.666899841718106],[36.2059624825691,50.68593552976475],[36.249982511177315,50.70616094831528],[36.26782846872078,50.72043771434981],[36.25712089419471,50.733524749881354],[36.21072140458076,50.733524749881354],[36.197634369048785,50.744232324407676],[36.20358302156327,50.75493989893498],[36.21667005709524,50.77159612597552],[36.20358302156327,50.77159612597552],[36.163132184464686,50.79063181402216],[36.145286226920334,50.819185346091245],[36.086989432278116,50.829892920618455],[36.01441587160038,50.84535941715511],[35.96563692098059,50.86201564419752],[35.970395842992254,50.898897289786916],[35.94422177192838,50.90841513381024],[35.90852985684049,50.92150216934257],[35.83714602666558,50.932209743868],[35.78122869302848,50.9345892048741],[35.782418423531304,50.95124543191464],[35.775312270902745,50.96507733933506],[35.73605116430699,50.96507733933506],[35.706307901733666,50.932954615755996],[35.6587186816168,50.96745680034107],[35.62540622753553,50.96626706983895],[35.61231919200364,50.947231381791426],[35.61231919200364,50.936523807265985],[35.593283503957174,50.932954615755996],[35.600421886974665,50.91867784972146],[35.59447323446009,50.8984524311727],[35.54331482283456,50.923436771732675],[35.49453587221477,50.91510865821324],[35.440997999583416,50.91510865821324],[35.405218226202074,50.916458838340944],[35.40408412360464,50.902466481295924],[35.381479244049515,50.896517828780816],[35.41122250662204,50.84773887816121],[35.407653315113386,50.81561615458392],[35.42430954215402,50.78706262251396],[35.476657684282465,50.77516531748374],[35.471898762270804,50.727576097367134],[35.455242535230255,50.71805825334381],[35.44691442170985,50.69426364328595],[35.440965769194655,50.652623075683564],[35.410032776119216,50.649053884174464],[35.39337654907858,50.63477711814082],[35.405273854107556,50.6169311605954],[35.423119811651105,50.60860304707508],[35.41955062014236,50.591946820034536],[35.40408412360464,50.585998167521204],[35.410032776119216,50.56577274897067],[35.423119811651105,50.55982409645547],[35.43396318885205,50.53912310361805],[35.436206847182994,50.5348397558955],[35.438586308188825,50.51937325935707],[35.45405280472734,50.51104514583764],[35.46476037925349,50.494388918795224],[35.49093445031727,50.47416350024558],[35.53376474842257,50.46821484773136],[35.550420975463204,50.45512781219894],[35.55517989747477,50.431333202141076],[35.56231828049218,50.38374398202447],[35.57897450753281,50.37184667699603],[35.58016423803573,50.333775300902744],[35.58611289055021,50.32544718738154],[35.6206150751352,50.31949853486821],[35.62180480563802,50.35043152794329],[35.713414054362225,50.344482875428184],[35.782418423531304,50.37660559900725],[35.796695189566194,50.40040020906511],[35.82048979962504,50.436092124152296],[35.860940636723704,50.4420407766675],[35.97277530399799,50.44560996817562],[36.09055862378686,50.443230507171386]]]]}},{"type":"Feature","properties":{"kind":"district","id":"uyezd-1897-337","name":"Белгородский","provinceId":"gubernia-1897-51"},"geometry":{"type":"MultiPolygon","coordinates":[[[[37.00665111103153,50.345672605932165],[37.00189218901987,50.38136452101935],[36.97452838745229,50.419435897111754],[36.93764674186245,50.43490239365018],[36.911472670797785,50.4420407766675],[36.91742132331227,50.46464565622226],[36.9126624013007,50.503906762818545],[36.89719590476298,50.51104514583764],[36.82581207458807,50.51461433734585],[36.822242883079326,50.52651164237429],[36.85555533716139,50.54435759991882],[36.83889911011996,50.580049515006095],[36.84603749313736,50.59432628104064],[36.87221156420203,50.59908520305274],[36.88172940822526,50.61336196908728],[36.91504186230644,50.6288284656257],[36.92455970633047,50.64310523166024],[36.92455970633047,50.658571728197785],[36.944785124879765,50.67046903322809],[36.96976946544072,50.67046903322809],[36.9757181179552,50.70378148730927],[36.93050835884496,50.70973013982438],[36.91623159280935,50.734714480384355],[36.88172940822526,50.7620782819522],[36.84841695414319,50.777544778490636],[36.81748396106775,50.77397558698162],[36.7924996205068,50.78825235301607],[36.77703312396828,50.79182154452428],[36.76275635793348,50.78587289201006],[36.731823364858045,50.78944208351818],[36.68304441423825,50.77635504798674],[36.66162926518605,50.7989599275415],[36.62117842808658,50.82870319011457],[36.596194087525625,50.83822103413789],[36.59976327903437,50.86439510520175],[36.5521740589175,50.878671871238154],[36.540276753888435,50.86677456620785],[36.49982591678905,50.87748214073417],[36.453426427175806,50.86796429671085],[36.43320100862651,50.84297995615088],[36.432011278122886,50.809667502067924],[36.41297559007643,50.79777019703939],[36.393939902029956,50.78944208351818],[36.28210523475567,50.80728804106271],[36.27853604324692,50.77397558698162],[36.236895475645426,50.77397558698162],[36.21667005709524,50.77159612597552],[36.20358302156327,50.75493989893498],[36.197634369048785,50.744232324407676],[36.21072140458076,50.733524749881354],[36.25712089419471,50.733524749881354],[36.26782846872078,50.72043771434981],[36.249982511177315,50.70616094831528],[36.2059624825691,50.68593552976475],[36.202393291060446,50.666899841718106],[36.240464667154086,50.63477711814082],[36.27258739073244,50.61098250808118],[36.29995119229993,50.59313655053852],[36.301140922802844,50.580049515006095],[36.25474143318888,50.574100862490894],[36.2214289791069,50.5824289760121],[36.196444638545955,50.574100862490894],[36.21785978759816,50.55863436595335],[36.269018199223694,50.54673706092491],[36.269018199223694,50.53840894740371],[36.2487927806744,50.51580406784797],[36.22261870960982,50.494388918795224],[36.14171703541168,50.46464565622226],[36.09055862378686,50.443230507171386],[36.11316350334198,50.421815358117755],[36.13933757440585,50.414676975100534],[36.16194245396177,50.39326182604779],[36.200013830054615,50.38493371252845],[36.2214289791069,50.36827748548782],[36.263069546709204,50.36827748548782],[36.25117224168023,50.34924179744118],[36.28805388727015,50.32068826537032],[36.32493553286088,50.3064114993349],[36.33802256839277,50.31830880436432],[36.36062744794798,50.31949853486821],[36.37014529197192,50.28856554179126],[36.38680151901256,50.3052217688319],[36.41892424259091,50.3171190738622],[36.43677020013526,50.30403203832978],[36.44747777466141,50.30998069084489],[36.489118342262906,50.31236015184912],[36.50815403031008,50.29927311631768],[36.53908702338552,50.29332446380248],[36.5521740589175,50.277857967265824],[36.56169190294073,50.24454551318465],[36.57120974696396,50.207663867593475],[36.58429678249665,50.196956293067146],[36.62831681110398,50.20052548457625],[36.669957378706364,50.21123305910169],[36.74015147837836,50.192197371055045],[36.77227420195671,50.201715215078366],[36.82105315257641,50.22907901664621],[36.84603749313736,50.23978659117165],[36.86626291168754,50.24216605217863],[36.85912452867005,50.25406335720797],[36.85912452867005,50.28856554179126],[36.84365803213162,50.31236015184912],[36.8626937201788,50.33258557039876],[36.906713748786125,50.33258557039876],[36.920990514821014,50.343293144926065],[36.9400262028682,50.33020610939364],[37.00665111103153,50.345672605932165]]]]}},{"type":"Feature","properties":{"kind":"district","id":"uyezd-1897-368","name":"Новооскольский","provinceId":"gubernia-1897-51"},"geometry":{"type":"MultiPolygon","coordinates":[[[[38.021094653183226,51.062639458262346],[37.98659246859904,51.02813727367719],[37.93900324848217,51.02813727367719],[37.908070255406734,51.02099889065996],[37.858101574284035,51.03289619568929],[37.810512354167244,51.03051673468328],[37.73793879348942,51.04836269222781],[37.66060631080003,51.073347032789556],[37.65584738878837,51.080485415806876],[37.65941658029711,51.10309029536075],[37.64276035325648,51.10428002586464],[37.60825816867229,51.09833137334954],[37.56423814006416,51.10428002586464],[37.533305146988724,51.10309029536075],[37.501182423409574,51.11498760039008],[37.48690565737477,51.1304540969286],[37.45478293379561,51.131643827430715],[37.43574724574924,51.10546975636676],[37.461921316813815,51.0876237988241],[37.46905969983122,51.076916224296795],[37.45835212530436,51.068588110777455],[37.421470479714344,51.075726493793795],[37.37745045110622,51.08286487681288],[37.33818934451047,51.080485415806876],[37.307256351434226,51.05431134474291],[37.287030932884846,51.03527565669627],[37.29535904640525,51.01267077714053],[37.28584120238202,50.96746101803002],[37.34532772752787,50.96032263501093],[37.342948266522036,50.922251258918536],[37.38696829512945,50.922251258918536],[37.388158025632364,50.900836109865885],[37.45121374228696,50.90559503187799],[37.45716239480144,50.913923145397334],[37.4393164372579,50.93057937243974],[37.442885628766554,50.94128694696518],[37.47976727435737,50.95794317400581],[37.488095387877685,50.918682067410415],[37.554720296040934,50.88655934383135],[37.55828948754968,50.86038527276739],[37.45597266429853,50.86514419477772],[37.447644550778215,50.833021471199544],[37.43693697625207,50.78781171208992],[37.43336778474341,50.7759144070606],[37.35960449356267,50.756878719012974],[37.35127638004235,50.71166895990247],[37.319153656463286,50.690253810849725],[37.307256351434226,50.672407853306176],[37.3405688055163,50.675977044815184],[37.354845571551095,50.65932081777464],[37.35365584104818,50.63076728570379],[37.3405688055163,50.609352136651054],[37.3203433869662,50.617680250172256],[37.30130769891965,50.602213753633826],[37.27513362785587,50.612921328161036],[37.185903840137414,50.60578294514293],[37.15972976907284,50.57603968256987],[37.15735030806701,50.55105534200812],[37.170437343598984,50.527260731950264],[37.19780114516648,50.522501809939044],[37.208508719692624,50.49037908636096],[37.21921629421868,50.47610232032456],[37.23944171276806,50.451117979764575],[37.26918497534139,50.452307710266695],[37.28227201087327,50.440410405237365],[37.31796392596037,50.441600135741254],[37.37507099010039,50.44992824926069],[37.39410667814765,50.42732336970494],[37.45576836641796,50.44300007011315],[37.464300777819645,50.445169327249474],[37.509510536929895,50.47491258982244],[37.533305146988724,50.5034661218924],[37.593981402636686,50.536778575973585],[37.62015547370136,50.58555752659319],[37.70224687840232,50.592695909610505],[37.7498360985192,50.596265101120494],[37.847393999757884,50.62243917218436],[37.91401890792122,50.640285129728],[37.97469516356998,50.62005971117836],[38.018715192177396,50.608162406148935],[38.01276653966282,50.6367159382189],[38.0674941427971,50.675977044815184],[38.10913471039949,50.71166895990247],[38.116273093416886,50.74617114448753],[38.13292932045752,50.76758629353939],[38.1246012069372,50.78305279007782],[38.094857944364676,50.817554974661114],[38.04488926324198,50.8127960526499],[38.03656114972175,50.834211201703525],[38.085340100340645,50.84610850673108],[38.125790937440115,50.87942096081403],[38.18646719308888,50.917492336906435],[38.25071264024639,50.96389182652092],[38.29830186036246,50.982927514567564],[38.312578626398064,51.009101585630546],[38.30544024338066,51.043603770215704],[38.31733754840964,51.067398380273474],[38.31545067965302,51.074945855300406],[38.31376835690098,51.08167514630899],[38.254281831755044,51.08286487681288],[38.218589916667234,51.08167514630899],[38.19122611510054,51.06620864977047],[38.156723930515554,51.043603770215704],[38.129360128948775,51.063829188766235],[38.09842713587334,51.086434068320116],[38.0746325258145,51.10546975636676],[38.06154549028261,51.10665948687074],[38.05559683776812,51.10190056485864],[38.06630441229427,51.079295685302895],[38.06868387330002,51.063829188766235],[38.06273522078553,51.05074215323293],[38.038940610727494,51.053121614239025],[38.021094653183226,51.062639458262346]]]]}},{"type":"Feature","properties":{"kind":"district","id":"uyezd-1897-370","name":"Старооскольский","provinceId":"gubernia-1897-51"},"geometry":{"type":"MultiPolygon","coordinates":[[[[37.784715755669026,51.548922895050346],[37.779447168813796,51.57105095984116],[37.76517040277899,51.5877071868817],[37.755652558755045,51.62339910196898],[37.73661687070859,51.63529640699831],[37.73661687070859,51.619829910460766],[37.74613471473182,51.58175853436846],[37.743755253725986,51.5555844633045],[37.72471956567952,51.56986122933815],[37.70806333863889,51.615070988449546],[37.66642277103659,51.58294826487057],[37.64381789148147,51.56629203782994],[37.59741840186742,51.56153311581784],[37.568864869797814,51.55320500229752],[37.558157295271755,51.55439473280061],[37.55220864275718,51.56748176833206],[37.52246538018386,51.56986122933815],[37.512947536160624,51.55320500229752],[37.486773465096846,51.536548775257856],[37.48796319559976,51.50085686016969],[37.47249669906124,51.46873413659072],[37.448702089003206,51.4532676400522],[37.42609720944809,51.452077909550084],[37.40349232989216,51.449698448544076],[37.40349232989216,51.43780114351466],[37.42609720944809,51.43423195200556],[37.40349232989216,51.422334646978],[37.38683610285153,51.40210922842747],[37.37374906731955,51.374745426860514],[37.34043661323837,51.36403785233507],[37.32140092519111,51.34619189479055],[37.30831388965922,51.33072539825203],[37.27500143557795,51.33548432026511],[37.23574032898139,51.32715620674391],[37.19172030037326,51.34262270328145],[37.15483865478334,51.35333027780777],[37.151269463274595,51.34500216428843],[37.15840784629199,51.3259664762409],[37.12866458371947,51.29027456115362],[37.13937215824562,51.26766968159788],[37.13699269723979,51.222459922487374],[37.115577548186785,51.217701000475266],[37.07869590259677,51.226029113995494],[37.07512671108812,51.24744426304912],[37.05252183153219,51.24625453254523],[37.03348614348573,51.231977766510695],[37.01207099443352,51.20104477343463],[36.99898395890163,51.18200908538897],[36.972809887836966,51.17249124136565],[36.91689255420057,51.17130151086167],[36.86229714334422,51.16971520352489],[36.88728148390518,51.149489784975245],[36.894419866922576,51.136402749443704],[36.90512744144944,51.12926436642648],[36.94438854804528,51.11855679189918],[36.99078803765915,51.086434068320116],[37.06693078984572,51.075726493793795],[37.06931025085155,51.04836269222781],[37.11452000996259,51.02694754317507],[37.13117623700314,50.988876167080896],[37.14069408102637,50.96627128752604],[37.16329896058149,50.97221994004026],[37.28584120238202,50.96746101803002],[37.29535904640525,51.01267077714053],[37.287030932884846,51.03527565669627],[37.307256351434226,51.05431134474291],[37.33818934451047,51.080485415806876],[37.37745045110622,51.08286487681288],[37.421470479714344,51.075726493793795],[37.45835212530436,51.068588110777455],[37.46905969983122,51.076916224296795],[37.461921316813815,51.0876237988241],[37.43574724574924,51.10546975636676],[37.45478293379561,51.131643827430715],[37.48690565737477,51.1304540969286],[37.501182423409574,51.11498760039008],[37.533305146988724,51.10309029536075],[37.56423814006416,51.10428002586464],[37.60825816867229,51.09833137334954],[37.64276035325648,51.10428002586464],[37.65941658029711,51.10309029536075],[37.65584738878837,51.080485415806876],[37.66060631080003,51.073347032789556],[37.73793879348942,51.04836269222781],[37.810512354167244,51.03051673468328],[37.858101574284035,51.03289619568929],[37.908070255406734,51.02099889065996],[37.93900324848217,51.02813727367719],[37.98659246859904,51.02813727367719],[38.021094653183226,51.062639458262346],[37.99240892883561,51.08802037565876],[37.986460276321125,51.10943552470963],[37.99954731185301,51.16654258885045],[38.032859765934276,51.18438854639409],[38.055464645490204,51.215321539470054],[38.05903383699886,51.24863399355124],[38.030480304928446,51.24625453254523],[38.04475707096405,51.26529022059187],[38.053085184484374,51.28551563914152],[38.07806952504532,51.302171866182064],[38.07331060303366,51.311689710205385],[38.02334192191105,51.31763836272059],[38.02691111341979,51.33191512875601],[38.053085184484374,51.36284812183109],[38.05665437599312,51.396160575912276],[38.0626030285076,51.43185249100132],[38.02096246090522,51.42352437748012],[37.95195809173614,51.42828329949134],[37.8781948005554,51.43185249100132],[37.84488234647422,51.441370335024644],[37.848451537982875,51.450888179047965],[37.822277466918294,51.462785484076406],[37.79015474333994,51.48776982463825],[37.80086231786609,51.49728766866157],[37.78777528233411,51.51751308721033],[37.78539582132837,51.54606661928118],[37.784715755669026,51.548922895050346]]]]}},{"type":"Feature","properties":{"kind":"district","id":"uyezd-1897-753","name":"Дмитриевский","provinceId":"gubernia-1897-51"},"geometry":{"type":"MultiPolygon","coordinates":[[[[34.904069602744755,52.36944836760038],[34.90719905259513,52.36772717018263],[34.92385527963656,52.354640134650296],[34.932183393156876,52.335604446603654],[34.92742447114531,52.3094303755397],[34.90957851360096,52.28563576548184],[34.8703174070052,52.26422061643008],[34.87745579002261,52.25351304190278],[34.8988709390749,52.25589250290887],[34.8988709390749,52.24399519787946],[34.88221471203427,52.23090816234712],[34.86436875449071,52.208303282792265],[34.80845142085353,52.19878543876983],[34.776328697275176,52.19402651675773],[34.75729300922799,52.21663139631258],[34.7073243281061,52.226149240336795],[34.688288640058914,52.21306220480437],[34.68471944855017,52.16904217619597],[34.719221633135156,52.15952433217265],[34.74896489570768,52.10003780702663],[34.728739477158385,52.08100211897999],[34.694237292573405,52.066725352946335],[34.657355646983476,52.067915083448455],[34.61809454038692,52.04649993439669],[34.57288478127659,52.04649993439669],[34.57407451177951,52.070294544454555],[34.540762057697435,52.08219184948397],[34.48603445456317,52.04649993439669],[34.422978737908664,52.01675667182283],[34.387286822821565,51.982254487239544],[34.389666283827395,51.954890685670804],[34.36706140427227,51.93228580611595],[34.3337489501902,51.93823445863017],[34.32899002817863,51.915629579075315],[34.35992302125478,51.906111735051994],[34.387286822821565,51.88588631650235],[34.43368631243552,51.915629579075315],[34.45034253947615,51.90254254354298],[34.40394304986219,51.87160955046781],[34.38609709231865,51.86685062845571],[34.384907361815735,51.85257386242117],[34.40632251086802,51.835917635380625],[34.40397221244672,51.810838219996185],[34.41505372923651,51.816263418031625],[34.45431483583307,51.804366113003184],[34.469781332370786,51.78295096395053],[34.48881702041716,51.79365853847774],[34.51380136097892,51.8115044960205],[34.52450893550506,51.79127907747174],[34.54235489304861,51.813883957026505],[34.57923653863854,51.82221207054771],[34.59827222668571,51.83410937557615],[34.67441497887219,51.83410937557615],[34.71367608546795,51.813883957026505],[34.76364476659065,51.82102234004382],[34.78743937664869,51.8115044960205],[34.905222696437555,51.816263418031625],[34.95519137756017,51.83172991457103],[34.958683549924515,51.83191616376381],[35.04442116527863,51.83648883658225],[35.08963092438967,51.85790398563401],[35.125322839476766,51.86028344664011],[35.20979370518357,51.86028344664011],[35.230019123733655,51.87574994317853],[35.25738292530044,51.9043034752485],[35.307351606423055,51.89954455323551],[35.340664060504324,51.91144185826582],[35.365648401066075,51.9043034752485],[35.427514387217755,51.92809808530636],[35.476293337836736,51.93166727681457],[35.50365713940423,51.91144185826582],[35.52150309694778,51.89359590072129],[35.52150309694778,51.87574994317853],[35.496518756386834,51.888836978710074],[35.48224199035123,51.87931913468675],[35.46082684129893,51.878129404184634],[35.47034468532216,51.85314506362279],[35.46796522431642,51.82697099255893],[35.48938037336863,51.824591531551945],[35.50365713940423,51.83410937557615],[35.583369083099456,51.82935045356503],[35.589317735613946,51.86028344664011],[35.571471778070396,51.86504236865221],[35.571471778070396,51.874560212674645],[35.59645611863135,51.87931913468675],[35.59645611863135,51.92333916329514],[35.57742043058497,51.9388056598318],[35.56076420354354,51.966169461399645],[35.53577986298259,51.99234353246449],[35.51912363594195,52.044691674592315],[35.50841606141589,52.057778710123756],[35.49294956487738,52.06372736263896],[35.473913876830906,52.08990143370282],[35.46915495481934,52.120834426777904],[35.48105225984831,52.120834426777904],[35.50365713940423,52.117265235269784],[35.51793390543904,52.126783079293105],[35.52626201895936,52.15057768935185],[35.53459013247967,52.18151068242693],[35.54648743750873,52.194597717959354],[35.57742043058497,52.194597717959354],[35.602404771145835,52.206495022988776],[35.62381992019813,52.22315125002932],[35.6268538145807,52.2470356202757],[35.61257704854589,52.24465615927058],[35.59830028251109,52.239897237258475],[35.58164405547045,52.23751777625238],[35.513829416804285,52.21253343569241],[35.509070494792624,52.22562047122394],[35.48408615423088,52.22443074072183],[35.45434289165836,52.23870750675636],[35.39842555802116,52.23275885424117],[35.406753671541566,52.22205127971573],[35.38176933098053,52.22799993222995],[35.335369841366656,52.25893292530512],[35.317523883823114,52.274399421843555],[35.29016008225633,52.28272753536298],[35.27112439420915,52.31366052843984],[35.224724904595995,52.30771187592473],[35.21639679107488,52.339834599503796],[35.165238379450145,52.36362920956165],[35.12002862033901,52.342214060509804],[35.112890237321615,52.31366052843984],[35.09266481877232,52.30771187592473],[35.06649074770766,52.28986591838198],[35.048644790164104,52.270830230335335],[35.02841937161482,52.26845076932844],[35.022470719100326,52.27796861335176],[35.02960910211773,52.312470797935944],[35.005814492058896,52.34340379101192],[34.97607122948637,52.355301096042226],[34.95584581093708,52.36957786207587],[34.92372308735784,52.37195732308286],[34.904069602744755,52.36944836760038]]]]}}]}
