{"type":"FeatureCollection","features":[{"type":"Feature","properties":{"kind":"province","id":"gubernia-1897-59","name":"Херсонская губерния"},"geometry":{"type":"MultiPolygon","coordinates":[[[[34.03153706092999,47.65438176022685],[34.051762479479194,47.64367418569964],[34.06722897601745,47.64367418569964],[34.06722897601745,47.63653580268232],[34.07912628104607,47.62225903664876],[34.068418706519836,47.615120653629674],[34.07079816752619,47.609172001115454],[34.08745439456674,47.611551462121454],[34.093403047081054,47.60203361809813],[34.07555708953733,47.58894658256571],[34.054141940484854,47.57704927753727],[34.07912628104607,47.56158278099885],[34.08150574205243,47.54611628446121],[34.05533167098794,47.54611628446121],[34.01369110338618,47.531839518425784],[34.0053629898655,47.51756275239125],[33.98870676282496,47.51280383038012],[33.99108622383052,47.489009220321286],[33.977999188298725,47.47711191529196],[33.97561972729236,47.450937844228974],[33.96967107477805,47.42000485115203],[33.98156837980747,47.406917815620496],[34.010121911877434,47.42595350366625],[34.05652140149121,47.43666107819355],[34.07436735903512,47.430712425679246],[34.05414194048485,47.40691781562051],[34.039865174449865,47.38431293606477],[34.017260294894925,47.353379942988795],[34.00774245087107,47.32244694991371],[34.012501372882994,47.298652339854875],[33.99822460684801,47.265339885773784],[33.987517032321776,47.24630419772616],[33.970860805281234,47.21418147414808],[33.92922023767867,47.17729982855779],[33.879251556556945,47.14279764397361],[33.8625953295156,47.136848991458415],[33.85664667700129,47.117813303412746],[33.83642125845191,47.0856905798328],[33.822144492416925,47.07617273580948],[33.80310880437002,47.05951650876973],[33.78050392481436,47.040480820722195],[33.741242818218076,47.02501432418377],[33.703171442125054,47.00478890563412],[33.694843328604385,46.99051213959959],[33.69722278961075,46.960768877026524],[33.678187101563836,46.964338068535625],[33.67223844904944,46.957199685518404],[33.67937683206702,46.94054345847688],[33.68889467609007,46.94054345847688],[33.69008440659326,46.93221534495656],[33.68175629307258,46.89533369936726],[33.66628979653442,46.898902890875384],[33.635356803458805,46.87986720282874],[33.635356803458805,46.8644007062912],[33.6413054559732,46.85250340126098],[33.61275192390395,46.821570408185806],[33.572301086804565,46.808483372654365],[33.524711866687696,46.80134498963616],[33.497348065120825,46.80253472014006],[33.45451776701579,46.808483372654365],[33.433102617963314,46.814432025168585],[33.41644639092277,46.807293642150384],[33.392651780863936,46.78706822360162],[33.36766744030272,46.75851469153166],[33.34030363873585,46.74542765599924],[33.28795549660784,46.741858464490136],[33.234417623976576,46.75494550002345],[33.210623013918536,46.76208388303988],[33.16779271581359,46.7799298405844],[33.138049453240356,46.7811195710874],[33.103547268655994,46.7704119965601],[33.07023481457411,46.76446334404588],[33.02026613345167,46.743048194993236],[32.97148718283233,46.739479003484135],[32.92389796271545,46.732340620467795],[32.91913904070432,46.719253584934485],[32.90248281366298,46.72044331543749],[32.85489359354682,46.69664870538052],[32.79540706840053,46.67761301733299],[32.75733569230742,46.66928490381356],[32.71212593319691,46.663336251297565],[32.67286482660062,46.646680024257904],[32.640742103021914,46.62764433621028],[32.63598318100998,46.59790107363732],[32.64431129453066,46.588383229614884],[32.61337830145513,46.56458861955613],[32.59315288290495,46.56220915855101],[32.5574609678175,46.557450236538024],[32.53009716625071,46.55150158402371],[32.51701013071882,46.54079400949739],[32.492025790157605,46.54079400949739],[32.42302142098826,46.499153441896866],[32.37186300936335,46.46465125731082],[32.34449920779577,46.46584098781382],[32.32429499484323,46.47750322365664],[32.33262310836461,46.494159450696294],[32.32072580333484,46.507246486228716],[32.324294994843584,46.531041096286486],[32.31596688132318,46.55840489785433],[32.308828498305864,46.579820046906185],[32.29098254076222,46.591717351935515],[32.27670577472742,46.59290708243772],[32.24220359014252,46.5833892384144],[32.21840898008449,46.58457896891838],[32.20294248354677,46.570302202882864],[32.183906795499595,46.56197408936343],[32.157732724435725,46.56078435885954],[32.14940461091541,46.57506112489506],[32.15892245493864,46.591717351935515],[32.137507305886345,46.61313250098736],[32.09348727727822,46.620270884006544],[32.036380213138116,46.620270884006544],[31.987601262519213,46.62265034501068],[31.961531983901004,46.62265034501068],[31.943581233910997,46.62265034501068],[31.87695632574775,46.62265034501068],[31.81865953110482,46.62265034501068],[31.761552466964716,46.63097845853189],[31.722291360368956,46.644065494063426],[31.692548097795637,46.650014146578535],[31.649717799691132,46.64763468557253],[31.612836154100407,46.629788728029865],[31.596179927059772,46.620270884006544],[31.574764778007477,46.61194277048436],[31.555729089961105,46.62146061450857],[31.51289879185589,46.635737380544086],[31.48315552928257,46.638116841549206],[31.45460199721287,46.6333579195379],[31.435566309166404,46.61908115350336],[31.405823046593085,46.625029806016784],[31.37370032301473,46.60361465696404],[31.34038786893275,46.61551196199346],[31.303506223342737,46.61432223149126],[31.259486194734606,46.62146061450857],[31.213086705121448,46.625029806016784],[31.16787694601041,46.61908115350336],[31.142892605449454,46.61908115350336],[31.10125203784707,46.60837357897615],[31.09054446332101,46.61194277048436],[31.06556012276006,46.600045465456716],[31.054852548233114,46.60242492646104],[31.02986820767216,46.591717351935515],[31.010832519625787,46.585768699420406],[30.9691919520234,46.57863031640416],[30.95253572498285,46.57149193338675],[30.934689767439302,46.56911247237977],[30.903756774363067,46.55959462835645],[30.864495667767308,46.55721516735044],[30.841890788211387,46.56078435885954],[30.822855100164922,46.55721516735044],[30.79906049010689,46.55007678433313],[30.780024802059714,46.5381794793038],[30.768127497030648,46.51438486924603],[30.768127497030648,46.494159450696294],[30.79549129859823,46.482262145666965],[30.809768064633033,46.46560591862633],[30.81095779513595,46.44062157806458],[30.80143995111272,46.41563723750451],[30.780024802059714,46.38113505291953],[30.74552261747553,46.351391790346476],[30.71696908540583,46.3192690667683],[30.69674366685583,46.28952580419542],[30.672949056797705,46.26097227212546],[30.64082633321864,46.21576251301397],[30.59918576561705,46.17293221490938],[30.59204738259956,46.15389652686274],[30.571821964049562,46.13843003032431],[30.52304301343048,46.09322027121371],[30.475453793313612,46.07894350517926],[30.440889890344003,46.11397027029037],[30.414715819280225,46.147282724373326],[30.40519797525699,46.18178490895663],[30.38854174821556,46.209148710524474],[30.37069579067201,46.22818439857023],[30.33619360608791,46.24840981712076],[30.31715791804065,46.268635235669606],[30.279086541947805,46.3078963422659],[30.294553038485525,46.32574229981043],[30.29812222999427,46.34358825735309],[30.28860438597104,46.362623945400614],[30.271948158930407,46.375710980932155],[30.256481662392687,46.4006953214939],[30.243394626859995,46.43043858406696],[30.217220555796132,46.439956428090284],[30.193425945738092,46.436387236582064],[30.175579988193746,46.428059123059974],[30.186287562720693,46.41973100953966],[30.179149179702492,46.41378235702632],[30.161303222158942,46.42211047054575],[30.157734030650282,46.40783370451122],[30.132749690089334,46.41973100953966],[30.120852385060267,46.43400777557508],[30.114903732545784,46.435197506078175],[30.1160934630487,46.42330020104964],[30.09943723600726,46.42686939255786],[30.089919391984118,46.42092074004364],[30.067314512428908,46.42686939255786],[30.070883703937653,46.436387236582064],[30.05184801589119,46.442335889096285],[30.017345831306294,46.45542292462871],[30.032812327844013,46.46613049915415],[30.014966370300463,46.46850996016025],[30.02210475331787,46.47921753468657],[30.00901771778598,46.48040726518869],[30.01615610080338,46.49111483971599],[30.00306906527149,46.4923045702181],[29.994740951751083,46.50539160575043],[29.97570526370471,46.497063492229316],[29.955479845154528,46.49111483971599],[29.92216739107335,46.51015052776263],[29.89956251151743,46.519668371784974],[29.9043214335298,46.531565676814395],[29.882906284476796,46.54227325133983],[29.905511164032717,46.55298082586704],[29.88885493699128,46.56368840039346],[29.88885493699128,46.580344627434],[29.86625005743616,46.577965166427994],[29.843645177881037,46.57439597491889],[29.84483490838395,46.588672740955204],[29.816281376313455,46.59462139346854],[29.798435418769998,46.605328967995845],[29.787727844243847,46.59462139346854],[29.76512296468873,46.580344627434],[29.74846673764729,46.58986247145732],[29.731810510606657,46.59105220195944],[29.70920563105154,46.605328967995845],[29.722292666583513,46.612467351013066],[29.716344014068937,46.62079546453249],[29.735379702115402,46.62912357805273],[29.753225659658952,46.64815926610025],[29.743707815635723,46.65291818811245],[29.74608727664146,46.669574415152994],[29.73062078010374,46.669574415152994],[29.72348239708643,46.65767711012357],[29.710395361554454,46.670764145655994],[29.69611859551965,46.66243603213479],[29.68038771442528,46.67962102828916],[29.676818522916534,46.68913887231248],[29.67562879241362,46.70579509935303],[29.679197983922364,46.72364105689579],[29.654213643361416,46.75219458896663],[29.643506068834554,46.781937851538714],[29.63993687732581,46.80930165310656],[29.62447038078809,46.818819497129],[29.62447038078809,46.80811192260267],[29.618521728273606,46.80454273109446],[29.60662442324454,46.8152503056199],[29.588778465701083,46.8152503056199],[29.582829813186507,46.8259578801472],[29.56379412513933,46.8259578801472],[29.574501699665475,46.80930165310656],[29.564983855642247,46.79978380908324],[29.55070708960735,46.79740434807724],[29.541189245584206,46.779558390532706],[29.53762005407546,46.790265965059916],[29.529291940555233,46.79859407857935],[29.523343288040657,46.79383515656902],[29.525722749046487,46.779558390532706],[29.515015174520343,46.77479946852149],[29.505497330496397,46.781937851538714],[29.48646164244993,46.796214617573256],[29.475754067923788,46.82952707165621],[29.469805415409297,46.864029256239505],[29.46623622390055,46.88425467479013],[29.453149188368663,46.89496224931645],[29.449579996859917,46.91161847635709],[29.45909784088324,46.92470551188853],[29.457908110380323,46.949689852450376],[29.44244161384252,46.95801796596972],[29.431734039315657,46.9651563489888],[29.417457273280853,46.96396661848482],[29.397231854731473,46.95563850496548],[29.369868053163984,46.934223355911854],[29.348452904111774,46.936602816918835],[29.32703775505948,46.949689852450376],[29.296104761983244,46.96991527100002],[29.277069073936865,46.98776122854268],[29.27587934343395,46.997279072566],[29.287776648462923,46.9996585335721],[29.294915031480414,46.98895095904666],[29.31157125852176,46.99133042005267],[29.33774532958563,46.99252015055478],[29.348452904111774,46.99846880306998],[29.363919400649493,47.004417455583315],[29.35083236511752,47.021073682625726],[29.342504251597198,47.03654017916238],[29.35083236511752,47.03891964016839],[29.359160478637833,47.029401796145066],[29.369868053163984,47.025832604635966],[29.37105778366761,47.0460580231857],[29.3781961666851,47.06033478922113],[29.36510913115241,47.06628344173623],[29.338935060088545,47.087698590787994],[29.328227485562394,47.10673427883464],[29.30205341449853,47.10316508732563],[29.283017726451355,47.105544548332524],[29.27349988242812,47.11863158386406],[29.280638265445525,47.14004673291582],[29.246136080861426,47.15551322945434],[29.23304904532945,47.166220803979776],[29.218772279293844,47.166220803979776],[29.218772279293844,47.14837484643702],[29.20449551325904,47.14837484643702],[29.198546860744557,47.166220803979776],[29.179511172698092,47.162651612471564],[29.162854945657458,47.15908242096246],[29.1735625201836,47.12814942788738],[29.169993328674856,47.10792400933862],[29.159285754148,47.101975356823516],[29.155716562639256,47.11863158386406],[29.14619871861602,47.11982131436618],[29.143951449888206,47.101182203154195],[29.107069804298277,47.07976705410145],[29.054721662169747,47.10356166416109],[29.0615956606313,47.114269238686546],[29.083010809683596,47.13211519623107],[29.096097845215485,47.14758169276773],[29.127030838291724,47.15828926729503],[29.13773841281787,47.177324955341675],[29.154394639858506,47.183273607855],[29.167481675390395,47.20944767892074],[29.15082544834976,47.21420660093186],[29.143687065332358,47.23443201948062],[29.12822056879464,47.252277977025145],[29.11037461125109,47.273693126077],[29.086580001192253,47.29272881412364],[29.078251887671936,47.30938504116419],[29.060405930128386,47.32604126820482],[29.047318894596497,47.34745641725836],[29.055647008116814,47.3605434527899],[29.071113504654534,47.3605434527899],[29.086580001192253,47.35102560876658],[29.104425958735803,47.331989920719934],[29.11989245527432,47.331989920719934],[29.15269870167848,47.33947333172822],[29.16578573721037,47.353750097762706],[29.153888432181397,47.393011204359],[29.182441964251005,47.393011204359],[29.20623657430904,47.40728797039442],[29.220513340344645,47.41561608391385],[29.231220914870793,47.43465177196049],[29.256205255431745,47.4358415024635],[29.274051212975206,47.444169615984706],[29.294276631525385,47.4465490769908],[29.31569178057759,47.46915395654645],[29.35138369566549,47.47748207006588],[29.38469614974667,47.481051261574095],[29.408490759804707,47.514363715657055],[29.41324968181628,47.53815832571491],[29.432285369863543,47.55719401376155],[29.448941596904177,47.592885928848744],[29.47392593746504,47.62738811343293],[29.48106432048253,47.65356218449688],[29.475115667967955,47.68568490807594],[29.477495128973786,47.69639248260316],[29.46559782394481,47.77253523478884],[29.497720547523876,47.78919146182939],[29.500100008529706,47.81536553289334],[29.51199731355877,47.86414448351295],[29.548878959148695,47.89864666809811],[29.5702941082017,47.912923434132566],[29.582191413230763,47.87247259703416],[29.65952389592016,47.874852058040254],[29.658334165417244,47.91887208664687],[29.680939044972366,47.912923434132566],[29.747563953135703,47.912923434132566],[29.80467101727572,47.910543973127446],[29.886762421976776,47.91887208664687],[29.912936493041354,47.90935424262355],[29.946248947122623,47.90816451212143],[30.002166280759813,47.892698015582916],[30.049755500876685,47.8915082850808],[30.08187822445504,47.903405590109244],[30.11519067853622,47.892698015582916],[30.143744210606627,47.89507747658901],[30.207989657764223,47.90935424262355],[30.271045374418726,47.912923434132566],[30.332911360570492,47.936718044191394],[30.34837785710821,47.95575373223706],[30.378121119680735,47.94504615771163],[30.411433573762714,47.939097505196514],[30.405484921248227,47.92363100865987],[30.42571033979752,47.91411316463655],[30.449504949855644,47.92006181715077],[30.505422283492745,47.904595320613225],[30.549442312100872,47.89983639860023],[30.572047191656083,47.912923434132566],[30.60060072372569,47.90935424262355],[30.63867209981933,47.91411316463655],[30.65651805736288,47.9379077746944],[30.70529700798258,47.939097505196514],[30.744558114578425,47.94028723570041],[30.774301377151748,47.93195912217921],[30.789767873689467,47.93195912217921],[30.81237275324459,47.96765103726648],[30.807613831233017,47.99977376084554],[30.820700866765705,48.01761971839007],[30.843305746320826,48.05093217247125],[30.81951113626199,48.06877813001573],[30.81713167525616,48.089003548563596],[30.81713167525616,48.115177619629335],[30.813562483747504,48.13302357717208],[30.829028980286022,48.18894091080892],[30.8552030513498,48.19607929382712],[30.867100356378863,48.23534040042341],[30.85044412933823,48.24485824444673],[30.849254398835313,48.27460150701978],[30.85758251235563,48.29125773406033],[30.85758251235563,48.307913961100965],[30.876618200402095,48.313862613615186],[30.88613604442524,48.34241614568604],[30.87304900889335,48.3638312947378],[30.85758251235563,48.37215940825811],[30.83735709380634,48.37215940825811],[30.81951113626199,48.4030924013332],[30.807613831233017,48.41498970636262],[30.829028980286022,48.419748628375615],[30.826649519280192,48.43283566390626],[30.805234370227186,48.44235350792958],[30.785008951677806,48.457820004468005],[30.762404072122685,48.472096770503434],[30.73028134854353,48.49708111106612],[30.735278543056655,48.513587193789164],[30.732899082050825,48.54570991736823],[30.750745039594374,48.57069425792997],[30.76740126663572,48.57902237144931],[30.77691911065895,48.595678598489954],[30.768590997138634,48.611145095027496],[30.77691911065895,48.62423213055992],[30.781678032670523,48.64564727961354],[30.78524722417927,48.674200811683505],[30.795954798705417,48.684908386208946],[30.797144529208243,48.70275434375347],[30.80785210373439,48.71465164878191],[30.82093913926637,48.727738684313444],[30.82807752228368,48.747964102863094],[30.835215905301972,48.753912755377314],[30.857820784857005,48.755102485880315],[30.870907820388982,48.757481946886415],[30.8955014673879,48.764981627257804],[30.927624190966252,48.761412435748795],[30.94071122649823,48.77212001027512],[30.95141880102429,48.760222705244814],[30.98949017711793,48.759032974742695],[31.02518209220503,48.768550818766016],[31.046597241257945,48.761412435748795],[31.06801239031024,48.74832540021539],[31.129878376461917,48.74237674770215],[31.160811369537356,48.76260216625091],[31.18579571009902,48.759032974742695],[31.198882745630996,48.769740549268136],[31.209590320157144,48.769740549268136],[31.22624654719778,48.77568920178324],[31.238143852226752,48.760222705244814],[31.259559001279758,48.760222705244814],[31.28454334184071,48.764981627257804],[31.301199568881344,48.756653513736595],[31.303579029887175,48.73523836468483],[31.336891483969154,48.73761782568995],[31.34521959748956,48.744756208708154],[31.35592717201562,48.73523836468483],[31.37139366855334,48.73880755619207],[31.382101243080196,48.754274052730594],[31.392808817606344,48.75070486122149],[31.40351639213249,48.754274052730594],[31.412373274765304,48.749559194812726],[31.427839771303024,48.75193865581696],[31.43378842381751,48.76145649984028],[31.445685728846485,48.76026676933816],[31.459962494882088,48.7709743438636],[31.476618721922723,48.78049218788692],[31.488516026951785,48.78049218788692],[31.498033870975018,48.76978461336148],[31.512310637009822,48.77692299637871],[31.52301821153597,48.806666258951765],[31.54324363008606,48.83640952152385],[31.572986892658584,48.83403006051961],[31.605109616237737,48.82689167750053],[31.65507829735955,48.82689167750053],[31.74192862407298,48.83046086901051],[31.82283029827112,48.83521979102173],[31.898973050457602,48.81380464196988],[31.953700653591877,48.810235450459885],[32.010061893391565,48.80692008341343],[32.01437690923993,48.806666258951765],[32.04649963281899,48.79595868442535],[32.09408885293587,48.810235450459885],[32.141678073051935,48.818563563981094],[32.17142133562526,48.811425180963866],[32.23090786077111,48.812614911465985],[32.267789506361126,48.82332248599231],[32.272548428372694,48.84949655705627],[32.2868251944075,48.88280901113922],[32.298722499436565,48.894706316166776],[32.31894791798665,48.898275507675876],[32.35226037206792,48.893516585664656],[32.35939875508532,48.9161214652204],[32.39033174816156,48.93277769226006],[32.456956656324806,48.93991607527826],[32.51882264247658,48.94586472779248],[32.517632911973664,48.962520954833025],[32.528340486499715,48.98155664287967],[32.54499671354044,49.01962801897393],[32.61757027421818,49.044612359535684],[32.649692997796535,49.06721723908956],[32.649692997796535,49.07673508311288],[32.677056799364024,49.09458104065741],[32.70917952294238,49.08506319663409],[32.74130224652153,49.08268373562808],[32.77937362261437,49.09101184914831],[32.82696284273125,49.10528861518284],[32.868603410333634,49.10528861518284],[32.90429532542064,49.10171942367472],[32.93760777950271,49.0922015796514],[32.956643467549085,49.10409888468073],[32.984007269115864,49.110047537195925],[33.01731972319784,49.106478345686824],[33.09822139739599,49.111237267698044],[33.16484630555932,49.09933996266862],[33.18784187799214,49.091561519716336],[33.247328403137985,49.092751250219436],[33.283020318225084,49.085612867202116],[33.318712233312894,49.0868025977061],[33.36511172292606,49.078474484184895],[33.33893765186228,49.01541876753075],[33.368680914434805,49.009470115016526],[33.409131751534275,49.06419771815035],[33.4602901631598,49.05943879613825],[33.491223156235236,49.03683391658251],[33.564986447415976,49.014229037029054],[33.59116051848056,48.87384083768302],[33.609006476024106,48.82030296505309],[33.600678362503785,48.804836468514566],[33.49836153925264,48.795318624491244],[33.50431019176713,48.67039692168595],[33.51263830528825,48.644222850620224],[33.54357129836369,48.635894737100884],[33.5804529439537,48.648981772633306],[33.59235024898347,48.58949524748639],[33.54238156786077,48.55856225441131],[33.47932585120627,48.557372523909194],[33.41983932606033,48.53238818334735],[33.39723444650521,48.53238818334735],[33.396044716002294,48.54309575787279],[33.34369657387385,48.540716296866776],[33.337747921359366,48.413415133055395],[33.342506843370934,48.38486160098631],[33.378198758458744,48.38724106199055],[33.39366525499655,48.39199998400363],[33.41151121254001,48.39199998400363],[33.40794202103136,48.38010267897421],[33.41389067354584,48.36939510444789],[33.40556256002553,48.36225672142969],[33.40556256002553,48.35035941640125],[33.39366525499655,48.328944267348504],[33.371060375441346,48.2884934302501],[33.35916307041157,48.27302693371167],[33.324660885827385,48.27302693371167],[33.34369657387385,48.24328367113861],[33.35678360940574,48.242093940636494],[33.35559387890282,48.22781717460018],[33.371060375441346,48.20640202554745],[33.378198758458744,48.20283283403932],[33.382957680470405,48.187366337500805],[33.38176794996749,48.168330649455136],[33.37225010594426,48.16476145794692],[33.35440414839999,48.168330649455136],[33.35321441789708,48.158812805431815],[33.35678360940574,48.1469155004024],[33.337747921359366,48.13977711738517],[33.318712233312894,48.13858738688306],[33.32228142482164,48.12431062084666],[33.304435467278005,48.11717223782943],[33.29610735375698,48.102895471794],[33.280640857219254,48.096946819280674],[33.2485181336409,48.096946819280674],[33.2056878355356,48.088618705759465],[33.21282621855309,48.03746029413376],[33.225913254084986,48.03389110262653],[33.27945112671634,48.04221921614587],[33.288968970739575,48.0196143365911],[33.271123013196025,48.00295810955046],[33.27469220470477,47.99344026552714],[33.318712233312894,47.98987107401804],[33.36511172292606,47.98749161301203],[33.35559387890282,47.93038454887113],[33.351011213262,47.911363548857054],[33.39622097237268,47.90779435734839],[33.44143073148399,47.90898408785051],[33.46284588053655,47.93634788941836],[33.48307129908575,47.9434862724347],[33.57111135630139,47.933968428412264],[33.68889467609007,47.930399236902275],[33.765037428277,47.9446760029377],[33.799539612861274,47.98869603154618],[33.90066670560942,47.99702414506641],[33.99227595433371,48.005352258585845],[34.05533167098794,48.022008485627275],[34.08864412506992,48.01130091110184],[34.148130650215236,48.001783067077625],[34.14456145870676,47.97203980450466],[34.136233345186085,47.95062465545192],[34.155269033233,47.94110681142958],[34.143371728203576,47.90660462684531],[34.136233345186085,47.86972298125511],[34.133853884180525,47.845928371196365],[34.12314630965429,47.851877023710585],[34.09578250808741,47.844738640692384],[34.07436735903494,47.842359179686376],[34.0636597845087,47.82332349164062],[34.06484951501109,47.781682924038236],[34.052952209982465,47.78287265454124],[34.02201921690605,47.80071861208488],[33.987517032321776,47.8090467256052],[33.94587646471993,47.78525211554645],[33.95063538673114,47.756698583476485],[33.960153230755,47.72814505140652],[33.949445656228676,47.72219639889221],[33.93635862069616,47.72338612939531],[33.91494347164369,47.72695532090432],[33.933979159690594,47.71386828537287],[33.93754835119934,47.687694214308024],[33.96440226826307,47.6781763702856],[34.03153706092999,47.65438176022685]]]]}},{"type":"Feature","properties":{"kind":"district","id":"uyezd-1897-219","name":"Тираспольский","provinceId":"gubernia-1897-59"},"geometry":{"type":"MultiPolygon","coordinates":[[[[29.143951449888206,47.101182203154195],[29.14619871861602,47.11982131436618],[29.155716562639256,47.11863158386406],[29.159285754148,47.101975356823516],[29.169993328674856,47.10792400933862],[29.1735625201836,47.12814942788738],[29.162854945657458,47.15908242096246],[29.179511172698092,47.162651612471564],[29.198546860744557,47.166220803979776],[29.20449551325904,47.14837484643702],[29.218772279293844,47.14837484643702],[29.218772279293844,47.166220803979776],[29.23304904532945,47.166220803979776],[29.246136080861426,47.15551322945434],[29.280638265445525,47.14004673291582],[29.27349988242812,47.11863158386406],[29.283017726451355,47.105544548332524],[29.30205341449853,47.10316508732563],[29.328227485562394,47.10673427883464],[29.338935060088545,47.087698590787994],[29.36510913115241,47.06628344173623],[29.3781961666851,47.06033478922113],[29.37105778366761,47.0460580231857],[29.369868053163984,47.025832604635966],[29.359160478637833,47.029401796145066],[29.35083236511752,47.03891964016839],[29.342504251597198,47.03654017916238],[29.35083236511752,47.021073682625726],[29.363919400649493,47.004417455583315],[29.348452904111774,46.99846880306998],[29.33774532958563,46.99252015055478],[29.31157125852176,46.99133042005267],[29.294915031480414,46.98895095904666],[29.287776648462923,46.9996585335721],[29.27587934343395,46.997279072566],[29.277069073936865,46.98776122854268],[29.296104761983244,46.96991527100002],[29.32703775505948,46.949689852450376],[29.348452904111774,46.936602816918835],[29.369868053163984,46.934223355911854],[29.397231854731473,46.95563850496548],[29.417457273280853,46.96396661848482],[29.431734039315657,46.9651563489888],[29.44244161384252,46.95801796596972],[29.457908110380323,46.949689852450376],[29.45909784088324,46.92470551188853],[29.449579996859917,46.91161847635709],[29.453149188368663,46.89496224931645],[29.46623622390055,46.88425467479013],[29.469805415409297,46.864029256239505],[29.475754067923788,46.82952707165621],[29.48646164244993,46.796214617573256],[29.505497330496397,46.781937851538714],[29.515015174520343,46.77479946852149],[29.525722749046487,46.779558390532706],[29.523343288040657,46.79383515656902],[29.529291940555233,46.79859407857935],[29.53762005407546,46.790265965059916],[29.541189245584206,46.779558390532706],[29.55070708960735,46.79740434807724],[29.564983855642247,46.79978380908324],[29.574501699665475,46.80930165310656],[29.56379412513933,46.8259578801472],[29.582829813186507,46.8259578801472],[29.588778465701083,46.8152503056199],[29.60662442324454,46.8152503056199],[29.618521728273606,46.80454273109446],[29.62447038078809,46.80811192260267],[29.62447038078809,46.818819497129],[29.63993687732581,46.80930165310656],[29.643506068834554,46.781937851538714],[29.654213643361416,46.75219458896663],[29.679197983922364,46.72364105689579],[29.67562879241362,46.70579509935303],[29.676818522916534,46.68913887231248],[29.68038771442528,46.67962102828916],[29.69611859551965,46.66243603213479],[29.710395361554454,46.670764145655994],[29.72348239708643,46.65767711012357],[29.73062078010374,46.669574415152994],[29.74608727664146,46.669574415152994],[29.743707815635723,46.65291818811245],[29.753225659658952,46.64815926610025],[29.735379702115402,46.62912357805273],[29.716344014068937,46.62079546453249],[29.722292666583513,46.612467351013066],[29.70920563105154,46.605328967995845],[29.731810510606657,46.59105220195944],[29.74846673764729,46.58986247145732],[29.76512296468873,46.580344627434],[29.787727844243847,46.59462139346854],[29.798435418769998,46.605328967995845],[29.816281376313455,46.59462139346854],[29.84483490838395,46.588672740955204],[29.843645177881037,46.57439597491889],[29.86625005743616,46.577965166427994],[29.88885493699128,46.580344627434],[29.88885493699128,46.56368840039346],[29.905511164032717,46.55298082586704],[29.882906284476796,46.54227325133983],[29.9043214335298,46.531565676814395],[29.89956251151743,46.519668371784974],[29.92216739107335,46.51015052776263],[29.955479845154528,46.49111483971599],[29.975434895135844,46.51621994853124],[29.968296512118442,46.53049671456577],[29.95401974608284,46.56023997713874],[29.959968398597415,46.59355243121992],[29.971865703627188,46.62210596328988],[29.968296512118442,46.66017733938406],[29.986142469661992,46.69230006296223],[29.990901391673564,46.710146020504894],[29.982573278153247,46.725612517043416],[29.988521930667822,46.74226874408396],[30.00160896619971,46.747027666096955],[30.13723824353204,46.767253084645716],[30.134858782526297,46.8088936522481],[30.199104229683805,46.82079095727663],[30.21813991773018,46.82792934029385],[30.201483690689546,46.91596939751073],[30.260970215835393,46.92667697203616],[30.25383183281808,46.975455922655776],[30.278816173378942,46.981404575170885],[30.326405393495815,47.00400945472663],[30.34782054254802,47.00638891573086],[30.36328703908574,46.99211214969641],[30.37042542210323,46.97783538366187],[30.446568174289713,46.98616349718121],[30.509623890944304,46.99211214969641],[30.538177423014712,46.98021484466699],[30.611940714195363,46.99449161070331],[30.63811478525923,47.00400945472663],[30.699980771410907,47.01233756824605],[30.726154842474774,47.05278840534535],[30.78088244560905,47.05040894433934],[30.79040028963228,47.07063436288899],[30.78564136762062,47.09918789495895],[30.793969481140937,47.113464660993486],[30.837989509749065,47.11703385250348],[30.858214928298445,47.143207923567346],[30.84155870125781,47.18008956915763],[30.898665765397915,47.18484849116973],[30.93554741098784,47.1729511861404],[30.96648040406408,47.183658760665836],[30.97123932607574,47.19317660468916],[30.936737141490756,47.20626364022158],[30.90818360942106,47.21697121474702],[30.890337651877598,47.22886851977635],[30.870112233327507,47.22886851977635],[30.822523013211345,47.23124798078334],[30.78802082862645,47.24076582480666],[30.760657027059757,47.25504259084119],[30.72972403398352,47.27526800938995],[30.689273196884848,47.28835504492237],[30.65834020380861,47.31214965498112],[30.57148987709598,47.31214965498112],[30.466793592839803,47.291924236430496],[30.42396329473459,47.30977019397503],[30.306179974945724,47.291924236430496],[30.237175605776645,47.295493427940485],[30.18244800264317,47.32523669051354],[30.125340938503065,47.35973887509684],[30.087269562409425,47.38710267666468],[30.026593306760663,47.37996429364648],[29.968296512118442,47.404948634207344],[29.942122441053776,47.410897286722545],[29.904051064961024,47.40256917320312],[29.858841305849893,47.39424105968191],[29.84218507880926,47.43231243577608],[29.819580199253338,47.51559357097908],[29.799354780704046,47.526301145506295],[29.647069276330996,47.500127074440556],[29.55189083609814,47.50131680494454],[29.505491346484092,47.483470847400014],[29.466230239887537,47.483470847400014],[29.423399941783124,47.47752219488668],[29.408490759804707,47.51436371565706],[29.38469614974667,47.48105126157411],[29.35138369566549,47.47748207006589],[29.31569178057759,47.469153956546464],[29.294276631525385,47.446549076990806],[29.274051212975206,47.44416961598471],[29.256205255431745,47.435841502463504],[29.231220914870793,47.4346517719605],[29.220513340344645,47.41561608391386],[29.20623657430904,47.407287970394435],[29.182441964251005,47.393011204359006],[29.153888432181397,47.393011204359006],[29.16578573721037,47.35375009776271],[29.15269870167848,47.33947333172818],[29.11989245527432,47.331989920719934],[29.104425958735803,47.331989920719934],[29.086580001192253,47.35102560876658],[29.071113504654534,47.3605434527899],[29.055647008116814,47.3605434527899],[29.047318894596497,47.34745641725836],[29.060405930128386,47.32604126820482],[29.078251887671936,47.30938504116419],[29.086580001192253,47.29272881412364],[29.11037461125109,47.273693126077],[29.12822056879464,47.252277977025145],[29.143687065332358,47.23443201948062],[29.15082544834976,47.21420660093186],[29.167481675390395,47.20944767892074],[29.154394639858506,47.183273607855],[29.13773841281787,47.177324955341675],[29.127030838291724,47.15828926729503],[29.096097845215485,47.14758169276773],[29.083010809683596,47.13211519623107],[29.0615956606313,47.114269238686546],[29.054721662169747,47.10356166416109],[29.107069804298277,47.07976705410145],[29.143951449888206,47.101182203154195]]]]}},{"type":"Feature","properties":{"kind":"district","id":"uyezd-1897-220","name":"Херсонский","provinceId":"gubernia-1897-59"},"geometry":{"type":"MultiPolygon","coordinates":[[[[32.32429499484323,46.47750322365664],[32.34449920779577,46.46584098781382],[32.37186300936335,46.46465125731082],[32.42302142098826,46.499153441896866],[32.492025790157605,46.54079400949739],[32.51701013071882,46.54079400949739],[32.53009716625071,46.55150158402371],[32.5574609678175,46.557450236538024],[32.59315288290495,46.56220915855101],[32.61337830145513,46.56458861955613],[32.64431129453066,46.588383229614884],[32.63598318100998,46.59790107363732],[32.640742103021914,46.62764433621028],[32.67286482660062,46.646680024257904],[32.71212593319691,46.663336251297565],[32.75733569230742,46.66928490381356],[32.79540706840053,46.67761301733299],[32.85489359354682,46.69664870538052],[32.90248281366298,46.72044331543749],[32.91913904070432,46.719253584934485],[32.92389796271545,46.732340620467795],[32.97148718283233,46.739479003484135],[33.02026613345167,46.743048194993236],[33.07023481457411,46.76446334404588],[33.103547268655994,46.7704119965601],[33.138049453240356,46.7811195710874],[33.16779271581359,46.7799298405844],[33.210623013918536,46.76208388303988],[33.234417623976576,46.75494550002345],[33.28795549660784,46.741858464490136],[33.34030363873585,46.74542765599924],[33.36766744030272,46.75851469153166],[33.392651780863936,46.78706822360162],[33.41644639092277,46.807293642150384],[33.433102617963314,46.814432025168585],[33.45451776701579,46.808483372654365],[33.497348065120825,46.80253472014006],[33.524711866687696,46.80134498963616],[33.572301086804565,46.808483372654365],[33.61275192390395,46.821570408185806],[33.6413054559732,46.85250340126098],[33.635356803458805,46.8644007062912],[33.635356803458805,46.87986720282874],[33.66628979653442,46.898902890875384],[33.68175629307258,46.89533369936726],[33.69008440659326,46.93221534495656],[33.68889467609007,46.94054345847688],[33.67937683206702,46.94054345847688],[33.67223844904944,46.957199685518404],[33.678187101563836,46.964338068535625],[33.69722278961075,46.960768877026524],[33.694843328604385,46.99051213959959],[33.703171442125054,47.00478890563412],[33.741242818218076,47.02501432418377],[33.78050392481436,47.040480820722195],[33.80310880437002,47.05951650876973],[33.822144492416925,47.07617273580948],[33.83642125845191,47.0856905798328],[33.85664667700129,47.117813303412746],[33.8625953295156,47.136848991458415],[33.879251556556945,47.14279764397361],[33.92922023767867,47.17729982855779],[33.970860805281234,47.21418147414808],[33.987517032321776,47.24630419772616],[33.99822460684801,47.265339885773784],[34.012501372882994,47.298652339854875],[34.00774245087107,47.32244694991371],[34.017260294894925,47.353379942988795],[34.039865174449865,47.38431293606477],[34.05414194048485,47.40691781562051],[34.07436735903494,47.43071242567926],[34.05652140149121,47.436661078193566],[34.010121911877434,47.425953503666264],[33.98156837980747,47.40691781562051],[33.96967107477805,47.420004851152044],[33.97561972729236,47.45093784422899],[33.977999188298725,47.47711191529197],[33.99108622383052,47.4890092203213],[33.98870676282496,47.512803830380136],[34.0053629898655,47.517562752391264],[34.01369110338618,47.5318395184258],[34.05533167098794,47.54611628446123],[34.08150574205243,47.54611628446123],[34.079126281046065,47.56158278099886],[34.05414194048485,47.577049277537284],[34.07555708953732,47.588946582565725],[34.09340304708105,47.60203361809815],[34.08745439456674,47.61155146212147],[34.07079816752619,47.60917200111547],[34.06841870651983,47.61512065362969],[34.079126281046065,47.62225903664877],[34.06722897601745,47.63653580268233],[34.06722897601745,47.64367418569965],[34.051762479479194,47.64367418569965],[34.03153706092999,47.65438176022686],[34.011311642379816,47.666279065255395],[33.96848134427487,47.67817637028561],[33.948255925725576,47.67817637028561],[33.93754835119934,47.68769421430804],[33.933979159690594,47.71386828537288],[33.91494347164369,47.72695532090433],[33.93635862069616,47.72338612939532],[33.94944565622867,47.72219639889222],[33.960153230755,47.728145051406536],[33.95063538673114,47.7566985834765],[33.94587646471992,47.78525211554646],[33.987517032321776,47.809046725605214],[34.02201921690605,47.80071861208489],[34.052952209982465,47.78287265454125],[34.06484951501108,47.78168292403825],[34.0636597845087,47.823323491640636],[34.07436735903494,47.84235917968639],[34.09578250808741,47.8447386406924],[34.12314630965428,47.8518770237106],[34.13385388418052,47.84592837119638],[34.136233345186085,47.86972298125512],[34.143371728203576,47.90660462684532],[34.15526903323299,47.94110681142959],[34.136233345186085,47.95062465545193],[34.144561458706754,47.972039804504675],[34.1481306502155,48.00178306707764],[34.08864412506992,48.011300911101856],[34.05533167098794,48.02200848562729],[33.99227595433371,48.00535225858586],[33.90066670560942,47.997024145066426],[33.799539612861274,47.9886960315462],[33.765037428277,47.94467600293771],[33.68889467609007,47.93039923690229],[33.57111135630139,47.93396842841228],[33.48307129908575,47.94348627243471],[33.46284588053655,47.93634788941837],[33.44143073148399,47.90898408785053],[33.39622097237268,47.90779435734841],[33.35101121326208,47.911363548856535],[33.32007822018655,47.879240825278444],[33.33078579471279,47.84711810169938],[33.32959606420961,47.83046187465786],[33.3105603761635,47.82213376113852],[33.29152468811659,47.817374839125435],[33.274868461075954,47.82213376113852],[33.2522635815203,47.812615917115195],[33.23322789347339,47.82094403063543],[33.01312775043418,47.79595969007367],[32.80254545141802,47.77216508001493],[32.618137223466256,47.74837046995707],[32.60980910994638,47.811426186611214],[32.51701013071882,47.805477534096994],[32.45633387507015,47.80190834258789],[32.4337289955145,47.81380564761643],[32.40874465495328,47.8030980730909],[32.373052739865734,47.79833915107977],[32.3623451653395,47.79952888158277],[32.361155434837116,47.78049319353525],[32.34211974679012,47.76859588850672],[32.35639651282519,47.74004235643675],[32.33736082477828,47.72576559040132],[32.35877597383075,47.71267855486988],[32.327842980755136,47.68769421430804],[32.3361710942759,47.659140682238075],[32.31951486723447,47.656761221232955],[32.26359753359772,47.655571490729955],[32.23028507951583,47.652002299219966],[32.22314669649834,47.63653580268233],[32.22433642700152,47.61393092312668],[32.21600831348085,47.59965415709303],[32.20054181694339,47.588946582565725],[32.15890124934163,47.587756852062725],[32.07205092262847,47.580618469045504],[32.020892511002764,47.57229035552607],[31.98282113490974,47.57229035552607],[31.98044167390418,47.5425470929531],[31.94118056730789,47.53659844043888],[31.89953999970613,47.5294600574198],[31.830535630536694,47.5294600574198],[31.79008479343731,47.52351140490558],[31.759151800361693,47.49019895082439],[31.742495573321236,47.460455688251336],[31.749633956338727,47.423574042660256],[31.755582608852947,47.4045383546145],[31.773428566396674,47.38788212757298],[31.782946410419818,47.36884643952634],[31.77223883589358,47.33196479393605],[31.762720991870438,47.32482641091883],[31.74372760009979,47.32432104592045],[31.762763288146253,47.2957675138496],[31.781798976192633,47.287835977163056],[31.777040054181057,47.25293721574509],[31.775453746843574,47.21803845432537],[31.78973051287838,47.20058907361727],[31.82780188897202,47.197416458941944],[31.86270065039077,47.17996707823296],[31.867459572402346,47.15934508284955],[31.872218494414007,47.124446321429815],[31.902358333821013,47.1085832480585],[31.91980771453079,47.10541063338317],[31.927739251216536,47.09113386734863],[31.908703563170157,47.07368448663877],[31.886495260449607,47.054648798592126],[31.88173633843715,47.03244049587104],[31.897599411809438,47.01023219314996],[31.92456663654245,46.99912804178986],[31.96739693464766,47.0134048078244],[31.99436415937987,47.00705957847641],[31.99436415937987,46.988023890429766],[31.959465397961118,46.957884051022134],[31.96739693464766,46.93884836297549],[32.00070938872893,46.92933051895129],[32.02926292079934,46.91981267492797],[32.02053823044445,46.888284816601335],[31.980087393345066,46.85140317101194],[31.944395478257967,46.809762603409645],[31.930118712222367,46.77645014932847],[31.949154400269627,46.73837877323429],[31.968190088316007,46.671753865071935],[31.961531983901004,46.62265034501068],[31.987601262519213,46.62265034501068],[32.036380213138116,46.620270884006544],[32.09348727727822,46.620270884006544],[32.137507305886345,46.61313250098736],[32.15892245493864,46.591717351935515],[32.14940461091541,46.57506112489506],[32.157732724435725,46.56078435885954],[32.183906795499595,46.56197408936343],[32.20294248354677,46.570302202882864],[32.21840898008449,46.58457896891838],[32.24220359014252,46.5833892384144],[32.27670577472742,46.59290708243772],[32.29098254076222,46.591717351935515],[32.308828498305864,46.579820046906185],[32.31596688132318,46.55840489785433],[32.324294994843584,46.531041096286486],[32.32072580333484,46.507246486228716],[32.33262310836461,46.494159450696294],[32.32429499484323,46.47750322365664]]]]}},{"type":"Feature","properties":{"kind":"district","id":"uyezd-1897-221","name":"Александрийский","provinceId":"gubernia-1897-59"},"geometry":{"type":"MultiPolygon","coordinates":[[[[33.35101121326208,47.911363548856535],[33.35559387890282,47.930384548871146],[33.36511172292606,47.987491613012054],[33.318712233312894,47.98987107401806],[33.27469220470477,47.99344026552716],[33.271123013196025,48.002958109550484],[33.288968970739575,48.01961433659112],[33.27945112671634,48.04221921614588],[33.225913254084986,48.03389110262654],[33.21282621855309,48.03746029413378],[33.2056878355356,48.08861870575949],[33.2485181336409,48.09694681928069],[33.280640857219254,48.09694681928069],[33.29610735375698,48.10289547179403],[33.304435467278005,48.11717223782945],[33.32228142482164,48.12431062084667],[33.318712233312894,48.138587386883074],[33.337747921359366,48.139777117385194],[33.35678360940574,48.146915500402415],[33.35321441789708,48.158812805431836],[33.35440414839999,48.16833064945516],[33.37225010594426,48.164761457946945],[33.38176794996749,48.16833064945516],[33.382957680470405,48.18736633750082],[33.378198758458744,48.20283283403934],[33.371060375441346,48.20640202554746],[33.35559387890282,48.227817174600204],[33.35678360940574,48.24209394063652],[33.34369657387385,48.243283671138634],[33.324660885827385,48.27302693371169],[33.35916307041157,48.27302693371169],[33.371060375441346,48.28849343025012],[33.39366525499655,48.328944267348525],[33.40556256002553,48.35035941640126],[33.40556256002553,48.3622567214297],[33.41389067354584,48.369395104447904],[33.40794202103136,48.38010267897423],[33.41151121254001,48.39199998400365],[33.39366525499655,48.39199998400365],[33.378198758458744,48.387241061990565],[33.342506843370934,48.38486160098634],[33.337747921359366,48.41341513305541],[33.34369657387385,48.540716296866805],[33.396044716002294,48.543095757872806],[33.39723444650521,48.53238818334737],[33.41983932606033,48.53238818334737],[33.47932585120627,48.55737252390921],[33.54238156786077,48.55856225441133],[33.59235024898347,48.58949524748641],[33.5804529439537,48.64898177263332],[33.54357129836369,48.6358947371009],[33.51263830528825,48.64422285062024],[33.50431019176713,48.67039692168598],[33.49836153925264,48.795318624491266],[33.600678362503785,48.80483646851459],[33.609006476024106,48.8203029650531],[33.59116051848056,48.87384083768305],[33.564986447415976,49.01422903702863],[33.491223156235236,49.03683391658251],[33.4602901631598,49.05943879613825],[33.409131751534275,49.06419771815035],[33.368680914434805,49.009470115016526],[33.33893765186228,49.01541876753075],[33.36511172292606,49.078474484184895],[33.318712233312894,49.0868025977061],[33.283020318225084,49.085612867202116],[33.247328403137985,49.092751250219436],[33.18784187799214,49.091561519716336],[33.16484630555932,49.09933996266862],[33.09822139739599,49.111237267698044],[33.01731972319784,49.106478345686824],[32.984007269115864,49.110047537195925],[32.956643467549085,49.10409888468073],[32.93760777950271,49.0922015796514],[32.90429532542064,49.10171942367472],[32.868603410333634,49.10528861518284],[32.82696284273125,49.10528861518284],[32.77937362261437,49.09101184914831],[32.74130224652153,49.08268373562808],[32.70917952294238,49.08506319663409],[32.677056799364024,49.09458104065741],[32.649692997796535,49.07673508311288],[32.649692997796535,49.06721723908956],[32.61757027421818,49.044612359535684],[32.54499671354044,49.01962801897393],[32.528340486499715,48.98155664287967],[32.517632911973664,48.962520954833025],[32.51882264247658,48.94586472779248],[32.456956656324806,48.93991607527826],[32.39033174816156,48.93277769226006],[32.35939875508532,48.9161214652204],[32.35226037206792,48.893516585664656],[32.31894791798665,48.898275507675876],[32.298722499436565,48.894706316166776],[32.2868251944075,48.88280901113922],[32.272548428372694,48.84949655705627],[32.267789506361126,48.82332248599231],[32.23090786077111,48.812614911465985],[32.17142133562526,48.811425180963866],[32.141678073051935,48.818563563981094],[32.09408885293587,48.810235450459885],[32.04649963281899,48.79595868442535],[32.01437690923993,48.806666258951765],[32.010061893391565,48.80692008341343],[32.02547517664368,48.77866239745072],[32.04689032569669,48.74297048236353],[32.06354655273732,48.72036560280779],[32.08615143229244,48.71560668079569],[32.087341162795354,48.702519645263266],[32.11708442536868,48.72036560280779],[32.13849957442089,48.70846829777837],[32.161104453976094,48.69419153174383],[32.14087903542672,48.677535304703284],[32.10756658134545,48.66682773017598],[32.10756658134545,48.651361233639335],[32.13849957442089,48.620428240562475],[32.15515580146152,48.608530935533054],[32.19084771654942,48.618048779556375],[32.220590979121944,48.618048779556375],[32.258662355215584,48.619238510060356],[32.29197480929685,48.60020282201371],[32.31338995834986,48.607341205030934],[32.33480510740206,48.60139255251583],[32.36335863947167,48.60139255251583],[32.34194349041955,48.56332117642255],[32.33361537689915,48.533577913849484],[32.314579688852774,48.50978330379163],[32.31338995834986,48.48360923272776],[32.30982076684032,48.4598146226699],[32.28602615678237,48.44196866512537],[32.28959534829102,48.41936378556963],[32.27293912125039,48.39437944500966],[32.251523972198186,48.369395104447904],[32.26223154672433,48.35987726042458],[32.29792346181134,48.36344645193368],[32.320528341367265,48.36344645193368],[32.332425646396324,48.33013399785064],[32.34789214293404,48.295631813267434],[32.35740998695728,48.26469882019049],[32.369307291986246,48.24804259314985],[32.38834298003343,48.246852862647735],[32.41927597310887,48.25756043717317],[32.446639774675646,48.25756043717317],[32.45496788819676,48.24804259314985],[32.45496788819676,48.221868522085984],[32.45972681020834,48.21116094755966],[32.476383037248965,48.20521229504535],[32.49779818630127,48.1826074154897],[32.515644143844725,48.17071011046028],[32.556094980944195,48.17071011046028],[32.63699665514234,48.17903822398148],[32.69886264129393,48.18736633750082],[32.72384698185496,48.18736633750082],[32.736934017387654,48.174279301970266],[32.73455455638182,48.164761457946945],[32.70838048531725,48.16833064945516],[32.6976729107911,48.16595118844906],[32.68696533626495,48.15762307492972],[32.68458587525912,48.148105230906395],[32.70362156330559,48.13144900386399],[32.69291398877952,48.094567358274595],[32.70362156330559,48.08742897525737],[32.70838048531725,48.05887544318652],[32.72979563436937,48.0576857126844],[32.74169293939923,47.991060804520174],[32.7464518614108,47.938712662392355],[32.76667727996018,47.938712662392355],[32.78809242901238,47.947040775913564],[32.84163030164375,47.94942023691779],[32.84638922365541,47.929194818369034],[32.860665989690204,47.924435896357906],[32.87970167773739,47.926815357363026],[32.91777305383032,47.93395374038123],[32.96536227394709,47.94942023691779],[32.986777422999396,47.92800508786692],[32.99510553651962,47.9113488608245],[33.02484879909294,47.9113488608245],[33.027228260098774,47.8816055982534],[33.03317691261335,47.86256991020676],[33.055781792168474,47.83282664763371],[33.047453678648154,47.82568826461461],[33.012951494063174,47.82211907310649],[33.01312775043418,47.79595969007367],[33.23322789347339,47.82094403063543],[33.2522635815203,47.812615917115195],[33.274868461075954,47.82213376113852],[33.29152468811659,47.817374839125435],[33.3105603761635,47.82213376113852],[33.32959606420961,47.83046187465786],[33.33078579471279,47.84711810169938],[33.32007822018655,47.879240825278444],[33.35101121326208,47.911363548856535]]]]}},{"type":"Feature","properties":{"kind":"district","id":"uyezd-1897-222","name":"Одесский","provinceId":"gubernia-1897-59"},"geometry":{"type":"MultiPolygon","coordinates":[[[[31.65568754288345,47.34655138068773],[31.61999562779644,47.331084884149305],[31.547422067118614,47.29539296906202],[31.51767880454529,47.29658269956414],[31.491504733481424,47.30729027409144],[31.45938200990227,47.30491081308534],[31.409413328780456,47.2930135080569],[31.384428988218705,47.2930135080569],[31.368962491680985,47.30966973509745],[31.348737073131606,47.30966973509745],[31.31661434955254,47.30134162157624],[31.31185542754097,47.2930135080569],[31.17979534171721,47.260890784476956],[31.098893667519157,47.25018320995063],[31.07509905746112,47.327515692640205],[31.028699567847163,47.328705423143205],[31.01442280181236,47.323946501131985],[31.017991993321015,47.29777243006812],[31.040596872876137,47.28944431654692],[31.05725309991757,47.244234557436315],[31.069150404946544,47.245424287940295],[31.07271959645529,47.22876806089789],[31.109601242045215,47.22043994737855],[31.134585582606967,47.22043994737855],[31.142913696127284,47.18712749329737],[31.084616901484353,47.182368571284286],[31.03464822036165,47.17047126625673],[30.982300078233916,47.16095342223341],[30.93554741098784,47.1729511861404],[30.898665765397915,47.18484849116973],[30.84155870125781,47.18008956915763],[30.858214928298445,47.143207923567346],[30.837989509749065,47.11703385250348],[30.793969481140937,47.113464660993486],[30.78564136762062,47.09918789495895],[30.79040028963228,47.07063436288899],[30.78088244560905,47.05040894433934],[30.726154842474774,47.05278840534535],[30.699980771410907,47.01233756824605],[30.63811478525923,47.00400945472663],[30.611940714195363,46.99449161070331],[30.538177423014712,46.98021484466699],[30.509623890944304,46.99211214969641],[30.446568174289713,46.98616349718121],[30.37042542210323,46.97783538366187],[30.36328703908574,46.99211214969641],[30.34782054254802,47.00638891573086],[30.326405393495815,47.00400945472663],[30.278816173378942,46.981404575170885],[30.25383183281808,46.975455922655776],[30.260970215835393,46.92667697203616],[30.201483690689546,46.91596939751073],[30.21813991773018,46.82792934029385],[30.199104229683805,46.82079095727663],[30.134858782526297,46.8088936522481],[30.13723824353204,46.767253084645716],[30.00160896619971,46.747027666096955],[29.988521930667822,46.74226874408396],[29.982573278153247,46.725612517043416],[29.990901391673564,46.710146020504894],[29.986142469661992,46.69230006296223],[29.968296512118442,46.66017733938406],[29.971865703627188,46.62210596328988],[29.959968398597415,46.59355243121992],[29.95401974608284,46.56023997713874],[29.968296512118442,46.53049671456577],[29.975434895135844,46.51621994853124],[29.955479845154528,46.49111483971599],[29.97570526370471,46.497063492229316],[29.994740951751083,46.50539160575043],[30.00306906527149,46.4923045702181],[30.01615610080338,46.49111483971599],[30.00901771778598,46.48040726518869],[30.02210475331787,46.47921753468657],[30.014966370300463,46.46850996016025],[30.032812327844013,46.46613049915415],[30.017345831306294,46.45542292462871],[30.05184801589119,46.442335889096285],[30.070883703937653,46.436387236582064],[30.067314512428908,46.42686939255786],[30.089919391984118,46.42092074004364],[30.09943723600726,46.42686939255786],[30.1160934630487,46.42330020104964],[30.114903732545784,46.435197506078175],[30.120852385060267,46.43400777557508],[30.132749690089334,46.41973100953966],[30.157734030650282,46.40783370451122],[30.161303222158942,46.42211047054575],[30.179149179702492,46.41378235702632],[30.186287562720693,46.41973100953966],[30.175579988193746,46.428059123059974],[30.193425945738092,46.436387236582064],[30.217220555796132,46.439956428090284],[30.243394626859995,46.43043858406696],[30.256481662392687,46.4006953214939],[30.271948158930407,46.375710980932155],[30.28860438597104,46.362623945400614],[30.29812222999427,46.34358825735309],[30.294553038485525,46.32574229981043],[30.279086541947805,46.3078963422659],[30.31715791804065,46.268635235669606],[30.33619360608791,46.24840981712076],[30.37069579067201,46.22818439857023],[30.38854174821556,46.209148710524474],[30.40519797525699,46.18178490895663],[30.414715819280225,46.147282724373326],[30.440889890344003,46.11397027029037],[30.475453793313612,46.07894350517926],[30.52304301343048,46.09322027121371],[30.571821964049562,46.13843003032431],[30.59204738259956,46.15389652686274],[30.59918576561705,46.17293221490938],[30.64082633321864,46.21576251301397],[30.672949056797705,46.26097227212546],[30.69674366685583,46.28952580419542],[30.71696908540583,46.3192690667683],[30.74552261747553,46.351391790346476],[30.780024802059714,46.38113505291953],[30.80143995111272,46.41563723750451],[30.81095779513595,46.44062157806458],[30.809768064633033,46.46560591862633],[30.79549129859823,46.482262145666965],[30.768127497030648,46.494159450696294],[30.768127497030648,46.51438486924603],[30.780024802059714,46.5381794793038],[30.79906049010689,46.55007678433313],[30.822855100164922,46.55721516735044],[30.841890788211387,46.56078435885954],[30.864495667767308,46.55721516735044],[30.903756774363067,46.55959462835645],[30.934689767439302,46.56911247237977],[30.95253572498285,46.57149193338675],[30.9691919520234,46.57863031640416],[31.010832519625787,46.585768699420406],[31.02986820767216,46.591717351935515],[31.054852548233114,46.60242492646104],[31.06556012276006,46.600045465456716],[31.09054446332101,46.61194277048436],[31.10125203784707,46.60837357897615],[31.142892605449454,46.61908115350336],[31.16787694601041,46.61908115350336],[31.213086705121448,46.625029806016784],[31.259486194734606,46.62146061450857],[31.303506223342737,46.61432223149126],[31.34038786893275,46.61551196199346],[31.37370032301473,46.60361465696404],[31.405823046593085,46.625029806016784],[31.435566309166404,46.61908115350336],[31.45460199721287,46.6333579195379],[31.48315552928257,46.638116841549206],[31.51289879185589,46.635737380544086],[31.555729089961105,46.62146061450857],[31.574764778007477,46.61194277048436],[31.596179927059772,46.620270884006544],[31.612836154100407,46.629788728029865],[31.649717799691132,46.64763468557253],[31.692548097795637,46.650014146578535],[31.722291360368956,46.644065494063426],[31.761552466964716,46.63097845853189],[31.81865953110482,46.62265034501068],[31.87695632574775,46.62265034501068],[31.943581233910997,46.62265034501068],[31.961531983901004,46.62265034501068],[31.968190088316007,46.671753865071935],[31.949154400269627,46.73837877323429],[31.930118712222367,46.77645014932847],[31.944395478257967,46.809762603409645],[31.980087393345066,46.85140317101194],[32.02053823044445,46.888284816601335],[32.02926292079934,46.91981267492797],[32.00070938872893,46.92933051895129],[31.96739693464766,46.93884836297549],[31.959465397961118,46.957884051022134],[31.99436415937987,46.988023890429766],[31.99436415937987,47.00705957847641],[31.96739693464766,47.0134048078244],[31.92456663654245,46.99912804178986],[31.897599411809438,47.01023219314996],[31.88173633843715,47.03244049587104],[31.886495260449607,47.054648798592126],[31.908703563170157,47.07368448663877],[31.927739251216536,47.09113386734863],[31.91980771453079,47.10541063338317],[31.902358333821013,47.1085832480585],[31.872218494414007,47.124446321429815],[31.867459572402346,47.15934508284955],[31.86270065039077,47.17996707823296],[31.82780188897202,47.197416458941944],[31.78973051287838,47.20058907361727],[31.775453746843574,47.21803845432537],[31.777040054181057,47.25293721574509],[31.781798976192633,47.287835977163056],[31.762763288146253,47.2957675138496],[31.74372760009979,47.32432104592045],[31.69613837998292,47.33383888994377],[31.65568754288345,47.34655138068773]]]]}},{"type":"Feature","properties":{"kind":"district","id":"uyezd-1897-223","name":"Елисаветградский","provinceId":"gubernia-1897-59"},"geometry":{"type":"MultiPolygon","coordinates":[[[[31.74372760009979,47.32432104592045],[31.762720991870438,47.32482641091883],[31.77223883589358,47.33196479393605],[31.782946410419818,47.36884643952634],[31.773428566396674,47.38788212757298],[31.755582608852947,47.4045383546145],[31.749633956338727,47.423574042660256],[31.742495573321236,47.460455688251336],[31.759151800361693,47.49019895082439],[31.79008479343731,47.52351140490558],[31.830535630536694,47.5294600574198],[31.89953999970613,47.5294600574198],[31.94118056730789,47.53659844043888],[31.98044167390418,47.5425470929531],[31.98282113490974,47.57229035552607],[32.020892511002764,47.57229035552607],[32.07205092262847,47.580618469045504],[32.15890124934163,47.587756852062725],[32.20054181694339,47.588946582565725],[32.21600831348085,47.59965415709303],[32.22433642700152,47.61393092312668],[32.22314669649834,47.63653580268233],[32.23028507951583,47.652002299219966],[32.26359753359772,47.655571490729955],[32.31951486723447,47.656761221232955],[32.3361710942759,47.659140682238075],[32.327842980755136,47.68769421430804],[32.35877597383075,47.71267855486988],[32.33736082477828,47.72576559040132],[32.35639651282519,47.74004235643675],[32.34211974679012,47.76859588850672],[32.361155434837116,47.78049319353525],[32.3623451653395,47.79952888158277],[32.373052739865734,47.79833915107977],[32.40874465495328,47.8030980730909],[32.4337289955145,47.81380564761643],[32.45633387507015,47.80190834258789],[32.51701013071882,47.805477534096994],[32.60980910994638,47.811426186611214],[32.618137223466256,47.74837046995707],[32.80254545141802,47.77216508001493],[33.01312775043418,47.79595969007367],[33.012951494063174,47.82211907310649],[33.047453678648154,47.82568826461461],[33.055781792168474,47.83282664763371],[33.03317691261335,47.86256991020676],[33.027228260098774,47.8816055982534],[33.02484879909294,47.9113488608245],[32.99510553651962,47.9113488608245],[32.986777422999396,47.92800508786692],[32.96536227394709,47.94942023691779],[32.91777305383032,47.93395374038123],[32.87970167773739,47.926815357363026],[32.860665989690204,47.924435896357906],[32.84638922365541,47.929194818369034],[32.84163030164375,47.94942023691779],[32.78809242901238,47.947040775913564],[32.76667727996018,47.938712662392355],[32.7464518614108,47.938712662392355],[32.74169293939923,47.991060804520174],[32.72979563436937,48.0576857126844],[32.70838048531725,48.05887544318652],[32.70362156330559,48.08742897525737],[32.69291398877952,48.094567358274595],[32.70362156330559,48.13144900386399],[32.68458587525912,48.148105230906395],[32.68696533626495,48.15762307492972],[32.6976729107911,48.16595118844906],[32.70838048531725,48.16833064945516],[32.73455455638182,48.164761457946945],[32.736934017387654,48.174279301970266],[32.72384698185496,48.18736633750082],[32.69886264129393,48.18736633750082],[32.63699665514234,48.17903822398148],[32.556094980944195,48.17071011046028],[32.515644143844725,48.17071011046028],[32.49779818630127,48.1826074154897],[32.476383037248965,48.20521229504535],[32.45972681020834,48.21116094755966],[32.45496788819676,48.221868522085984],[32.45496788819676,48.24804259314985],[32.446639774675646,48.25756043717317],[32.41927597310887,48.25756043717317],[32.38834298003343,48.246852862647735],[32.369307291986246,48.24804259314985],[32.35740998695728,48.26469882019049],[32.34789214293404,48.295631813267434],[32.332425646396324,48.33013399785064],[32.320528341367265,48.36344645193368],[32.29792346181134,48.36344645193368],[32.26223154672433,48.35987726042458],[32.251523972198186,48.369395104447904],[32.27293912125039,48.39437944500966],[32.28959534829102,48.41936378556963],[32.28602615678237,48.44196866512537],[32.30982076684032,48.4598146226699],[32.31338995834986,48.48360923272776],[32.314579688852774,48.50978330379163],[32.33361537689915,48.533577913849484],[32.34194349041955,48.56332117642255],[32.36335863947167,48.60139255251583],[32.33480510740206,48.60139255251583],[32.31338995834986,48.607341205030934],[32.29197480929685,48.60020282201371],[32.258662355215584,48.619238510060356],[32.220590979121944,48.618048779556375],[32.19084771654942,48.618048779556375],[32.15515580146152,48.608530935533054],[32.13849957442089,48.620428240562475],[32.10756658134545,48.651361233639335],[32.10756658134545,48.66682773017598],[32.14087903542672,48.677535304703284],[32.161104453976094,48.69419153174383],[32.13849957442089,48.70846829777837],[32.11708442536868,48.72036560280779],[32.087341162795354,48.702519645263266],[32.08615143229244,48.71560668079569],[32.06354655273732,48.72036560280779],[32.04689032569669,48.74297048236353],[32.02547517664368,48.77866239745072],[32.010061893391565,48.80692008341343],[31.953700653591877,48.810235450459885],[31.898973050457602,48.81380464196988],[31.82283029827112,48.83521979102173],[31.74192862407298,48.83046086901051],[31.65507829735955,48.82689167750053],[31.605109616237737,48.82689167750053],[31.572986892658584,48.83403006051961],[31.54324363008606,48.83640952152385],[31.52301821153597,48.806666258951765],[31.512310637009822,48.77692299637871],[31.498033870975018,48.76978461336148],[31.488516026951785,48.78049218788692],[31.476618721922723,48.78049218788692],[31.459962494882088,48.7709743438636],[31.445685728846485,48.76026676933816],[31.43378842381751,48.76145649984028],[31.427839771303024,48.75193865581696],[31.412373274765304,48.749559194812726],[31.40351639213249,48.754274052730594],[31.392808817606344,48.75070486122149],[31.382101243080196,48.754274052730594],[31.37139366855334,48.73880755619207],[31.35592717201562,48.73523836468483],[31.34521959748956,48.744756208708154],[31.336891483969154,48.73761782568995],[31.303579029887175,48.73523836468483],[31.301199568881344,48.756653513736595],[31.28454334184071,48.764981627257804],[31.259559001279758,48.760222705244814],[31.238143852226752,48.760222705244814],[31.22624654719778,48.77568920178324],[31.209590320157144,48.769740549268136],[31.198882745630996,48.769740549268136],[31.18579571009902,48.759032974742695],[31.160811369537356,48.76260216625091],[31.129878376461917,48.74237674770215],[31.06801239031024,48.74832540021539],[31.046597241257945,48.761412435748795],[31.02518209220503,48.768550818766016],[30.98949017711793,48.759032974742695],[30.95141880102429,48.760222705244814],[30.94071122649823,48.77212001027512],[30.927624190966252,48.761412435748795],[30.8955014673879,48.764981627257804],[30.870907820388982,48.757481946886415],[30.857820784857005,48.755102485880315],[30.835215905301972,48.753912755377314],[30.82807752228368,48.747964102863094],[30.82093913926637,48.727738684313444],[30.80785210373439,48.71465164878191],[30.797144529208243,48.70275434375347],[30.795954798705417,48.684908386208946],[30.78524722417927,48.674200811683505],[30.781678032670523,48.64564727961354],[30.77691911065895,48.62423213055992],[30.768590997138634,48.611145095027496],[30.77691911065895,48.595678598489954],[30.76740126663572,48.57902237144931],[30.750745039594374,48.57069425792997],[30.732899082050825,48.54570991736823],[30.735278543056655,48.513587193789164],[30.73028134854353,48.49708111106516],[30.762404072122685,48.472096770503406],[30.785008951677806,48.457820004467976],[30.805234370227186,48.44235350792955],[30.826649519280192,48.43283566390623],[30.829028980286022,48.41974862837559],[30.807613831233017,48.41498970636259],[30.81951113626199,48.40309240133317],[30.83735709380634,48.372159408258085],[30.85758251235563,48.372159408258085],[30.87304900889335,48.36383129473777],[30.88613604442524,48.34241614568601],[30.876618200402095,48.31386261361516],[30.85758251235563,48.30791396110094],[30.85758251235563,48.2912577340603],[30.849254398835313,48.27460150701975],[30.85044412933823,48.244858244446704],[30.867100356378863,48.23534040042338],[30.8552030513498,48.19607929382709],[30.829028980286022,48.18894091080889],[30.813562483747504,48.133023577172054],[30.81713167525616,48.11517761962931],[30.81713167525616,48.08900354856357],[30.81951113626199,48.0687781300157],[30.843305746320826,48.05093217247126],[30.88712163800026,48.04135399439018],[30.920434092082328,48.04016426388629],[30.969213042701227,48.028266958857756],[31.00133576628038,48.00209288779389],[31.028699567847163,47.99257504377057],[31.051304447403083,47.96759070320873],[31.05249417790591,47.946175554156966],[31.089375823495924,47.917622022087],[31.120308816572162,47.88668902901006],[31.140534235121454,47.860514957946194],[31.140534235121454,47.83791007839045],[31.16908776719115,47.82482304285891],[31.192882377249898,47.8212538513499],[31.203589951776046,47.781992744754504],[31.207159143284702,47.74511109916422],[31.209538604290533,47.722506219609365],[31.230953753342828,47.708229453573054],[31.269025129436468,47.711798645083036],[31.279732703962527,47.72369595011148],[31.29638893100325,47.705849992566954],[31.292819739494504,47.6903834960303],[31.26069701591615,47.67610672999399],[31.246420249880547,47.65469158094311],[31.245230519377632,47.639225084404686],[31.219056448313765,47.61899966585494],[31.221435909319595,47.6023434388144],[31.25593809390458,47.58330775076776],[31.308286236032224,47.571410445737456],[31.33208084609097,47.551185027188694],[31.364203569669414,47.53928772215927],[31.420120903306515,47.52858014763295],[31.432018208335577,47.51787257310751],[31.435587399844323,47.49169850204365],[31.455812818393614,47.4607655089667],[31.48198688945828,47.45124766494338],[31.503402038510487,47.43340170740063],[31.536714492592555,47.419124941364316],[31.53790422309538,47.392950870300446],[31.565268024662164,47.391761139798334],[31.593821556731772,47.38938167879223],[31.621185358299353,47.3739151822538],[31.65568754288345,47.34655138068773],[31.69613837998292,47.33383888994377],[31.74372760009979,47.32432104592045]]]]}},{"type":"Feature","properties":{"kind":"district","id":"uyezd-1897-741","name":"Ананьевский","provinceId":"gubernia-1897-59"},"geometry":{"type":"MultiPolygon","coordinates":[[[[30.93554741098784,47.1729511861404],[30.982300078233916,47.16095342223341],[31.03464822036165,47.17047126625673],[31.084616901484353,47.182368571284286],[31.142913696127284,47.18712749329737],[31.134585582606967,47.22043994737855],[31.109601242045215,47.22043994737855],[31.07271959645529,47.22876806089789],[31.069150404946544,47.245424287940295],[31.05725309991757,47.244234557436315],[31.040596872876137,47.28944431654692],[31.017991993321015,47.29777243006812],[31.01442280181236,47.323946501131985],[31.028699567847163,47.328705423143205],[31.07509905746112,47.327515692640205],[31.098893667519157,47.25018320995063],[31.17979534171721,47.260890784476956],[31.31185542754097,47.2930135080569],[31.31661434955254,47.30134162157624],[31.348737073131606,47.30966973509745],[31.368962491680985,47.30966973509745],[31.384428988218705,47.2930135080569],[31.409413328780456,47.2930135080569],[31.45938200990227,47.30491081308534],[31.491504733481424,47.30729027409144],[31.51767880454529,47.29658269956414],[31.547422067118614,47.29539296906202],[31.61999562779644,47.331084884149305],[31.65568754288345,47.34655138068773],[31.621185358299353,47.3739151822538],[31.593821556731772,47.38938167879223],[31.565268024662164,47.391761139798334],[31.53790422309538,47.392950870300446],[31.536714492592555,47.419124941364316],[31.503402038510487,47.43340170740063],[31.48198688945828,47.45124766494338],[31.455812818393614,47.4607655089667],[31.435587399844323,47.49169850204365],[31.432018208335577,47.51787257310751],[31.420120903306515,47.52858014763295],[31.364203569669414,47.53928772215927],[31.33208084609097,47.551185027188694],[31.308286236032224,47.571410445737456],[31.25593809390458,47.58330775076776],[31.221435909319595,47.6023434388144],[31.219056448313765,47.61899966585494],[31.245230519377632,47.639225084404686],[31.246420249880547,47.65469158094311],[31.26069701591615,47.67610672999399],[31.292819739494504,47.6903834960303],[31.29638893100325,47.705849992566954],[31.279732703962527,47.72369595011148],[31.269025129436468,47.711798645083036],[31.230953753342828,47.708229453573054],[31.209538604290533,47.722506219609365],[31.207159143284702,47.74511109916422],[31.203589951776046,47.781992744754504],[31.192882377249898,47.8212538513499],[31.16908776719115,47.82482304285891],[31.140534235121454,47.83791007839045],[31.140534235121454,47.860514957946194],[31.120308816572162,47.88668902901006],[31.089375823495924,47.917622022087],[31.05249417790591,47.946175554156966],[31.051304447403083,47.96759070320873],[31.028699567847163,47.99257504377057],[31.00133576628038,48.00209288779389],[30.969213042701227,48.028266958857756],[30.920434092082328,48.04016426388629],[30.88712163800026,48.04135399439018],[30.843305746320826,48.05093217247126],[30.820700866765705,48.01761971839008],[30.807613831233017,47.99977376084556],[30.81237275324459,47.96765103726649],[30.789767873689467,47.931959122179215],[30.774301377151748,47.931959122179215],[30.744558114578425,47.940287235700424],[30.70529700798258,47.93909750519653],[30.65651805736288,47.93790777469441],[30.63867209981933,47.914113164636554],[30.60060072372569,47.909354242623564],[30.572047191656083,47.91292343413257],[30.549442312100872,47.89983639860024],[30.505422283492745,47.90459532061323],[30.449504949855644,47.920061817150774],[30.42571033979752,47.914113164636554],[30.405484921248227,47.923631008659875],[30.411433573762714,47.93909750519653],[30.378121119680735,47.94504615771164],[30.34837785710821,47.95575373223707],[30.332911360570492,47.93671804419141],[30.271045374418726,47.91292343413257],[30.207989657764223,47.909354242623564],[30.143744210606627,47.89507747658902],[30.11519067853622,47.89269801558292],[30.08187822445504,47.90340559010925],[30.049755500876685,47.89150828508081],[30.002166280759813,47.89269801558292],[29.946248947122623,47.908164512121445],[29.912936493041354,47.909354242623564],[29.886762421976776,47.918872086646886],[29.80467101727572,47.91054397312745],[29.747563953135703,47.91292343413257],[29.680939044972366,47.91292343413257],[29.658334165417244,47.918872086646886],[29.65952389592016,47.87485205804026],[29.582191413230763,47.87247259703417],[29.5702941082017,47.91292343413257],[29.548878959148695,47.898646668098124],[29.51199731355877,47.86414448351296],[29.500100008529706,47.81536553289335],[29.497720547523876,47.7891914618294],[29.46559782394481,47.77253523478885],[29.477495128973786,47.69639248260317],[29.475115667967955,47.685684908075956],[29.48106432048253,47.65356218449689],[29.47392593746504,47.627388113432936],[29.448941596904177,47.59288592884875],[29.432285369863543,47.55719401376156],[29.41324968181628,47.53815832571492],[29.408490759804707,47.51436371565706],[29.423399941783124,47.47752219488668],[29.466230239887537,47.483470847400014],[29.505491346484092,47.483470847400014],[29.55189083609814,47.50131680494454],[29.647069276330996,47.500127074440556],[29.799354780704046,47.526301145506295],[29.819580199253338,47.51559357097908],[29.84218507880926,47.43231243577608],[29.858841305849893,47.39424105968191],[29.904051064961024,47.40256917320312],[29.942122441053776,47.410897286722545],[29.968296512118442,47.404948634207344],[30.026593306760663,47.37996429364648],[30.087269562409425,47.38710267666468],[30.125340938503065,47.35973887509684],[30.18244800264317,47.32523669051354],[30.237175605776645,47.295493427940485],[30.306179974945724,47.291924236430496],[30.42396329473459,47.30977019397503],[30.466793592839803,47.291924236430496],[30.57148987709598,47.31214965498112],[30.65834020380861,47.31214965498112],[30.689273196884848,47.28835504492237],[30.72972403398352,47.27526800938995],[30.760657027059757,47.25504259084119],[30.78802082862645,47.24076582480666],[30.822523013211345,47.23124798078334],[30.870112233327507,47.22886851977635],[30.890337651877598,47.22886851977635],[30.90818360942106,47.21697121474702],[30.936737141490756,47.20626364022158],[30.97123932607574,47.19317660468916],[30.96648040406408,47.183658760665836],[30.93554741098784,47.1729511861404]]]]}}]}
