{"type":"FeatureCollection","features":[{"type":"Feature","properties":{"kind":"province","id":"gubernia-1897-12","name":"Московская губерния"},"geometry":{"type":"MultiPolygon","coordinates":[[[[36.007762833403575,55.20698649844833],[35.99884660350766,55.217574521448995],[35.957206035906076,55.24969724502628],[35.9024784327718,55.24612805351807],[35.83942271611721,55.24136913150686],[35.808489723041774,55.25207670603229],[35.81919729756792,55.266353472068694],[35.804920531533114,55.27706104659502],[35.77398753845679,55.27825077709625],[35.73948535387189,55.29728646514378],[35.701413977779055,55.27706104659502],[35.672860445709354,55.292527543132564],[35.65263502716006,55.275871316092015],[35.59116497716877,55.302072722553916],[35.61852877873636,55.32229814110356],[35.6566001548292,55.359179786692955],[35.70656883595181,55.34847221216752],[35.71608667997505,55.35561059518474],[35.73631209852434,55.36036951719596],[35.73631209852434,55.378215474740486],[35.70775856645473,55.39130251027202],[35.70299964444315,55.42104577284499],[35.68753314790544,55.4246149643532],[35.67801530388141,55.41628685083377],[35.66968719036109,55.42104577284499],[35.670876920864,55.43413280837652],[35.68753314790544,55.460306879441276],[35.62685689225658,55.45911714893916],[35.599493090689094,55.44008146089163],[35.562611445099165,55.46149660994526],[35.525729799508355,55.46744526245859],[35.54476548755482,55.49599879452855],[35.562611445099165,55.48291175899613],[35.584026594151375,55.48291175899613],[35.614959587226814,55.49005014201522],[35.61733904823345,55.53407017062184],[35.58759578566012,55.5186036740843],[35.57450875012823,55.51979340458641],[35.53762710453742,55.55905451118448],[35.497176267438746,55.591177234762654],[35.50907357246781,55.612592383814416],[35.525729799508355,55.607833461803196],[35.555473062081674,55.603074539791095],[35.56380117560208,55.614971844820516],[35.5721292891224,55.614971844820516],[35.56499090610491,55.63638699387228],[35.536437374034506,55.63400753286716],[35.51621195548521,55.63638699387228],[35.5078838419649,55.64947402940558],[35.52335033850261,55.66613025644622],[35.53762710453742,55.694683788515206],[35.530488721520015,55.71371947656185],[35.512642763976466,55.756549774668215],[35.47338165737991,55.761308696679436],[35.44720758631613,55.76249842718155],[35.4162745932406,55.76249842718155],[35.401997827205,55.757739505170335],[35.37701348664414,55.767257349193656],[35.38296213915862,55.7839135762342],[35.3532188765861,55.78510330673729],[35.340131841054124,55.77796492371909],[35.33061399703009,55.7862930372394],[35.31276803948663,55.7862930372394],[35.30800911747506,55.79819034226874],[35.27826585490244,55.79819034226874],[35.26636854987348,55.80889791679604],[35.27826585490244,55.81603629981326],[35.2746966633937,55.831502796351785],[35.259230166855275,55.831502796351785],[35.199743641710135,55.89098932149683],[35.2604198973581,55.89812770451405],[35.28183504641119,55.91954285356768],[35.29849127345183,55.93738881111043],[35.28421450741702,55.95642449915707],[35.209261485733364,55.93500935010522],[35.202123102715966,55.94333746362465],[35.192605258691934,55.93619908060734],[35.190225797686104,55.920732584069796],[35.1414468470672,55.96237315167218],[35.14066298615085,55.97897362220097],[35.16223947142318,55.98256970307831],[35.187223811984566,56.002795121627955],[35.22886437958687,56.02540000118468],[35.224105457575206,56.04443568923132],[35.26455629467414,56.04562541973432],[35.30619686227635,56.04562541973432],[35.31333524529376,56.081317334820625],[35.305007131772996,56.08964544834094],[35.32166335881381,56.11938871091391],[35.282402252218134,56.11225032789757],[35.270504947189075,56.144373051475654],[35.31571470629959,56.164598470025396],[35.31571470629959,56.17887523605993],[35.3430785078669,56.18125469706505],[35.34783742987856,56.20029038511169],[35.32285308931708,56.2086184986329],[35.32880174183121,56.240741222210985],[35.34426823836946,56.25144879673829],[35.414462338041545,56.25144879673829],[35.429928834579705,56.24550014422318],[35.46681048016946,56.25144879673829],[35.48584616821601,56.26215637126461],[35.52993963697898,56.27402430023085],[35.551354786031276,56.2990086407926],[35.59061589262774,56.312095676324134],[35.60846185017094,56.31804432883924],[35.59180562313021,56.329941633867776],[35.58942616212438,56.36682327945894],[35.61916942469753,56.38110004549348],[35.66675864481387,56.36563354895585],[35.695312176883746,56.37753085398438],[35.71553759543357,56.37396166247706],[35.71553759543357,56.36563354895585],[35.74766031901254,56.36206435744772],[35.760747354544165,56.36920274046406],[35.80238792214637,56.364443818453736],[35.8011981916431,56.38466923700249],[35.832131184719515,56.397756272534025],[35.86068471678931,56.410843308067335],[35.834510645725345,56.42630980460399],[35.834099380860074,56.444052945931645],[35.85194533840327,56.438104293417425],[35.88644752298808,56.41311995285558],[35.942364856625176,56.38456642078562],[35.96615946668312,56.37385884626018],[35.962590275175,56.39170480380382],[35.968538927689224,56.39765345631893],[35.993523268250705,56.39170480380382],[36.04349194937288,56.45238105945187],[36.03754329685874,56.45951944247007],[36.04825087138454,56.47141674749851],[36.06847628993436,56.46308863397829],[36.08037359496342,56.46903728649339],[36.095840091500875,56.465468094985184],[36.11130658803913,56.47022701699551],[36.144619042120574,56.46784755599039],[36.151757425138065,56.48093459152183],[36.150567694635505,56.504729201581554],[36.166034191172955,56.507108662586674],[36.167223921676225,56.521385428621215],[36.17912122670538,56.527334081136324],[36.196967184249374,56.528523811638436],[36.23265909933665,56.54280057767484],[36.294525085487976,56.56183626572148],[36.305232660014475,56.57611303175602],[36.325458078563585,56.57492330125293],[36.323078617557755,56.5642157267266],[36.33735538359265,56.5642157267266],[36.34806295811924,56.582061684269355],[36.412308405276306,56.59395898929957],[36.438482476340354,56.585630875779344],[36.449190050866946,56.597528180807785],[36.487261426960046,56.590389797791445],[36.49439980997745,56.60585629432899],[36.52533280305387,56.60942548583721],[36.53128145556809,56.61537413835231],[36.557587718910234,56.62489198237563],[36.58138232896836,56.61537413835231],[36.60874613053576,56.63678928740416],[36.63492020159972,56.65344551444559],[36.65276615914371,56.671291471989235],[36.68964780473355,56.68318877701866],[36.694406726745925,56.65939416695893],[36.74318567736482,56.671291471989235],[36.74675486887401,56.65344551444559],[36.725339719821626,56.64511740092439],[36.731288372335754,56.63559955690107],[36.846692231118354,56.57730276225814],[36.88833279872065,56.58325141477236],[36.91688633079043,56.56897464873782],[36.95376797638098,56.57373357074904],[36.97518312543336,56.5594568047145],[36.98232150845077,56.54518003867996],[37.051325877620286,56.53328273365152],[37.0715512961694,56.529713542141536],[37.09772536723416,56.53209300314852],[37.09296644522179,56.54636976918306],[37.10605348075421,56.56183626572148],[37.13222755181816,56.579682223264236],[37.13460701282399,56.601097372316],[37.12270970779493,56.60585629432899],[37.12270970779493,56.62489198237563],[37.10724321125748,56.63916874840928],[37.11795078578327,56.64511740092439],[37.15245297036799,56.64987632293561],[37.15364270087055,56.661773627965914],[37.12746862980659,56.666532549977134],[37.13698647382982,56.673670932995336],[37.15840162288221,56.68556823802378],[37.19528326847276,56.69746554305222],[37.20718057350191,56.70698338707554],[37.22467401830389,56.713813321443915],[37.26750431640945,56.703105746919455],[37.291298926467576,56.69239817239215],[37.32699084155485,56.69715709440426],[37.362682756642215,56.71024412993579],[37.38171844468869,56.713813321443915],[37.42811793430255,56.69239817239215],[37.4364460478234,56.66503437082617],[37.46143038838409,56.66622410132731],[37.46380984938983,56.64599868277953],[37.479276345928085,56.63767056925832],[37.48760445944804,56.617445150709564],[37.503070955986296,56.61625542020647],[37.497122303472075,56.60435811517617],[37.509019608501184,56.59603000165768],[37.52846064123497,56.574554976637025],[37.57367040034629,56.54243225305707],[37.61055204593612,56.53291440903375],[37.630777464485945,56.51268899048411],[37.65814126605326,56.51506845149109],[37.6914537201347,56.53291440903375],[37.72357644371368,56.54838090557227],[37.76283755030935,56.57217551563102],[37.78306296885917,56.55908848009771],[37.784252699361645,56.54719117506917],[37.80209865690573,56.52815548702253],[37.796150004390796,56.500791685454686],[37.81280623143223,56.476997075397804],[37.834221380484614,56.476997075397804],[37.855636529536994,56.46509977036838],[37.86634410406279,56.45677165684807],[37.85682626003947,56.43773596880143],[37.835411110987174,56.43773596880143],[37.822324075455555,56.42464893326812],[37.8104267704264,56.407992706228455],[37.815185692438064,56.398474862205134],[37.84373922450784,56.37705971315151],[37.88062087009848,56.38181863516361],[37.91512305468249,56.37943917415849],[37.96152254429636,56.38300836566671],[38.015060416927625,56.37349052164339],[38.05432152352401,56.36992133013517],[38.09477236062294,56.36635213862519],[38.12451562319609,56.36278294711697],[38.174484304318256,56.36159321661397],[38.19589945337064,56.342557528567326],[38.21731460242303,56.330660223538885],[38.21612487192047,56.31043480498924],[38.18400214834158,56.29377857794772],[38.207796758399795,56.2854504644274],[38.18995080085571,56.27236342889596],[38.203037836388134,56.259276393364416],[38.18757133984988,56.23667151380779],[38.169725382306595,56.21644609525814],[38.203037836388134,56.20692825123482],[38.23516055996702,56.1974104072115],[38.262524361533536,56.20097959872149],[38.2565757090194,56.21406663425293],[38.311303312153235,56.21882555626415],[38.314872503662336,56.22834340028747],[38.34580549673804,56.22834340028747],[38.369600106796256,56.23429205280267],[38.40529202188353,56.22001528676813],[38.43503528445659,56.20573852073173],[38.46001962501808,56.21168717324781],[38.468347738538036,56.1974104072115],[38.49571154010535,56.181943910674846],[38.51342530537124,56.16898906741973],[38.5181842273829,56.14162526585277],[38.52294314939448,56.126158769315225],[38.53840964593193,56.115451194789784],[38.55863506448175,56.0678619746723],[38.54554802894942,56.055964669643764],[38.51699449687963,56.048826286625655],[38.50747665285631,56.03335979008713],[38.52056368838865,56.02622140707079],[38.53365072392027,56.01194464103537],[38.54792748995525,55.99171922248573],[38.56577344749924,55.985770569970526],[38.58718859655163,55.96078622940966],[38.605034554095624,55.97387326494297],[38.641916199685454,55.984580839467526],[38.70021299432839,55.99052949198263],[38.72638706539243,55.98815003097751],[38.773976285509576,55.96078622940966],[38.79658116506452,55.95245811588934],[38.807288739591016,55.95007865488422],[38.812047661602676,55.9393710803579],[38.8251346971351,55.9346121583458],[38.82751415814093,55.91795593130428],[38.85368822920489,55.90962781778494],[38.86320607322821,55.890592129738295],[38.966712626981646,55.85727967565711],[38.98455858452573,55.85727967565711],[39.00478400307476,55.84657210112981],[39.01668130810382,55.8441926401238],[39.02976834363624,55.83943371811347],[39.01430184709808,55.823967221575046],[38.996455889554795,55.820398030066826],[38.97742020150744,55.80850072503741],[38.965522896478376,55.8025520725223],[38.947676938935096,55.8025520725223],[38.93815909491187,55.78589584548078],[38.944107747425996,55.77518827095534],[38.941728286420165,55.7549628524057],[38.9226925983737,55.734737433856054],[38.890569874794636,55.73949635586727],[38.88581095278306,55.731168242347835],[38.89651852730965,55.71927093731753],[38.88938014429216,55.70499417128299],[38.90603637133289,55.70499417128299],[38.93815909491187,55.68952767474457],[38.994076428548965,55.67763036971613],[39.02857861313297,55.664543334184586],[39.06308079771769,55.64907683764616],[39.11304947883995,55.65978441217337],[39.145172202418834,55.664543334184586],[39.18919223102687,55.664543334184586],[39.20703818857015,55.664543334184586],[39.20856318009268,55.66490215571933],[39.20768849922841,55.645659176705536],[39.23267283978936,55.61948510564159],[39.21720634325165,55.59450076507895],[39.23624203129802,55.565947233008984],[39.21601661274873,55.54929100596834],[39.16128900961445,55.50289151635572],[39.13749439955642,55.480286636799974],[39.09228464044537,55.46244067925545],[39.06016191686702,55.44578445221491],[39.0304186542937,55.44578445221491],[38.99115754769794,55.44935364372489],[38.97450132065731,55.44935364372489],[38.98401916468045,55.433887147186375],[38.98520889518336,55.38034927455466],[38.99353700870368,55.36488277801801],[38.98520889518336,55.363693047514026],[38.962604015628244,55.36488277801801],[38.94144511622252,55.357597966631175],[38.94951698009555,55.35298547298862],[38.91501479551141,55.338708706952275],[38.89478937696208,55.336329245948036],[38.88051261092647,55.31848328840351],[38.855528270365525,55.27446325979601],[38.886461263440964,55.270894068286026],[38.870994766903245,55.23282269219362],[38.899548298973656,55.192371855094244],[38.942378597078154,55.19475131610034],[38.95546563261004,55.186423202579135],[39.03160838479661,55.189992394089124],[39.02922892379078,55.17452589755158],[38.98877808669211,55.16619778402949],[38.98401916468045,55.15430047900193],[38.95903482411879,55.13645452145741],[38.95308617160421,55.118608563912886],[38.978070512165964,55.109090719889565],[39.02328027127621,55.109090719889565],[39.04350568982639,55.101952336872245],[39.02684946278495,55.093624223352904],[38.99710620021243,55.0852961098317],[38.962604015628244,55.08410637932958],[38.90073802947657,55.0817269183226],[38.849579617851035,55.07696799631228],[38.797231475722505,55.07101934379716],[38.75559090812101,55.057932308265634],[38.74488333359406,55.036517159212096],[38.74964225560572,55.00915335764602],[38.786523901196446,54.99368686110759],[38.79485201471677,54.977030634066956],[38.79604174521968,54.963943598534534],[38.775816326670295,54.92468249193914],[38.75440117761809,54.9115954564068],[38.72346818454186,54.91278518690892],[38.66993031191049,54.91635437841793],[38.65922273738435,54.90445707338949],[38.66755085090466,54.868765158302296],[38.64613570185246,54.84616027874655],[38.593787559724014,54.83426297371714],[38.55928537513983,54.83664243472323],[38.502178310999724,54.85091920075777],[38.42603555881324,54.8663856972962],[38.38320526070803,54.860437044781094],[38.351082537129585,54.85567812276987],[38.30111385600698,54.874713810815635],[38.2749397849432,54.864006236289214],[38.24757598337561,54.865195966792314],[38.21307379879143,54.865195966792314],[38.1547770041485,54.83426297371714],[38.126223472078806,54.82831432120203],[38.038183414862544,54.84616027874655],[37.97988662022033,54.84259108723657],[37.931107669600536,54.85329866176378],[37.86448276143729,54.84021162623233],[37.82998057685239,54.83783216522535],[37.749078902654254,54.84259108723657],[37.65033127091256,54.84735000924867],[37.59441393727546,54.84616027874655],[37.53730687313536,54.87233434981042],[37.466153975315734,54.88208132211383],[37.45045654642273,54.884231654838956],[37.40881597882043,54.879472732827736],[37.35884729769853,54.881852193832856],[37.326724574119375,54.8628165057871],[37.30636042621168,54.84756833504256],[37.29327339067979,54.85708617906588],[37.26709931961513,54.86065537057311],[37.21832036899614,54.8666040230892],[37.171920879382185,54.87731159761553],[37.18262845390833,54.89277809415307],[37.18619764541698,54.90705486018761],[37.20642306396637,54.93203920074936],[37.20642306396637,54.959403002315426],[37.21118198597794,54.967731115836635],[37.22545875201354,54.976059229355975],[37.23616632653969,54.98319761237329],[37.21118198597794,55.01888952746137],[37.19333602843447,55.02126898846746],[37.16954141837644,55.01175114444325],[37.145746808318314,55.00937168343902],[37.13265977278563,55.01769979695836],[37.1171932762479,55.03078683249078],[37.08745001367538,55.040304676514104],[37.10172677971019,55.06409928657196],[37.11838300675082,55.07004793908618],[37.11957273725373,55.08075551361251],[37.107675432224674,55.0831349746186],[37.10410624071602,55.102170662665245],[37.07198351713767,55.105739854174345],[37.069604056131126,55.08789389662982],[37.048188907078824,55.08789389662982],[37.041050524061426,55.09979120165915],[37.056517020599145,55.11168850668946],[37.04937863758174,55.14381123026763],[37.01249699199182,55.15332907429185],[36.98997165835348,55.15262515761516],[36.97442561589818,55.15213934378884],[36.9684769633836,55.177123684348814],[36.9613385803662,55.212815599436894],[36.92802612628422,55.23779993999873],[36.910180168740666,55.26992266357682],[36.87805744516231,55.27944050759925],[36.8768677146594,55.30085565665199],[36.8268990335367,55.31751188369253],[36.81857092001647,55.35201406827761],[36.790017387946065,55.356772990288825],[36.76979196939668,55.369860025822135],[36.74480762883573,55.37223948682734],[36.72220274927981,55.384136791856676],[36.69840813922177,55.38889571386789],[36.6650956851405,55.40912113241851],[36.61988592602946,55.38889571386789],[36.630593500555605,55.37699840883945],[36.55801993987778,55.33892703274616],[36.49377449272036,55.303235117658],[36.47592853517673,55.30799403966921],[36.468790152159414,55.29490700413866],[36.41882147103671,55.32227080570553],[36.39383713047576,55.302045387155886],[36.377180903435125,55.29728646514378],[36.360524676393695,55.31037350067531],[36.336730066335654,55.292527543132564],[36.32245330030085,55.274681585588034],[36.33791979683857,55.2604048195535],[36.321263569797935,55.23542047899174],[36.31650464778636,55.2163847909451],[36.25106947012594,55.212815599436894],[36.22608512956428,55.217574521448995],[36.214187824535216,55.212815599436894],[36.21537755503813,55.20091829440845],[36.16421914341331,55.19734910289846],[36.11662992329653,55.19734910289846],[36.11187100128487,55.22114371295632],[36.05357420664185,55.23066155697964],[36.01788229155413,55.228282095974436],[36.007762833403575,55.20698649844833]]]]}},{"type":"Feature","properties":{"kind":"district","id":"uyezd-1897-286","name":"Волоколамский","provinceId":"gubernia-1897-12"},"geometry":{"type":"MultiPolygon","coordinates":[[[[35.83409938086003,56.444052945931645],[35.8345106457253,56.42630980460399],[35.860684716789265,56.41084330806734],[35.83213118471947,56.397756272534025],[35.80119819164306,56.3846692370025],[35.80238792214633,56.364443818453736],[35.76074735454412,56.36920274046406],[35.747660319012496,56.36206435744773],[35.715537595433524,56.365633548955856],[35.715537595433524,56.37396166247706],[35.695312176883704,56.37753085398438],[35.666758644813825,56.365633548955856],[35.61916942469749,56.38110004549348],[35.58942616212434,56.36682327945894],[35.59180562313017,56.329941633867776],[35.6084618501709,56.31804432883925],[35.590615892627696,56.312095676324134],[35.55135478603123,56.29900864079261],[35.52993963697894,56.27402430023085],[35.485846168215964,56.26215637126458],[35.466810480169414,56.25144879673826],[35.42992883457966,56.24550014422315],[35.4144623380415,56.25144879673826],[35.344268238369416,56.25144879673826],[35.328801741831164,56.24074122221096],[35.322853089317036,56.20861849863287],[35.34783742987852,56.200290385111664],[35.343078507866856,56.18125469706502],[35.315714706299545,56.1788752360599],[35.315714706299545,56.16459847002537],[35.27050494718903,56.144373051475625],[35.28240225221809,56.11225032789754],[35.321663358813765,56.11938871091388],[35.30500713177295,56.08964544834091],[35.313335245293715,56.081317334820596],[35.30619686227631,56.04562541973429],[35.2645562946741,56.04562541973429],[35.22410545757516,56.04443568923129],[35.228864379586824,56.02540000118465],[35.18722381198452,56.002795121627926],[35.162239471423135,55.98256970307828],[35.140662986150744,55.97897362220192],[35.141446847067186,55.96237315167218],[35.19022579768614,55.92073258406981],[35.19260525869197,55.936199080607366],[35.20212310271597,55.94333746362463],[35.20926148573335,55.93500935010525],[35.284214507417005,55.95642449915704],[35.298491273451816,55.937388811110395],[35.281835046411175,55.91954285356769],[35.26041989735813,55.89812770451408],[35.19974364171014,55.89098932149682],[35.259230166855275,55.83150279635174],[35.27469666339374,55.83150279635174],[35.278265854902486,55.81603629981328],[35.26636854987345,55.80889791679601],[35.278265854902486,55.798190342268754],[35.308009117475024,55.798190342268754],[35.31276803948663,55.786293037239375],[35.33061399703013,55.786293037239375],[35.34013184105413,55.77796492371908],[35.353218876586084,55.785103306737255],[35.38296213915862,55.78391357623423],[35.3770134866441,55.76725734919364],[35.40199782720504,55.75773950517032],[35.416274593240644,55.76249842718153],[35.4472075863161,55.76249842718153],[35.473381657379946,55.76130869667941],[35.51264276397649,55.7565497746682],[35.49358781522799,55.78426278029471],[35.479311049193186,55.80448819884347],[35.490018623719244,55.83899038342863],[35.548315418362264,55.83899038342863],[35.5792484114377,55.85921580197828],[35.58043814194062,55.8770617595228],[35.54712568785935,55.893717986563345],[35.56021272339124,55.91275367460999],[35.58876625546094,55.91989205762731],[35.662529546641586,55.91989205762731],[35.752949064863756,55.92465097963852],[35.75770798687533,55.85564661046918],[35.8124355900088,55.85088768845894],[35.84693777459379,55.85802607147616],[35.86240427113151,55.87587202901882],[35.850506966102536,55.886579603546124],[35.856455618616934,55.89133852555645],[35.84455831358796,55.897287178071565],[35.80648693749432,55.900856369580666],[35.7910204409566,55.90799475259789],[35.7910204409566,55.92584071014241],[35.81838424252409,55.92940990165063],[35.81362532051172,55.95558397271449],[35.817194512021175,55.969860738749034],[35.86002481012568,55.95796343372059],[35.861214540628595,55.93059963215274],[35.90285510823098,55.93535855416573],[35.93378810130642,55.92227151863331],[35.96353136387974,55.93654828466785],[35.98375678242903,55.93654828466785],[35.99089516544643,55.92465097963852],[36.00755139248707,55.92584071014241],[36.02896654154007,55.949635320199384],[36.07536603115332,55.95439424221237],[36.08845306668521,55.94249693718305],[36.172923932392806,55.949635320199384],[36.196718542450846,55.969860738749034],[36.218133691503056,55.95796343372059],[36.2359796490466,55.975809391263255],[36.241928301561884,55.98532723528755],[36.260963989608356,55.98532723528755],[36.27643048614598,55.980568313276336],[36.2918969826837,55.98175804377845],[36.27405102514024,55.99960400132298],[36.26929210312867,56.025778072385954],[36.252635876088036,56.049572682444705],[36.256205067596696,56.06622890948525],[36.218133691503056,56.06860837049223],[36.214564499994395,56.08764405853887],[36.176493123901466,56.10786947708763],[36.168165010381145,56.08883378904099],[36.13604228680208,56.09359271105221],[36.12890390378468,56.11143866859673],[36.10629902422947,56.120956512620054],[36.10272983272081,56.13404354815159],[36.12414498177302,56.14832031418612],[36.11581686825271,56.17449438525186],[36.07774549215907,56.19234034279452],[36.02658708053424,56.191150612292404],[36.00636166198416,56.197099264805736],[36.009930853492904,56.21613495285238],[35.94806486734122,56.24706794592933],[35.94806486734122,56.257775520454764],[35.92070106577453,56.270862555987186],[35.932598370803504,56.287518783027735],[35.96948001639423,56.29941608805715],[35.988515704440694,56.28989824403383],[35.99565408745809,56.293467435541956],[35.99446435695518,56.3136928540916],[36.00041300946967,56.33153881163612],[35.99446435695518,56.350574499682764],[35.96615946668335,56.373858846259296],[35.94236485662513,56.38456642078562],[35.886447522988036,56.41311995285558],[35.851945338403226,56.438104293417425],[35.83409938086003,56.444052945931645]]]]}},{"type":"Feature","properties":{"kind":"district","id":"uyezd-1897-287","name":"Можайский","provinceId":"gubernia-1897-12"},"geometry":{"type":"MultiPolygon","coordinates":[[[[35.9572060359061,55.249697245026255],[35.95639298086225,55.27148893353748],[36.00755139248707,55.27148893353748],[36.01468977550447,55.29885273510631],[36.03967411606622,55.33335491968951],[36.03491519405465,55.34287276371283],[36.01468977550447,55.34763168572405],[36.01587950600739,55.35952899075347],[36.03848438556331,55.361908451759476],[36.04205357707205,55.37261602628589],[36.06941737863875,55.3714262957828],[36.07179683964458,55.352390607736154],[36.094401719199695,55.348821416228034],[36.101540102217896,55.36428791276646],[36.168165010381145,55.366667373770696],[36.13366282579625,55.40473874986398],[36.11224767674405,55.405928480367066],[36.10272983272081,55.4142565938873],[36.14199093931657,55.440430664952146],[36.11819632925854,55.463035544506994],[36.134852556299165,55.47493284953721],[36.12533471227594,55.48920961557175],[36.1300936342876,55.52847072216716],[36.175303393398636,55.54155775769958],[36.140801208813656,55.548696140716885],[36.143180669819486,55.578439403290744],[36.08607360567938,55.578439403290744],[36.06822764813583,55.54512694920956],[36.04324330757497,55.53085018317325],[36.01231031449864,55.52728099166504],[36.025397350030616,55.54274748820356],[36.02182815852187,55.557024254238094],[35.99803354846384,55.5594037152441],[35.970669746897144,55.5510756017229],[35.936167562312164,55.584388055805945],[35.951634058849876,55.59390589982927],[35.93973675382091,55.61770050988703],[35.91118322175121,55.61770050988703],[35.899285916722235,55.64268485044701],[35.86002481012568,55.64625404195699],[35.84693777459379,55.69622272307881],[35.83504046956482,55.70336110609604],[35.832661008558986,55.71287895011936],[35.86002481012568,55.733104368669004],[35.85764534911985,55.76165790073897],[35.861214540628595,55.78545251079683],[35.87787076766923,55.78664224130081],[35.856455618616934,55.83899038342863],[35.863594001634425,55.85207741896105],[35.86240427113151,55.87587202901882],[35.84693777459379,55.85802607147616],[35.8124355900088,55.85088768845894],[35.75770798687533,55.85564661046918],[35.752949064863756,55.92465097963852],[35.662529546641586,55.91989205762731],[35.58876625546094,55.91989205762731],[35.56021272339124,55.91275367460999],[35.54712568785935,55.893717986563345],[35.58043814194062,55.8770617595228],[35.5792484114377,55.85921580197828],[35.548315418362264,55.83899038342863],[35.490018623719244,55.83899038342863],[35.479311049193186,55.80448819884347],[35.49358781522799,55.78426278029471],[35.51264276397649,55.7565497746682],[35.53048872151999,55.71371947656189],[35.53762710453742,55.69468378851525],[35.52335033850261,55.666130256446195],[35.50788384196488,55.64947402940561],[35.516211955485176,55.63638699387229],[35.536437374034506,55.634007532867145],[35.564990906104924,55.63638699387229],[35.57212928912236,55.6149718448205],[35.563801175602066,55.6149718448205],[35.55547306208172,55.60307453979112],[35.52572979950838,55.60783346180324],[35.5090735724678,55.612592383814444],[35.49717626743876,55.591177234762654],[35.53762710453742,55.55905451118451],[35.57450875012819,55.51979340458638],[35.587595785660085,55.51860367408426],[35.61733904823342,55.53407017062182],[35.61495958722685,55.49005014201521],[35.584026594151396,55.482911758996124],[35.56261144509915,55.482911758996124],[35.544765487554855,55.49599879452853],[35.52572979950838,55.46744526245857],[35.56261144509915,55.46149660994524],[35.59949309068912,55.44008146089163],[35.626856892256626,55.459117148939185],[35.68753314790541,55.460306879441305],[35.670876920863975,55.43413280837649],[35.66968719036112,55.42104577284499],[35.67801530388141,55.416286850833785],[35.68753314790541,55.42461496435317],[35.70299964444314,55.42104577284499],[35.70775856645474,55.391302510272],[35.736312098524365,55.3782154747405],[35.736312098524365,55.36036951719598],[35.716086679975035,55.35561059518477],[35.70656883595183,55.34847221216751],[35.656600154829164,55.35917978669295],[35.618528778736334,55.3222981411036],[35.59116497716877,55.30207272255302],[35.652635027160045,55.27587131609198],[35.672860445709375,55.292527543132564],[35.701413977779055,55.27706104659501],[35.739485353871885,55.29728646514377],[35.77398753845682,55.27825077709622],[35.80492053153307,55.27706104659501],[35.81919729756788,55.26635347206866],[35.80848972304176,55.25207670603231],[35.83942271611721,55.24136913150687],[35.90247843277183,55.24612805351808],[35.9572060359061,55.249697245026255]]]]}},{"type":"Feature","properties":{"kind":"district","id":"uyezd-1897-288","name":"Клинский","provinceId":"gubernia-1897-12"},"geometry":{"type":"MultiPolygon","coordinates":[[[[36.256205067596696,56.06622890948525],[36.287138060672135,56.07693648401166],[36.29665590469536,56.061469987473146],[36.32639916726869,56.06503917898313],[36.30974294022805,56.08526459753287],[36.3418656638064,56.132853817649476],[36.36328081285861,56.132853817649476],[36.40135218895225,56.11143866859673],[36.442992756553835,56.10430028557951],[36.471546288624246,56.08288513652588],[36.51080739522009,56.07812621451555],[36.53341227477601,56.06384944847924],[36.595278260927685,56.07931594501767],[36.61074475746541,56.07217756200045],[36.64167775054085,56.07574675350857],[36.66309289959385,56.06503917898313],[36.71663077222441,56.08407486702889],[36.7154410417215,56.10311055507553],[36.74280484328908,56.10667974658551],[36.77730702787326,56.11857705161405],[36.7582713398268,56.1388024701628],[36.79277352441089,56.14475112267792],[36.836793553019106,56.12928462613948],[36.84750112754517,56.10667974658551],[36.88438277313598,56.10905920758975],[36.91531576621142,56.09716190256219],[36.947438489790486,56.10311055507553],[36.99978663191822,56.10667974658551],[36.998596901415304,56.132853817649476],[37.00454555392979,56.16021761921634],[37.036668277508944,56.16021761921634],[37.06522180957855,56.14475112267792],[37.09615480265488,56.15545869720522],[37.12470833472449,56.175684115753974],[37.16277971081813,56.197099264805736],[37.183005129367416,56.23755010190601],[37.183005129367416,56.25539605944867],[37.15921051930938,56.25896525095865],[37.14136456176512,56.257775520454764],[37.13660563975346,56.261344711963865],[37.14255429226804,56.276811208502295],[37.13779537025638,56.29227770503984],[37.100913724666455,56.29108797453594],[37.07949857561415,56.3196415066068],[37.11400076019834,56.33629773364734],[37.10448291617511,56.350574499682764],[37.0687910010873,56.34581557767066],[37.036668277508944,56.34224638616156],[37.02239151147414,56.363661535215186],[37.008114745439244,56.367230726723406],[37.01168393694799,56.38745614527305],[37.04618612153217,56.38031776225583],[37.10210345516937,56.38745614527305],[37.09139588064322,56.41244048583489],[37.09615480265488,56.43385563488576],[37.04975531304083,56.437424826394775],[37.029529894491546,56.431476173881535],[37.02477097247997,56.449322131424196],[36.99264824890082,56.4576502449454],[36.985509865883415,56.47073728047596],[37.00692501493562,56.48144485500326],[37.04856558253792,56.49096269902658],[37.07117046209313,56.505239465061116],[37.08901641963739,56.505239465061116],[37.10924183818677,56.51475730908444],[37.10686237718094,56.527844344615886],[37.09772536723412,56.53209300314849],[37.07155129616936,56.52971354214151],[37.05132587762024,56.5332827336515],[36.982321508450724,56.54518003867994],[36.97518312543332,56.55945680471447],[36.95376797638094,56.57373357074901],[36.91688633079039,56.56897464873779],[36.888332798720604,56.583251414772334],[36.84669223111831,56.577302762258114],[36.73128837233571,56.63559955690104],[36.725339719821584,56.64511740092436],[36.746754868873964,56.65344551444557],[36.74318567736478,56.67129147198921],[36.69440672674588,56.659394166958904],[36.68964780473351,56.68318877701863],[36.65276615914367,56.67129147198921],[36.63492020159968,56.65344551444557],[36.60874613053572,56.63678928740414],[36.58138232896832,56.61537413835229],[36.55758771891019,56.62489198237561],[36.53128145556805,56.615374138352315],[36.52533280305383,56.60942548583721],[36.49439980997741,56.605856294328994],[36.48726142696,56.59038979779145],[36.4491900508669,56.597528180807785],[36.43848247634031,56.585630875779344],[36.412308405276264,56.59395898929958],[36.3480629581192,56.58206168426936],[36.33735538359261,56.56421572672661],[36.32307861755771,56.56421572672661],[36.32545807856354,56.57492330125294],[36.30523266001443,56.57611303175602],[36.29452508548793,56.56183626572149],[36.23265909933661,56.542800577674846],[36.19696718424933,56.52852381163844],[36.179121226705334,56.52733408113633],[36.16722392167618,56.521385428621215],[36.16603419117291,56.50710866258668],[36.15056769463546,56.50472920158156],[36.15175742513802,56.48093459152184],[36.14461904212053,56.46784755599039],[36.111306588039085,56.47022701699551],[36.09584009150083,56.465468094985184],[36.080373594963376,56.469037286493396],[36.06847628993432,56.46308863397829],[36.0482508713845,56.471416747498516],[36.0375432968587,56.459519442470075],[36.043491949372836,56.452381059451874],[35.99352326825066,56.39170480380382],[35.96853892768918,56.397653456318935],[35.96259027517496,56.39170480380382],[35.96615946668335,56.373858846259296],[35.99446435695518,56.350574499682764],[36.00041300946967,56.33153881163612],[35.99446435695518,56.3136928540916],[35.99565408745809,56.293467435541956],[35.988515704440694,56.28989824403383],[35.96948001639423,56.29941608805715],[35.932598370803504,56.287518783027735],[35.92070106577453,56.270862555987186],[35.94806486734122,56.257775520454764],[35.94806486734122,56.24706794592933],[36.009930853492904,56.21613495285238],[36.00636166198416,56.197099264805736],[36.02658708053424,56.191150612292404],[36.07774549215907,56.19234034279452],[36.11581686825271,56.17449438525186],[36.12414498177302,56.14832031418612],[36.10272983272081,56.13404354815159],[36.10629902422947,56.120956512620054],[36.12890390378468,56.11143866859673],[36.13604228680208,56.09359271105221],[36.168165010381145,56.08883378904099],[36.176493123901466,56.10786947708763],[36.214564499994395,56.08764405853887],[36.218133691503056,56.06860837049223],[36.256205067596696,56.06622890948525]]]]}},{"type":"Feature","properties":{"kind":"district","id":"uyezd-1897-289","name":"Рузский","provinceId":"gubernia-1897-12"},"geometry":{"type":"MultiPolygon","coordinates":[[[[36.143180669819486,55.578439403290744],[36.194339081445015,55.56773182876353],[36.29427644368953,55.584388055805945],[36.35733216034413,55.592716169325286],[36.37993703990004,55.57724967278685],[36.40016245844943,55.583198325301964],[36.44418248705675,55.57130102027352],[36.48463332415622,55.583198325301964],[36.54055065779342,55.592716169325286],[36.569104189863026,55.562972906752314],[36.59765772193343,55.557024254238094],[36.634539367523445,55.61532104888013],[36.6095550269625,55.63435673692767],[36.563155537348536,55.64030538944277],[36.547689040810816,55.70693029760514],[36.53817119678759,55.7378632906812],[36.52270470024986,55.76998601426017],[36.545309579804986,55.7783141277796],[36.56434526785145,55.77474493627139],[36.582191225395,55.78545251079683],[36.569104189863026,55.79497035482015],[36.59170906941894,55.802108737839234],[36.603606374448006,55.822334156387996],[36.621452331991556,55.825903347897096],[36.65357505556982,55.83661092242254],[36.65357505556982,55.84969795795496],[36.626211254003124,55.853267149463164],[36.6452469420495,55.8651644544925],[36.6452469420495,55.87587202901882],[36.629780445511784,55.89966663907766],[36.66904155210834,55.99008615729966],[36.69164643166355,56.00079373182598],[36.67142101311417,56.04005483842138],[36.66309289959385,56.06503917898313],[36.64167775054085,56.07574675350857],[36.61074475746541,56.07217756200045],[36.595278260927685,56.07931594501767],[36.53341227477601,56.06384944847924],[36.51080739522009,56.07812621451555],[36.471546288624246,56.08288513652588],[36.442992756553835,56.10430028557951],[36.40135218895225,56.11143866859673],[36.36328081285861,56.132853817649476],[36.3418656638064,56.132853817649476],[36.30974294022805,56.08526459753287],[36.32639916726869,56.06503917898313],[36.29665590469536,56.061469987473146],[36.287138060672135,56.07693648401166],[36.256205067596696,56.06622890948525],[36.252635876088036,56.049572682444705],[36.26929210312867,56.025778072385954],[36.27405102514024,55.99960400132298],[36.2918969826837,55.98175804377845],[36.27643048614598,55.980568313276336],[36.260963989608356,55.98532723528755],[36.241928301561884,55.98532723528755],[36.2359796490466,55.975809391263255],[36.218133691503056,55.95796343372059],[36.196718542450846,55.969860738749034],[36.172923932392806,55.949635320199384],[36.08845306668521,55.94249693718305],[36.07536603115332,55.95439424221237],[36.02896654154007,55.949635320199384],[36.00755139248707,55.92584071014241],[35.99089516544643,55.92465097963852],[35.98375678242903,55.93654828466785],[35.96353136387974,55.93654828466785],[35.93378810130642,55.92227151863331],[35.90285510823098,55.93535855416573],[35.861214540628595,55.93059963215274],[35.86002481012568,55.95796343372059],[35.817194512021175,55.969860738749034],[35.81362532051172,55.95558397271449],[35.81838424252409,55.92940990165063],[35.7910204409566,55.92584071014241],[35.7910204409566,55.90799475259789],[35.80648693749432,55.900856369580666],[35.84455831358796,55.897287178071565],[35.856455618616934,55.89133852555645],[35.850506966102536,55.886579603546124],[35.86240427113151,55.87587202901882],[35.863594001634425,55.85207741896105],[35.856455618616934,55.83899038342863],[35.87787076766923,55.78664224130081],[35.861214540628595,55.78545251079683],[35.85764534911985,55.76165790073897],[35.86002481012568,55.733104368669004],[35.832661008558986,55.71287895011936],[35.83504046956482,55.70336110609604],[35.84693777459379,55.69622272307881],[35.86002481012568,55.64625404195699],[35.899285916722235,55.64268485044701],[35.91118322175121,55.61770050988703],[35.93973675382091,55.61770050988703],[35.951634058849876,55.59390589982927],[35.936167562312164,55.584388055805945],[35.970669746897144,55.5510756017229],[35.99803354846384,55.5594037152441],[36.02182815852187,55.557024254238094],[36.025397350030616,55.54274748820356],[36.01231031449864,55.52728099166504],[36.04324330757497,55.53085018317325],[36.06822764813583,55.54512694920956],[36.08607360567938,55.578439403290744],[36.143180669819486,55.578439403290744]]]]}},{"type":"Feature","properties":{"kind":"district","id":"uyezd-1897-290","name":"Верейский","provinceId":"gubernia-1897-12"},"geometry":{"type":"MultiPolygon","coordinates":[[[[36.00776283340367,55.206986498448416],[36.01788229155413,55.228282095974436],[36.05357420664185,55.23066155697964],[36.11187100128487,55.22114371295632],[36.11662992329653,55.19734910289846],[36.16421914341331,55.19734910289846],[36.21537755503813,55.20091829440845],[36.214187824535216,55.212815599436894],[36.22608512956428,55.217574521448995],[36.25106947012594,55.212815599436894],[36.31650464778636,55.2163847909451],[36.321263569797935,55.23542047899174],[36.33791979683857,55.2604048195535],[36.32245330030085,55.274681585588034],[36.336730066335654,55.292527543132564],[36.360524676393695,55.31037350067531],[36.377180903435125,55.29728646514378],[36.39383713047576,55.302045387155886],[36.41882147103671,55.32227080570553],[36.468790152159414,55.29490700413866],[36.47592853517673,55.30799403966921],[36.49377449272036,55.303235117658],[36.55801993987778,55.33892703274616],[36.630593500555605,55.37699840883945],[36.61988592602946,55.38889571386789],[36.6650956851405,55.40912113241851],[36.69840813922177,55.38889571386789],[36.72220274927981,55.384136791856676],[36.74480762883573,55.37223948682734],[36.76979196939668,55.369860025822135],[36.78063827328114,55.37915954405254],[36.80681234434581,55.38272873556067],[36.81751991887195,55.37440062204133],[36.83298641540968,55.37678008304645],[36.83774533742125,55.38748765757188],[36.87462698301197,55.3993849626013],[36.893662671058436,55.37915954405254],[36.95314919620428,55.381539005058556],[37.0031178773269,55.38034927455466],[37.00192814682407,55.40414388461252],[37.025722756882104,55.411282267631606],[37.05427628895171,55.401764423608284],[37.06141467196912,55.417230920145826],[37.08996820403952,55.43269741668249],[37.10186550906859,55.45173310472913],[37.08639901253087,55.46125094875333],[37.07450170750181,55.47314825378275],[37.111383353091824,55.501701785851736],[37.10424497007442,55.5278758569157],[37.11257308359474,55.55167046697444],[37.07926062951347,55.554049927981424],[37.069742785490234,55.56713696351287],[37.05784548046046,55.56713696351287],[37.01858437386461,55.54334235345412],[36.96623623173626,55.56713696351287],[36.929354586146246,55.54572181446022],[36.8984215930701,55.55642938898566],[36.893662671058436,55.57784453803929],[36.873437252509056,55.58260346005139],[36.86510913898874,55.574275346530186],[36.84012479842708,55.575465077032305],[36.81038153585446,55.56713696351287],[36.79729450032258,55.57308561602807],[36.762792315737684,55.571895885524086],[36.724720939644754,55.569516424518085],[36.70687498210049,55.576654807536194],[36.665234414498904,55.576654807536194],[36.64500899594961,55.564757502506865],[36.59765772193343,55.557024254238094],[36.569104189863026,55.562972906752314],[36.54055065779342,55.592716169325286],[36.48463332415622,55.583198325301964],[36.44418248705675,55.57130102027352],[36.40016245844943,55.583198325301964],[36.37993703990004,55.57724967278685],[36.35733216034413,55.592716169325286],[36.29427644368953,55.584388055805945],[36.194339081445015,55.56773182876353],[36.143180669819486,55.578439403290744],[36.140801208813656,55.548696140716885],[36.175303393398636,55.54155775769958],[36.1300936342876,55.52847072216716],[36.12533471227594,55.48920961557175],[36.134852556299165,55.47493284953721],[36.11819632925854,55.463035544506994],[36.14199093931657,55.440430664952146],[36.10272983272081,55.4142565938873],[36.11224767674405,55.405928480367066],[36.13366282579625,55.40473874986398],[36.168165010381145,55.366667373770696],[36.101540102217896,55.36428791276646],[36.094401719199695,55.348821416228034],[36.07179683964458,55.352390607736154],[36.06941737863875,55.3714262957828],[36.04205357707205,55.37261602628589],[36.03848438556331,55.361908451759476],[36.01587950600739,55.35952899075347],[36.01468977550447,55.34763168572405],[36.03491519405465,55.34287276371283],[36.03967411606622,55.33335491968951],[36.01468977550447,55.29885273510631],[36.00755139248707,55.27148893353748],[35.95639298086225,55.27148893353748],[35.9572060359061,55.249697245026255],[35.998846603507616,55.21757452144902],[36.00776283340367,55.206986498448416]]]]}},{"type":"Feature","properties":{"kind":"district","id":"uyezd-1897-291","name":"Серпуховский","provinceId":"gubernia-1897-12"},"geometry":{"type":"MultiPolygon","coordinates":[[[[37.30636042621168,54.84756833504256],[37.326724574119375,54.8628165057871],[37.35884729769853,54.881852193832856],[37.40881597882043,54.879472732827736],[37.45045654642273,54.884231654838956],[37.46615397531564,54.88208132211365],[37.53730687313536,54.87233434981042],[37.59441393727546,54.84616027874655],[37.65033127091256,54.84735000924867],[37.749078902654254,54.84259108723657],[37.82998057685239,54.83783216522535],[37.86448276143729,54.84021162623233],[37.931107669600536,54.85329866176378],[37.97988662022033,54.84259108723657],[38.038183414862544,54.84616027874655],[38.126223472078806,54.82831432120203],[38.1547770041485,54.83426297371714],[38.21307379879143,54.865195966792314],[38.24757598337561,54.865195966792314],[38.246386252872696,54.87828300232562],[38.207125146276944,54.91992356992614],[38.169053770183304,54.957994946020314],[38.1405002381136,54.9996355136227],[38.14882835163401,55.00796362714213],[38.13217212459338,55.02818904569266],[38.169053770183304,55.04365554222932],[38.17024350068622,55.07339880480326],[38.155966734651415,55.0829166488256],[38.120274819563605,55.08767557083771],[38.09648020950548,55.099572875866244],[38.09529047900266,55.11622910290865],[38.11075697554037,55.13050586894221],[38.100049401014225,55.13883398246342],[38.04532179787995,55.13883398246342],[38.02390664882775,55.14478263497861],[38.051270450395236,55.17452589755158],[38.03223476234806,55.187612933083116],[37.99178392524939,55.189992394089124],[38.00130176927253,55.20426916012366],[37.94657416613835,55.22568430917542],[37.920205057287134,55.22568430917542],[37.91921036457157,55.22568430917542],[37.87281087495761,55.21735619565608],[37.849016264899575,55.23520215319874],[37.804996236291444,55.23877134470874],[37.78358108723924,55.22211511766819],[37.74550971114551,55.22211511766819],[37.71219725706433,55.21378700414698],[37.684833455496836,55.219735656662095],[37.675315611473515,55.21378700414698],[37.6681772284562,55.19951023811156],[37.63367504387202,55.19951023811156],[37.6110701643161,55.189992394089124],[37.59441393727546,55.191182124591236],[37.582516632246396,55.19951023811156],[37.52065064609472,55.19832050760856],[37.46592304296045,55.187612933083116],[37.43736951089084,55.14716209598285],[37.424282475358865,55.13526479095529],[37.41119543982617,55.13764425195953],[37.38978029077397,55.14359290447463],[37.387400829768225,55.15549020950405],[37.329104035125205,55.179284819561914],[37.307688886072995,55.191182124591236],[37.2791353540033,55.20664862112976],[37.2505818219329,55.20664862112976],[37.22202828986329,55.22568430917542],[37.16373149522026,55.23401242269574],[37.11614227510339,55.24115080571394],[37.109003892085994,55.2185459261582],[37.080450360016386,55.21616646515308],[37.05546601945463,55.22449457867242],[37.02334329587627,55.21378700414698],[37.01025626034439,55.191182124591236],[36.98997165835348,55.15262515761516],[37.01249699199182,55.15332907429185],[37.04937863758174,55.14381123026763],[37.056517020599145,55.11168850668946],[37.041050524061426,55.09979120165915],[37.048188907078824,55.08789389662982],[37.069604056131126,55.08789389662982],[37.07198351713767,55.105739854174345],[37.10410624071602,55.102170662665245],[37.107675432224674,55.0831349746186],[37.11957273725373,55.08075551361251],[37.11838300675082,55.07004793908618],[37.10172677971019,55.06409928657196],[37.08745001367538,55.040304676514104],[37.1171932762479,55.03078683249078],[37.13265977278563,55.01769979695836],[37.145746808318314,55.00937168343902],[37.16954141837644,55.01175114444325],[37.19333602843447,55.02126898846746],[37.21118198597794,55.01888952746137],[37.23616632653969,54.98319761237329],[37.22545875201354,54.976059229355975],[37.21118198597794,54.967731115836635],[37.20642306396637,54.959403002315426],[37.20642306396637,54.93203920074936],[37.18619764541698,54.90705486018761],[37.18262845390833,54.89277809415307],[37.171920879382185,54.87731159761553],[37.21832036899614,54.8666040230892],[37.26709931961513,54.86065537057311],[37.29327339067979,54.85708617906588],[37.30636042621168,54.84756833504256]]]]}},{"type":"Feature","properties":{"kind":"district","id":"uyezd-1897-293","name":"Богородский","provinceId":"gubernia-1897-12"},"geometry":{"type":"MultiPolygon","coordinates":[[[[38.43503528445659,56.20573852073173],[38.41056906227553,56.19650439955517],[38.41175879277844,56.186986555531846],[38.40937933177261,56.16438167597699],[38.429604750321985,56.1572432929579],[38.4438815163568,56.14296652692336],[38.446260977362535,56.12987949139094],[38.41532798428719,56.13582814390614],[38.39153337422826,56.15367410145066],[38.3665490336674,56.14296652692336],[38.3379955015977,56.15486383195278],[38.31539062204187,56.13463841340402],[38.28445762896634,56.14058706591736],[38.282078167960506,56.12631029988282],[38.2963549339954,56.120361647367616],[38.29040628148091,56.10965407284218],[38.27969870695477,56.107274611836175],[38.27018086293154,56.114412994853396],[38.199986763259545,56.112033533848276],[38.17738188370362,56.101325959320974],[38.14644889062818,56.07515188825711],[38.122654280570146,56.07158269674801],[38.10361859252297,56.05968539172046],[38.084582904476505,56.028752398643505],[38.06197802492139,56.033511320654725],[38.05959856391556,56.057305930714364],[38.038183414862544,56.06087512222257],[38.041752606371205,56.037080512164714],[38.010819613295766,56.035890781660825],[37.98464554223199,56.01447563260808],[37.96560985418472,56.01328590210508],[37.95371254915575,55.99781940556754],[37.93943578312094,56.01566536311206],[37.918020634068654,56.01566536311206],[37.90493359853596,56.00495778858476],[37.91543742298423,55.99445396413694],[37.922779556080314,55.98711183104112],[37.920400095074484,55.96926587349846],[37.92396928658323,55.94785072444572],[37.91207198155416,55.93714314991939],[37.915641173062824,55.91096907885553],[37.9786968897167,55.872897702762245],[38.03223476234806,55.83720578767497],[38.05721910290973,55.82649821314864],[38.048890989388696,55.8050830640959],[38.02390664882775,55.8050830640959],[38.02271691832483,55.76820141850571],[38.06197802492139,55.77058087951083],[38.07030613844161,55.75987330498451],[38.044132067377035,55.75273492196719],[38.010819613295766,55.75273492196719],[38.000112038769615,55.73845815593177],[38.01438880480451,55.721801928891225],[38.02985530134223,55.70276624084458],[38.038183414862544,55.68254082229484],[38.06435748592722,55.68135109179273],[38.04967430950511,55.65927450692445],[38.083393173973604,55.66945378676337],[38.15001808213691,55.68254082229487],[38.19641757175083,55.69086893581607],[38.20712514627695,55.67778190028457],[38.260663018907564,55.686110013803955],[38.28921655097798,55.674212708775485],[38.3748771471877,55.684920283300926],[38.389153913222515,55.69324839682213],[38.41532798428716,55.69919704933545],[38.42365609780745,55.686110013803955],[38.452209629877075,55.686110013803955],[38.47600423993589,55.67302297827155],[38.48790154496493,55.599259687091944],[38.523593460051984,55.587362382062565],[38.52121399904621,55.564757502506836],[38.52835238206359,55.55286019747746],[38.52240372954907,55.53025531792173],[38.55095726161949,55.52787585691567],[38.56404429715144,55.521927204402346],[38.59735675123267,55.50646070786388],[38.64256651034373,55.4981325943445],[38.72822710655345,55.513599090881144],[38.70443249649543,55.480286636799974],[38.697294113477994,55.44221526070578],[38.76748821314999,55.44935364372486],[38.79961093672836,55.45054337422698],[38.811508241757394,55.44221526070578],[38.85909746187423,55.40890280662461],[38.92453263953462,55.36726223902224],[38.94144511622252,55.357597966631175],[38.962604015628244,55.36488277801801],[38.98520889518336,55.363693047514026],[38.99353700870368,55.36488277801801],[38.98520889518336,55.38034927455466],[38.98401916468045,55.433887147186375],[38.97450132065731,55.44935364372489],[38.99115754769794,55.44935364372489],[39.0304186542937,55.44578445221491],[39.06016191686702,55.44578445221491],[39.09228464044537,55.46244067925545],[39.13749439955642,55.480286636799974],[39.16128900961445,55.50289151635572],[39.21601661274873,55.54929100596834],[39.23624203129802,55.565947233008984],[39.21720634325165,55.59450076507895],[39.23267283978936,55.61948510564159],[39.20768849922841,55.645659176705536],[39.20856318009268,55.66490215571933],[39.20703818857015,55.664543334184586],[39.18919223102687,55.664543334184586],[39.145172202418834,55.664543334184586],[39.11304947883995,55.65978441217337],[39.06308079771769,55.64907683764616],[39.02857861313297,55.664543334184586],[38.994076428548965,55.67763036971613],[38.93815909491187,55.68952767474457],[38.90603637133289,55.70499417128299],[38.88938014429216,55.70499417128299],[38.89651852730965,55.71927093731753],[38.88581095278306,55.731168242347835],[38.890569874794636,55.73949635586727],[38.9226925983737,55.734737433856054],[38.941728286420165,55.7549628524057],[38.944107747425996,55.77518827095534],[38.93815909491187,55.78589584548078],[38.947676938935096,55.8025520725223],[38.965522896478376,55.8025520725223],[38.97742020150744,55.80850072503741],[38.996455889554795,55.820398030066826],[39.01430184709808,55.823967221575046],[39.02976834363624,55.83943371811347],[39.01668130810382,55.8441926401238],[39.00478400307476,55.84657210112981],[38.98455858452573,55.85727967565711],[38.966712626981646,55.85727967565711],[38.86320607322821,55.890592129738295],[38.85368822920489,55.90962781778494],[38.82751415814093,55.91795593130428],[38.8251346971351,55.9346121583458],[38.812047661602676,55.9393710803579],[38.807288739591016,55.95007865488422],[38.79658116506452,55.95245811588934],[38.773976285509576,55.96078622940966],[38.72638706539243,55.98815003097751],[38.70021299432839,55.99052949198263],[38.641916199685454,55.984580839467526],[38.605034554095624,55.97387326494297],[38.58718859655163,55.96078622940966],[38.56577344749924,55.985770569970526],[38.54792748995525,55.99171922248573],[38.53365072392027,56.01194464103537],[38.52056368838865,56.02622140707079],[38.50747665285631,56.03335979008713],[38.51699449687963,56.048826286625655],[38.54554802894942,56.055964669643764],[38.55863506448175,56.0678619746723],[38.53840964593193,56.115451194789784],[38.52294314939448,56.126158769315225],[38.5181842273829,56.14162526585277],[38.51342530537124,56.16898906741973],[38.49571154010535,56.181943910674846],[38.468347738538036,56.1974104072115],[38.46001962501808,56.21168717324781],[38.43503528445659,56.20573852073173]]]]}},{"type":"Feature","properties":{"kind":"district","id":"uyezd-1897-295","name":"Дмитровский","provinceId":"gubernia-1897-12"},"geometry":{"type":"MultiPolygon","coordinates":[[[[37.09772536723412,56.53209300314849],[37.10686237718094,56.527844344615886],[37.10924183818677,56.51475730908444],[37.08901641963739,56.505239465061116],[37.07117046209313,56.505239465061116],[37.04856558253792,56.49096269902658],[37.00692501493562,56.48144485500326],[36.985509865883415,56.47073728047596],[36.99264824890082,56.4576502449454],[37.02477097247997,56.449322131424196],[37.029529894491546,56.431476173881535],[37.04975531304083,56.437424826394775],[37.09615480265488,56.43385563488576],[37.09139588064322,56.41244048583489],[37.10210345516937,56.38745614527305],[37.04618612153217,56.38031776225583],[37.01168393694799,56.38745614527305],[37.008114745439244,56.367230726723406],[37.02239151147414,56.363661535215186],[37.036668277508944,56.34224638616156],[37.0687910010873,56.34581557767066],[37.10448291617511,56.350574499682764],[37.11400076019834,56.33629773364734],[37.07949857561415,56.3196415066068],[37.100913724666455,56.29108797453594],[37.13779537025638,56.29227770503984],[37.14255429226804,56.276811208502295],[37.13660563975346,56.261344711963865],[37.14136456176512,56.257775520454764],[37.15921051930938,56.25896525095865],[37.183005129367416,56.25539605944867],[37.183005129367416,56.23755010190601],[37.16277971081813,56.197099264805736],[37.12470833472449,56.175684115753974],[37.09615480265488,56.15545869720522],[37.11869535306719,56.145169933040926],[37.146059154633974,56.145169933040926],[37.15200780714926,56.134462358513716],[37.17937160871604,56.1380315500237],[37.19959702726533,56.15587750756636],[37.274550048948896,56.15587750756636],[37.28168843196639,56.14398020253704],[37.32689819107734,56.134462358513716],[37.33522630459775,56.16301589058368],[37.417317709298715,56.16658508209366],[37.43516366684307,56.14754939404702],[37.49583992249103,56.129703436502496],[37.5434291426079,56.128513706000376],[37.55294698663104,56.15349804656036],[37.59934647624509,56.16063642957944],[37.617192433788546,56.15230831605824],[37.63265893032627,56.15706723807034],[37.62552054730887,56.16658508209366],[37.644556235356134,56.17134400410488],[37.690955724969285,56.122565053485275],[37.69333518597503,56.13684181951972],[37.707611952009835,56.134462358513716],[37.78970335671169,56.052370953812925],[37.78256497369429,56.046422301299586],[37.765908746652855,56.04999149280771],[37.770667668664515,56.045232570795605],[37.795652009226174,56.02738661325294],[37.81587742777556,56.00597146419932],[37.845620690348085,55.99526388967388],[37.85870772588077,55.98217685414146],[37.880122874933065,55.992884428667786],[37.91543742298423,55.99445396413694],[37.90493359853596,56.00495778858476],[37.918020634068654,56.01566536311206],[37.93943578312094,56.01566536311206],[37.95371254915575,55.99781940556754],[37.96560985418472,56.01328590210508],[37.98464554223199,56.01447563260808],[38.010819613295766,56.035890781660825],[38.041752606371205,56.037080512164714],[38.038183414862544,56.06087512222257],[38.05959856391556,56.057305930714364],[38.06197802492139,56.033511320654725],[38.084582904476505,56.028752398643505],[38.10361859252297,56.05968539172046],[38.122654280570146,56.07158269674801],[38.14644889062818,56.07515188825711],[38.17738188370362,56.101325959320974],[38.199986763259545,56.112033533848276],[38.27018086293154,56.114412994853396],[38.27969870695477,56.107274611836175],[38.29040628148091,56.10965407284218],[38.2963549339954,56.120361647367616],[38.282078167960506,56.12631029988282],[38.28445762896634,56.14058706591736],[38.31539062204187,56.13463841340402],[38.3379955015977,56.15486383195278],[38.3665490336674,56.14296652692336],[38.39153337422826,56.15367410145066],[38.41532798428719,56.13582814390614],[38.446260977362535,56.12987949139094],[38.4438815163568,56.14296652692336],[38.429604750321985,56.1572432929579],[38.40937933177261,56.16438167597699],[38.41175879277844,56.186986555531846],[38.41056906227553,56.19650439955517],[38.43503528445659,56.20573852073173],[38.40529202188353,56.22001528676813],[38.369600106796256,56.23429205280267],[38.34580549673804,56.22834340028747],[38.314872503662336,56.22834340028747],[38.311303312153235,56.21882555626415],[38.2565757090194,56.21406663425293],[38.262524361533536,56.20097959872149],[38.23516055996702,56.1974104072115],[38.203037836388134,56.20692825123482],[38.169725382306595,56.21644609525814],[38.18757133984988,56.23667151380779],[38.203037836388134,56.259276393364416],[38.18995080085571,56.27236342889596],[38.207796758399795,56.2854504644274],[38.18400214834158,56.29377857794772],[38.21612487192047,56.31043480498924],[38.21731460242303,56.330660223538885],[38.19589945337064,56.342557528567326],[38.174484304318256,56.36159321661397],[38.12451562319609,56.36278294711697],[38.09477236062294,56.36635213862519],[38.05432152352401,56.36992133013517],[38.015060416927625,56.37349052164339],[37.96152254429636,56.38300836566671],[37.91512305468249,56.37943917415849],[37.88062087009848,56.38181863516361],[37.84373922450784,56.37705971315151],[37.815185692438064,56.398474862205134],[37.8104267704264,56.407992706228455],[37.822324075455555,56.42464893326812],[37.835411110987174,56.43773596880143],[37.85682626003947,56.43773596880143],[37.86634410406279,56.45677165684807],[37.855636529536994,56.46509977036838],[37.834221380484614,56.476997075397804],[37.81280623143223,56.476997075397804],[37.796150004390796,56.500791685454686],[37.80209865690573,56.52815548702253],[37.784252699361645,56.54719117506917],[37.78306296885917,56.55908848009771],[37.76283755030935,56.57217551563102],[37.72357644371368,56.54838090557227],[37.6914537201347,56.53291440903375],[37.65814126605326,56.51506845149109],[37.630777464485945,56.51268899048411],[37.61055204593612,56.53291440903375],[37.57367040034629,56.54243225305707],[37.52846064123497,56.574554976637025],[37.509019608501184,56.5960300016568],[37.49712230347203,56.60435811517614],[37.50307095598625,56.61625542020644],[37.487604459448,56.61744515070954],[37.47927634592804,56.6376705692583],[37.46380984938979,56.645998682779506],[37.461430388384045,56.66622410132729],[37.43644604782336,56.66503437082615],[37.428117934302506,56.69239817239213],[37.381718444688644,56.713813321443894],[37.36268275664217,56.71024412993577],[37.32699084155481,56.69715709440423],[37.29129892646753,56.69239817239213],[37.26750431640941,56.703105746919434],[37.224674018303844,56.713813321443894],[37.207180573501866,56.70698338707551],[37.195283268472714,56.69746554305219],[37.15840162288217,56.68556823802375],[37.13698647382978,56.67367093299531],[37.12746862980655,56.666532549977106],[37.153642700870506,56.661773627965886],[37.152452970367946,56.64987632293558],[37.11795078578323,56.64511740092436],[37.10724321125744,56.63916874840926],[37.12270970779489,56.62489198237561],[37.12270970779489,56.605856294328966],[37.13460701282395,56.60109737231598],[37.13222755181812,56.579682223264214],[37.10605348075417,56.56183626572146],[37.09296644522175,56.54636976918303],[37.09772536723412,56.53209300314849]]]]}},{"type":"Feature","properties":{"kind":"district","id":"uyezd-1897-296","name":"Звенигородский","provinceId":"gubernia-1897-12"},"geometry":{"type":"MultiPolygon","coordinates":[[[[37.11257308359474,55.55167046697444],[37.12345427507885,55.55863279510322],[37.1413002326224,55.551494412086],[37.155576998657914,55.55625333409712],[37.21268406279722,55.5455457595708],[37.224581367827085,55.53483818504536],[37.24242732537054,55.53959710705658],[37.232909481347306,55.55625333409712],[37.25432463039961,55.582427405161084],[37.2471862473822,55.59551444069439],[37.255514360902524,55.60503228471771],[37.27930897096056,55.59670417119651],[37.304293311522216,55.602652823711615],[37.30786250303096,55.61455012874015],[37.34474414862089,55.62168851175826],[37.37924633320587,55.62049878125437],[37.359020914655694,55.65024204382733],[37.38519498572036,55.664518809862756],[37.37686687220004,55.67522638438918],[37.35783118415278,55.671657192880076],[37.3173803470542,55.6787955758973],[37.293585736996164,55.71210802998034],[37.31500088604837,55.737092370540225],[37.2959651980019,55.754938328084755],[37.309052233533876,55.77397401613051],[37.29120627598953,55.79538916518325],[37.26741166593149,55.81918377524111],[37.26622193542867,55.84178865479676],[37.218632715311706,55.8715319173707],[37.21744298480879,55.885808683405244],[37.20316621877399,55.889377874913365],[37.18769972223627,55.90841356296001],[37.19840729676241,55.91436221547521],[37.1900791832421,55.94172601704217],[37.16271538167531,55.952433591567605],[37.14486942413106,55.94767466955639],[37.11631589206136,55.94767466955639],[37.11393643105562,55.966710357603034],[37.13297211910199,55.99526388967388],[37.153197537652176,56.00002281168421],[37.16866403418989,56.01310984721654],[37.12583373608468,56.02262769123986],[37.09490074300915,56.042853109789604],[37.08776235999175,56.06902718085347],[37.068726671944574,56.07854502487679],[37.06991640244749,56.10233963493651],[37.053260175406855,56.10590882644463],[37.024706643337154,56.10233963493651],[36.99978663191822,56.10667974658551],[36.947438489790486,56.10311055507553],[36.91531576621142,56.09716190256219],[36.88438277313598,56.10905920758975],[36.84750112754517,56.10667974658551],[36.836793553019106,56.12928462613948],[36.79277352441089,56.14475112267792],[36.7582713398268,56.1388024701628],[36.77730702787326,56.11857705161405],[36.74280484328908,56.10667974658551],[36.7154410417215,56.10311055507553],[36.71663077222441,56.08407486702889],[36.66309289959385,56.06503917898313],[36.67142101311417,56.04005483842138],[36.69164643166355,56.00079373182598],[36.66904155210834,55.99008615729966],[36.629780445511784,55.89966663907766],[36.6452469420495,55.87587202901882],[36.6452469420495,55.8651644544925],[36.626211254003124,55.853267149463164],[36.65357505556982,55.84969795795496],[36.65357505556982,55.83661092242254],[36.621452331991556,55.825903347897096],[36.603606374448006,55.822334156387996],[36.59170906941894,55.802108737839234],[36.569104189863026,55.79497035482015],[36.582191225395,55.78545251079683],[36.56434526785145,55.77474493627139],[36.545309579804986,55.7783141277796],[36.52270470024986,55.76998601426017],[36.53817119678759,55.7378632906812],[36.547689040810816,55.70693029760514],[36.563155537348536,55.64030538944277],[36.6095550269625,55.63435673692767],[36.634539367523445,55.61532104888013],[36.59765772193343,55.557024254238094],[36.64500899594961,55.564757502506865],[36.665234414498904,55.576654807536194],[36.70687498210049,55.576654807536194],[36.724720939644754,55.569516424518085],[36.762792315737684,55.571895885524086],[36.79729450032258,55.57308561602807],[36.81038153585446,55.56713696351287],[36.84012479842708,55.575465077032305],[36.86510913898874,55.574275346530186],[36.873437252509056,55.58260346005139],[36.893662671058436,55.57784453803929],[36.8984215930701,55.55642938898566],[36.929354586146246,55.54572181446022],[36.96623623173626,55.56713696351287],[37.01858437386461,55.54334235345412],[37.05784548046046,55.56713696351287],[37.069742785490234,55.56713696351287],[37.07926062951347,55.554049927981424],[37.11257308359474,55.55167046697444]]]]}},{"type":"Feature","properties":{"kind":"district","id":"uyezd-1897-297","name":"Московский","provinceId":"gubernia-1897-12"},"geometry":{"type":"MultiPolygon","coordinates":[[[[36.99978663191822,56.10667974658551],[37.024706643337154,56.10233963493651],[37.053260175406855,56.10590882644463],[37.06991640244749,56.10233963493651],[37.068726671944574,56.07854502487679],[37.08776235999175,56.06902718085347],[37.09490074300915,56.042853109789604],[37.12583373608468,56.02262769123986],[37.16866403418989,56.01310984721654],[37.153197537652176,56.00002281168421],[37.13297211910199,55.99526388967388],[37.11393643105562,55.966710357603034],[37.11631589206136,55.94767466955639],[37.14486942413106,55.94767466955639],[37.16271538167531,55.952433591567605],[37.1900791832421,55.94172601704217],[37.19840729676241,55.91436221547521],[37.18769972223627,55.90841356296001],[37.20316621877399,55.889377874913365],[37.21744298480879,55.885808683405244],[37.218632715311706,55.8715319173707],[37.26622193542867,55.84178865479676],[37.26741166593149,55.81918377524111],[37.29120627598953,55.79538916518325],[37.309052233533876,55.77397401613051],[37.2959651980019,55.754938328084755],[37.31500088604837,55.737092370540225],[37.293585736996164,55.71210802998034],[37.3173803470542,55.6787955758973],[37.35783118415278,55.671657192880076],[37.37686687220004,55.67522638438918],[37.38519498572036,55.664518809862756],[37.359020914655694,55.65024204382733],[37.37924633320587,55.62049878125437],[37.417317709298715,55.62406797276347],[37.430404744830604,55.63358581678679],[37.44349178036329,55.63358581678679],[37.45181989388361,55.64548312181611],[37.46490692941559,55.64548312181611],[37.46490692941559,55.63715500829677],[37.48513234796488,55.63596527779279],[37.491081000479454,55.62525770326736],[37.45419935488944,55.62287824226037],[37.46252746840976,55.60146309320773],[37.49940911399968,55.60146309320773],[37.508926958023714,55.575289022143764],[37.57079294417459,55.56339171711532],[37.58506971021019,55.571719830634756],[37.60529512875958,55.57409929164165],[37.63622812183502,55.580047944155965],[37.65050488787062,55.566960908624424],[37.66835084541417,55.566960908624424],[37.64574596585905,55.602652823711615],[37.68262761144897,55.60622201521983],[37.726647640057095,55.61098093723105],[37.74687305860648,55.602652823711615],[37.78732389570586,55.61455012874015],[37.79446227872326,55.60622201521983],[37.82539527179879,55.60146309320773],[37.8539488038692,55.59908363220349],[37.8668622224431,55.58974184306862],[37.889467101998264,55.5802239990453],[37.89898494602147,55.59212130407468],[37.90612332903885,55.60520833960527],[37.946574166138305,55.630192680167056],[37.975127698207984,55.630192680167056],[38.02033745731899,55.65041809871764],[38.04967430950511,55.65927450692445],[38.06435748592722,55.68135109179273],[38.038183414862544,55.68254082229484],[38.02985530134223,55.70276624084458],[38.01438880480451,55.721801928891225],[38.000112038769615,55.73845815593177],[38.010819613295766,55.75273492196719],[38.044132067377035,55.75273492196719],[38.07030613844161,55.75987330498451],[38.06197802492139,55.77058087951083],[38.02271691832483,55.76820141850571],[38.02390664882775,55.8050830640959],[38.048890989388696,55.8050830640959],[38.05721910290973,55.82649821314864],[38.03223476234806,55.83720578767497],[37.9786968897167,55.872897702762245],[37.915641173062824,55.91096907885553],[37.91207198155416,55.93714314991939],[37.92396928658323,55.94785072444572],[37.920400095074484,55.96926587349846],[37.922779556080314,55.98711183104112],[37.91543742298423,55.99445396413694],[37.880122874933065,55.992884428667786],[37.85870772588077,55.98217685414146],[37.845620690348085,55.99526388967388],[37.81587742777556,56.00597146419932],[37.795652009226174,56.02738661325294],[37.770667668664515,56.045232570795605],[37.765908746652855,56.04999149280771],[37.78256497369429,56.046422301299586],[37.78970335671169,56.052370953812925],[37.707611952009835,56.134462358513716],[37.69333518597503,56.13684181951972],[37.690955724969285,56.122565053485275],[37.644556235356134,56.17134400410488],[37.62552054730887,56.16658508209366],[37.63265893032627,56.15706723807034],[37.617192433788546,56.15230831605824],[37.59934647624509,56.16063642957944],[37.55294698663104,56.15349804656036],[37.5434291426079,56.128513706000376],[37.49583992249103,56.129703436502496],[37.43516366684307,56.14754939404702],[37.417317709298715,56.16658508209366],[37.33522630459775,56.16301589058368],[37.32689819107734,56.134462358513716],[37.28168843196639,56.14398020253704],[37.274550048948896,56.15587750756636],[37.19959702726533,56.15587750756636],[37.17937160871604,56.1380315500237],[37.15200780714926,56.134462358513716],[37.146059154633974,56.145169933040926],[37.11869535306719,56.145169933040926],[37.09615480265488,56.15545869720522],[37.06522180957855,56.14475112267792],[37.036668277508944,56.16021761921634],[37.00454555392979,56.16021761921634],[36.998596901415304,56.132853817649476],[36.99978663191822,56.10667974658551]]]]}},{"type":"Feature","properties":{"kind":"district","id":"uyezd-1897-298","name":"Коломенский","provinceId":"gubernia-1897-12"},"geometry":{"type":"MultiPolygon","coordinates":[[[[37.920205057287134,55.22568430917542],[37.94657416613835,55.22568430917542],[38.00130176927253,55.20426916012366],[37.99178392524939,55.189992394089124],[38.03223476234806,55.187612933083116],[38.051270450395236,55.17452589755158],[38.02390664882775,55.14478263497861],[38.04532179787995,55.13883398246342],[38.100049401014225,55.13883398246342],[38.11075697554037,55.13050586894221],[38.09529047900266,55.11622910290865],[38.09648020950548,55.099572875866244],[38.120274819563605,55.08767557083771],[38.155966734651415,55.0829166488256],[38.17024350068622,55.07339880480326],[38.169053770183304,55.04365554222932],[38.13217212459338,55.02818904569266],[38.14882835163401,55.00796362714213],[38.1405002381136,54.9996355136227],[38.169053770183304,54.957994946020314],[38.207125146276944,54.91992356992614],[38.246386252872696,54.87828300232562],[38.24757598337561,54.865195966792314],[38.2749397849432,54.864006236289214],[38.30111385600698,54.874713810815635],[38.351082537129585,54.85567812276987],[38.38320526070803,54.860437044781094],[38.42603555881324,54.8663856972962],[38.502178310999724,54.85091920075777],[38.55928537513983,54.83664243472323],[38.593787559724014,54.83426297371714],[38.64613570185246,54.84616027874655],[38.66755085090466,54.868765158302296],[38.65922273738435,54.90445707338949],[38.66993031191049,54.91635437841793],[38.72346818454186,54.91278518690892],[38.75440117761809,54.9115954564068],[38.775816326670295,54.92468249193914],[38.79604174521968,54.963943598534534],[38.79485201471677,54.977030634066956],[38.786523901196446,54.99368686110759],[38.74964225560572,55.00915335764602],[38.74488333359406,55.036517159212096],[38.75559090812101,55.057932308265634],[38.797231475722505,55.07101934379716],[38.849579617851035,55.07696799631228],[38.90073802947657,55.0817269183226],[38.962604015628244,55.08410637932958],[38.99710620021243,55.0852961098317],[39.02684946278495,55.093624223352904],[39.04350568982639,55.101952336872245],[39.02328027127621,55.109090719889565],[38.978070512165964,55.109090719889565],[38.95308617160421,55.118608563912886],[38.95903482411879,55.13645452145741],[38.98401916468045,55.15430047900193],[38.98877808669211,55.16619778402949],[39.02922892379078,55.17452589755158],[39.03160838479661,55.189992394089124],[38.95546563261004,55.186423202579135],[38.942378597078154,55.19475131610034],[38.899548298973656,55.192371855094244],[38.870994766903245,55.23282269219362],[38.886461263440964,55.270894068286026],[38.855528270365525,55.27446325979601],[38.88051261092647,55.31848328840351],[38.81031851125448,55.32681140192472],[38.79247255371094,55.31491409689441],[38.730606567559256,55.329190862928954],[38.71276061001571,55.32562167142074],[38.68658653895184,55.33632924594804],[38.65922273738435,55.328001132426834],[38.65446381537278,55.30182706136297],[38.60806432575882,55.29349894784177],[38.57237241067172,55.28279137331535],[38.55214699212243,55.24947891923417],[38.54381887860211,55.23163296169151],[38.51645507703453,55.21616646515308],[38.455778821385856,55.22092538716421],[38.44745070786545,55.23639188370272],[38.40937933177261,55.23877134470874],[38.33680577109479,55.2149767346491],[38.282078167960506,55.184043741574904],[38.26780140192571,55.20069996861545],[38.229730025832154,55.20069996861545],[38.2321094868379,55.2268740396794],[38.202366224265376,55.24234053621606],[38.17738188370362,55.24234053621606],[38.100049401014225,55.25185838023938],[38.069116407938786,55.23520215319874],[38.035803953856714,55.254237841245384],[37.99892230826679,55.245909727726044],[37.92515901708605,55.24828918873206],[37.920400095074484,55.23758161420484],[37.920205057287134,55.22568430917542]]]]}},{"type":"Feature","properties":{"kind":"district","id":"uyezd-1897-299","name":"Подольский","provinceId":"gubernia-1897-12"},"geometry":{"type":"MultiPolygon","coordinates":[[[[37.92515901708605,55.24828918873206],[37.926348747588975,55.29825786985384],[37.87043141395179,55.32086274940957],[37.82046273282913,55.35179574248468],[37.815703810817524,55.40652334561855],[37.85020599540246,55.42793849467216],[37.85258545640829,55.445784452214866],[37.87875952747214,55.45054337422698],[37.87162114445471,55.46363040975939],[37.88827737149535,55.46600987076545],[37.90017467652439,55.45292283523213],[37.9192103645716,55.4517331047291],[37.922779556080286,55.42317957265914],[37.948953627144135,55.43983579970154],[37.94538443563539,55.46244067925545],[37.96442012368186,55.500512055348736],[37.96323039317895,55.52073747389841],[37.90493359853599,55.5243066654084],[37.901364407027245,55.554049927981396],[37.86448276143733,55.56951642451804],[37.8668622224431,55.58974184306862],[37.8539488038692,55.59908363220349],[37.82539527179879,55.60146309320773],[37.79446227872326,55.60622201521983],[37.78732389570586,55.61455012874015],[37.74687305860648,55.602652823711615],[37.726647640057095,55.61098093723105],[37.68262761144897,55.60622201521983],[37.64574596585905,55.602652823711615],[37.66835084541417,55.566960908624424],[37.65050488787062,55.566960908624424],[37.63622812183502,55.580047944155965],[37.60529512875958,55.57409929164165],[37.58506971021019,55.571719830634756],[37.57079294417459,55.56339171711532],[37.508926958023714,55.575289022143764],[37.49940911399968,55.60146309320773],[37.46252746840976,55.60146309320773],[37.45419935488944,55.62287824226037],[37.491081000479454,55.62525770326736],[37.48513234796488,55.63596527779279],[37.46490692941559,55.63715500829677],[37.46490692941559,55.64548312181611],[37.45181989388361,55.64548312181611],[37.44349178036329,55.63358581678679],[37.430404744830604,55.63358581678679],[37.417317709298715,55.62406797276347],[37.37924633320587,55.62049878125437],[37.34474414862089,55.62168851175826],[37.30786250303096,55.61455012874015],[37.304293311522216,55.602652823711615],[37.27930897096056,55.59670417119651],[37.255514360902524,55.60503228471771],[37.2471862473822,55.59551444069439],[37.25432463039961,55.582427405161084],[37.232909481347306,55.55625333409712],[37.24242732537054,55.53959710705658],[37.224581367827085,55.53483818504536],[37.21268406279722,55.5455457595708],[37.155576998657914,55.55625333409712],[37.1413002326224,55.551494412086],[37.12345427507885,55.55863279510322],[37.11257308359474,55.55167046697444],[37.10424497007442,55.5278758569157],[37.111383353091824,55.501701785851736],[37.07450170750181,55.47314825378275],[37.08639901253087,55.46125094875333],[37.10186550906859,55.45173310472913],[37.08996820403952,55.43269741668249],[37.06141467196912,55.417230920145826],[37.05427628895171,55.401764423608284],[37.025722756882104,55.411282267631606],[37.00192814682407,55.40414388461252],[37.0031178773269,55.38034927455466],[36.95314919620428,55.381539005058556],[36.893662671058436,55.37915954405254],[36.87462698301197,55.3993849626013],[36.83774533742125,55.38748765757188],[36.83298641540968,55.37678008304645],[36.81751991887195,55.37440062204133],[36.80681234434581,55.38272873556067],[36.78063827328114,55.37915954405254],[36.76979196939668,55.369860025822135],[36.790017387946065,55.356772990288825],[36.81857092001647,55.35201406827761],[36.8268990335367,55.31751188369253],[36.8768677146594,55.30085565665199],[36.87805744516231,55.27944050759925],[36.910180168740666,55.26992266357682],[36.92802612628422,55.23779993999873],[36.9613385803662,55.212815599436894],[36.9684769633836,55.177123684348814],[36.97442561589818,55.15213934378884],[36.98997165835348,55.15262515761516],[37.01025626034439,55.191182124591236],[37.02334329587627,55.21378700414698],[37.05546601945463,55.22449457867242],[37.080450360016386,55.21616646515308],[37.109003892085994,55.2185459261582],[37.11614227510339,55.24115080571394],[37.16373149522026,55.23401242269574],[37.22202828986329,55.22568430917542],[37.2505818219329,55.20664862112976],[37.2791353540033,55.20664862112976],[37.307688886072995,55.191182124591236],[37.329104035125205,55.179284819561914],[37.387400829768225,55.15549020950405],[37.38978029077397,55.14359290447463],[37.41119543982617,55.13764425195953],[37.424282475358865,55.13526479095529],[37.43736951089084,55.14716209598285],[37.46592304296045,55.187612933083116],[37.52065064609472,55.19832050760856],[37.582516632246396,55.19951023811156],[37.59441393727546,55.191182124591236],[37.6110701643161,55.189992394089124],[37.63367504387202,55.19951023811156],[37.6681772284562,55.19951023811156],[37.675315611473515,55.21378700414698],[37.684833455496836,55.219735656662095],[37.71219725706433,55.21378700414698],[37.74550971114551,55.22211511766819],[37.78358108723924,55.22211511766819],[37.804996236291444,55.23877134470874],[37.849016264899575,55.23520215319874],[37.87281087495761,55.21735619565608],[37.91921036457157,55.22568430917542],[37.920205057287134,55.22568430917542],[37.920400095074484,55.23758161420484],[37.92515901708605,55.24828918873206]]]]}},{"type":"Feature","properties":{"kind":"district","id":"uyezd-1897-358","name":"Бронницкий","provinceId":"gubernia-1897-12"},"geometry":{"type":"MultiPolygon","coordinates":[[[[38.94144511622252,55.357597966631175],[38.92453263953462,55.36726223902224],[38.85909746187423,55.40890280662461],[38.811508241757394,55.44221526070578],[38.79961093672836,55.45054337422698],[38.76748821314999,55.44935364372486],[38.697294113477994,55.44221526070578],[38.70443249649543,55.480286636799974],[38.72822710655345,55.513599090881144],[38.64256651034373,55.4981325943445],[38.59735675123267,55.50646070786388],[38.56404429715144,55.521927204402346],[38.55095726161949,55.52787585691567],[38.52240372954907,55.53025531792173],[38.52835238206359,55.55286019747746],[38.52121399904621,55.564757502506836],[38.523593460051984,55.587362382062565],[38.48790154496493,55.599259687091944],[38.47600423993589,55.67302297827155],[38.452209629877075,55.686110013803955],[38.42365609780745,55.686110013803955],[38.41532798428716,55.69919704933545],[38.389153913222515,55.69324839682213],[38.3748771471877,55.684920283300926],[38.28921655097798,55.674212708775485],[38.260663018907564,55.686110013803955],[38.20712514627695,55.67778190028457],[38.19641757175083,55.69086893581607],[38.15001808213691,55.68254082229487],[38.083393173973604,55.66945378676337],[38.04967430950511,55.65927450692445],[38.02033745731899,55.65041809871764],[37.975127698207984,55.630192680167056],[37.946574166138305,55.630192680167056],[37.90612332903885,55.60520833960527],[37.89898494602147,55.59212130407468],[37.889467101998264,55.5802239990453],[37.8668622224431,55.58974184306862],[37.86448276143733,55.56951642451804],[37.901364407027245,55.554049927981396],[37.90493359853599,55.5243066654084],[37.96323039317895,55.52073747389841],[37.96442012368186,55.500512055348736],[37.94538443563539,55.46244067925545],[37.948953627144135,55.43983579970154],[37.922779556080286,55.42317957265914],[37.9192103645716,55.4517331047291],[37.90017467652439,55.45292283523213],[37.88827737149535,55.46600987076545],[37.87162114445471,55.46363040975939],[37.87875952747214,55.45054337422698],[37.85258545640829,55.445784452214866],[37.85020599540246,55.42793849467216],[37.815703810817524,55.40652334561855],[37.82046273282913,55.35179574248468],[37.87043141395179,55.32086274940957],[37.926348747588975,55.29825786985384],[37.92515901708605,55.24828918873206],[37.99892230826679,55.245909727726044],[38.035803953856714,55.254237841245384],[38.069116407938786,55.23520215319874],[38.100049401014225,55.25185838023938],[38.17738188370362,55.24234053621606],[38.202366224265376,55.24234053621606],[38.2321094868379,55.2268740396794],[38.229730025832154,55.20069996861545],[38.26780140192571,55.20069996861545],[38.282078167960506,55.184043741574904],[38.33680577109479,55.2149767346491],[38.40937933177261,55.23877134470874],[38.44745070786545,55.23639188370272],[38.455778821385856,55.22092538716421],[38.51645507703453,55.21616646515308],[38.54381887860211,55.23163296169151],[38.55214699212243,55.24947891923417],[38.57237241067172,55.28279137331535],[38.60806432575882,55.29349894784177],[38.65446381537278,55.30182706136297],[38.65922273738435,55.328001132426834],[38.68658653895184,55.33632924594804],[38.71276061001571,55.32562167142074],[38.730606567559256,55.329190862928954],[38.79247255371094,55.31491409689441],[38.81031851125448,55.32681140192472],[38.88051261092647,55.31848328840351],[38.89478937696208,55.336329245948036],[38.91501479551141,55.338708706952275],[38.94951698009555,55.35298547298862],[38.94144511622252,55.357597966631175]]]]}}]}
