{"type":"FeatureCollection","features":[{"type":"Feature","properties":{"kind":"province","id":"gubernia-1897-58","name":"Подольская губерния"},"geometry":{"type":"MultiPolygon","coordinates":[[[[30.517319588521808,48.4709070399995],[30.5375450070711,48.4709070399995],[30.548252581598046,48.454250812958875],[30.561339617129935,48.4637686569822],[30.606549376240178,48.4649583874852],[30.626774794790357,48.46019946547407],[30.648189943842564,48.4709070399995],[30.677933206415087,48.47447623150852],[30.718384043514558,48.4756659620125],[30.7207635045203,48.48518380603582],[30.73028134854353,48.49708111106612],[30.762404072122685,48.472096770503434],[30.785008951677806,48.457820004468005],[30.805234370227186,48.44235350792958],[30.826649519280192,48.43283566390626],[30.829028980286022,48.419748628375615],[30.807613831233017,48.41498970636262],[30.81951113626199,48.4030924013332],[30.83735709380634,48.37215940825811],[30.85758251235563,48.37215940825811],[30.87304900889335,48.3638312947378],[30.88613604442524,48.34241614568604],[30.876618200402095,48.313862613615186],[30.85758251235563,48.307913961100965],[30.85758251235563,48.29125773406033],[30.849254398835313,48.27460150701978],[30.85044412933823,48.24485824444673],[30.867100356378863,48.23534040042341],[30.8552030513498,48.19607929382712],[30.829028980286022,48.18894091080892],[30.813562483747504,48.13302357717208],[30.81713167525616,48.115177619629335],[30.81713167525616,48.089003548563596],[30.81951113626199,48.06877813001573],[30.843305746320826,48.05093217247125],[30.820700866765705,48.01761971839007],[30.807613831233017,47.99977376084554],[30.81237275324459,47.96765103726648],[30.789767873689467,47.93195912217921],[30.774301377151748,47.93195912217921],[30.744558114578425,47.94028723570041],[30.70529700798258,47.939097505196514],[30.65651805736288,47.9379077746944],[30.63867209981933,47.91411316463655],[30.60060072372569,47.90935424262355],[30.572047191656083,47.912923434132566],[30.549442312100872,47.89983639860023],[30.505422283492745,47.904595320613225],[30.449504949855644,47.92006181715077],[30.42571033979752,47.91411316463655],[30.405484921248227,47.92363100865987],[30.411433573762714,47.939097505196514],[30.378121119680735,47.94504615771163],[30.34837785710821,47.95575373223706],[30.332911360570492,47.936718044191394],[30.271045374418726,47.912923434132566],[30.207989657764223,47.90935424262355],[30.143744210606627,47.89507747658901],[30.11519067853622,47.892698015582916],[30.08187822445504,47.903405590109244],[30.049755500876685,47.8915082850808],[30.002166280759813,47.892698015582916],[29.946248947122623,47.90816451212143],[29.912936493041354,47.90935424262355],[29.886762421976776,47.91887208664687],[29.80467101727572,47.910543973127446],[29.747563953135703,47.912923434132566],[29.680939044972366,47.912923434132566],[29.658334165417244,47.91887208664687],[29.65952389592016,47.874852058040254],[29.582191413230763,47.87247259703416],[29.5702941082017,47.912923434132566],[29.548878959148695,47.89864666809811],[29.51199731355877,47.86414448351295],[29.500100008529706,47.81536553289334],[29.497720547523876,47.78919146182939],[29.46559782394481,47.77253523478884],[29.477495128973786,47.69639248260316],[29.475115667967955,47.68568490807594],[29.48106432048253,47.65356218449688],[29.47392593746504,47.62738811343293],[29.448941596904177,47.592885928848744],[29.432285369863543,47.55719401376155],[29.41324968181628,47.53815832571491],[29.408490759804707,47.514363715657055],[29.38469614974667,47.481051261574095],[29.35138369566549,47.47748207006588],[29.31569178057759,47.46915395654645],[29.294276631525385,47.4465490769908],[29.274051212975206,47.444169615984706],[29.256205255431745,47.4358415024635],[29.231220914870793,47.43465177196049],[29.220513340344645,47.41561608391385],[29.20623657430904,47.40728797039442],[29.182441964251005,47.393011204359],[29.153888432181397,47.393011204359],[29.16578573721037,47.353750097762706],[29.15269870167848,47.33947333172822],[29.141991127152334,47.358509019774864],[29.131283552625476,47.379924168826626],[29.078935410497742,47.40847770089659],[29.070607296977514,47.428703119446325],[29.078935410497742,47.440600424475655],[29.106299212064524,47.45368746000808],[29.115817056087756,47.46677449553961],[29.103919751058694,47.47748207006585],[29.05870999194765,47.49532802761046],[29.046812686918678,47.508415063141996],[29.024207807363467,47.51674317666311],[29.01587969384324,47.52983021219376],[29.023018076860552,47.547676169738196],[29.024207807363467,47.56671185778484],[29.012310502334493,47.5845578153275],[28.987326161772742,47.59764485085992],[28.98018777875534,47.611921616896325],[28.986136431269827,47.63928541846231],[28.976618587246683,47.68092598606469],[28.95996236020605,47.71423844014596],[28.965911012720536,47.73684331970064],[28.96472128221762,47.748740624731035],[28.970669934732108,47.76182766026346],[28.98256723976108,47.805847688870074],[29.00279265831126,47.818934724403384],[29.006361849820006,47.839160142953034],[28.974239126240853,47.87604178854242],[28.923080714615235,47.88436990206354],[28.88381960801948,47.89745693759596],[28.833850926896865,47.895077476589066],[28.816004969353315,47.903405590109294],[28.813625508347485,47.92957966117325],[28.820763891364976,47.94623588821379],[28.8148152388504,47.95575373223711],[28.795779550804024,47.96170238475223],[28.780313054265505,47.98192780330276],[28.7660362882307,47.99025591682219],[28.747000600184236,47.99025591682219],[28.733913564652347,47.98192780330276],[28.69822164956445,47.995014838834294],[28.66966811749484,48.01405052688005],[28.674427039506412,48.03308621492669],[28.653011890454206,48.04617325045911],[28.603043209331503,48.04617325045911],[28.579248599273555,48.05212190297333],[28.562592372232032,48.05212190297333],[28.55307452820889,48.04260405895001],[28.547125875694313,48.016429987886056],[28.53522857066534,48.005722413360616],[28.5042955775891,48.02594783190938],[28.495967464068784,48.03308621492669],[28.516192882618874,48.04498351995602],[28.518572343624705,48.05807055548844],[28.53522857066534,48.06045001649454],[28.549505336700143,48.05807055548844],[28.559023180723376,48.077106243535084],[28.566161563740778,48.09257274007361],[28.581628060279296,48.091383009569626],[28.584007521285127,48.081865165546304],[28.61137132285182,48.09257274007361],[28.603043209331503,48.10803923661025],[28.567351294243693,48.11874681113747],[28.551884797705974,48.11993654163959],[28.531659379156594,48.12945438566291],[28.50667503859573,48.13302357717201],[28.48882908105138,48.1342133076759],[28.47693177602232,48.12588519415469],[28.480500967531064,48.10684950610805],[28.48407015903981,48.079485704541185],[28.459085818478858,48.090193279067506],[28.44123986093531,48.091383009569626],[28.419824711882303,48.11517761962926],[28.40792740685324,48.127074924656895],[28.403168484841668,48.14373115169922],[28.41506578987073,48.15681818722987],[28.41506578987073,48.18775118030584],[28.39246091031552,48.19369983282104],[28.368666300257573,48.19013064131282],[28.35438953422188,48.1794230667865],[28.346061420701652,48.15681818722987],[28.327025732655187,48.14135169069321],[28.29847220058558,48.14254142119533],[28.29371327857312,48.152059265218654],[28.29847220058558,48.162766839744975],[28.299661931088494,48.1770436057804],[28.317507888631955,48.19251010231892],[28.346061420701652,48.21273552086768],[28.35438953422188,48.240099322434546],[28.327025732655187,48.26032474098339],[28.31869761913487,48.24961716645787],[28.309179775111637,48.244858244446746],[28.297282470082664,48.25675554947519],[28.28062624304123,48.242478783440646],[28.24493432795422,48.225822556400104],[28.215191065380807,48.21630471237678],[28.19139645532277,48.21273552086768],[28.180688880796623,48.230581478411224],[28.17117103677348,48.243668513942765],[28.169981306270564,48.26032474098339],[28.134289391182755,48.27460150701971],[28.12834073866818,48.26032474098339],[28.092648823581168,48.237719861429426],[28.070043944025247,48.25318635796609],[28.071233674528074,48.27222204601273],[28.080751518551395,48.300775578083574],[28.068854213522332,48.32813937964965],[28.034352028938237,48.33527776266874],[28.011747149382227,48.33646749317086],[27.97010658178064,48.33289830166264],[27.944648931121108,48.339500351040414],[27.903008363518722,48.358536039087056],[27.89111105848975,48.37638199663158],[27.866126717927997,48.39184849316823],[27.858988334910595,48.4204020252382],[27.8375731858583,48.42159175574218],[27.823296419823496,48.425160947251186],[27.794742887753088,48.44181717429183],[27.77094827769505,48.45728367083025],[27.736446093110867,48.46204259284058],[27.711461752549205,48.45847340133237],[27.690046603497,48.45133501831515],[27.650785496900443,48.45490420982327],[27.62580115633949,48.45966313183449],[27.59843735477271,48.46085286233847],[27.591298971755307,48.47393989787089],[27.60081681577854,48.492975585917534],[27.594868163264053,48.500113968934755],[27.58059139722845,48.501303699436875],[27.552037865158752,48.490596124911434],[27.5270535245978,48.47631935887689],[27.50801783655087,48.476319358876985],[27.497310262024477,48.487026933402404],[27.486602687498326,48.5298572315069],[27.467566999451954,48.58458483464171],[27.45091077241132,48.61908701922678],[27.418788048832162,48.62741513274621],[27.400942091288705,48.63217405475743],[27.390234516762554,48.64526109029074],[27.37714748123058,48.64883028179797],[27.35573233217766,48.642881629284645],[27.35573233217766,48.61670755822068],[27.327178800107966,48.60718971419736],[27.31052257306733,48.61075890570558],[27.309332842564416,48.626225402244],[27.278399849488174,48.639312437775544],[27.243897664904082,48.630984324254335],[27.240328473395337,48.6178972887228],[27.267692274962116,48.59886160067616],[27.267692274962116,48.579825912630405],[27.25698470043597,48.57387726011441],[27.207016019313265,48.57387726011441],[27.19511871428429,48.59529240916706],[27.166565182214597,48.59410267866494],[27.151098685676075,48.575066990618296],[27.123734884109382,48.566738877097094],[27.071386741980938,48.572687529611315],[27.052351053934473,48.566738877097094],[27.013089947337917,48.578636182126516],[27.009520755829264,48.59410267866494],[26.997623450800198,48.59648213967104],[26.98929533727997,48.58220537363562],[26.955982883198615,48.58696429564772],[26.932188273139865,48.5774464516244],[26.92148069861372,48.559600494079874],[26.90006554956151,48.55008265005655],[26.876270939502675,48.55365184156467],[26.858424981959125,48.57387726011441],[26.842958485421406,48.58339510413773],[26.838199563409837,48.59767187017316],[26.840579024415575,48.6178972887228],[26.832250910895347,48.6226562107349],[26.80006943519294,48.60592654353889],[26.81077700971909,48.57975247247592],[26.809587279216174,48.563096245434394],[26.78817213016388,48.558337323423174],[26.77746455563782,48.563096245434394],[26.763187789602128,48.58570112498916],[26.751290484573154,48.60116762152768],[26.738203449041265,48.60235735203157],[26.73939317954418,48.58808058599526],[26.756049406584815,48.567855167446496],[26.761998059099213,48.54525028789075],[26.727495874515114,48.54049136587865],[26.71083964747448,48.56190651493139],[26.68347584590699,48.567855167446496],[26.653732583334467,48.567855167446496],[26.63231743428137,48.55714759291919],[26.6346968952872,48.54406055738863],[26.65730177484312,48.54525028789075],[26.67871692389533,48.552388670908066],[26.700132072947625,48.53811190487353],[26.731065066023774,48.51074810330568],[26.727495874515114,48.492902145762926],[26.697752611941794,48.486953493247825],[26.666819618866356,48.49171241525904],[26.658491505346035,48.50598918129535],[26.643025008808316,48.50955837280357],[26.6346968952872,48.50955837280357],[26.6346968952872,48.495281606769026],[26.648973661322806,48.482194571235716],[26.64778393081989,48.463158883189074],[26.621609859755225,48.45721023067574],[26.593056327685616,48.45721023067574],[26.560933604106552,48.482194571235716],[26.53475953304268,48.495281606769026],[26.51691357549913,48.53692217436955],[26.502636809464327,48.54762974889587],[26.4689204893254,48.54646206081187],[26.471299950331744,48.55716963533724],[26.430849113232274,48.55954909634423],[26.41657234719729,48.57025667087055],[26.404675042167874,48.57025667087055],[26.399916120156746,48.55122098282302],[26.390398276132892,48.552410713326026],[26.388018815127328,48.56311828785333],[26.359465283057276,48.57620532338388],[26.365413935571674,48.5857231674072],[26.38207016261293,48.58334370640297],[26.380880432109837,48.59881020294051],[26.367793396577948,48.59524101143141],[26.360655013560457,48.60594858595685],[26.360655013560457,48.617845890987155],[26.330911750987312,48.629743196015596],[26.351137169536692,48.63926104003892],[26.327342559478566,48.6416405010459],[26.33567067299924,48.66305565009678],[26.311876062940403,48.65710699758256],[26.301168488414167,48.65710699758256],[26.301168488414167,48.67376322462408],[26.27618414785286,48.682091338144396],[26.25119980729164,48.701127026190065],[26.265476573326623,48.70469621770005],[26.260717651315495,48.72016271423671],[26.272614956344114,48.73681894127823],[26.266666303829805,48.757044359826985],[26.26904576483537,48.765372473348194],[26.26309711232106,48.782028700389716],[26.242871693771768,48.78797735290394],[26.240492232765405,48.79749519692636],[26.26428684282424,48.79511573592116],[26.248820346286077,48.81177196296268],[26.26428684282424,48.81177196296268],[26.265476573326623,48.824858998494214],[26.23216411924553,48.83556657301965],[26.23216411924553,48.848653608552965],[26.21907708371373,48.8593611830784],[26.222646275221678,48.87720714062195],[26.22383600572486,48.916468247218326],[26.213128431198623,48.9557293538155],[26.19647220415799,48.97595477236337],[26.201231126170004,48.98190342487946],[26.215507892204986,48.97714450286638],[26.227405197233605,48.98190342487946],[26.222646275221678,48.990231538399684],[26.200041395666734,48.99618019091302],[26.19647220415799,49.005698034936344],[26.22502573622804,49.005698034936344],[26.23097438874235,49.01283641795543],[26.207179778684225,49.04138995002539],[26.202420856672386,49.06280509907627],[26.21788735321055,49.06756402108935],[26.233353849747914,49.074702404106574],[26.221456544719295,49.085409978632015],[26.22502573622804,49.10206620567354],[26.215507892204986,49.1199121632162],[26.208369509187495,49.167501383332805],[26.22383600572486,49.156793808807365],[26.226215466730423,49.1698808443389],[26.218871754125733,49.177683538981924],[26.207179778684225,49.19010626288855],[26.21074897019306,49.20914195093607],[26.205990048181132,49.22222898646761],[26.21193870069624,49.238885213509135],[26.209559239689877,49.2567311710518],[26.241681963268586,49.25554144054879],[26.254768998800387,49.25792090155578],[26.25595872930357,49.27338739809332],[26.26309711232106,49.282905242115746],[26.25595872930357,49.29480254714596],[26.240492232765405,49.34120203675868],[26.254768998800387,49.3471506892729],[26.242871693771768,49.400688561905596],[26.23216411924553,49.42091398045435],[26.21907708371373,49.42686263296857],[26.20980139378292,49.46143565907456],[26.252189743915338,49.457341646717346],[26.309296808055354,49.449013533198006],[26.309296808055354,49.46685949074067],[26.3200043825815,49.48232598727918],[26.339040070627878,49.49898221431973],[26.359265489177258,49.48946437029641],[26.374731985715776,49.47637733476399],[26.39971632627664,49.47994652627309],[26.392577943259326,49.48946437029641],[26.4044752482883,49.49779248381762],[26.42232120583185,49.49779248381762],[26.436597971866654,49.47756706526797],[26.459202851422575,49.4847054482852],[26.47585907846321,49.529915207394815],[26.492515305503844,49.55965846996876],[26.524638029082908,49.55370981745365],[26.546053178135203,49.552520086951446],[26.557950483164177,49.5679865834881],[26.56984778819324,49.59535038505595],[26.578175901713557,49.63937041366354],[26.656698114906668,49.613196342599586],[26.691200299490763,49.60724769008448],[26.743548441619208,49.604868229080246],[26.764963590671414,49.597729846061156],[26.799465775256397,49.592970924049936],[26.84467553436664,49.59416065455383],[26.879177718951624,49.58464281053051],[26.93152586108007,49.56917631399208],[26.981494542201972,49.5715557749972],[27.006478882763723,49.57036604449419],[27.046929719862305,49.55846873946478],[27.07072432992114,49.55370981745365],[27.131400585569192,49.55370981745365],[27.151626004119283,49.583453080026615],[27.18255899719472,49.58702227153474],[27.232527678317425,49.58107361902052],[27.243235252843483,49.59891957656505],[27.270599054410265,49.592970924049936],[27.312239622012562,49.57036604449419],[27.353880189614948,49.573935236003294],[27.35863911162661,49.59416065455383],[27.39908994872519,49.597729846061156],[27.427643480795687,49.60605795958236],[27.393141296210704,49.6167655341078],[27.370536416655582,49.63342176115021],[27.371726147158498,49.670303406739514],[27.400279679228106,49.68458017277405],[27.425264019789857,49.67625205925462],[27.456197012865296,49.68101098126584],[27.484750544934993,49.691718555791276],[27.522821921028562,49.68695963378017],[27.56879527641266,49.68910789429995],[27.62233314904322,49.69505654681417],[27.656835333628205,49.70933331284871],[27.683009404692072,49.735507383914445],[27.732978085814686,49.722420348381135],[27.774618653417072,49.728369000895356],[27.755582965369896,49.752163610954995],[27.759152156878553,49.77119929900074],[27.78532622794322,49.77119929900074],[27.811500299006997,49.77595822101285],[27.832915448059204,49.79499390905949],[27.848381944597723,49.80927067509403],[27.85671005811804,49.82949609364368],[27.880504668176076,49.82354744112857],[27.878125207170246,49.8009425615746],[27.886453320690652,49.78190687352796],[27.967354994888794,49.78309660403008],[28.013754484502662,49.77357876000676],[28.070861548642768,49.77357876000676],[28.126778882279957,49.78190687352796],[28.18983459893455,49.7926144480534],[28.23028543603313,49.78785552604129],[28.268356812126772,49.796183639561605],[28.27906438665292,49.80213229207672],[28.318325493248675,49.80213229207672],[28.34449956431334,49.78428633453406],[28.37067363537712,49.76881983799555],[28.390401292879364,49.75818787962727],[28.43204186048175,49.70346027649336],[28.5414970667495,49.666578630903075],[28.58194790384897,49.66419916989707],[28.593845208878033,49.64992240386253],[28.627157662960013,49.633266176821984],[28.704490145649498,49.61898941078647],[28.69616203212909,49.64754294285643],[28.74256152174225,49.63207644631978],[28.748510174256825,49.59995372274081],[28.71162852866681,49.58448722620317],[28.703300415146582,49.56545153815564],[28.675936613579,49.55950288564142],[28.654521464526795,49.53570827558356],[28.592655478375118,49.500016360496375],[28.533168953229183,49.47146282842552],[28.542686797252415,49.44766821836767],[28.570050598819908,49.42982226082314],[28.621209010445526,49.4084071117704],[28.63786523748616,49.39175088472985],[28.627157662960013,49.37985357970132],[28.605742513907007,49.364387083162896],[28.62239874094844,49.351300047631355],[28.69140311011752,49.33345409008683],[28.712818259169726,49.32393624606351],[28.736612869227763,49.31917732405238],[28.76992532330983,49.30490055801785],[28.777063706327233,49.271588103936665],[28.773494514818577,49.22994753633428],[28.763976670795344,49.21805023130486],[28.76992532330983,49.201394004264316],[28.81870427392882,49.2323269973394],[28.835360500970165,49.264449720917575],[28.85677565002246,49.258501068403355],[28.884139451589153,49.2347064583455],[28.940056785226343,49.197824812755215],[28.957902742769893,49.18949669923401],[28.980507622325813,49.16451235867315],[28.995974118863533,49.14785613163251],[29.00192277137802,49.12168206056776],[28.992404927354787,49.09312852849779],[29.02214818992731,49.06576472693172],[29.053081183003638,49.039590655867855],[29.048322260991977,49.007467932288876],[29.07417648848617,48.986060347762745],[29.11224786457901,48.98487061725885],[29.14556031866108,48.964645198709206],[29.14556031866108,48.93966085814923],[29.15864735419297,48.92657382261592],[29.27048202146655,48.905158673564074],[29.41800860382874,48.896830560042865],[29.426336717349056,48.92062517010259],[29.426336717349056,48.940850588651344],[29.44537240539543,48.93609166663924],[29.46321836293898,48.93252247513192],[29.490582164506563,48.958696546195874],[29.510807583055854,48.964645198709206],[29.517945966073256,49.00271657480338],[29.592898987756822,49.01580361033483],[29.597657909768483,49.04554687290788],[29.633349824856293,49.08718744051026],[29.689267158492683,49.07529013548174],[29.67261093145205,49.053874986429086],[29.67974931446945,49.00747549681549],[29.64405739938244,48.964645198709206],[29.634539555359208,48.940850588651344],[29.65714443491433,48.93133274462802],[29.734476917603725,48.91943543959861],[29.782066137720598,48.91705597859349],[29.846311584878105,48.87422568048899],[29.84274239336945,48.85518999244235],[29.798722364761232,48.79689319779941],[29.835604010351158,48.68148933901558],[29.8808137694622,48.663643381472916],[29.895090535497005,48.59463901230268],[29.97242301818649,48.55656763621029],[30.03309927383525,48.524444912632106],[30.116380409039134,48.47804542301673],[30.130657175074738,48.4756659620125],[30.165159359658922,48.48875299754403],[30.218697232290282,48.50184003307636],[30.255578877880208,48.510168146595795],[30.286511870956446,48.518496260117004],[30.344808665599466,48.53872167866576],[30.420951417785947,48.56489574972963],[30.44355629734107,48.56489574972963],[30.507801744498575,48.54348060067875],[30.513750397013062,48.51968599061912],[30.51969904952755,48.50184003307636],[30.505422283492745,48.49232218905304],[30.517319588521808,48.4709070399995]]]]}},{"type":"Feature","properties":{"kind":"district","id":"uyezd-1897-203","name":"Проскуровский","provinceId":"gubernia-1897-58"},"geometry":{"type":"MultiPolygon","coordinates":[[[[26.218871754125733,49.177683538981924],[26.256362595360432,49.16747934091469],[26.283726396927214,49.146064191862926],[26.308710737488965,49.180566376448084],[26.337264269558574,49.182945837453204],[26.34083346106723,49.203171256001966],[26.374145915149388,49.210309639021055],[26.402699447218996,49.20436098650586],[26.428873518283662,49.20793017801407],[26.463375702867758,49.19722260348863],[26.48360112141705,49.17818691544199],[26.50382653996723,49.16153068840144],[26.52405195851652,49.17104853242476],[26.534759533042667,49.182945837453204],[26.534759533042667,49.201981525499846],[26.58710767517111,49.20793017801407],[26.639455817299645,49.1793766459441],[26.628748242772698,49.15796149689234],[26.68704503741563,49.14725392236504],[26.70727045596581,49.1793766459441],[26.738203449041247,49.16866907141867],[26.715598569486037,49.1424950003548],[26.76080832859637,49.12583877331417],[26.83933054178868,49.124649042810276],[26.848848385812712,49.16153068840144],[26.8619354213446,49.200791794997734],[26.885730031402638,49.216258291535276],[26.922611676993363,49.203171256001966],[26.974959819121008,49.18532529845922],[27.01779011722631,49.17818691544199],[27.02492850024371,49.20793017801407],[27.04039499678143,49.20793017801407],[27.05348203231332,49.19960206449473],[27.07846637287507,49.192463681476525],[27.108209635447594,49.21387883052918],[27.092743138909874,49.24719128461036],[27.067758798348923,49.266226972657],[27.077276642372155,49.28526266070462],[27.112968557459165,49.29002158271486],[27.124865862488228,49.27574481668032],[27.143901550535492,49.27574481668032],[27.15222966405572,49.28645239120674],[27.145091281038408,49.30191888774517],[27.12129667097957,49.32214430629392],[27.090363677904133,49.3126264622706],[27.034446344266943,49.33404161132334],[27.018979847729224,49.356646490879],[27.029687422255282,49.372112987417516],[27.059430684828694,49.37330271791963],[27.09155340840696,49.38401029244507],[27.11177882695634,49.39828705848139],[27.148660472547064,49.435168704070776],[27.18792157914282,49.4482557396032],[27.19030104014865,49.47918873267828],[27.2152853807104,49.49941415122882],[27.204577806184254,49.52201903078456],[27.180783196125418,49.52558822229277],[27.173644813108016,49.544623910340306],[27.131400585569192,49.55370981745365],[27.07072432992114,49.55370981745365],[27.046929719862305,49.55846873946478],[27.006478882763723,49.57036604449419],[26.981494542201972,49.5715557749972],[26.93152586108007,49.56917631399208],[26.879177718951624,49.58464281053051],[26.84467553436664,49.59416065455383],[26.799465775256397,49.592970924049936],[26.764963590671414,49.597729846061156],[26.743548441619208,49.604868229080246],[26.691200299490763,49.60724769008448],[26.656698114906668,49.613196342599586],[26.578175901713557,49.63937041366354],[26.56984778819324,49.59535038505595],[26.557950483164177,49.5679865834881],[26.546053178135203,49.552520086951446],[26.524638029082908,49.55370981745365],[26.492515305503844,49.55965846996876],[26.47585907846321,49.529915207394815],[26.459202851422575,49.4847054482852],[26.436597971866654,49.47756706526797],[26.42232120583185,49.49779248381762],[26.4044752482883,49.49779248381762],[26.392577943259326,49.48946437029641],[26.39971632627664,49.47994652627309],[26.374731985715776,49.47637733476399],[26.359265489177258,49.48946437029641],[26.339040070627878,49.49898221431973],[26.3200043825815,49.48232598727918],[26.309296808055354,49.46685949074067],[26.309296808055354,49.449013533198006],[26.252189743915338,49.457341646717346],[26.20980139378292,49.46143565907456],[26.21907708371373,49.42686263296857],[26.23216411924553,49.42091398045435],[26.242871693771768,49.400688561905596],[26.254768998800387,49.3471506892729],[26.240492232765405,49.34120203675868],[26.25595872930357,49.29480254714596],[26.26309711232106,49.282905242115746],[26.25595872930357,49.27338739809332],[26.254768998800387,49.25792090155578],[26.241681963268586,49.25554144054879],[26.209559239689877,49.2567311710518],[26.21193870069624,49.238885213509135],[26.205990048181132,49.22222898646761],[26.21074897019306,49.20914195093607],[26.207179778684225,49.19010626288855],[26.218871754125733,49.177683538981924]]]]}},{"type":"Feature","properties":{"kind":"district","id":"uyezd-1897-204","name":"Винницкий","provinceId":"gubernia-1897-58"},"geometry":{"type":"MultiPolygon","coordinates":[[[[28.268356812126772,49.796183639561605],[28.273278934481805,49.77801672134406],[28.26733028196723,49.76730914681774],[28.245915132914224,49.76611941631384],[28.235207558388165,49.74946318927321],[28.241156210902652,49.71139181317992],[28.224499983862017,49.68878693362418],[28.22093079235336,49.660233401554216],[28.17572103324223,49.6614231320582],[28.170962111230658,49.634059330490345],[28.186428607768377,49.60669552892339],[28.16263399771034,49.57338307484221],[28.150736692681367,49.55672684780166],[28.156685345195765,49.53055277673771],[28.14716750117262,49.51389654969539],[28.135270196143647,49.471066251590884],[28.112665316587638,49.46392786857357],[28.105526933570236,49.43894352801182],[28.14716750117262,49.42466676197817],[28.15787507569868,49.44132298901783],[28.174531302739314,49.443702450024816],[28.22925890587359,49.422287300971185],[28.266140551464314,49.440133258515715],[28.28517623951078,49.46749706008267],[28.275658395487635,49.50080951416385],[28.26733028196723,49.5174657412044],[28.276848125990462,49.5281733157317],[28.306591388563074,49.53412196824503],[28.362508722200175,49.553157656291674],[28.380354679743725,49.53412196824503],[28.3993903677909,49.50675816667807],[28.420805516843195,49.4817738261181],[28.36607791370892,49.45203056354424],[28.354180608679858,49.45203056354424],[28.342283303650884,49.44489218052693],[28.319678424094963,49.44608191103091],[28.278037856493377,49.396113229907314],[28.29231462252818,49.37588781135856],[28.326816807112365,49.359231584317925],[28.313729771580388,49.334247243756174],[28.304211927557244,49.28427856263445],[28.27208920397889,49.26881206609593],[28.24948432442297,49.24263799503206],[28.224499983862017,49.23787907301907],[28.151926423184193,49.19980769692579],[28.085301515020944,49.20099742742968],[28.047230138928015,49.196238505418464],[27.99964091881123,49.191479583406355],[28.011538223840205,49.1676849733485],[28.034143103395326,49.15102874630795],[28.067455557477395,49.14032117178065],[28.074593940494797,49.12485467524222],[28.059127443957077,49.117716292224905],[28.07102474898605,49.087973029651934],[28.062696635465823,49.06536815009717],[28.079352862506457,49.043953001045324],[28.023435528869268,48.99993297243692],[28.004399840822803,49.00826108595813],[27.93896466316247,49.009450816460244],[27.898513826063,49.00588162495204],[27.85449379745567,49.00350216394505],[27.825940265385174,49.00231243344294],[27.84193553103539,48.98486305273307],[27.856212297070993,48.97296574770374],[27.877627446123288,48.956309520663105],[27.90261178668415,48.9551197901601],[27.94306262378362,48.92537652758802],[27.979944269373547,48.928945719096234],[28.010877262449785,48.928945719096234],[28.044189716531054,48.92537652758802],[28.048948638542715,48.9158586835647],[28.07274324860155,48.90396137853439],[28.087020014636355,48.9122894920556],[28.109624894191388,48.9051511090374],[28.125091390729906,48.91466895306072],[28.142937348273545,48.90872030054739],[28.14174761777063,48.92180733607803],[28.131040043244482,48.928945719096234],[28.15245519229669,48.947981407143764],[28.179818993863382,48.940843024124675],[28.19766495140773,48.931325180101354],[28.204803334425133,48.93489437161134],[28.196475220904816,48.94917113764588],[28.198854681910646,48.971776017200646],[28.211941717442624,48.98486305273307],[28.26666932057681,48.98843224424128],[28.29998177465808,48.98843224424128],[28.32972503723069,48.9991398187676],[28.37612452684456,48.99438089675639],[28.379693718353305,48.98962197474428],[28.42371374696152,48.97653493921373],[28.440369974002067,48.964637634184314],[28.476061889089877,48.9551197901601],[28.478441350095707,48.96344790368042],[28.491528385627685,48.96701709519041],[28.515322995685633,48.965827364686426],[28.52127164820021,48.97772466971584],[28.516512726188548,49.00389874077971],[28.524840839708954,49.02293442882724],[28.534358683732098,49.019365237318226],[28.549825180270616,49.020554967820345],[28.55696356328802,49.03245227285056],[28.56886086831708,49.03245227285056],[28.578378712340314,49.024124159329446],[28.593845208878033,49.02888308134155],[28.580758173346055,49.04078038636999],[28.545066258258956,49.06576472693175],[28.50818461266832,49.100266911516904],[28.524840839708954,49.12049233006566],[28.562912215802594,49.12287179107078],[28.59979386139252,49.15975343666195],[28.621209010445526,49.16927128068527],[28.656900925532536,49.174030202696486],[28.690213379614605,49.18592750772591],[28.72233610319296,49.219239961807],[28.74969990475974,49.25017295488395],[28.777063706327233,49.271588103936686],[28.76992532330983,49.30490055801786],[28.736612869227763,49.319177324052404],[28.712818259169726,49.32393624606353],[28.69140311011752,49.33345409008685],[28.62239874094844,49.35130004763138],[28.605742513907007,49.36438708316291],[28.627157662960013,49.37985357970135],[28.63786523748616,49.39175088472987],[28.621209010445526,49.408407111770416],[28.570050598819908,49.42982226082316],[28.542686797252415,49.44766821836768],[28.533168953229183,49.471462828425544],[28.592655478375118,49.500016360496396],[28.654521464526795,49.53570827558359],[28.675936613579,49.55950288564144],[28.703300415146582,49.56545153815566],[28.71162852866681,49.584487226203194],[28.748510174256825,49.59995372274082],[28.74256152174225,49.6320764463198],[28.69616203212909,49.647542942856454],[28.704490145649498,49.61898941078649],[28.627157662960013,49.633266176822005],[28.593845208878033,49.64992240386255],[28.58194790384897,49.66419916989709],[28.5414970667495,49.666578630903096],[28.43204186048175,49.703460276493374],[28.390401292879364,49.7581878796273],[28.37067363537712,49.76881983799554],[28.34449956431334,49.78428633453406],[28.318325493248675,49.80213229207672],[28.27906438665292,49.80213229207672],[28.268356812126772,49.796183639561605]]]]}},{"type":"Feature","properties":{"kind":"district","id":"uyezd-1897-205","name":"Литинский","provinceId":"gubernia-1897-58"},"geometry":{"type":"MultiPolygon","coordinates":[[[[27.825940265385174,49.00231243344294],[27.85449379745567,49.00350216394505],[27.898513826063,49.00588162495204],[27.93896466316247,49.009450816460244],[28.004399840822803,49.00826108595813],[28.023435528869268,48.99993297243692],[28.079352862506457,49.043953001045324],[28.062696635465823,49.06536815009717],[28.07102474898605,49.087973029651934],[28.059127443957077,49.117716292224905],[28.074593940494797,49.12485467524222],[28.067455557477395,49.14032117178065],[28.034143103395326,49.15102874630795],[28.011538223840205,49.1676849733485],[27.99964091881123,49.191479583406355],[28.047230138928015,49.196238505418464],[28.085301515020944,49.20099742742968],[28.151926423184193,49.19980769692579],[28.224499983862017,49.23787907301907],[28.24948432442297,49.24263799503206],[28.27208920397889,49.26881206609593],[28.304211927557244,49.28427856263445],[28.313729771580388,49.334247243756174],[28.326816807112365,49.359231584317925],[28.29231462252818,49.37588781135856],[28.278037856493377,49.396113229907314],[28.319678424094963,49.44608191103091],[28.342283303650884,49.44489218052693],[28.354180608679858,49.45203056354424],[28.36607791370892,49.45203056354424],[28.420805516843195,49.4817738261181],[28.3993903677909,49.50675816667807],[28.380354679743725,49.53412196824503],[28.362508722200175,49.553157656291674],[28.306591388563074,49.53412196824503],[28.276848125990462,49.5281733157317],[28.26733028196723,49.5174657412044],[28.275658395487635,49.50080951416385],[28.28517623951078,49.46749706008267],[28.266140551464314,49.440133258515715],[28.22925890587359,49.422287300971185],[28.174531302739314,49.443702450024816],[28.15787507569868,49.44132298901783],[28.14716750117262,49.42466676197817],[28.105526933570236,49.43894352801182],[28.112665316587638,49.46392786857357],[28.135270196143647,49.471066251590884],[28.14716750117262,49.51389654969539],[28.156685345195765,49.53055277673771],[28.150736692681367,49.55672684780166],[28.16263399771034,49.57338307484221],[28.186428607768377,49.60669552892339],[28.170962111230658,49.634059330490345],[28.17572103324223,49.6614231320582],[28.22093079235336,49.660233401554216],[28.224499983862017,49.68878693362418],[28.241156210902652,49.71139181317992],[28.235207558388165,49.74946318927321],[28.245915132914224,49.76611941631384],[28.26733028196723,49.76730914681774],[28.273278934481805,49.77801672134406],[28.268356812126772,49.796183639561605],[28.23028543603313,49.78785552604129],[28.18983459893455,49.7926144480534],[28.126778882279957,49.78190687352796],[28.070861548642768,49.77357876000676],[28.013754484502662,49.77357876000676],[27.967354994888794,49.78309660403008],[27.886453320690652,49.78190687352796],[27.878125207170246,49.8009425615746],[27.880504668176076,49.82354744112857],[27.85671005811804,49.82949609364368],[27.848381944597723,49.80927067509403],[27.832915448059204,49.79499390905949],[27.811500299006997,49.77595822101285],[27.78532622794322,49.77119929900074],[27.759152156878553,49.77119929900074],[27.755582965369896,49.752163610954995],[27.774618653417072,49.728369000895356],[27.732978085814686,49.722420348381135],[27.683009404692072,49.735507383914445],[27.656835333628205,49.70933331284871],[27.62233314904322,49.69505654681417],[27.56879527641266,49.68910789429995],[27.522821921028545,49.68695963378015],[27.484750544934993,49.691718555791276],[27.456197012865296,49.68101098126584],[27.425264019789857,49.67625205925462],[27.400279679228106,49.68458017277405],[27.371726147158498,49.670303406739514],[27.370536416655582,49.63342176115021],[27.393141296210704,49.6167655341078],[27.427643480795687,49.60605795958236],[27.39908994872519,49.597729846061156],[27.35863911162661,49.59416065455383],[27.353880189614948,49.573935236003294],[27.38930917081549,49.55672684780166],[27.451175156967167,49.565054961321],[27.52136925663916,49.566244691824984],[27.51185141261593,49.55077819528744],[27.52136925663916,49.53650142925104],[27.57014820725895,49.54363981226835],[27.564199554744462,49.53174250723991],[27.586804434299584,49.51627601070139],[27.624875810392425,49.5174657412044],[27.678413683023784,49.511517088691065],[27.746228321689948,49.52936304623381],[27.736710477666715,49.48296355662021],[27.69269044905859,49.487722478631426],[27.69506991006442,49.46273813807146],[27.69982883207679,49.42823595348638],[27.71767478962034,49.41990783996518],[27.756935896216095,49.413959187451844],[27.815232690859116,49.35804185381403],[27.797386733315566,49.34852400979071],[27.759315357221926,49.34614454878559],[27.7712126622517,49.318780747217744],[27.837837570414948,49.2997450591711],[27.85211433644984,49.30926290319442],[27.871150024496217,49.29855532866801],[27.850924605946926,49.260483952574724],[27.82712999588809,49.2509661085514],[27.797386733315566,49.2509661085514],[27.772402392754614,49.23193042050476],[27.73314128615806,49.240258534025074],[27.69506991006442,49.21765365447031],[27.676034222017954,49.20337688843577],[27.683172605035356,49.15697739882128],[27.655808803468663,49.166495242844604],[27.62368607988951,49.174823356365806],[27.601081200334388,49.165305512342485],[27.59275308681407,49.14626982429487],[27.61059904435762,49.12723413624823],[27.612978505363362,49.11295737021378],[27.653429342462832,49.09035249065892],[27.680793144029614,49.09035249065892],[27.710536406602937,49.08321410764161],[27.718864520123255,49.07012707210927],[27.726002903140657,49.04276327054143],[27.759315357221926,49.00112270293904],[27.825940265385174,49.00231243344294]]]]}},{"type":"Feature","properties":{"kind":"district","id":"uyezd-1897-206","name":"Могилевский","provinceId":"gubernia-1897-58"},"geometry":{"type":"MultiPolygon","coordinates":[[[[27.612978505363362,49.11295737021378],[27.586804434299584,49.11176763971157],[27.589183895305414,49.07488599412049],[27.573717398767695,49.079644916132594],[27.548733058205944,49.0772654551265],[27.509471951610188,49.062988689091966],[27.467566999451954,49.04144134776104],[27.467566999451954,49.01645700719929],[27.441392928387376,48.99861104965654],[27.406890743803192,48.99742131915265],[27.408080474306107,48.964108865071466],[27.423546970843827,48.95102182953993],[27.459238885931637,48.954591021048145],[27.47589511297227,48.9379347940076],[27.499689723030308,48.9272272194803],[27.512776758562197,48.90343260942244],[27.497310262024477,48.86417150282615],[27.52467406359206,48.81896174371555],[27.535381638118206,48.77613144561114],[27.535381638118206,48.74519845253419],[27.563935170187815,48.74043953052386],[27.604386007287285,48.7559060270614],[27.61866277332209,48.74400872203208],[27.57583247521679,48.69760923241847],[27.52467406359206,48.68452219688694],[27.465187538446212,48.67976327487395],[27.411649665814764,48.69404004091026],[27.393803708271303,48.67143516135461],[27.37714748123058,48.648830281797885],[27.390234516762558,48.64526109029069],[27.400942091288705,48.632174054757385],[27.418788048832166,48.627415132746165],[27.45091077241132,48.61908701922674],[27.467566999451954,48.58458483464166],[27.48660268749833,48.52985723150685],[27.497310262024477,48.487026933402355],[27.508017836550625,48.47631935887692],[27.5270535245978,48.47631935887692],[27.552037865158752,48.490596124911455],[27.58059139722845,48.50130369943689],[27.594868163264053,48.50011396893478],[27.60081681577854,48.49297558591755],[27.591298971755307,48.473939897870906],[27.59843735477271,48.460852862338484],[27.62580115633949,48.4596631318345],[27.650785496900443,48.45490420982329],[27.690046603497,48.45133501831516],[27.711461752549205,48.45847340133239],[27.736446093110867,48.462042592840604],[27.77094827769505,48.45728367083028],[27.794742887753088,48.44181717429184],[27.823296419823496,48.425160947251214],[27.8375731858583,48.4215917557422],[27.858988334910595,48.42040202523822],[27.866126717927997,48.391848493168254],[27.89111105848975,48.3763819966316],[27.903008363518722,48.35853603908707],[27.944648931121108,48.33950035104043],[27.950597583635595,48.35853603908707],[27.948218122629765,48.37757172713371],[27.948218122629765,48.40969445071278],[27.942269470115278,48.44776582680696],[27.95178731413851,48.470370706361805],[27.942269470115278,48.48940639440757],[27.94940785313268,48.50725235195209],[27.9648743496704,48.51677019597541],[27.98034084620812,48.52033938748353],[28.00294572576324,48.50725235195209],[28.02555060531925,48.49892423843089],[28.067191172920747,48.53342642301595],[28.048155484874282,48.577446451624354],[28.021981413810504,48.616707558220725],[28.019601952804674,48.63574324626737],[28.03387871883948,48.64645082079281],[28.068380903423662,48.65953785632523],[28.054104137388858,48.695229771412414],[28.107642010020218,48.704747615435735],[28.159990152148662,48.698798962920634],[28.180215570698042,48.66429677833636],[28.21114856377348,48.66429677833636],[28.24446101785546,48.66667623934245],[28.226615060312,48.6940400409103],[28.23970209584389,48.696419501914534],[28.23732263483806,48.707127076440855],[28.218286946791594,48.71069626795085],[28.199251258744418,48.733301147506594],[28.17069772667481,48.7404395305239],[28.15047230812543,48.768993062593864],[28.123108506557937,48.791597942147746],[28.118349584546277,48.81420282170438],[28.075519286441065,48.83918716226435],[28.04339656286271,48.83680770126012],[28.001755995260414,48.83442824025403],[27.98034084620812,48.84037689276833],[27.955356505647256,48.83918716226435],[27.930372165085505,48.87963799936462],[27.92918243458259,48.89391476539916],[27.966064080173314,48.88439692137584],[27.973202463190717,48.88796611288396],[27.943459200618193,48.91176072294368],[27.94306262378362,48.92537652758802],[27.90261178668415,48.9551197901601],[27.877627446123288,48.956309520663105],[27.856212297070993,48.97296574770374],[27.84193553103539,48.98486305273307],[27.825940265385174,49.00231243344294],[27.759315357221926,49.00112270293904],[27.726002903140657,49.04276327054143],[27.718864520123255,49.07012707210927],[27.710536406602937,49.08321410764161],[27.680793144029614,49.09035249065892],[27.653429342462832,49.09035249065892],[27.612978505363362,49.11295737021378]]]]}},{"type":"Feature","properties":{"kind":"district","id":"uyezd-1897-207","name":"Летичевский","provinceId":"gubernia-1897-58"},"geometry":{"type":"MultiPolygon","coordinates":[[[[27.612978505363362,49.11295737021378],[27.61059904435762,49.12723413624823],[27.59275308681407,49.14626982429487],[27.601081200334388,49.165305512342485],[27.62368607988951,49.174823356365806],[27.655808803468663,49.166495242844604],[27.683172605035356,49.15697739882128],[27.676034222017954,49.20337688843577],[27.69506991006442,49.21765365447031],[27.73314128615806,49.240258534025074],[27.772402392754614,49.23193042050476],[27.797386733315566,49.2509661085514],[27.82712999588809,49.2509661085514],[27.850924605946926,49.260483952574724],[27.871150024496217,49.29855532866801],[27.85211433644984,49.30926290319442],[27.837837570414948,49.2997450591711],[27.7712126622517,49.318780747217744],[27.759315357221926,49.34614454878559],[27.797386733315566,49.34852400979071],[27.815232690859116,49.35804185381403],[27.756935896216095,49.413959187451844],[27.71767478962034,49.41990783996518],[27.69982883207679,49.42823595348638],[27.69506991006442,49.46273813807146],[27.69269044905859,49.487722478631426],[27.736710477666715,49.48296355662021],[27.746228321689948,49.52936304623381],[27.678413683023784,49.511517088691065],[27.624875810392425,49.5174657412044],[27.586804434299584,49.51627601070139],[27.564199554744462,49.53174250723991],[27.57014820725895,49.54363981226835],[27.52136925663916,49.53650142925104],[27.51185141261593,49.55077819528744],[27.52136925663916,49.566244691824984],[27.451175156967167,49.565054961321],[27.38930917081549,49.55672684780166],[27.353880189614948,49.573935236003294],[27.312239622012562,49.57036604449419],[27.270599054410265,49.592970924049936],[27.243235252843483,49.59891957656505],[27.232527678317425,49.58107361902052],[27.18255899719472,49.58702227153474],[27.151626004119283,49.583453080026615],[27.131400585569192,49.55370981745365],[27.173644813108016,49.544623910340306],[27.180783196125418,49.52558822229277],[27.204577806184254,49.52201903078456],[27.2152853807104,49.49941415122882],[27.19030104014865,49.47918873267828],[27.18792157914282,49.4482557396032],[27.148660472547064,49.435168704070776],[27.11177882695634,49.39828705848139],[27.09155340840696,49.38401029244507],[27.059430684828694,49.37330271791963],[27.029687422255282,49.372112987417516],[27.018979847729224,49.356646490879],[27.034446344266943,49.33404161132334],[27.090363677904133,49.3126264622706],[27.12129667097957,49.32214430629392],[27.145091281038408,49.30191888774517],[27.15222966405572,49.28645239120674],[27.143901550535492,49.27574481668032],[27.124865862488228,49.27574481668032],[27.112968557459165,49.29002158271486],[27.077276642372155,49.28526266070462],[27.067758798348923,49.266226972657],[27.092743138909874,49.24719128461036],[27.108209635447594,49.21387883052918],[27.07846637287507,49.192463681476525],[27.05348203231332,49.19960206449473],[27.04039499678143,49.20793017801407],[27.02492850024371,49.20793017801407],[27.01779011722631,49.17818691544199],[26.974959819121008,49.18532529845922],[26.922611676993363,49.203171256001966],[26.885730031402638,49.216258291535276],[26.8619354213446,49.200791794997734],[26.848848385812712,49.16153068840144],[26.83933054178868,49.124649042810276],[26.91103750864342,49.12485467524222],[26.941970501719748,49.07845518562861],[26.978852147309674,49.07131680261139],[27.00026729636268,49.08559356864593],[27.05380516899324,49.07012707210927],[27.08354843156665,49.05941949758197],[27.095445736595625,49.03086596551201],[27.16088091425596,49.04157354003931],[27.177537141296593,49.07488599412049],[27.197762559845973,49.07012707210927],[27.22869555292221,49.07607572462261],[27.247731240968587,49.06893734160529],[27.26438746800922,49.07488599412049],[27.285802617062227,49.07488599412049],[27.284612886559312,49.05822976707986],[27.319115071143496,49.05822976707986],[27.3690837522662,49.079644916132594],[27.4178627028859,49.08083464663471],[27.469021114510717,49.07369626361829],[27.49638491607821,49.07369626361829],[27.509471951610188,49.062988689091966],[27.548733058205944,49.0772654551265],[27.573717398767695,49.079644916132594],[27.589183895305414,49.07488599412049],[27.586804434299584,49.11176763971157],[27.612978505363362,49.11295737021378]]]]}},{"type":"Feature","properties":{"kind":"district","id":"uyezd-1897-208","name":"Брацлавский","provinceId":"gubernia-1897-58"},"geometry":{"type":"MultiPolygon","coordinates":[[[[28.884139451589153,49.23470645834553],[28.85677565002246,49.25850106840338],[28.835360500970165,49.264449720917604],[28.81870427392882,49.23232699733943],[28.76992532330983,49.201394004264344],[28.763976670795344,49.218050231304886],[28.773494514818577,49.22994753633431],[28.777063706327233,49.271588103936686],[28.74969990475974,49.25017295488395],[28.72233610319296,49.219239961807],[28.690213379614605,49.18592750772591],[28.656900925532536,49.174030202696486],[28.621209010445526,49.16927128068527],[28.59979386139252,49.15975343666195],[28.562912215802594,49.12287179107078],[28.524840839708954,49.12049233006566],[28.50818461266832,49.100266911516904],[28.545066258258956,49.06576472693175],[28.580758173346055,49.04078038636999],[28.593845208878033,49.02888308134155],[28.578378712340314,49.024124159329446],[28.56886086831708,49.03245227285056],[28.55696356328802,49.03245227285056],[28.549825180270616,49.020554967820345],[28.534358683732098,49.019365237318226],[28.524840839708954,49.02293442882724],[28.516512726188548,49.00389874077971],[28.52127164820021,48.97772466971584],[28.515322995685633,48.965827364686426],[28.491528385627685,48.96701709519041],[28.478441350095707,48.96344790368042],[28.476061889089877,48.9551197901601],[28.486769463616024,48.94798140714377],[28.496287307639257,48.93608410211347],[28.51056407367406,48.93370464110737],[28.51294353467989,48.914668953060726],[28.49509757713634,48.89920245652407],[28.49509757713634,48.88016676847743],[28.517702456691463,48.8623208109329],[28.524840839708954,48.82662889584483],[28.504615421159574,48.80640347729607],[28.478441350095707,48.79807536377486],[28.479631080598622,48.75405533516736],[28.496287307639257,48.73026072510852],[28.537927875240843,48.73026072510852],[28.589086286866372,48.72074288108618],[28.611691166421494,48.70170719303954],[28.609311705415752,48.67910231348468],[28.62239874094844,48.62675417135597],[28.641434428994817,48.61009794431543],[28.641434428994817,48.58035468174148],[28.697351762632007,48.56131899369484],[28.721146372690043,48.56726764621092],[28.752079365765482,48.599390369788125],[28.79847885537944,48.61723632733265],[28.863914033039862,48.61723632733265],[28.904364870139332,48.588682795262685],[28.916262175168306,48.55656007168362],[28.91031352265382,48.53276546162576],[28.91269298365965,48.510160582070014],[28.898416217624046,48.49707354653857],[28.898416217624046,48.48041731949794],[28.931728671706026,48.461381631451296],[28.982887083331644,48.46257136195341],[29.049511991494892,48.46257136195341],[29.06259902702678,48.444725404408885],[29.04475306948332,48.430448638374436],[29.000733040875105,48.424499985861104],[28.994784388360618,48.4161718723399],[29.003112501880935,48.40070537580138],[29.02452765093314,48.39237726228204],[29.11613689965814,48.40427456731048],[29.139931509716266,48.419741063849],[29.14944935373941,48.437587021391664],[29.12684447418429,48.448294595918966],[29.13398285720169,48.4590021704444],[29.158967197762642,48.45186378742709],[29.1625363892713,48.46257136195341],[29.27199159553985,48.45543297893619],[29.270801865036933,48.47446866698283],[29.28388890056891,48.48755570251525],[29.252955907493472,48.528006539613656],[29.230114073162195,48.56375897595716],[29.22559210592598,48.57083683771816],[29.21012560938826,48.588682795262685],[29.188710460335965,48.60176983079422],[29.141121240219093,48.5922519867709],[29.119706091166886,48.595821178279905],[29.089962828593563,48.62556444085199],[29.08044498457033,48.661256355940154],[29.08282444557616,48.688620157508],[29.04237360847749,48.758814257178486],[29.036424955962204,48.78379859774033],[29.08282444557616,48.79331644176365],[29.072116871050014,48.819490512827514],[29.0709271405471,48.83019808735393],[29.106619055634198,48.820680243331495],[29.08520390658199,48.85518242791479],[29.048322260991977,48.88492569048776],[29.003112501880935,48.907530570043505],[28.97098977830258,48.911099761551625],[28.976938430817068,48.94917113764589],[29.003112501880935,48.959878712171324],[29.015009806909998,48.976534939213735],[29.048322260991977,49.00746793228882],[29.053081183003638,49.03959065586788],[29.02214818992731,49.06576472693175],[28.992404927354787,49.09312852849782],[29.00192277137802,49.121682060567785],[28.995974118863533,49.14785613163254],[28.980507622325813,49.16451235867318],[28.957902742769893,49.18949669923404],[28.940056785226343,49.19782481275524],[28.884139451589153,49.23470645834553]]]]}},{"type":"Feature","properties":{"kind":"district","id":"uyezd-1897-215","name":"Балтский","provinceId":"gubernia-1897-58"},"geometry":{"type":"MultiPolygon","coordinates":[[[[28.816004969353315,47.90340559010925],[28.833850926896865,47.89507747658902],[28.88381960801948,47.89745693759592],[28.923080714615235,47.88436990206358],[28.974239126240853,47.87604178854238],[29.006361849820006,47.83916014295299],[29.00279265831126,47.81893472440334],[28.98256723976108,47.80584768887003],[28.970669934732108,47.761827660263414],[28.96472128221762,47.74874062473099],[28.965911012720536,47.73684331970068],[28.95996236020605,47.71423844014592],[28.976618587246683,47.680925986064736],[28.986136431269827,47.63928541846235],[28.98018777875534,47.61192161689628],[28.987326161772742,47.597644850859965],[29.012310502334493,47.58455781532754],[29.024207807363467,47.56671185778488],[29.023018076860552,47.54767616973824],[29.01587969384324,47.529830212193716],[29.024207807363467,47.51674317666307],[29.046812686918678,47.50841506314195],[29.05870999194765,47.49532802761042],[29.103919751058694,47.47748207006589],[29.115817056087756,47.46677449553957],[29.106299212064524,47.453687460008034],[29.078935410497742,47.44060042447561],[29.070607296977514,47.42870311944628],[29.078935410497742,47.40847770089655],[29.131283552625476,47.379924168826584],[29.141991127152334,47.35850901977482],[29.15269870167848,47.33947333172818],[29.16578573721037,47.35375009776271],[29.153888432181397,47.393011204359006],[29.182441964251005,47.393011204359006],[29.20623657430904,47.407287970394435],[29.220513340344645,47.41561608391386],[29.231220914870793,47.4346517719605],[29.256205255431745,47.435841502463504],[29.274051212975206,47.44416961598471],[29.294276631525385,47.446549076990806],[29.31569178057759,47.469153956546464],[29.35138369566549,47.47748207006589],[29.38469614974667,47.48105126157411],[29.408490759804707,47.51436371565706],[29.41324968181628,47.53815832571492],[29.432285369863543,47.55719401376156],[29.448941596904177,47.59288592884875],[29.47392593746504,47.627388113432936],[29.48106432048253,47.65356218449689],[29.475115667967955,47.685684908075956],[29.477495128973786,47.69639248260317],[29.46559782394481,47.77253523478885],[29.497720547523876,47.7891914618294],[29.500100008529706,47.81536553289335],[29.51199731355877,47.86414448351296],[29.548878959148695,47.898646668098124],[29.5702941082017,47.91292343413257],[29.582191413230763,47.87247259703417],[29.65952389592016,47.87485205804026],[29.658334165417244,47.918872086646886],[29.680939044972366,47.91292343413257],[29.747563953135703,47.91292343413257],[29.80467101727572,47.91054397312745],[29.886762421976776,47.918872086646886],[29.912936493041354,47.909354242623564],[29.946248947122623,47.908164512121445],[30.002166280759813,47.89269801558292],[30.049755500876685,47.89150828508081],[30.08187822445504,47.90340559010925],[30.11519067853622,47.89269801558292],[30.143744210606627,47.89507747658902],[30.207989657764223,47.909354242623564],[30.271045374418726,47.91292343413257],[30.332911360570492,47.93671804419141],[30.34837785710821,47.95575373223707],[30.378121119680735,47.94504615771164],[30.411433573762714,47.93909750519653],[30.405484921248227,47.923631008659875],[30.42571033979752,47.914113164636554],[30.449504949855644,47.920061817150774],[30.505422283492745,47.90459532061323],[30.549442312100872,47.89983639860024],[30.572047191656083,47.91292343413257],[30.60060072372569,47.909354242623564],[30.63867209981933,47.914113164636554],[30.65651805736288,47.93790777469441],[30.70529700798258,47.93909750519653],[30.744558114578425,47.940287235700424],[30.774301377151748,47.931959122179215],[30.789767873689467,47.931959122179215],[30.81237275324459,47.96765103726649],[30.807613831233017,47.99977376084556],[30.820700866765705,48.01761971839008],[30.843305746320826,48.05093217247126],[30.81951113626199,48.0687781300157],[30.81713167525616,48.08900354856357],[30.81713167525616,48.11517761962931],[30.813562483747504,48.133023577172054],[30.829028980286022,48.18894091080889],[30.8552030513498,48.19607929382709],[30.867100356378863,48.23534040042338],[30.85044412933823,48.244858244446704],[30.849254398835313,48.27460150701975],[30.85758251235563,48.2912577340603],[30.85758251235563,48.30791396110094],[30.876618200402095,48.31386261361516],[30.88613604442524,48.34241614568601],[30.87304900889335,48.36383129473777],[30.85758251235563,48.372159408258085],[30.83735709380634,48.372159408258085],[30.81951113626199,48.40309240133317],[30.807613831233017,48.41498970636259],[30.829028980286022,48.41974862837559],[30.826649519280192,48.43283566390623],[30.805234370227186,48.44235350792955],[30.785008951677806,48.457820004467976],[30.762404072122685,48.472096770503406],[30.73028134854353,48.49708111106516],[30.7207635045203,48.48518380603583],[30.718384043514558,48.475665962012506],[30.677933206415087,48.474476231508525],[30.648189943842564,48.47090703999952],[30.626774794790357,48.460199465474076],[30.606549376240178,48.464958387485204],[30.561339617129935,48.4637686569822],[30.548252581598046,48.454250812958875],[30.5375450070711,48.47090703999952],[30.517319588521808,48.47090703999952],[30.503042822487004,48.48161461452673],[30.505422283492745,48.492322189053056],[30.51969904952755,48.50184003307638],[30.513750397013062,48.519685990619124],[30.507801744498575,48.54348060067876],[30.44355629734107,48.56489574972963],[30.420951417785947,48.56489574972963],[30.344808665599466,48.538721678665766],[30.286511870956446,48.518496260117004],[30.255578877880208,48.5101681465958],[30.218697232290282,48.50184003307638],[30.165159359658922,48.48875299754404],[30.130657175074738,48.475665962012506],[30.116380409039134,48.47804542301671],[30.091396068478183,48.442353507929525],[30.078309032946294,48.41617943686557],[30.06879118892306,48.368590216749936],[30.06403226691149,48.33289830166267],[30.098534451495674,48.30672423059693],[30.12708798356608,48.28055015953395],[30.116380409039134,48.2567555494752],[30.12708798356608,48.229391747908245],[30.109242026021732,48.211545790365584],[30.093775529484013,48.19132037181496],[30.091396068478183,48.137782499184134],[30.078309032946294,48.137782499184134],[30.02120196880619,48.15443872622477],[29.98788951472501,48.19369983282105],[29.986699784222093,48.213925251369815],[29.97718194019806,48.2163047123768],[29.948628408128364,48.2591350104813],[29.943869486116792,48.28173989003696],[29.924833798070416,48.285309081545165],[29.92126460656167,48.3007755780836],[29.89865972700575,48.3007755780836],[29.874865116947714,48.29839611707759],[29.864157542421566,48.31624207462212],[29.85820888990708,48.30791396110091],[29.859398620409994,48.287688542551265],[29.817758052807697,48.27698096802574],[29.770168832691624,48.27341177651575],[29.760650988667592,48.25437608847008],[29.761840719170507,48.22582255640012],[29.747563953135703,48.215114981872816],[29.705923385534117,48.204407407346494],[29.660713626423075,48.19964848533617],[29.64167793837661,48.19607929382707],[29.64643686038827,48.15205926521867],[29.650006051896927,48.137782499184134],[29.64167793837661,48.1199365416396],[29.61074494530037,48.11398788912538],[29.609555214797457,48.09019327906753],[29.558396803172727,48.09614193158175],[29.489392434003648,48.10447004510206],[29.441803213886775,48.11398788912538],[29.433475100366458,48.1246954636526],[29.343055582144284,48.123505733148704],[29.325209624600824,48.10922896711417],[29.26810256046072,48.09852139258696],[29.240738758894025,48.10565977560596],[29.205046843806127,48.10922896711417],[29.18125223374809,48.10328031459906],[29.106299212064524,48.127074924656924],[29.113437595081926,48.14849007371046],[29.081314871503572,48.14730034320657],[29.059899722450567,48.14254142119535],[29.03848457339827,48.15443872622477],[29.01350023283741,48.16038737873988],[29.007551580322833,48.15562845672689],[29.01587969384324,48.127074924656924],[29.00041319730552,48.10922896711417],[28.988515892275657,48.09852139258696],[28.961152090708964,48.09138300956964],[28.945685594171245,48.065208938505776],[28.927839636627695,48.02118890989916],[28.92664990612398,47.998584030343416],[28.909993679083346,47.967651037266464],[28.88619906902531,47.95575373223714],[28.820763891364976,47.94623588821382],[28.813625508347485,47.92957966117321],[28.816004969353315,47.90340559010925]]]]}},{"type":"Feature","properties":{"kind":"district","id":"uyezd-1897-729","name":"Каменец-Подольский","provinceId":"gubernia-1897-58"},"geometry":{"type":"MultiPolygon","coordinates":[[[[26.218871754125733,49.177683538981924],[26.226215466730423,49.1698808443389],[26.22383600572486,49.156793808807365],[26.208369509187495,49.167501383332805],[26.215507892204986,49.1199121632162],[26.22502573622804,49.10206620567354],[26.221456544719295,49.085409978632015],[26.233353849747914,49.074702404106574],[26.21788735321055,49.06756402108935],[26.202420856672386,49.06280509907627],[26.207179778684225,49.04138995002539],[26.23097438874235,49.01283641795543],[26.22502573622804,49.005698034936344],[26.19647220415799,49.005698034936344],[26.200041395666734,48.99618019091302],[26.222646275221678,48.990231538399684],[26.227405197233605,48.98190342487946],[26.215507892204986,48.97714450286638],[26.201231126170004,48.98190342487946],[26.19647220415799,48.97595477236337],[26.213128431198623,48.9557293538155],[26.22383600572486,48.916468247218326],[26.222646275221678,48.87720714062195],[26.21907708371373,48.8593611830784],[26.23216411924553,48.848653608552965],[26.23216411924553,48.83556657301965],[26.265476573326623,48.824858998494214],[26.26428684282424,48.81177196296268],[26.248820346286077,48.81177196296268],[26.26428684282424,48.79511573592116],[26.240492232765405,48.79749519692636],[26.242871693771768,48.78797735290394],[26.26309711232106,48.782028700389716],[26.26904576483537,48.765372473348194],[26.266666303829805,48.757044359826985],[26.272614956344114,48.73681894127823],[26.260717651315495,48.72016271423671],[26.265476573326623,48.70469621770005],[26.25119980729164,48.701127026190065],[26.27618414785286,48.682091338144396],[26.301168488414167,48.67376322462408],[26.301168488414167,48.65710699758256],[26.311876062940403,48.65710699758256],[26.33567067299924,48.66305565009678],[26.327342559478566,48.6416405010459],[26.351137169536692,48.63926104003892],[26.330911750987312,48.629743196015596],[26.360655013560457,48.617845890987155],[26.360655013560457,48.60594858595685],[26.367793396577948,48.59524101143141],[26.380880432109837,48.59881020294051],[26.38207016261293,48.58334370640297],[26.365413935571674,48.5857231674072],[26.359465283057276,48.57620532338388],[26.388018815127328,48.56311828785333],[26.390398276132892,48.552410713326026],[26.399916120156746,48.55122098282302],[26.404675042167874,48.57025667087055],[26.41657234719729,48.57025667087055],[26.430849113232274,48.55954909634423],[26.471299950331744,48.55716963533724],[26.46892048932538,48.546462060811805],[26.502636809464313,48.5476297488958],[26.516913575499117,48.53692217436948],[26.534759533042667,48.495281606768955],[26.560933604106534,48.48219457123565],[26.5930563276856,48.45721023067567],[26.621609859755207,48.45721023067567],[26.647783930819873,48.46315888318901],[26.64897366132279,48.48219457123565],[26.634696895287185,48.495281606768955],[26.634696895287185,48.5095583728035],[26.6430250088083,48.5095583728035],[26.65849150534602,48.505989181295284],[26.666819618866338,48.491712415258974],[26.697752611941777,48.48695349324775],[26.7274958745151,48.49290214576286],[26.731065066023756,48.510748103305616],[26.700132072947607,48.53811190487346],[26.678716923895312,48.552388670908],[26.657301774843106,48.54525028789068],[26.634696895287185,48.54406055738857],[26.632317434281354,48.55714759291912],[26.65373258333445,48.567855167446425],[26.683475845906973,48.567855167446425],[26.710839647474465,48.56190651493132],[26.7274958745151,48.54049136587858],[26.761998059099195,48.54525028789068],[26.756049406584797,48.567855167446425],[26.739393179544162,48.588080585995186],[26.738203449041247,48.602357352031504],[26.751290484573136,48.60116762152761],[26.76318778960211,48.585701124989086],[26.777464555637803,48.56309624543432],[26.78817213016386,48.5583373234231],[26.809587279216156,48.56309624543432],[26.81077700971907,48.579752472475846],[26.800069435192924,48.60592654353883],[26.797689974187094,48.63685953661479],[26.79055159116969,48.651136302649334],[26.794120782678437,48.67017199069598],[26.807207818210326,48.70110498377292],[26.813156470724813,48.720140671819564],[26.753669945578967,48.73917635986621],[26.716788299988952,48.754642856404644],[26.73225479652667,48.795093693503134],[26.746531562561476,48.81056019004156],[26.74772129306439,48.8272164170822],[26.76556725060794,48.85220075764208],[26.76080832859637,48.886702942227245],[26.74772129306439,48.911687282788996],[26.76080832859637,48.91763593530233],[26.76556725060794,48.94262027586417],[26.733444527029587,48.959276502904714],[26.723926683006443,49.0009170705071],[26.69656288143886,49.01162464503432],[26.698942342444692,49.03541925509217],[26.71440883898321,49.04731656012159],[26.735823988035417,49.07230090068157],[26.75842886759054,49.07468036168757],[26.779844016643633,49.07705982269456],[26.78579266915803,49.06278305665825],[26.811966740221898,49.04136790760639],[26.889299222911294,49.01757329754764],[26.898817066934527,49.050885751628826],[26.851227846818453,49.07349063118546],[26.83933054178868,49.124649042810276],[26.76080832859637,49.12583877331417],[26.715598569486037,49.1424950003548],[26.738203449041247,49.16866907141867],[26.70727045596581,49.1793766459441],[26.68704503741563,49.14725392236504],[26.628748242772698,49.15796149689234],[26.639455817299645,49.1793766459441],[26.58710767517111,49.20793017801407],[26.534759533042667,49.201981525499846],[26.534759533042667,49.182945837453204],[26.52405195851652,49.17104853242476],[26.50382653996723,49.16153068840144],[26.48360112141705,49.17818691544199],[26.463375702867758,49.19722260348863],[26.428873518283662,49.20793017801407],[26.402699447218996,49.20436098650586],[26.374145915149388,49.210309639021055],[26.34083346106723,49.203171256001966],[26.337264269558574,49.182945837453204],[26.308710737488965,49.180566376448084],[26.283726396927214,49.146064191862926],[26.256362595360432,49.16747934091469],[26.218871754125733,49.177683538981924]]]]}},{"type":"Feature","properties":{"kind":"district","id":"uyezd-1897-730","name":"Ушицкий","provinceId":"gubernia-1897-58"},"geometry":{"type":"MultiPolygon","coordinates":[[[[26.83933054178868,49.124649042810276],[26.851227846818453,49.07349063118546],[26.898817066934527,49.050885751628826],[26.889299222911294,49.01757329754764],[26.811966740221898,49.04136790760639],[26.78579266915803,49.06278305665825],[26.779844016643633,49.07705982269456],[26.75842886759054,49.07468036168757],[26.735823988035417,49.07230090068157],[26.71440883898321,49.04731656012159],[26.698942342444692,49.03541925509217],[26.69656288143886,49.01162464503432],[26.723926683006443,49.0009170705071],[26.733444527029587,48.959276502904714],[26.76556725060794,48.94262027586417],[26.76080832859637,48.91763593530233],[26.74772129306439,48.911687282788996],[26.76080832859637,48.886702942227245],[26.76556725060794,48.85220075764208],[26.74772129306439,48.8272164170822],[26.746531562561476,48.81056019004156],[26.73225479652667,48.795093693503134],[26.716788299988952,48.754642856404644],[26.753669945578967,48.73917635986621],[26.813156470724813,48.720140671819564],[26.807207818210326,48.70110498377292],[26.794120782678437,48.67017199069598],[26.79055159116969,48.651136302649334],[26.797689974187094,48.63685953661479],[26.800069435192924,48.60592654353883],[26.83225091089535,48.6226562107349],[26.84057902441558,48.6178972887228],[26.838199563409837,48.59767187017316],[26.84295848542141,48.58339510413773],[26.85842498195913,48.57387726011441],[26.876270939502678,48.55365184156467],[26.900065549561514,48.55008265005655],[26.92148069861372,48.559600494079874],[26.932188273139868,48.5774464516244],[26.955982883198615,48.58696429564772],[26.989295337279973,48.58220537363562],[26.9976234508002,48.59648213967104],[27.009520755829264,48.59410267866494],[27.01308994733792,48.578636182126516],[27.052351053934476,48.566738877097094],[27.07138674198094,48.572687529611315],[27.123734884109385,48.566738877097094],[27.15109868567608,48.575066990618296],[27.166565182214597,48.59410267866494],[27.195118714284295,48.59529240916706],[27.20701601931327,48.57387726011441],[27.25698470043597,48.57387726011441],[27.26769227496212,48.579825912630405],[27.26769227496212,48.59886160067616],[27.240328473395337,48.6178972887228],[27.243897664904082,48.630984324254335],[27.278399849488178,48.639312437775544],[27.309332842564416,48.626225402244],[27.31052257306733,48.61075890570558],[27.327178800107966,48.60718971419736],[27.355732332177663,48.61670755822068],[27.355732332177663,48.642881629284645],[27.37714748123058,48.648830281797885],[27.393803708271303,48.67143516135461],[27.411649665814764,48.69404004091026],[27.465187538446212,48.67976327487395],[27.52467406359206,48.68452219688694],[27.57583247521679,48.69760923241847],[27.61866277332209,48.74400872203208],[27.604386007287285,48.7559060270614],[27.563935170187815,48.74043953052386],[27.535381638118206,48.74519845253419],[27.535381638118206,48.77613144561114],[27.52467406359206,48.81896174371555],[27.497310262024477,48.86417150282615],[27.512776758562197,48.90343260942244],[27.499689723030308,48.9272272194803],[27.47589511297227,48.9379347940076],[27.459238885931637,48.954591021048145],[27.423546970843827,48.95102182953993],[27.408080474306107,48.964108865071466],[27.406890743803192,48.99742131915265],[27.441392928387376,48.99861104965654],[27.467566999451954,49.01645700719929],[27.467566999451954,49.04144134776104],[27.509471951610188,49.062988689091966],[27.49638491607821,49.07369626361829],[27.469021114510717,49.07369626361829],[27.4178627028859,49.08083464663471],[27.3690837522662,49.079644916132594],[27.319115071143496,49.05822976707986],[27.284612886559312,49.05822976707986],[27.285802617062227,49.07488599412049],[27.26438746800922,49.07488599412049],[27.247731240968587,49.06893734160529],[27.22869555292221,49.07607572462261],[27.197762559845973,49.07012707210927],[27.177537141296593,49.07488599412049],[27.16088091425596,49.04157354003931],[27.095445736595625,49.03086596551201],[27.08354843156665,49.05941949758197],[27.05380516899324,49.07012707210927],[27.00026729636268,49.08559356864593],[26.978852147309674,49.07131680261139],[26.941970501719748,49.07845518562861],[26.91103750864342,49.12485467524222],[26.83933054178868,49.124649042810276]]]]}},{"type":"Feature","properties":{"kind":"district","id":"uyezd-1897-731","name":"Ольгопольский","provinceId":"gubernia-1897-58"},"geometry":{"type":"MultiPolygon","coordinates":[[[[28.931728671706026,48.461381631451296],[28.879060686007907,48.46257892648006],[28.826712543879374,48.459009734970074],[28.820763891364976,48.416179436865576],[28.767226018733528,48.400712940328916],[28.755328713704554,48.401902670831035],[28.733913564652347,48.401902670831035],[28.695842188558707,48.401902670831035],[28.670857847997755,48.411420514854356],[28.655391351460036,48.44116377742741],[28.567351294243693,48.41261024535656],[28.57805886877064,48.3840567132866],[28.530469648653767,48.37929779127538],[28.547125875694313,48.36621075574385],[28.485259889542725,48.334088032164786],[28.48407015903981,48.28649881204906],[28.52214153513345,48.27341177651576],[28.543556684185656,48.237719861429454],[28.539987492677,48.222253364891024],[28.551884797705974,48.21987390388493],[28.549505336700143,48.20916632935949],[28.534038840162424,48.207976598855595],[28.516192882618874,48.19013064131285],[28.50667503859573,48.16633603125321],[28.48882908105138,48.17109495326532],[28.47931123702815,48.1651463007511],[28.480500967531064,48.153248995722564],[28.49477773356587,48.14849007371046],[28.48882908105138,48.13421330767592],[28.50667503859573,48.133023577172025],[28.531659379156594,48.129454385662925],[28.551884797705974,48.1199365416396],[28.567351294243693,48.11874681113749],[28.603043209331503,48.10803923661028],[28.61137132285182,48.09257274007362],[28.584007521285127,48.08186516554632],[28.581628060279296,48.09138300956964],[28.566161563740778,48.09257274007362],[28.559023180723376,48.077106243535106],[28.549505336700143,48.05807055548846],[28.53522857066534,48.060450016494556],[28.518572343624705,48.05807055548846],[28.516192882618874,48.04498351995604],[28.495967464068784,48.03308621492671],[28.5042955775891,48.0259478319094],[28.53522857066534,48.005722413360644],[28.547125875694313,48.01642998788608],[28.55307452820889,48.04260405895003],[28.562592372232032,48.052121902973354],[28.579248599273555,48.052121902973354],[28.603043209331503,48.046173250459134],[28.653011890454206,48.046173250459134],[28.674427039506412,48.03308621492671],[28.66966811749484,48.01405052688007],[28.69822164956445,47.995014838834315],[28.733913564652347,47.98192780330278],[28.747000600184236,47.99025591682221],[28.7660362882307,47.99025591682221],[28.780313054265505,47.98192780330278],[28.795779550804024,47.96170238475224],[28.8148152388504,47.95575373223714],[28.820763891364976,47.94623588821382],[28.88619906902531,47.95575373223714],[28.909993679083346,47.967651037266464],[28.92664990612398,47.998584030343416],[28.927839636627695,48.02118890989916],[28.945685594171245,48.065208938505776],[28.961152090708964,48.09138300956964],[28.988515892275657,48.09852139258696],[29.00041319730552,48.10922896711417],[29.01587969384324,48.127074924656924],[29.007551580322833,48.15562845672689],[29.01350023283741,48.16038737873988],[29.03848457339827,48.15443872622477],[29.059899722450567,48.14254142119535],[29.081314871503572,48.14730034320657],[29.113437595081926,48.14849007371046],[29.106299212064524,48.127074924656924],[29.18125223374809,48.10328031459906],[29.205046843806127,48.10922896711417],[29.240738758894025,48.10565977560596],[29.26810256046072,48.09852139258696],[29.325209624600824,48.10922896711417],[29.343055582144284,48.123505733148704],[29.433475100366458,48.1246954636526],[29.441803213886775,48.11398788912538],[29.489392434003648,48.10447004510206],[29.558396803172727,48.09614193158175],[29.609555214797457,48.09019327906753],[29.61074494530037,48.11398788912538],[29.64167793837661,48.1199365416396],[29.650006051896927,48.137782499184134],[29.64643686038827,48.15205926521867],[29.64167793837661,48.19607929382707],[29.660713626423075,48.19964848533617],[29.705923385534117,48.204407407346494],[29.747563953135703,48.215114981872816],[29.761840719170507,48.22582255640012],[29.760650988667592,48.25437608847008],[29.770168832691624,48.27341177651575],[29.817758052807697,48.27698096802574],[29.859398620409994,48.287688542551265],[29.85820888990708,48.30791396110091],[29.864157542421566,48.31624207462212],[29.86058835091291,48.32813937964967],[29.843932123872275,48.33765722367299],[29.818947783310524,48.33527776266876],[29.801101825767063,48.33884695417689],[29.792773712246746,48.359072372726615],[29.76897910218871,48.37334913876116],[29.73804610911247,48.38167725228227],[29.723769343077578,48.38762590479658],[29.723769343077578,48.40309240133324],[29.73804610911247,48.41142051485444],[29.736856378609556,48.42212808937988],[29.70830284653986,48.451871351952846],[29.667852009440477,48.47804542301858],[29.66428281793173,48.49113245854913],[29.633349824856293,48.49589138056124],[29.582191413230763,48.49946057207034],[29.541740576131293,48.50540922458456],[29.517945966073256,48.512547607601874],[29.441803213886775,48.50778868558977],[29.408490759804707,48.510168146595774],[29.391834532764072,48.52444491263209],[29.36685019220321,48.53872167866574],[29.345435043150115,48.54823952268906],[29.33115827711531,48.55894709721539],[29.307363667057274,48.55894709721539],[29.271671751969464,48.55894709721539],[29.230114073162195,48.56375897595716],[29.252955907493472,48.528006539613656],[29.28388890056891,48.48755570251525],[29.270801865036933,48.47446866698283],[29.27199159553985,48.45543297893619],[29.1625363892713,48.46257136195341],[29.158967197762642,48.45186378742709],[29.13398285720169,48.4590021704444],[29.12684447418429,48.448294595918966],[29.14944935373941,48.437587021391664],[29.139931509716266,48.419741063849],[29.11613689965814,48.40427456731048],[29.02452765093314,48.39237726228204],[29.003112501880935,48.40070537580138],[28.994784388360618,48.4161718723399],[29.000733040875105,48.424499985861104],[29.04475306948332,48.430448638374436],[29.06259902702678,48.444725404408885],[29.049511991494892,48.46257136195341],[28.982887083331644,48.46257136195341],[28.931728671706026,48.461381631451296]]]]}},{"type":"Feature","properties":{"kind":"district","id":"uyezd-1897-732","name":"Ямпольский","provinceId":"gubernia-1897-58"},"geometry":{"type":"MultiPolygon","coordinates":[[[[28.476061889089877,48.9551197901601],[28.440369974002067,48.964637634184314],[28.42371374696152,48.97653493921373],[28.379693718353305,48.98962197474428],[28.37612452684456,48.99438089675639],[28.32972503723069,48.9991398187676],[28.29998177465808,48.98843224424128],[28.26666932057681,48.98843224424128],[28.211941717442624,48.98486305273307],[28.198854681910646,48.971776017200646],[28.196475220904816,48.94917113764588],[28.204803334425133,48.93489437161134],[28.19766495140773,48.931325180101354],[28.179818993863382,48.940843024124675],[28.15245519229669,48.947981407143764],[28.131040043244482,48.928945719096234],[28.14174761777063,48.92180733607803],[28.142937348273545,48.90872030054739],[28.125091390729906,48.91466895306072],[28.109624894191388,48.9051511090374],[28.087020014636355,48.9122894920556],[28.07274324860155,48.90396137853439],[28.048948638542715,48.9158586835647],[28.044189716531054,48.92537652758802],[28.010877262449785,48.928945719096234],[27.979944269373547,48.928945719096234],[27.94306262378362,48.92537652758802],[27.943459200618193,48.91176072294368],[27.973202463190717,48.88796611288396],[27.966064080173314,48.88439692137584],[27.92918243458259,48.89391476539916],[27.930372165085505,48.87963799936462],[27.955356505647256,48.83918716226435],[27.98034084620812,48.84037689276833],[28.001755995260414,48.83442824025403],[28.04339656286271,48.83680770126012],[28.075519286441065,48.83918716226435],[28.118349584546277,48.81420282170438],[28.123108506557937,48.791597942147746],[28.15047230812543,48.768993062593864],[28.17069772667481,48.7404395305239],[28.199251258744418,48.733301147506594],[28.218286946791594,48.71069626795085],[28.23732263483806,48.707127076440855],[28.23970209584389,48.696419501914534],[28.226615060312,48.6940400409103],[28.24446101785546,48.66667623934245],[28.21114856377348,48.66429677833636],[28.180215570698042,48.66429677833636],[28.159990152148662,48.698798962920634],[28.107642010020218,48.704747615435735],[28.054104137388858,48.695229771412414],[28.068380903423662,48.65953785632523],[28.03387871883948,48.64645082079281],[28.019601952804674,48.63574324626737],[28.021981413810504,48.616707558220725],[28.048155484874282,48.577446451624354],[28.067191172920747,48.53342642301595],[28.02555060531925,48.49892423843089],[28.00294572576324,48.50725235195209],[27.98034084620812,48.52033938748353],[27.9648743496704,48.51677019597541],[27.94940785313268,48.50725235195209],[27.942269470115278,48.48940639440757],[27.95178731413851,48.470370706361805],[27.942269470115278,48.44776582680696],[27.948218122629765,48.40969445071278],[27.948218122629765,48.37757172713371],[27.950597583635595,48.35853603908707],[27.944648931121108,48.33950035104043],[27.97010658178064,48.33289830166267],[28.011747149382227,48.33646749317088],[28.034352028938237,48.33527776266877],[28.068854213522332,48.32813937964967],[28.080751518551395,48.3007755780836],[28.071233674528074,48.27222204601275],[28.070043944025247,48.25318635796611],[28.092648823581168,48.237719861429454],[28.12834073866818,48.26032474098342],[28.134289391182755,48.27460150701974],[28.169981306270564,48.26032474098342],[28.17117103677348,48.24366851394279],[28.180688880796623,48.23058147841125],[28.19139645532277,48.2127355208677],[28.215191065380807,48.216304712376804],[28.24493432795422,48.225822556400125],[28.28062624304123,48.242478783440674],[28.297282470082664,48.25675554947521],[28.309179775111637,48.24485824444677],[28.31869761913487,48.249617166457895],[28.327025732655187,48.26032474098342],[28.35438953422188,48.240099322434574],[28.346061420701652,48.2127355208677],[28.317507888631955,48.19251010231895],[28.299661931088494,48.177043605780426],[28.29847220058558,48.162766839745004],[28.29371327857312,48.152059265218675],[28.29847220058558,48.142541421195354],[28.327025732655187,48.14135169069324],[28.346061420701652,48.15681818722989],[28.35438953422188,48.179423066786526],[28.368666300257573,48.19013064131285],[28.39246091031552,48.19369983282106],[28.41506578987073,48.18775118030587],[28.41506578987073,48.15681818722989],[28.403168484841668,48.14373115169924],[28.40792740685324,48.127074924656924],[28.419824711882303,48.11517761962928],[28.44123986093531,48.09138300956965],[28.459085818478858,48.090193279067535],[28.48407015903981,48.079485704541206],[28.480500967531064,48.10684950610808],[28.47693177602232,48.12588519415472],[28.48882908105138,48.13421330767592],[28.49477773356587,48.14849007371046],[28.480500967531064,48.153248995722564],[28.47931123702815,48.1651463007511],[28.48882908105138,48.17109495326532],[28.50667503859573,48.16633603125321],[28.516192882618874,48.19013064131285],[28.534038840162424,48.207976598855595],[28.549505336700143,48.20916632935949],[28.551884797705974,48.21987390388493],[28.539987492677,48.222253364891024],[28.543556684185656,48.237719861429454],[28.52214153513345,48.27341177651576],[28.48407015903981,48.28649881204906],[28.485259889542725,48.334088032164786],[28.547125875694313,48.36621075574385],[28.530469648653767,48.37929779127538],[28.57805886877064,48.3840567132866],[28.567351294243693,48.41261024535656],[28.655391351460036,48.44116377742741],[28.670857847997755,48.411420514854356],[28.695842188558707,48.401902670831035],[28.733913564652347,48.401902670831035],[28.755328713704554,48.401902670831035],[28.767226018733528,48.400712940328916],[28.820763891364976,48.416179436865576],[28.826712543879374,48.459009734970074],[28.879060686007907,48.46257892648006],[28.931728671706026,48.461381631451296],[28.898416217624046,48.48041731949794],[28.898416217624046,48.49707354653857],[28.91269298365965,48.510160582070014],[28.91031352265382,48.53276546162576],[28.916262175168306,48.55656007168362],[28.904364870139332,48.588682795262685],[28.863914033039862,48.61723632733265],[28.79847885537944,48.61723632733265],[28.752079365765482,48.599390369788125],[28.721146372690043,48.56726764621092],[28.697351762632007,48.56131899369484],[28.641434428994817,48.58035468174148],[28.641434428994817,48.61009794431543],[28.62239874094844,48.62675417135597],[28.609311705415752,48.67910231348468],[28.611691166421494,48.70170719303954],[28.589086286866372,48.72074288108618],[28.537927875240843,48.73026072510852],[28.496287307639257,48.73026072510852],[28.479631080598622,48.75405533516736],[28.478441350095707,48.79807536377486],[28.504615421159574,48.80640347729607],[28.524840839708954,48.82662889584483],[28.517702456691463,48.8623208109329],[28.49509757713634,48.88016676847743],[28.49509757713634,48.89920245652407],[28.51294353467989,48.914668953060726],[28.51056407367406,48.93370464110737],[28.496287307639257,48.93608410211347],[28.486769463616024,48.94798140714377],[28.476061889089877,48.9551197901601]]]]}},{"type":"Feature","properties":{"kind":"district","id":"uyezd-1897-733","name":"Гайсинский","provinceId":"gubernia-1897-58"},"geometry":{"type":"MultiPolygon","coordinates":[[[[29.864157542421566,48.31624207462212],[29.874865116947714,48.29839611707759],[29.89865972700575,48.3007755780836],[29.92126460656167,48.3007755780836],[29.924833798070416,48.285309081545165],[29.943869486116792,48.28173989003696],[29.948628408128364,48.2591350104813],[29.97718194019806,48.2163047123768],[29.986699784222093,48.213925251369815],[29.98788951472501,48.19369983282105],[30.02120196880619,48.15443872622477],[30.078309032946294,48.137782499184134],[30.091396068478183,48.137782499184134],[30.093775529484013,48.19132037181496],[30.109242026021732,48.211545790365584],[30.12708798356608,48.229391747908245],[30.116380409039134,48.2567555494752],[30.12708798356608,48.28055015953395],[30.098534451495674,48.30672423059693],[30.06403226691149,48.33289830166267],[30.06879118892306,48.368590216749936],[30.078309032946294,48.41617943686557],[30.091396068478183,48.442353507929525],[30.116380409039134,48.47804542301671],[30.03309927383525,48.52444491263209],[29.97242301818649,48.55656763621027],[29.895090535497005,48.594639012302665],[29.8808137694622,48.663643381472895],[29.835604010351158,48.681489339015556],[29.798722364761232,48.79689319779939],[29.84274239336945,48.85518999244233],[29.846311584878105,48.87422568048897],[29.782066137720598,48.91705597859347],[29.734476917603725,48.91943543959859],[29.65714443491433,48.93133274462801],[29.634539555359208,48.94085058865133],[29.64405739938244,48.96464519870919],[29.67974931446945,49.007475496815466],[29.67261093145205,49.053874986429065],[29.689267158492683,49.07529013548172],[29.633349824856293,49.08718744051025],[29.597657909768483,49.04554687290786],[29.592898987756822,49.01580361033481],[29.517945966073256,49.00271657480336],[29.510807583055854,48.96464519870919],[29.490582164506563,48.95869654619585],[29.46321836293898,48.932522475131904],[29.44537240539543,48.93609166663923],[29.426336717349056,48.94085058865133],[29.426336717349056,48.92062517010257],[29.41800860382874,48.896830560042844],[29.27048202146655,48.90515867356405],[29.15864735419297,48.92657382261591],[29.14556031866108,48.93966085814921],[29.14556031866108,48.96464519870919],[29.11224786457901,48.984870617258835],[29.07417648848617,48.98606034776273],[29.048322260991977,49.00746793228882],[29.015009806909998,48.976534939213735],[29.003112501880935,48.959878712171324],[28.976938430817068,48.94917113764589],[28.97098977830258,48.911099761551625],[29.003112501880935,48.907530570043505],[29.048322260991977,48.88492569048776],[29.08520390658199,48.85518242791479],[29.106619055634198,48.820680243331495],[29.0709271405471,48.83019808735393],[29.072116871050014,48.819490512827514],[29.08282444557616,48.79331644176365],[29.036424955962204,48.78379859774033],[29.04237360847749,48.758814257178486],[29.08282444557616,48.688620157508],[29.08044498457033,48.661256355940154],[29.089962828593563,48.62556444085199],[29.119706091166886,48.595821178279905],[29.141121240219093,48.5922519867709],[29.188710460335965,48.60176983079422],[29.21012560938826,48.588682795262685],[29.22559210592598,48.57083683771816],[29.230114073162195,48.56375897595716],[29.271671751969464,48.55894709721539],[29.307363667057274,48.55894709721539],[29.33115827711531,48.55894709721539],[29.345435043150115,48.54823952268906],[29.36685019220321,48.53872167866574],[29.391834532764072,48.52444491263209],[29.408490759804707,48.510168146595774],[29.441803213886775,48.50778868558977],[29.517945966073256,48.512547607601874],[29.541740576131293,48.50540922458456],[29.582191413230763,48.49946057207034],[29.633349824856293,48.49589138056124],[29.66428281793173,48.49113245854913],[29.667852009440477,48.47804542301858],[29.70830284653986,48.451871351952846],[29.736856378609556,48.42212808937988],[29.73804610911247,48.41142051485444],[29.723769343077578,48.40309240133324],[29.723769343077578,48.38762590479658],[29.73804610911247,48.38167725228227],[29.76897910218871,48.37334913876116],[29.792773712246746,48.359072372726615],[29.801101825767063,48.33884695417689],[29.818947783310524,48.33527776266876],[29.843932123872275,48.33765722367299],[29.86058835091291,48.32813937964967],[29.864157542421566,48.31624207462212]]]]}}]}
