{"type":"FeatureCollection","features":[{"type":"Feature","properties":{"kind":"province","id":"gubernia-1897-7","name":"Екатеринославская губерния"},"geometry":{"type":"MultiPolygon","coordinates":[[[[33.948255925725576,47.6781763702856],[33.93754835119934,47.687694214308024],[33.933979159690594,47.71386828537287],[33.91494347164369,47.72695532090432],[33.93635862069616,47.72338612939531],[33.949445656228676,47.72219639889221],[33.960153230755,47.72814505140652],[33.95063538673114,47.756698583476485],[33.94587646471993,47.78525211554645],[33.987517032321776,47.8090467256052],[34.02201921690605,47.80071861208488],[34.052952209982465,47.78287265454124],[34.06484951501109,47.781682924038236],[34.0636597845087,47.82332349164062],[34.07436735903494,47.842359179686376],[34.09578250808741,47.844738640692384],[34.12314630965429,47.851877023710585],[34.133853884180525,47.845928371196365],[34.136233345186085,47.86972298125511],[34.143371728203576,47.90660462684531],[34.155269033233,47.94110681142958],[34.136233345186085,47.95062465545192],[34.14456145870676,47.97203980450466],[34.148130650215236,48.001783067077625],[34.08864412506992,48.01130091110184],[34.05533167098794,48.022008485627275],[33.99227595433371,48.005352258585845],[33.90066670560942,47.99702414506641],[33.799539612861274,47.98869603154618],[33.765037428277,47.9446760029377],[33.68889467609007,47.930399236902275],[33.57111135630139,47.933968428412264],[33.48307129908575,47.9434862724347],[33.46284588053655,47.93634788941836],[33.44143073148399,47.90898408785051],[33.39622097237268,47.90779435734839],[33.351011213262,47.911363548857054],[33.35559387890282,47.93038454887113],[33.36511172292606,47.98749161301203],[33.318712233312894,47.98987107401804],[33.27469220470477,47.99344026552714],[33.271123013196025,48.00295810955046],[33.288968970739575,48.0196143365911],[33.27945112671634,48.04221921614587],[33.225913254084986,48.03389110262653],[33.21282621855309,48.03746029413376],[33.2056878355356,48.088618705759465],[33.2485181336409,48.096946819280674],[33.280640857219254,48.096946819280674],[33.29610735375698,48.102895471794],[33.304435467278005,48.11717223782943],[33.32228142482164,48.12431062084666],[33.318712233312894,48.13858738688306],[33.337747921359366,48.13977711738517],[33.35678360940574,48.1469155004024],[33.35321441789708,48.158812805431815],[33.35440414839999,48.168330649455136],[33.37225010594426,48.16476145794692],[33.38176794996749,48.168330649455136],[33.382957680470405,48.187366337500805],[33.378198758458744,48.20283283403932],[33.371060375441346,48.20640202554745],[33.35559387890282,48.22781717460018],[33.35678360940574,48.242093940636494],[33.34369657387385,48.24328367113861],[33.324660885827385,48.27302693371167],[33.35916307041157,48.27302693371167],[33.371060375441346,48.2884934302501],[33.39366525499655,48.328944267348504],[33.40556256002553,48.35035941640125],[33.40556256002553,48.36225672142969],[33.41389067354584,48.36939510444789],[33.40794202103136,48.38010267897421],[33.41151121254001,48.39199998400363],[33.39366525499655,48.39199998400363],[33.378198758458744,48.38724106199055],[33.342506843370934,48.38486160098631],[33.337747921359366,48.413415133055395],[33.34369657387385,48.540716296866776],[33.396044716002294,48.54309575787279],[33.39723444650521,48.53238818334735],[33.41983932606033,48.53238818334735],[33.47932585120627,48.557372523909194],[33.54238156786077,48.55856225441131],[33.59235024898347,48.58949524748639],[33.5804529439537,48.648981772633306],[33.54357129836369,48.635894737100884],[33.51263830528825,48.644222850620224],[33.50431019176713,48.67039692168595],[33.49836153925264,48.795318624491244],[33.600678362503785,48.804836468514566],[33.609006476024106,48.82030296505309],[33.59116051848056,48.87384083768302],[33.564986447415976,49.014229037029054],[33.60513427587772,49.00836089668332],[33.652723495994586,48.99051493913879],[33.703881907620115,48.97385871209825],[33.75741978025067,48.96077167656583],[33.79549115634431,48.94768464103429],[33.83832145444882,48.936977066507964],[33.86925444752505,48.92389003097652],[33.89106617341183,48.905383112041754],[33.95769108157517,48.888726885001205],[34.025505720241334,48.86493227494157],[34.081423053878524,48.84827604790094],[34.10878685544522,48.82805062935218],[34.11235604695396,48.80306628879043],[34.14447877053303,48.78284087024078],[34.198016643163676,48.78046140923469],[34.240846941268885,48.76618464320015],[34.28248750887059,48.745959224651415],[34.31817942395837,48.78284087024078],[34.33959457301049,48.80663548029855],[34.371717296589644,48.823291707340964],[34.42168597771155,48.83518901236852],[34.42882436072975,48.85660416142214],[34.447860048776214,48.85898362242824],[34.45261897078778,48.89348580701154],[34.47522385034291,48.93036745260173],[34.52638226196852,48.898244729024526],[34.5525563330323,48.9244188000884],[34.49306980788646,48.968438828695014],[34.484741694366136,48.981525864227436],[34.48117250285739,49.0160280488126],[34.47879304185165,49.03149454535102],[34.489500616377796,49.056478885911005],[34.482362233360305,49.06837619094042],[34.495449268893,49.08622214848397],[34.49663899939591,49.11001675854271],[34.525192531465606,49.09811945351339],[34.56564336856499,49.11715514156003],[34.58110986510271,49.120724333068154],[34.59776609214343,49.10525783653061],[34.631078546224614,49.051719963899785],[34.65487315628345,49.054099424904905],[34.665580730809594,49.06004807742099],[34.64178612075156,49.09930918401728],[34.61442231918407,49.136190829606676],[34.654740964005526,49.145444289073524],[34.684484226578135,49.151392941587744],[34.71422748915066,49.156151863600826],[34.74753994323264,49.16804916862927],[34.73802209920941,49.17875674315657],[34.78442158882265,49.18589512617379],[34.79037024133714,49.17875674315657],[34.80702646837849,49.18589512617379],[34.803457276869835,49.19541297019711],[34.82130323441338,49.20136162271045],[34.84033892245985,49.19660270069923],[34.86532326302151,49.19422323969322],[34.86532326302151,49.18351566516681],[34.847477305477156,49.158531324605946],[34.849856766482986,49.10737291298113],[34.84152865296267,49.064542614876714],[34.86175407151276,49.02647123878343],[34.88197949006214,49.015763664257015],[34.90577410012018,49.03123016079367],[34.874841107044745,49.064542614876714],[34.871271915536,49.11451129599844],[34.870082185033084,49.144254558571404],[34.88435895106797,49.156151863600826],[34.90101517810852,49.17875674315657],[34.91767140514915,49.19660270069923],[34.9355173626935,49.20136162271045],[34.961691433757366,49.18946431768201],[34.97239900828343,49.17518755164747],[34.97715793029509,49.160910785612046],[35.0057114623655,49.157341594102945],[35.02950607242353,49.17161836013748],[35.04854176047,49.1811362041608],[35.064008257007714,49.17637728215047],[35.06519798751063,49.164479977120166],[35.087802867066465,49.158531324605946],[35.104459094107185,49.16685943812627],[35.11516666863325,49.16804916862927],[35.11516666863325,49.158531324605946],[35.14253047020074,49.164479977120166],[35.17227373277335,49.16566970762415],[35.19606834283139,49.15972105510993],[35.19249915132264,49.154962133096845],[35.17465319377918,49.151392941587744],[35.17108400227043,49.144254558571404],[35.18655049880816,49.14187509756442],[35.20558618685462,49.14187509756442],[35.219862952890225,49.13711617555418],[35.19606834283139,49.12997779253687],[35.17465319377918,49.12521887052388],[35.19249915132264,49.11689075700356],[35.24722675445692,49.11451129599844],[35.2603137899889,49.10380372147114],[35.28767759155639,49.10499345197512],[35.29838516608245,49.09666533845392],[35.29719543557953,49.08000911141337],[35.32812842865506,49.07049126739005],[35.35549223022255,49.05026584884031],[35.38642522329799,49.02885069978766],[35.41735821637343,49.01933285576434],[35.443532287438096,49.001486898221586],[35.47327555001062,48.984830671181044],[35.48874204654834,48.97531282715772],[35.50182908208103,48.97888201866584],[35.51967503962457,48.97769228816373],[35.56488479873562,48.97769228816373],[35.57797183426751,48.98958959319128],[35.61723294086326,48.98721013218705],[35.62794051538941,48.97293336615074],[35.64102755092219,48.98126147967194],[35.69337569304983,48.97888201866584],[35.687427040535255,48.96103606112132],[35.701703806570066,48.95508740860808],[35.71598057260576,48.97174363564862],[35.73144706914347,48.97174363564862],[35.75524167920151,48.96341552212742],[35.78141575026609,48.96103606112132],[35.78141575026609,48.93724145106355],[35.796882246803804,48.934861990057456],[35.804020629821295,48.94913875609288],[35.825435778873505,48.9538976781041],[35.85517904144683,48.9538976781041],[35.88016338200778,48.97293336615074],[35.930132063130394,48.98007174916796],[35.92061421910725,48.995538245706484],[35.93370125463914,49.006245820233715],[35.95226679665568,49.012883778153046],[35.97606140671371,49.012883778153046],[35.97249221520505,48.9950378206095],[36.018891704818216,48.983140515581944],[36.03673766236247,48.992658359605265],[36.0391171233683,49.00455566463282],[36.05815281141477,49.00455566463282],[36.073619307952484,49.02002216117125],[36.07123984694665,49.03191946619969],[36.087896073987295,49.03905784921878],[36.10336257052581,49.05452434575543],[36.12239825857219,49.056903806761525],[36.1378647551099,49.07237030329996],[36.14857232963605,49.071180572796955],[36.153331251647714,49.08069841681939],[36.168797748186144,49.07831895581418],[36.230663734337824,49.0937854523527],[36.237802117355315,49.10687248788512],[36.26992484093358,49.10806221838723],[36.26397618841909,49.12114925391868],[36.28896052898004,49.12233898442177],[36.28301187646555,49.15208224699563],[36.2508891528872,49.159220630012854],[36.28658106797421,49.173497396047395],[36.37581085569347,49.20443038912345],[36.39008762172827,49.19729200610525],[36.394846543739845,49.18658443157892],[36.386518430219525,49.168738474036175],[36.386518430219525,49.155651438502865],[36.3781903166993,49.144943863978405],[36.41745142329496,49.12947736743989],[36.44362549435964,49.13304655894899],[36.46504064341184,49.12233898442177],[36.48526606196113,49.13066709794289],[36.49835309749311,49.13066709794289],[36.501922289001854,49.11876979291267],[36.53642447358675,49.11639033190844],[36.54237312610124,49.0973546438618],[36.581634232697965,49.09854437436391],[36.60430315471598,49.09948207006713],[36.622149112260146,49.055462041458654],[36.653082105335585,48.984078211285166],[36.66854860187331,48.92816087764735],[36.682825367908464,48.910314920103716],[36.685204828914294,48.87105381350831],[36.66735887137084,48.84844893395257],[36.64237453080935,48.825844054396825],[36.6566512968446,48.813946749367496],[36.67806644589699,48.81156728836228],[36.713758360984706,48.79491106132174],[36.76253731160432,48.77825483428022],[36.735173510037086,48.743752649695146],[36.70543024746421,48.70449154309877],[36.728589954632426,48.6975436309494],[36.72922485752234,48.69735316008243],[36.76491677261006,48.68664558555611],[36.78633192166244,48.69140450756733],[36.78633192166244,48.69973262108853],[36.81369572322967,48.70092235159065],[36.82797248926411,48.69735316008243],[36.847008177310755,48.70568127360186],[36.89816658893611,48.71044019561485],[36.92077146849185,48.69616342957854],[36.95408392257295,48.69021477706432],[36.993345029169674,48.69378396857245],[37.036175327274535,48.68545585505311],[37.0623493983384,48.679507202537906],[37.080195355882665,48.64619474845584],[37.12064619298178,48.62240013839896],[37.13611268951949,48.600984989346216],[37.14800999454812,48.59503633683111],[37.16942514360059,48.53792927269207],[37.17180460460713,48.516514123638444],[37.20511705868822,48.520083315147545],[37.238429512770196,48.53911900319419],[37.28244954137753,48.55458549973173],[37.37286905959961,48.56291361325293],[37.385956095131505,48.57124172677227],[37.40261232217249,48.566482804761144],[37.41450962720111,48.581949301298685],[37.42878639323636,48.585518492808674],[37.43830423726013,48.57838010979047],[37.45852965580933,48.57362118777925],[37.464478308324075,48.581949301298685],[37.465668038826465,48.61645148588376],[37.48946264888548,48.62240013839896],[37.498980492908444,48.64738447895982],[37.51206752844042,48.668799628011584],[37.521585372464095,48.68545585505311],[37.5334826774928,48.68664558555611],[37.54062106051083,48.70211208209365],[37.53943133000756,48.70925046511185],[37.52753402497805,48.71400938712307],[37.52991348598459,48.728286153157605],[37.52872375548132,48.74137318868905],[37.55489782654527,48.740183458186934],[37.55608755704854,48.71876830913428],[37.588210280627166,48.69735316008243],[37.62866111772637,48.678317472034905],[37.67625033784262,48.666420167005484],[37.690527103877955,48.67355855002457],[37.716701174941825,48.67355855002457],[37.73454713248529,48.665230436503364],[37.77856716109332,48.658092053485255],[37.79165419662539,48.660471514492244],[37.79165419662539,48.669989358514584],[37.80831042366629,48.679507202537906],[37.81663853718679,48.70211208209365],[37.84400233875401,48.71757857863119],[37.87255587082362,48.73423480567271],[37.91776562993422,48.73899372768393],[37.964165119548085,48.749701302210255],[38.01056460916196,48.75683968522846],[38.02841056670542,48.748511571708136],[38.046256524249586,48.750891032713255],[38.052205176763636,48.76159860723968],[38.04387706324385,48.772306181766],[38.06172302078731,48.804428905344174],[38.053394907266906,48.813946749367496],[38.06172302078731,48.824654323893824],[38.07599978682256,48.83893108992836],[38.07599978682256,48.85082839495769],[38.06886140380453,48.86272569998711],[38.06529221229632,48.89246896256096],[38.046256524249586,48.903176537085514],[38.02960029720869,48.92221222513304],[38.03197975821443,48.93529926066546],[38.05577436827255,48.9412479131788],[38.074810056319286,48.94005818267668],[38.09384574436602,48.92935060815124],[38.14262469498563,48.93529926066546],[38.17950634057573,48.93173006915548],[38.20568041163969,48.93529926066546],[38.22352636918386,48.9412479131788],[38.22114690817811,48.94481710468878],[38.209249603148606,48.94719656569488],[38.21043933365188,48.9567144097182],[38.22947502169861,48.96147333172942],[38.26159774527723,48.973370636758744],[38.25564909276248,48.98526794178728],[38.242562057230586,48.99954470782271],[38.24494151823633,49.01263174335415],[38.25447405029044,49.02944953873616],[38.28897623487481,49.02825980823306],[38.33299626348293,49.00803438968253],[38.36630871756411,48.97829112711045],[38.39605198013699,48.94259921202317],[38.44958985276888,48.90571756643298],[38.47933311534105,48.89263053090056],[38.494799611879486,48.87359484285294],[38.54595802350484,48.837902927765754],[38.5757012860778,48.82481589223333],[38.58759859110651,48.80934939569579],[38.607824009656426,48.803400743180674],[38.62329050619414,48.78436505513493],[38.66374134329325,48.77484721111071],[38.689915414357216,48.760570445076176],[38.74345328698821,48.760570445076176],[38.75416086151445,48.768898558597385],[38.76248897503495,48.77484721111071],[38.794611698613565,48.76532936708739],[38.833872805210305,48.753432062059844],[38.858857145771694,48.75581152306407],[38.90287717437903,48.74867314004764],[38.93143070644952,48.74986287054976],[38.945707472483974,48.73915529602344],[38.97188154354863,48.74629367904164],[38.98615830958309,48.72844772149711],[38.983778848577344,48.71417095546258],[39.00043507561824,48.702273650433156],[39.01352211115022,48.66063308283175],[39.03731672120844,48.651115238807535],[39.058731870260914,48.65349469981355],[39.0837162108223,48.65944335232874],[39.11583893440101,48.65944335232874],[39.132495161441916,48.67253038786107],[39.147961657979636,48.674909848866285],[39.184843303569735,48.71179149445648],[39.20625845262221,48.707032572444376],[39.23481198469262,48.7165504164677],[39.24195036770985,48.74391421803652],[39.2597963252541,48.73796556552043],[39.265744977767966,48.75224233155586],[39.28002174380322,48.75581152306407],[39.299057431849945,48.7736574806086],[39.31024110140279,48.780539786839626],[39.34117409447832,48.76864248181207],[39.35426113001003,48.72938137521578],[39.36139951302769,48.70558676515615],[39.40779900264138,48.68060242459519],[39.418506577167534,48.66513592805765],[39.44706010923741,48.65680781453743],[39.47799310231373,48.63777212648981],[39.51368501740128,48.63301320447957],[39.536289896956404,48.58661371486508],[39.55770504600861,48.59732128939229],[39.573171542546774,48.5937520978823],[39.59696615260463,48.5949418283853],[39.6041045356223,48.57828560134565],[39.6088634576344,48.461692012058805],[39.65050402523599,48.48548662211667],[39.64574510322477,48.58661371486508],[39.6683499827798,48.59018290637418],[39.69452405384412,48.58899317587108],[39.71950839440551,48.591372636876294],[39.73854408245215,48.5925623673793],[39.76471815351638,48.58780344536808],[39.78613330256867,48.59732128939229],[39.817066295644196,48.58661371486508],[39.850378749726175,48.56876775732144],[39.85989659374941,48.554490991286016],[39.85989659374941,48.541403955753594],[39.86465551576063,48.51879907619873],[39.84918901922335,48.51285042368451],[39.79089222457989,48.50095311865519],[39.76471815351638,48.48667635261976],[39.74092354345781,48.44384605451526],[39.73973381295498,48.42600009697251],[39.72783650792601,48.4176719834513],[39.70166243686178,48.41053360043319],[39.65050402523599,48.35818545830625],[39.629088876183786,48.34866761428205],[39.67310890479182,48.296319472153336],[39.64098618121275,48.2760940536036],[39.58744830858131,48.33796003975661],[39.53866935796205,48.32725246522931],[39.48632121583423,48.29275028064512],[39.473234180301716,48.28442216712392],[39.43040388219722,48.2796632451127],[39.451819031249514,48.24754052153364],[39.450629300746684,48.236832947008196],[39.426834690688025,48.235643216505196],[39.40898873314421,48.2439713300264],[39.37329681805667,48.245161060529405],[39.35664059101648,48.236832947008196],[39.343553555483965,48.25467890455184],[39.32213840643168,48.251109713043626],[39.306671909893595,48.21184860644733],[39.28049783882929,48.220176719966766],[39.24718538474811,48.21541779795555],[39.21625239167178,48.21065887594433],[39.191268051111095,48.22136645046977],[39.124643142948024,48.21541779795555],[39.083002575345546,48.21541779795555],[39.06277715679617,48.20114103192012],[39.02946470271419,48.18686426588647],[39.01875712818813,48.152362081300424],[38.99377278762736,48.13689558476377],[38.96640898606031,48.14998262029619],[38.94618356751013,48.142844237278084],[38.86766135431809,48.174966960857056],[38.82840024772206,48.18210534387348],[38.76772399207303,48.17972588286827],[38.71299638893876,48.17615669136015],[38.68682231787454,48.169018308342835],[38.673735282342825,48.16306965582684],[38.61662821820299,48.170208038844066],[38.582126033618266,48.20352049292613],[38.547623849033464,48.23207402499698],[38.5321573524961,48.241591869019416],[38.51550112545511,48.241591869019416],[38.4940859764029,48.229694563990975],[38.45244540880043,48.21660752845855],[38.43816864276589,48.21779725896155],[38.42270214622773,48.227315102983994],[38.40366645818118,48.229694563990975],[38.37114715776798,48.250052174817924],[38.32236820714864,48.248862444315805],[38.2783481785406,48.250052174817924],[38.24741518546507,48.250052174817924],[38.23908707194458,48.22744729526316],[38.24979464647063,48.21792945123886],[38.243845993955794,48.20722187671254],[38.18911839082241,48.2036526852053],[38.16889297227223,48.20603214621131],[38.14509836221437,48.194134841181],[38.1379599791967,48.178668344643455],[38.09275022008583,48.16082238709893],[38.08204264555969,48.14416616005839],[38.047540460974886,48.14059696855017],[38.01184854588734,48.13226885502897],[37.97734636130342,48.12988939402474],[37.95712094275395,48.107284514468105],[37.924998219174796,48.106094783965105],[37.889306304087256,48.102525592456885],[37.88573711257878,48.07992071290212],[37.877408999058375,48.05017745032818],[37.88335765157321,48.04184933680884],[37.870270616040614,48.020434187756095],[37.85480411950325,47.98831146417703],[37.85599385000607,47.964516854119175],[37.86432196352657,47.924066017018994],[37.889306304087256,47.91692763400168],[37.916670105654305,47.89194329344082],[37.93451606319812,47.870528144389056],[37.960690134262435,47.868148683382074],[37.98091555281181,47.85625137835363],[38.00471016287047,47.85625137835363],[38.003520432367644,47.83721569030699],[38.02136638991066,47.82769784628269],[38.00827935437886,47.81818000226035],[37.99558889568119,47.80628269723093],[38.00510673970438,47.78962647018944],[38.030091080265954,47.80033404471674],[38.033660271774345,47.78724700918432],[38.043178115797666,47.78248808717311],[38.03128081076869,47.76821132113768],[38.055075420826554,47.740847519569826],[38.09314679692055,47.74560644158282],[38.07887003088521,47.71824264001498],[38.063403534347046,47.670653419899345],[38.0657829953535,47.63734096581727],[38.033660271774345,47.60759770324333],[37.970604555119664,47.60759770324333],[37.96822509411401,47.600459320226996],[37.984881321155,47.580233901677346],[37.98845051266348,47.538593334075856],[37.95870725009069,47.512419263010116],[37.944430484056156,47.52312683753742],[37.93253317902647,47.513608993513124],[37.93134344852364,47.495763035969574],[37.91587695198548,47.49219384446136],[37.89208234192762,47.495763035969574],[37.88613368941278,47.47553761741984],[37.87661584538946,47.441035432835655],[37.87185692337824,47.4172408227778],[37.86471854036057,47.408912709257564],[37.86590827086331,47.38987702121092],[37.85044177432523,47.37797971618151],[37.84925204382232,47.35537483662665],[37.86709800136622,47.361323489139984],[37.86828773186896,47.352995375620644],[37.8575801573429,47.343477531596434],[37.84211366080545,47.33990834008822],[37.83616500829061,47.32563157405279],[37.84806231331958,47.308975347012165],[37.83973419979909,47.30183696399494],[37.81356012873478,47.30540615550315],[37.80404228471154,47.294698580976736],[37.79928336270024,47.27566289293009],[37.787386057671355,47.267334779409865],[37.78381686616208,47.24591963035802],[37.77667848314441,47.243540169352],[37.770729830630366,47.25900666589044],[37.75764279509785,47.25900666589044],[37.74693522057171,47.25305801337622],[37.74574549006888,47.222125020300155],[37.752883873086546,47.21379690677895],[37.744555759566055,47.195950949235396],[37.7255200715195,47.19119202722418],[37.71481249699335,47.16620768666332],[37.686258964923475,47.16739741716633],[37.66722327687683,47.15787957314211],[37.66603354637401,47.142413076603596],[37.652946510841495,47.136464424089375],[37.63391082279485,47.136464424089375],[37.59821890770731,47.122187658053946],[37.5768037586551,47.11266981403152],[37.56014753161411,47.09720331749398],[37.55743301067711,47.087001268530926],[37.513412982069156,47.05487854495186],[37.47772106698152,47.03108393489312],[37.43727022988303,46.97754606226229],[37.41466535032755,46.94304387767713],[37.38135289624575,46.91686980661326],[37.363506938702024,46.89664438806352],[37.33733286763771,46.87522923901088],[37.30996906607058,46.86452166448455],[37.33138421512314,46.8859368135372],[37.33138421512314,46.928767111641704],[37.27665661198957,46.95018226069444],[37.24929281042244,46.95613091320955],[37.2052727818144,46.9311465726478],[37.20170359030556,46.91924926761838],[37.16125275320627,46.90378277108084],[37.12794029912456,46.89664438806352],[37.07083323498507,46.88712654404118],[37.02324401486838,46.86928058649754],[36.986362369277835,46.86690112549056],[36.94948072368729,46.83715786291759],[36.91021961709162,46.82050163587882],[36.88806611968727,46.82504538118434],[36.858322857114295,46.83218376420068],[36.82738986403886,46.84408106923],[36.803595253979935,46.88810109783849],[36.80954390649469,46.923793012926566],[36.82738986403886,46.93093139594299],[36.84880501309133,46.94758762298442],[36.86427150962905,46.948777353487515],[36.8702201621438,46.96305411952196],[36.857133126611025,46.970192502540165],[36.84404609107905,46.98208980756772],[36.8702201621438,46.98446926857382],[36.8702201621438,47.01064333963768],[36.89639423320767,47.026109836176204],[36.904722346728164,47.038007141205526],[36.92851695678638,47.040386602211626],[36.97372671589698,47.06656067327549],[37.02012620551085,47.07726824780182],[37.02845431903134,47.104632049368774],[37.01298782249362,47.12604719842152],[36.99038294293797,47.13080612043274],[36.98562402092649,47.14865207797726],[36.971347254891235,47.14984180848026],[36.95112183634203,47.16292884401171],[36.94160399231827,47.15816992200058],[36.934465609301135,47.16768776602292],[36.91067099924292,47.16649803551992],[36.86784070113726,47.191482376080785],[36.84880501309133,47.19981048960199],[36.85237420459954,47.21289752513441],[36.833338516552814,47.22241536915773],[36.81192336750043,47.23431267418715],[36.78455956593329,47.22598456066595],[36.75600603386359,47.23312294368406],[36.74172926782835,47.22836402167195],[36.73340115430785,47.23431267418715],[36.71198600525547,47.23431267418715],[36.68105301218003,47.22955375217407],[36.61918702602844,47.218846177649525],[36.58706430244982,47.21646671664263],[36.535905890824466,47.22479483016383],[36.47998855718763,47.24026132670039],[36.46690152165495,47.259297014748014],[36.42764041505901,47.27595324178856],[36.370533350918905,47.2985581213443],[36.31461601728216,47.335439766934584],[36.27892410219444,47.339008958442705],[36.19564296699047,47.38183925654721],[36.16470997391503,47.40206467509685],[36.123069406312645,47.430618207166816],[36.026701235576695,47.48772527130674],[35.96483524942511,47.518658264383696],[35.93747144785788,47.54483233544765],[35.885123305730055,47.55553990997397],[35.85775950416292,47.55553990997397],[35.830395702595695,47.567437215003395],[35.78994486549658,47.573385867517615],[35.7518734894032,47.58647290304906],[35.74711456739172,47.60788805210269],[35.72807887934499,47.61026751310781],[35.71380211330983,47.61978535713113],[35.72094049632776,47.62573400964544],[35.706663730292604,47.64120050618298],[35.70071507777785,47.662615655235626],[35.64836693565003,47.67689242127017],[35.63695433564002,47.68491208614164],[35.63814406614329,47.69205046915975],[35.61672891709091,47.709896426704276],[35.59412403753517,47.709896426704276],[35.56557050546556,47.70513750469129],[35.55129373943031,47.709896426704276],[35.54058616490407,47.714655348715496],[35.52155047685743,47.711086157207376],[35.50727371082218,47.71822454022371],[35.463253682214855,47.70275804368617],[35.433510419641884,47.711086157207376],[35.43113095863623,47.697999121674954],[35.418043923103454,47.711086157207376],[35.3918698520395,47.71822454022371],[35.379972547010794,47.706327235194294],[35.34428063192316,47.68729154714853],[35.28717356778306,47.67777370312521],[35.27170707124542,47.66230720658767],[35.27170707124542,47.63256394401382],[35.26932761023959,47.61233852546506],[35.2728968017479,47.599251489931746],[35.27170707124542,47.58378499339412],[35.27051734074207,47.56712876635358],[35.29669141180682,47.56712876635358],[35.31810656085929,47.554041730822036],[35.31572709985275,47.538575234284494],[35.32167575236742,47.53500604277451],[35.31096817784127,47.523108737745176],[35.30026060331503,47.51953954623697],[35.26932761023959,47.50764224120755],[35.23839461716344,47.49812439718423],[35.24077407816919,47.48503736165189],[35.22887677314048,47.476709248132465],[35.206271893584734,47.466001673606144],[35.17295943950364,47.461242751594924],[35.12893941089552,47.45886329058794],[35.09205776530541,47.466001673606144],[35.0599350417267,47.462432482097924],[35.03851989267352,47.4517249075716],[35.0111560911071,47.446965985558606],[34.9861717505457,47.42674056701074],[34.96594633199579,47.41960218399165],[34.94334145244084,47.41484326198132],[34.90883926785639,47.43387895002708],[34.89456250182114,47.43863787203918],[34.885044657797465,47.43387895002708],[34.88980357980966,47.41365353147832],[34.870767891763016,47.43268921952407],[34.862439778242525,47.457673560084935],[34.84578355120162,47.46005302109094],[34.82912732416063,47.469570865114264],[34.80057379209094,47.48027843964068],[34.76012295499182,47.50288331919642],[34.74227699744836,47.51834981573396],[34.70301589085172,47.53738550378149],[34.67208289777636,47.556421191827695],[34.64709855721492,47.55642119182721],[34.6066477201158,47.56593903585053],[34.58047364905194,47.56593903585053],[34.54835092547323,47.567128766353534],[34.52693577642076,47.579026071382955],[34.47934655630361,47.571887688364754],[34.450793024234,47.57783634087986],[34.41034218713489,47.57545687987474],[34.387737307579144,47.567128766353534],[34.387737307579144,47.552852000319],[34.385357846573406,47.54214442579267],[34.34371727897182,47.52310873774515],[34.32468159092518,47.530247120763256],[34.30088698086617,47.52667792925513],[34.30088698086617,47.51597035472872],[34.281851292820235,47.49931412768817],[34.272333448796466,47.47551951762854],[34.26162587427032,47.46719140410911],[34.23188261169735,47.4648119431031],[34.2092777321417,47.4576735600849],[34.20213934912438,47.43982760254215],[34.17834473906626,47.43387895002704],[34.16644743403684,47.42436110600461],[34.14384255448189,47.42436110600461],[34.12599659693764,47.432689219524036],[34.10458144788525,47.425550836507696],[34.07436735903512,47.430712425679246],[34.05652140149121,47.43666107819355],[34.010121911877434,47.42595350366625],[33.98156837980747,47.406917815620496],[33.96967107477805,47.42000485115203],[33.97561972729236,47.450937844228974],[33.977999188298725,47.47711191529196],[33.99108622383052,47.489009220321286],[33.98870676282496,47.51280383038012],[34.0053629898655,47.51756275239125],[34.01369110338618,47.531839518425784],[34.05533167098794,47.54611628446121],[34.08150574205243,47.54611628446121],[34.07912628104607,47.56158278099885],[34.054141940484854,47.57704927753727],[34.07555708953733,47.58894658256571],[34.093403047081054,47.60203361809813],[34.08745439456674,47.611551462121454],[34.07079816752619,47.609172001115454],[34.068418706519836,47.615120653629674],[34.07912628104607,47.62225903664876],[34.06722897601745,47.63653580268232],[34.06722897601745,47.64367418569964],[34.051762479479194,47.64367418569964],[34.03153706092999,47.65438176022685],[34.011311642379816,47.66627906525538],[33.96848134427487,47.6781763702856],[33.96440226826307,47.6781763702856],[33.948255925725576,47.6781763702856]]]]}},{"type":"Feature","properties":{"kind":"district","id":"uyezd-1897-347","name":"Верхне-днепровский","provinceId":"gubernia-1897-7"},"geometry":{"type":"MultiPolygon","coordinates":[[[[33.564986447415976,49.01422903702863],[33.59116051848056,48.87384083768305],[33.609006476024106,48.8203029650531],[33.600678362503785,48.80483646851459],[33.49836153925264,48.795318624491266],[33.50431019176713,48.67039692168598],[33.51263830528825,48.64422285062024],[33.54357129836369,48.6358947371009],[33.5804529439537,48.64898177263332],[33.59235024898347,48.58949524748641],[33.54238156786077,48.55856225441133],[33.47932585120627,48.55737252390921],[33.41983932606033,48.53238818334737],[33.39723444650521,48.53238818334737],[33.396044716002294,48.543095757872806],[33.34369657387385,48.540716296866805],[33.337747921359366,48.41341513305541],[33.342506843370934,48.38486160098634],[33.378198758458744,48.387241061990565],[33.39366525499655,48.39199998400365],[33.41151121254001,48.39199998400365],[33.40794202103136,48.38010267897423],[33.41389067354584,48.369395104447904],[33.40556256002553,48.3622567214297],[33.40556256002553,48.35035941640126],[33.39366525499655,48.328944267348525],[33.371060375441346,48.28849343025012],[33.35916307041157,48.27302693371169],[33.324660885827385,48.27302693371169],[33.34369657387385,48.243283671138634],[33.35678360940574,48.24209394063652],[33.35559387890282,48.227817174600204],[33.371060375441346,48.20640202554746],[33.378198758458744,48.20283283403934],[33.382957680470405,48.18736633750082],[33.38176794996749,48.16833064945516],[33.37225010594426,48.164761457946945],[33.35440414839999,48.16833064945516],[33.35321441789708,48.158812805431836],[33.35678360940574,48.146915500402415],[33.337747921359366,48.139777117385194],[33.318712233312894,48.138587386883074],[33.32228142482164,48.12431062084667],[33.304435467278005,48.11717223782945],[33.29610735375698,48.10289547179403],[33.280640857219254,48.09694681928069],[33.2485181336409,48.09694681928069],[33.2056878355356,48.08861870575949],[33.21282621855309,48.03746029413378],[33.225913254084986,48.03389110262654],[33.27945112671634,48.04221921614588],[33.288968970739575,48.01961433659112],[33.271123013196025,48.002958109550484],[33.27469220470477,47.99344026552716],[33.318712233312894,47.98987107401806],[33.36511172292606,47.987491613012054],[33.35559387890282,47.930384548871146],[33.35101121326208,47.911363548856535],[33.39622097237268,47.90779435734841],[33.44143073148399,47.90898408785053],[33.46284588053655,47.93634788941837],[33.48307129908575,47.94348627243471],[33.57111135630139,47.93396842841228],[33.68889467609007,47.93039923690229],[33.765037428277,47.94467600293771],[33.799539612861274,47.9886960315462],[33.90066670560942,47.997024145066426],[33.99227595433371,48.00535225858586],[34.05533167098794,48.02200848562729],[34.08864412506992,48.011300911101856],[34.1481306502155,48.00178306707764],[34.15244103657072,48.01520618900396],[34.16671780260606,48.01758565000998],[34.16671780260606,48.033052146547604],[34.17861510763495,48.03543160755361],[34.18218429914343,48.04138026006783],[34.180994568640685,48.047328912583026],[34.19765079568159,48.04970837358904],[34.31424438496763,48.05922621761147],[34.31781357647602,48.04138026006783],[34.377300101621515,48.04494945157782],[34.36302333558697,48.146076544324366],[34.38205902363353,48.15440465784468],[34.34160818653468,48.362607495855634],[34.339228725528315,48.388781566919505],[34.44035581827619,48.3947302194347],[34.44987366229951,48.40900698546826],[34.44035581827619,48.42209402100157],[34.446304470791034,48.436370787035216],[34.442735279282644,48.44826809206464],[34.423699591235206,48.47920108514061],[34.41180228620632,48.50418542570147],[34.374920640615855,48.51608273073178],[34.39871525067451,48.54344653229785],[34.421320130229546,48.56010275933839],[34.442735279282644,48.58032817788804],[34.45820177582001,48.60293305744467],[34.421320130229546,48.626727667502536],[34.38205902363353,48.620779014988315],[34.365402796592626,48.62910712850863],[34.377300101621515,48.66122985208769],[34.35826441357487,48.682645001139456],[34.33565953401984,48.692162845163665],[34.30472654094431,48.72190610773575],[34.282487508870474,48.745959224651415],[34.240846941268885,48.76618464320017],[34.198016643163676,48.780461409234704],[34.14447877053303,48.782840870240804],[34.11235604695396,48.80306628879045],[34.10878685544522,48.828050629352205],[34.081423053878524,48.84827604790096],[34.025505720241334,48.864932274941594],[33.95769108157517,48.88872688500123],[33.89106617341183,48.905383112041775],[33.86925444752505,48.923890030976544],[33.83832145444882,48.93697706650799],[33.79549115634431,48.947684641034314],[33.75741978025067,48.96077167656585],[33.703881907620115,48.97385871209827],[33.652723495994586,48.99051493913882],[33.60513427587772,49.00836089668334],[33.564986447415976,49.01422903702863]]]]}},{"type":"Feature","properties":{"kind":"district","id":"uyezd-1897-348","name":"Павлоградский","provinceId":"gubernia-1897-7"},"geometry":{"type":"MultiPolygon","coordinates":[[[[36.581634232697795,49.09854437436391],[36.54237312610124,49.0973546438618],[36.53642447358675,49.11639033190844],[36.501922289001854,49.11876979291267],[36.49835309749311,49.13066709794289],[36.48526606196113,49.13066709794289],[36.46504064341184,49.12233898442177],[36.44362549435964,49.13304655894899],[36.41745142329496,49.12947736743989],[36.3781903166993,49.144943863978405],[36.386518430219525,49.155651438502865],[36.386518430219525,49.168738474036175],[36.394846543739845,49.18658443157892],[36.39008762172827,49.19729200610525],[36.37581085569347,49.20443038912345],[36.28658106797421,49.173497396047395],[36.2508891528872,49.159220630012854],[36.28301187646555,49.15208224699563],[36.28896052898004,49.12233898442177],[36.26397618841909,49.12114925391868],[36.26992484093358,49.10806221838723],[36.237802117355315,49.10687248788512],[36.230663734337824,49.0937854523527],[36.168797748186144,49.07831895581418],[36.153331251647714,49.08069841681939],[36.14857232963605,49.071180572796955],[36.1378647551099,49.07237030329996],[36.12239825857219,49.056903806761525],[36.10336257052581,49.05452434575543],[36.087896073987295,49.03905784921878],[36.07123984694665,49.03191946619969],[36.073619307952484,49.02002216117125],[36.05815281141477,49.00455566463282],[36.0391171233683,49.00455566463282],[36.03673766236247,48.992658359605265],[36.018891704818216,48.983140515581944],[35.97249221520505,48.9950378206095],[35.97606140671371,49.012883778153046],[35.95226679665568,49.012883778153046],[35.93370125463914,49.006245820233715],[35.92061421910725,48.9955382457065],[35.930132063130394,48.98007174916798],[35.88016338200778,48.972933366150755],[35.85517904144683,48.95389767810411],[35.825435778873505,48.95389767810411],[35.804020629821295,48.9491387560929],[35.796882246803804,48.93486199005747],[35.78141575026609,48.93724145106357],[35.78141575026609,48.96103606112134],[35.75524167920151,48.963415522127434],[35.73144706914347,48.97174363564864],[35.71598057260576,48.97174363564864],[35.70170380657015,48.95508740860801],[35.710987995389665,48.919401371220374],[35.72288530041864,48.85396619355924],[35.73478260544832,48.81589481746595],[35.73478260544832,48.7885310158981],[35.70265988186926,48.767115866847234],[35.67648581080495,48.7457007177936],[35.653880931249915,48.73023422125695],[35.62889659068843,48.70762934170032],[35.60986090264188,48.68740392315067],[35.624137668677214,48.67312715711702],[35.64674254823225,48.675506618121254],[35.661019314267584,48.66122985208769],[35.64674254823225,48.64814281655438],[35.59439440610372,48.620779014988315],[35.59201494509806,48.604122787947766],[35.59677386711007,48.592225482917456],[35.58844575358958,48.581517908391135],[35.572979257051415,48.56724114235749],[35.57178952654859,48.53749787978363],[35.51587219291158,48.523221113748114],[35.52063111492369,48.505375156204565],[35.546805185987196,48.432801595527984],[35.547994916490026,48.41019671597135],[35.526579767437724,48.37926372289529],[35.51825165391732,48.354279382334425],[35.48850839134453,48.345951268815],[35.43378078821034,48.35784857384442],[35.4230732136842,48.36736641786685],[35.39214022060876,48.37331507038107],[35.367155880047186,48.37212533987807],[35.38857102909948,48.33286423328266],[35.36120722753235,48.33405396378478],[35.3255153124456,48.34000261630078],[35.246993099252755,48.32215665875536],[35.22319848919419,48.24839336757489],[35.20773199265673,48.25672148109609],[35.19107576561574,48.23411660154035],[35.18301203665154,48.20503430035754],[35.18301203665154,48.14792723621761],[35.20534110762678,48.14842499726457],[35.225566526176245,48.13771742273913],[35.262448171766614,48.15794284128878],[35.31241685288879,48.13771742273913],[35.37547256954346,48.119871465195494],[35.4147336761402,48.113922812681274],[35.48492777581184,48.098456316142844],[35.57177810252429,48.09250766362764],[35.637213280184625,48.11511254318428],[35.77998094053497,48.16627095480999],[35.81805231662808,48.1710298768212],[35.82994962165705,48.18530664285663],[35.852554501212886,48.193634756376056],[35.87040045875661,48.18292718185053],[35.90252318233506,48.180547720843634],[35.96319943798409,48.19125529537085],[35.98699404804194,48.16865041581511],[36.03458326815846,48.169840146318194],[36.0786032967665,48.181737451346635],[36.15355631845016,48.198393678387184],[36.242786106169056,48.21861909693692],[36.33082616338433,48.24122397649355],[36.42243541210898,48.25550074252711],[36.50095762530103,48.256690473030204],[36.56282361145288,48.26382885604832],[36.65919178218874,48.28048508308895],[36.678227470236095,48.203152600400266],[36.71748857683211,48.08655901111342],[36.73295507336948,48.06990278407377],[36.73295507336948,48.05562601803834],[36.70797073280879,48.02588275546529],[36.72224749884333,48.02469302496228],[36.74128318688997,48.00089841490443],[36.74128318688997,47.97829353534779],[36.76507779694863,47.96996542182845],[36.77578537147478,47.92832485422606],[36.80552863404748,47.92118647120786],[36.825754052596864,47.92237620171087],[36.835271896620185,47.90215078316122],[36.81623620857354,47.896202130647],[36.81861566957999,47.885494556120676],[36.82218486108847,47.874786981595236],[36.81028755605949,47.86407940706793],[36.82218486108847,47.84742318002739],[36.819805400082814,47.821249108963436],[36.80076971203617,47.8141107259471],[36.804338903544654,47.80221342091679],[36.797200520526985,47.79507503790046],[36.81385674756788,47.78436746337324],[36.80076971203617,47.77722908035504],[36.81266701706515,47.762952314321396],[36.80552863404748,47.76057285331538],[36.80671836455022,47.74748581778296],[36.801959442539,47.74748581778296],[36.80671836455022,47.73082959074233],[36.81861566957999,47.735588512753544],[36.82694378310049,47.735588512753544],[36.82694378310049,47.72488093822811],[36.8150464780708,47.721311746718115],[36.81385674756788,47.70108632816847],[36.797200520526985,47.69870686716424],[36.77816483248034,47.653497108052754],[36.77935456298317,47.6297024979949],[36.77578537147478,47.604718157434036],[36.81147728656232,47.61423600145646],[36.916173570818586,47.66182522157396],[36.92569141484191,47.655876569057874],[36.9292606063511,47.64635872503455],[36.95305521640905,47.639220342017325],[36.988747131496595,47.62137438447369],[37.004213628034755,47.60352842693014],[37.04347473463078,47.5844927388835],[37.07559745820913,47.571405703351964],[37.08035638022123,47.55831866781954],[37.06726934468864,47.53809324926989],[37.06607961418581,47.521437022229264],[37.04942338714562,47.50953971719993],[37.032767160104626,47.491693759655405],[37.02086985507495,47.484555376639065],[36.9720909044556,47.47265807160876],[36.96971144344995,47.44648400054578],[36.96971144344995,47.428638043002145],[36.96495252143794,47.41555100746972],[36.98279847898175,47.3988947804282],[37.00064443652556,47.38461801439464],[37.03395689060754,47.413171546463715],[37.10653045128546,47.47146834110664],[37.07916664971832,47.4976424121714],[37.114858564805864,47.51786783072114],[37.19100131699234,47.55355974580833],[37.16363751542529,47.589251660894625],[37.11366883430233,47.653497108052754],[37.08511530223245,47.64635872503455],[37.058941231168944,47.6297024979949],[37.02443904658422,47.668963604591184],[36.97328063495843,47.742726895771746],[37.038715812618676,47.73796797376053],[37.04228500412795,47.78436746337324],[37.04347473463078,47.83671560550195],[37.09463314625569,47.83433614449497],[37.09701260726214,47.861699946062814],[37.142222366373005,47.86764859857793],[37.19694996950639,47.87240752058914],[37.21836511855948,47.880735634109456],[37.21836511855948,47.903340513664226],[37.223124040570696,47.918807010203636],[37.22193431006787,47.93665296774638],[37.27309272169358,47.99970868440142],[37.249298111635014,48.00565733691564],[37.224313771073525,48.01279571993295],[37.16482724592804,48.01279571993295],[37.12199694782282,48.00684706741865],[37.10415099027901,48.01041625892685],[37.08630503273528,48.00327787590963],[37.058941231168944,48.00565733691564],[37.041095273625125,48.01398545043685],[37.01968012457212,48.01041625892685],[36.96614225194156,48.01279571993295],[36.93758871987089,48.031831407980484],[36.8911892302572,48.08180008910221],[36.866204889696505,48.18292718185053],[36.874533003217,48.18768610386175],[36.89237896076073,48.18292718185053],[36.90189680478405,48.19125529537085],[36.93758871987089,48.198393678387184],[36.93520925886523,48.2102909834166],[36.92450168433918,48.23527532397746],[36.89237896076073,48.36138675728674],[36.872153542210555,48.36138675728674],[36.85668704567318,48.35305864376731],[36.819805400082814,48.35662783527552],[36.81742593907717,48.36495594879584],[36.81861566957999,48.3875608283506],[36.81266701706515,48.448237084000525],[36.79482105952133,48.5208106446771],[36.751990761416124,48.53151821920343],[36.734144803873015,48.640973425472154],[36.724626959849786,48.646922077986375],[36.7210577683405,48.66357830502692],[36.72224749884333,48.67904480156544],[36.728589954632426,48.6975436309494],[36.70543024746421,48.70449154309877],[36.735173510037086,48.743752649695146],[36.76253731160432,48.77825483428022],[36.713758360984706,48.79491106132174],[36.67806644589699,48.81156728836228],[36.6566512968446,48.813946749367496],[36.64237453080935,48.825844054396825],[36.66735887137084,48.84844893395257],[36.685204828914294,48.87105381350831],[36.682825367908464,48.910314920103716],[36.66854860187331,48.92816087764735],[36.653082105335585,48.984078211285166],[36.622149112260146,49.055462041458654],[36.60430315471598,49.09948207006713],[36.581634232697795,49.09854437436391]]]]}},{"type":"Feature","properties":{"kind":"district","id":"uyezd-1897-349","name":"Екатеринославский","provinceId":"gubernia-1897-7"},"geometry":{"type":"MultiPolygon","coordinates":[[[[35.19107576561574,48.23411660154035],[35.16609142505435,48.292413396183285],[35.15300438952255,48.32929504177356],[35.1422968149964,48.39354048893072],[35.13039950996752,48.40543779396013],[35.10422543890329,48.40543779396013],[35.08518975085665,48.4280426735149],[35.074482176329795,48.47563189363248],[35.05544648828315,48.48871892916482],[34.9555091260389,48.50775461721146],[34.89721233139544,48.51846219173699],[34.850812841781746,48.51965192223999],[34.82463877071823,48.505375156204565],[34.76039332356081,48.49109839017092],[34.729460330484486,48.500616234193345],[34.67235326634464,48.53868761028663],[34.61167701069642,48.55296437632206],[34.555759677059406,48.55772329833327],[34.51768830096621,48.56605141185448],[34.48556557738706,48.59460494392356],[34.45820177582001,48.60293305744467],[34.442735279282644,48.58032817788804],[34.421320130229546,48.56010275933839],[34.39871525067451,48.54344653229785],[34.374920640615855,48.51608273073178],[34.41180228620632,48.50418542570147],[34.423699591235206,48.47920108514061],[34.442735279282644,48.44826809206464],[34.446304470791034,48.436370787035216],[34.44035581827619,48.42209402100157],[34.44987366229951,48.40900698546826],[34.44035581827619,48.3947302194347],[34.339228725528315,48.388781566919505],[34.34160818653468,48.362607495855634],[34.38205902363353,48.15440465784468],[34.36302333558697,48.146076544324366],[34.377300101621515,48.04494945157782],[34.31781357647602,48.04138026006783],[34.31424438496763,48.05922621761147],[34.19765079568159,48.04970837358904],[34.180994568640685,48.047328912583026],[34.18218429914343,48.04138026006783],[34.17861510763495,48.03543160755361],[34.16671780260606,48.033052146547604],[34.16671780260606,48.01758565000998],[34.15244103657072,48.01520618900396],[34.1481306502155,48.00178306707764],[34.144561458706754,47.972039804504675],[34.136233345186085,47.95062465545193],[34.15526903323299,47.94110681142959],[34.143371728203576,47.90660462684532],[34.136233345186085,47.86972298125512],[34.13385388418052,47.84592837119638],[34.12314630965428,47.8518770237106],[34.09578250808741,47.8447386406924],[34.07436735903494,47.84235917968639],[34.0636597845087,47.823323491640636],[34.06484951501108,47.78168292403825],[34.052952209982465,47.78287265454125],[34.02201921690605,47.80071861208489],[33.987517032321776,47.809046725605214],[33.94587646471992,47.78525211554646],[33.95063538673114,47.7566985834765],[33.960153230755,47.728145051406536],[33.94944565622867,47.72219639889222],[33.93635862069616,47.72338612939532],[33.91494347164369,47.72695532090433],[33.933979159690594,47.71386828537288],[33.93754835119934,47.68769421430804],[33.948255925725576,47.67817637028561],[33.96848134427487,47.67817637028561],[34.011311642379816,47.666279065255395],[34.03153706092999,47.65438176022686],[34.051762479479194,47.64367418569965],[34.06722897601745,47.64367418569965],[34.06722897601745,47.63653580268233],[34.079126281046065,47.62225903664877],[34.06841870651983,47.61512065362969],[34.07079816752619,47.60917200111547],[34.08745439456674,47.61155146212147],[34.09340304708105,47.60203361809815],[34.07555708953732,47.588946582565725],[34.05414194048485,47.577049277537284],[34.079126281046065,47.56158278099886],[34.08150574205243,47.54611628446123],[34.05533167098794,47.54611628446123],[34.01369110338618,47.5318395184258],[34.0053629898655,47.517562752391264],[33.98870676282496,47.512803830380136],[33.99108622383052,47.4890092203213],[33.977999188298725,47.47711191529197],[33.97561972729236,47.45093784422899],[33.96967107477805,47.420004851152044],[33.98156837980747,47.40691781562051],[34.010121911877434,47.425953503666264],[34.05652140149121,47.436661078193566],[34.07436735903494,47.43071242567926],[34.10458144788522,47.42555083650774],[34.1259965969376,47.43268921952407],[34.14384255448186,47.42436110600464],[34.166447434036805,47.42436110600464],[34.17834473906622,47.43387895002708],[34.202139349124344,47.43982760254218],[34.20927773214166,47.457673560084935],[34.231882611697316,47.464811943103136],[34.26162587427028,47.467191404109144],[34.27233344879643,47.47551951762857],[34.28185129282019,47.49931412768821],[34.300886980866125,47.51597035472875],[34.300886980866125,47.52667792925517],[34.32468159092514,47.53024712076329],[34.34371727897178,47.523108737745176],[34.38535784657337,47.54214442579271],[34.38773730757911,47.552852000319035],[34.38773730757911,47.56712876635358],[34.41034218713485,47.57545687987478],[34.45079302423397,47.5778363408799],[34.479346556303575,47.57188768836479],[34.526935776420714,47.57902607138299],[34.54835092547319,47.56712876635358],[34.580473649051896,47.56593903585057],[34.60664772011577,47.56593903585057],[34.64709855721488,47.55642119182725],[34.67208289777636,47.55642119182725],[34.6964122609596,47.55425171526437],[34.727345254035036,47.549492793251375],[34.768985821636804,47.553061984760475],[34.82014423326251,47.54592360174317],[34.86416426187054,47.549492793251375],[34.90223563796374,47.56495928978981],[34.937927553051374,47.5661490202929],[34.966481085121245,47.56257982878469],[35.0069319222201,47.57685659481834],[35.0366751847928,47.60541012688919],[35.071177369377516,47.631584197954034],[35.11043847597362,47.66132746052611],[35.1092487454708,47.68869126209396],[35.122335781003315,47.71010641114572],[35.1342330860322,47.737470212711706],[35.14850985206682,47.76602374478264],[35.135422816535026,47.798146468360734],[35.09378224893264,47.821941078419485],[35.06998763887478,47.84930487998644],[35.08069521340084,47.875478951051285],[35.1092487454708,47.883807064570625],[35.112817936979994,47.91949897965879],[35.10805901496798,47.95876008625419],[35.124715242008875,47.99683146234747],[35.12114605049969,48.03490283844076],[35.1009206319503,48.05512825699041],[35.09021305742416,48.08249205855826],[35.06998763887478,48.092009902580685],[35.04738275931895,48.092009902580685],[35.03310599328441,48.100338016101894],[35.042623837307644,48.120563434651544],[35.06284925585711,48.12532235666276],[35.089023326921335,48.13246073968096],[35.12114605049969,48.13840939219518],[35.14850985206682,48.13127100917698],[35.168735270617006,48.13127100917698],[35.18301203665154,48.14792723621761],[35.18301203665154,48.20503430035754],[35.19107576561574,48.23411660154035]]]]}},{"type":"Feature","properties":{"kind":"district","id":"uyezd-1897-350","name":"Александровский","provinceId":"gubernia-1897-7"},"geometry":{"type":"MultiPolygon","coordinates":[[[[37.07083323498507,46.88712654404118],[37.06815062654258,46.901058661098446],[37.03602790296423,46.92961219316753],[37.09194523660124,46.966493838757806],[37.133585804203626,46.99504737082866],[37.10384254163012,47.0069446758571],[37.17998529381732,47.060482548487926],[37.206159364880826,47.08070796703766],[37.23471289695079,47.124727995645166],[37.250179393488864,47.15090206671001],[37.29538915259973,47.16160964123722],[37.39294705383842,47.16636856324844],[37.384618940318724,47.20800913084994],[37.503591990609614,47.22347562738837],[37.50240226010679,47.24964969845135],[37.48336657206015,47.26392646448677],[37.49407414658629,47.28653134404163],[37.50002279910114,47.30437730158704],[37.41555193339425,47.30437730158704],[37.37034217428339,47.30318757108315],[37.31918376265768,47.277013500019194],[37.259697237512185,47.2329934714108],[37.240661549465635,47.28058269152741],[37.22162586141899,47.31508487611248],[37.197831251360334,47.3281719116449],[37.15857014476431,47.348397330194544],[37.14786257023825,47.37576113176062],[37.16213933627359,47.39717628081327],[37.18474421582862,47.39717628081327],[37.204969634378,47.40431466383147],[37.23590262745433,47.441196309421755],[37.25255885449452,47.47212930249684],[37.30133780511466,47.4614217279714],[37.35249621673957,47.44595523143297],[37.43220816043524,47.426919543386326],[37.4179313943999,47.357915174216984],[37.597580700339826,47.37338167075541],[37.604719083357494,47.39598655031027],[37.6772926440355,47.41264277735081],[37.670154261017736,47.43286819590055],[37.60709854436315,47.424540082381114],[37.59996016134619,47.43286819590055],[37.559509324246626,47.434057926403554],[37.55475040223532,47.44952442294198],[37.57259635977914,47.4626114584744],[37.54285309720644,47.49235472104737],[37.62851369341615,47.500682834567684],[37.651118572971185,47.50663148708102],[37.634462345930196,47.589912622286676],[37.57973474279681,47.585153700273686],[37.52738660066827,47.58039477826247],[37.51667902614213,47.6434504949175],[37.51905848714778,47.661296452460256],[37.577355281790354,47.669624565981465],[37.586873125813675,47.664865643970245],[37.584493664808114,47.6434504949175],[37.59520123933417,47.62441480687086],[37.634462345930196,47.62798399837908],[37.66896453051491,47.63631211189939],[37.69037967956721,47.65296833893994],[37.7284510556612,47.667245104975365],[37.76295324024521,47.672004026986585],[37.712984559123036,47.70650621157165],[37.67610291353258,47.73505974364073],[37.70227698459689,47.745767318168035],[37.747486743707846,47.78621815526644],[37.81768084337931,47.83856629739515],[37.774850545274894,47.84213548890336],[37.732020247169594,47.85403279393269],[37.715364020128604,47.87901713449355],[37.68205156604751,47.87187875147721],[37.62494450190696,47.902811744553276],[37.577355281790354,47.92422689360415],[37.53333525318312,47.94683177316078],[37.48336657206015,47.95872907819011],[37.45243357898471,47.971816113720756],[37.41555193339425,47.980144227242846],[37.38580867082155,47.992041532270406],[37.340598911710686,47.992041532270406],[37.30847618813153,47.99799018478649],[37.293009691594165,48.00988748981404],[37.27309272169358,47.99970868440142],[37.22193431006787,47.93665296774638],[37.223124040570696,47.918807010203636],[37.21836511855948,47.903340513664226],[37.21836511855948,47.880735634109456],[37.19694996950639,47.87240752058914],[37.142222366373005,47.86764859857793],[37.09701260726214,47.861699946062814],[37.09463314625569,47.83433614449497],[37.04347473463078,47.83671560550195],[37.04228500412795,47.78436746337324],[37.038715812618676,47.73796797376053],[36.97328063495843,47.742726895771746],[37.02443904658422,47.668963604591184],[37.058941231168944,47.6297024979949],[37.08511530223245,47.64635872503455],[37.11366883430233,47.653497108052754],[37.16363751542529,47.589251660894625],[37.19100131699234,47.55355974580833],[37.114858564805864,47.51786783072114],[37.07916664971832,47.4976424121714],[37.10653045128546,47.47146834110664],[37.03395689060754,47.413171546463715],[37.00064443652556,47.38461801439464],[36.98279847898175,47.3988947804282],[36.96495252143794,47.41555100746972],[36.96971144344995,47.428638043002145],[36.96971144344995,47.44648400054578],[36.9720909044556,47.47265807160876],[37.02086985507495,47.484555376639065],[37.032767160104626,47.491693759655405],[37.04942338714562,47.50953971719993],[37.06607961418581,47.521437022229264],[37.06726934468864,47.53809324926989],[37.08035638022123,47.55831866781954],[37.07559745820913,47.571405703351964],[37.04347473463078,47.5844927388835],[37.004213628034755,47.60352842693014],[36.988747131496595,47.62137438447369],[36.95305521640905,47.639220342017325],[36.9292606063511,47.64635872503455],[36.92569141484191,47.655876569057874],[36.916173570818586,47.66182522157396],[36.81147728656232,47.61423600145646],[36.77578537147478,47.604718157434036],[36.77935456298317,47.6297024979949],[36.77816483248034,47.653497108052754],[36.797200520526985,47.69870686716424],[36.81385674756788,47.70108632816847],[36.8150464780708,47.721311746718115],[36.82694378310049,47.72488093822811],[36.82694378310049,47.735588512753544],[36.81861566957999,47.735588512753544],[36.80671836455022,47.73082959074233],[36.801959442539,47.74748581778296],[36.80671836455022,47.74748581778296],[36.80552863404748,47.76057285331538],[36.81266701706515,47.762952314321396],[36.80076971203617,47.77722908035504],[36.81385674756788,47.78436746337324],[36.797200520526985,47.79507503790046],[36.804338903544654,47.80221342091679],[36.80076971203617,47.8141107259471],[36.819805400082814,47.821249108963436],[36.82218486108847,47.84742318002739],[36.81028755605949,47.86407940706793],[36.82218486108847,47.874786981595236],[36.81861566957999,47.885494556120676],[36.81623620857354,47.896202130647],[36.835271896620185,47.90215078316122],[36.825754052596864,47.92237620171087],[36.80552863404748,47.92118647120786],[36.77578537147478,47.92832485422606],[36.76507779694863,47.96996542182845],[36.74128318688997,47.97829353534779],[36.74128318688997,48.00089841490443],[36.72224749884333,48.02469302496228],[36.70797073280879,48.02588275546529],[36.73295507336948,48.05562601803834],[36.73295507336948,48.06990278407377],[36.71748857683211,48.08655901111342],[36.678227470236095,48.203152600400266],[36.65919178218874,48.28048508308895],[36.56282361145288,48.26382885604832],[36.50095762530103,48.256690473030204],[36.42243541210898,48.25550074252711],[36.33082616338433,48.24122397649355],[36.242786106169056,48.21861909693692],[36.15355631845016,48.198393678387184],[36.0786032967665,48.181737451346635],[36.03458326815846,48.169840146318194],[35.98699404804194,48.16865041581511],[35.96319943798409,48.19125529537085],[35.90252318233506,48.180547720843634],[35.87040045875661,48.18292718185053],[35.852554501212886,48.193634756376056],[35.82994962165705,48.18530664285663],[35.81805231662808,48.1710298768212],[35.77998094053497,48.16627095480999],[35.637213280184625,48.11511254318428],[35.57177810252429,48.09250766362764],[35.48492777581184,48.098456316142844],[35.4147336761402,48.113922812681274],[35.37547256954346,48.119871465195494],[35.31241685288879,48.13771742273913],[35.262448171766614,48.15794284128878],[35.225566526176245,48.13771742273913],[35.20534110762678,48.14842499726457],[35.18301203665154,48.14792723621761],[35.168735270617006,48.13127100917698],[35.14850985206682,48.13127100917698],[35.12114605049969,48.13840939219518],[35.089023326921335,48.13246073968096],[35.06284925585711,48.12532235666276],[35.042623837307644,48.120563434651544],[35.03310599328441,48.100338016101894],[35.04738275931895,48.092009902580685],[35.06998763887478,48.092009902580685],[35.09021305742416,48.08249205855826],[35.1009206319503,48.05512825699041],[35.12114605049969,48.03490283844076],[35.124715242008875,47.99683146234747],[35.10805901496798,47.95876008625419],[35.112817936979994,47.91949897965879],[35.1092487454708,47.883807064570625],[35.08069521340084,47.875478951051285],[35.06998763887478,47.84930487998644],[35.09378224893264,47.821941078419485],[35.135422816535026,47.798146468360734],[35.14850985206682,47.76602374478264],[35.1342330860322,47.737470212711706],[35.122335781003315,47.71010641114572],[35.1092487454708,47.68869126209396],[35.11043847597362,47.66132746052611],[35.071177369377516,47.631584197954034],[35.0366751847928,47.60541012688919],[35.0069319222201,47.57685659481834],[34.966481085121245,47.56257982878469],[34.937927553051374,47.5661490202929],[34.90223563796374,47.56495928978981],[34.86416426187054,47.549492793251375],[34.82014423326251,47.54592360174317],[34.768985821636804,47.553061984760475],[34.727345254035036,47.549492793251375],[34.6964122609596,47.55425171526437],[34.67208289777636,47.55642119182725],[34.70301589085172,47.53738550378149],[34.74227699744836,47.51834981573396],[34.76012295499182,47.50288331919642],[34.80057379209094,47.48027843964068],[34.82912732416063,47.469570865114264],[34.84578355120162,47.46005302109094],[34.862439778242525,47.457673560084935],[34.870767891763016,47.43268921952407],[34.88980357980966,47.41365353147832],[34.885044657797465,47.43387895002708],[34.89456250182114,47.43863787203918],[34.90883926785639,47.43387895002708],[34.94334145244084,47.41484326198132],[34.96594633199579,47.41960218399165],[34.9861717505457,47.42674056701074],[35.0111560911071,47.446965985558606],[35.03851989267352,47.4517249075716],[35.0599350417267,47.462432482097924],[35.09205776530541,47.466001673606144],[35.12893941089552,47.45886329058794],[35.17295943950364,47.461242751594924],[35.206271893584734,47.466001673606144],[35.22887677314048,47.476709248132465],[35.24077407816919,47.48503736165189],[35.23839461716344,47.49812439718423],[35.26932761023959,47.50764224120755],[35.30026060331503,47.51953954623697],[35.31096817784127,47.523108737745176],[35.32167575236742,47.53500604277451],[35.31572709985275,47.538575234284494],[35.31810656085929,47.554041730822036],[35.29669141180682,47.56712876635358],[35.27051734074207,47.56712876635358],[35.27170707124542,47.58378499339412],[35.2728968017479,47.599251489931746],[35.26932761023959,47.61233852546506],[35.27170707124542,47.63256394401382],[35.27170707124542,47.66230720658767],[35.28717356778306,47.67777370312521],[35.34428063192316,47.68729154714853],[35.379972547010794,47.706327235194294],[35.3918698520395,47.71822454022371],[35.418043923103454,47.711086157207376],[35.43113095863623,47.697999121674954],[35.433510419641884,47.711086157207376],[35.463253682214855,47.70275804368617],[35.50727371082218,47.71822454022371],[35.52155047685743,47.711086157207376],[35.54058616490407,47.714655348715496],[35.55129373943031,47.709896426704276],[35.56557050546556,47.70513750469129],[35.59412403753517,47.709896426704276],[35.61672891709091,47.709896426704276],[35.63814406614329,47.69205046915975],[35.63695433564002,47.68491208614164],[35.64836693565003,47.67689242127017],[35.70071507777785,47.662615655235626],[35.706663730292604,47.64120050618298],[35.72094049632776,47.62573400964544],[35.71380211330983,47.61978535713113],[35.72807887934499,47.61026751310781],[35.74711456739172,47.60788805210269],[35.7518734894032,47.58647290304906],[35.78994486549658,47.573385867517615],[35.830395702595695,47.567437215003395],[35.85775950416292,47.55553990997397],[35.885123305730055,47.55553990997397],[35.93747144785788,47.54483233544765],[35.96483524942511,47.518658264383696],[36.026701235576695,47.48772527130674],[36.123069406312645,47.430618207166816],[36.16470997391503,47.40206467509685],[36.19564296699047,47.38183925654721],[36.27892410219444,47.339008958442705],[36.31461601728216,47.335439766934584],[36.370533350918905,47.2985581213443],[36.42764041505901,47.27595324178856],[36.46690152165495,47.259297014748014],[36.47998855718763,47.24026132670039],[36.535905890824466,47.22479483016383],[36.58706430244982,47.21646671664263],[36.61918702602844,47.218846177649525],[36.68105301218003,47.22955375217407],[36.71198600525547,47.23431267418715],[36.73340115430785,47.23431267418715],[36.74172926782835,47.22836402167195],[36.75600603386359,47.23312294368406],[36.78455956593329,47.22598456066595],[36.81192336750043,47.23431267418715],[36.833338516552814,47.22241536915773],[36.85237420459954,47.21289752513441],[36.84880501309133,47.19981048960199],[36.86784070113726,47.191482376080785],[36.91067099924292,47.16649803551992],[36.934465609301135,47.16768776602292],[36.94160399231827,47.15816992200058],[36.95112183634203,47.16292884401171],[36.971347254891235,47.14984180848026],[36.98562402092649,47.14865207797726],[36.99038294293797,47.13080612043274],[37.01298782249362,47.12604719842152],[37.02845431903134,47.104632049368774],[37.02012620551085,47.07726824780182],[36.97372671589698,47.06656067327549],[36.92851695678638,47.040386602211626],[36.904722346728164,47.038007141205526],[36.89639423320767,47.026109836176204],[36.8702201621438,47.01064333963768],[36.8702201621438,46.98446926857382],[36.84404609107905,46.98208980756772],[36.857133126611025,46.970192502540165],[36.8702201621438,46.96305411952196],[36.86427150962905,46.948777353487515],[36.84880501309133,46.94758762298442],[36.82738986403886,46.93093139594299],[36.80954390649469,46.923793012926566],[36.803595253979935,46.88810109783849],[36.82738986403886,46.84408106923],[36.858322857114295,46.83218376420068],[36.88806611968727,46.82504538118434],[36.91021961709162,46.82050163587882],[36.94948072368729,46.83715786291759],[36.986362369277835,46.86690112549056],[37.02324401486838,46.86928058649754],[37.07083323498507,46.88712654404118]]]]}},{"type":"Feature","properties":{"kind":"district","id":"uyezd-1897-351","name":"Мариупольский","provinceId":"gubernia-1897-7"},"geometry":{"type":"MultiPolygon","coordinates":[[[[37.55743301067711,47.087001268530926],[37.56014753161411,47.09720331749398],[37.5768037586551,47.11266981403152],[37.59821890770731,47.122187658053946],[37.63391082279485,47.136464424089375],[37.652946510841495,47.136464424089375],[37.66603354637401,47.142413076603596],[37.66722327687683,47.15787957314211],[37.686258964923475,47.16739741716633],[37.71481249699335,47.16620768666332],[37.7255200715195,47.19119202722418],[37.744555759566055,47.195950949235396],[37.752883873086546,47.21379690677895],[37.74574549006888,47.222125020300155],[37.74693522057171,47.25305801337622],[37.75764279509785,47.25900666589044],[37.770729830630366,47.25900666589044],[37.77667848314441,47.243540169352],[37.78381686616208,47.24591963035802],[37.787386057671355,47.267334779409865],[37.79928336270024,47.27566289293009],[37.80404228471154,47.294698580976736],[37.81356012873478,47.30540615550315],[37.83973419979909,47.30183696399494],[37.84806231331958,47.308975347012165],[37.83616500829061,47.32563157405279],[37.84211366080545,47.33990834008822],[37.8575801573429,47.343477531596434],[37.86828773186896,47.352995375620644],[37.86709800136622,47.361323489139984],[37.84925204382232,47.35537483662665],[37.85044177432523,47.37797971618151],[37.86590827086331,47.38987702121092],[37.86471854036057,47.408912709257564],[37.87185692337824,47.4172408227778],[37.87661584538946,47.441035432835655],[37.88613368941278,47.47553761741984],[37.89208234192762,47.495763035969574],[37.91587695198548,47.49219384446136],[37.93134344852364,47.495763035969574],[37.93253317902647,47.513608993513124],[37.944430484056156,47.52312683753742],[37.95870725009069,47.512419263010116],[37.98845051266348,47.538593334075856],[37.984881321155,47.580233901677346],[37.96822509411401,47.600459320226996],[37.970604555119664,47.60759770324333],[38.033660271774345,47.60759770324333],[38.0657829953535,47.63734096581727],[38.063403534347046,47.670653419899345],[38.07887003088521,47.71824264001498],[38.09314679692055,47.74560644158282],[38.055075420826554,47.740847519569826],[38.03128081076869,47.76821132113768],[38.043178115797666,47.78248808717311],[38.033660271774345,47.78724700918432],[38.030091080265954,47.80033404471674],[38.00510673970438,47.78962647018944],[37.99558889568115,47.80628269723096],[37.970604555119664,47.81818000226038],[37.91825641299193,47.834836229301814],[37.89089261142488,47.834836229301814],[37.85995961834847,47.83602595980304],[37.81768084337931,47.83856629739515],[37.747486743707846,47.78621815526644],[37.70227698459689,47.745767318168035],[37.67610291353258,47.73505974364073],[37.712984559123036,47.70650621157165],[37.76295324024521,47.672004026986585],[37.7284510556612,47.667245104975365],[37.69037967956721,47.65296833893994],[37.66896453051491,47.63631211189939],[37.634462345930196,47.62798399837908],[37.59520123933417,47.62441480687086],[37.584493664808114,47.6434504949175],[37.586873125813675,47.664865643970245],[37.577355281790354,47.669624565981465],[37.51905848714778,47.661296452460256],[37.51667902614213,47.6434504949175],[37.52738660066827,47.58039477826247],[37.57973474279681,47.585153700273686],[37.634462345930196,47.589912622286676],[37.651118572971185,47.50663148708102],[37.62851369341615,47.500682834567684],[37.54285309720644,47.49235472104737],[37.57259635977914,47.4626114584744],[37.55475040223532,47.44952442294198],[37.559509324246626,47.434057926403554],[37.59996016134619,47.43286819590055],[37.60709854436315,47.424540082381114],[37.670154261017736,47.43286819590055],[37.6772926440355,47.41264277735081],[37.604719083357494,47.39598655031027],[37.597580700339826,47.37338167075541],[37.4179313943999,47.357915174216984],[37.43220816043524,47.426919543386326],[37.35249621673957,47.44595523143297],[37.30133780511466,47.4614217279714],[37.25255885449452,47.47212930249684],[37.23590262745433,47.441196309421755],[37.204969634378,47.40431466383147],[37.18474421582862,47.39717628081327],[37.16213933627359,47.39717628081327],[37.14786257023825,47.37576113176062],[37.15857014476431,47.348397330194544],[37.197831251360334,47.3281719116449],[37.22162586141899,47.31508487611248],[37.240661549465635,47.28058269152741],[37.259697237512185,47.2329934714108],[37.31918376265768,47.277013500019194],[37.37034217428339,47.30318757108315],[37.41555193339425,47.30437730158704],[37.50002279910114,47.30437730158704],[37.49407414658629,47.28653134404163],[37.48336657206015,47.26392646448677],[37.50240226010679,47.24964969845135],[37.503591990609614,47.22347562738837],[37.384618940318724,47.20800913084994],[37.39294705383842,47.16636856324844],[37.29538915259973,47.16160964123722],[37.250179393488864,47.15090206671001],[37.23471289695079,47.124727995645166],[37.206159364880826,47.08070796703766],[37.17998529381732,47.060482548487926],[37.10384254163012,47.0069446758571],[37.133585804203626,46.99504737082866],[37.09194523660124,46.966493838757806],[37.03602790296423,46.92961219316753],[37.06815062654258,46.901058661098446],[37.07083323498507,46.88712654404118],[37.12794029912456,46.89664438806352],[37.16125275320627,46.90378277108084],[37.20170359030556,46.91924926761838],[37.2052727818144,46.9311465726478],[37.24929281042244,46.95613091320955],[37.27665661198957,46.95018226069444],[37.33138421512314,46.928767111641704],[37.33138421512314,46.8859368135372],[37.30996906607058,46.86452166448455],[37.33733286763771,46.87522923901088],[37.363506938702024,46.89664438806352],[37.38135289624575,46.91686980661326],[37.41466535032755,46.94304387767713],[37.43727022988303,46.97754606226229],[37.47772106698152,47.03108393489312],[37.513412982069156,47.05487854495186],[37.55743301067711,47.087001268530926]]]]}},{"type":"Feature","properties":{"kind":"district","id":"uyezd-1897-758","name":"Новомосковский","provinceId":"gubernia-1897-7"},"geometry":{"type":"MultiPolygon","coordinates":[[[[34.61442231918407,49.13619082960669],[34.64178612075156,49.0993091840173],[34.665580730809594,49.060048077421015],[34.65487315628345,49.054099424904926],[34.631078546224614,49.05171996389981],[34.59776609214343,49.10525783653063],[34.58110986510271,49.120724333068175],[34.56564336856499,49.11715514156005],[34.525192531465606,49.098119453513405],[34.49663899939591,49.11001675854274],[34.495449268893,49.08622214848399],[34.482362233360305,49.06837619094044],[34.489500616377796,49.05647888591102],[34.47879304185165,49.03149454535105],[34.48117250285739,49.016028048812615],[34.484741694366136,48.98152586422746],[34.49306980788646,48.968438828695035],[34.5525563330323,48.92441880008842],[34.52638226196852,48.898244729024555],[34.47522385034291,48.93036745260175],[34.45261897078778,48.89348580701156],[34.447860048776214,48.85898362242826],[34.42882436072975,48.85660416142217],[34.42168597771155,48.83518901236854],[34.371717296589644,48.823291707340985],[34.33959457301049,48.806635480298574],[34.31817942395837,48.782840870240804],[34.282487508870474,48.745959224651415],[34.30472654094431,48.72190610773575],[34.33565953401984,48.692162845163665],[34.35826441357487,48.682645001139456],[34.377300101621515,48.66122985208769],[34.365402796592626,48.62910712850863],[34.38205902363353,48.620779014988315],[34.421320130229546,48.626727667502536],[34.45820177582001,48.60293305744467],[34.48556557738706,48.59460494392356],[34.51768830096621,48.56605141185448],[34.555759677059406,48.55772329833327],[34.61167701069642,48.55296437632206],[34.67235326634464,48.53868761028663],[34.729460330484486,48.500616234193345],[34.76039332356081,48.49109839017092],[34.82463877071823,48.505375156204565],[34.850812841781746,48.51965192223999],[34.89721233139544,48.51846219173699],[34.9555091260389,48.50775461721146],[35.05544648828315,48.48871892916482],[35.074482176329795,48.47563189363248],[35.08518975085665,48.4280426735149],[35.10422543890329,48.40543779396013],[35.13039950996752,48.40543779396013],[35.1422968149964,48.39354048893072],[35.15300438952255,48.32929504177356],[35.16609142505435,48.292413396183285],[35.19107576561574,48.23411660154035],[35.20773199265673,48.25672148109609],[35.22319848919419,48.24839336757489],[35.246993099252755,48.32215665875536],[35.3255153124456,48.34000261630078],[35.36120722753235,48.33405396378478],[35.38857102909948,48.33286423328266],[35.367155880047186,48.37212533987807],[35.39214022060876,48.37331507038107],[35.4230732136842,48.36736641786685],[35.43378078821034,48.35784857384442],[35.48850839134453,48.345951268815],[35.51825165391732,48.354279382334425],[35.526579767437724,48.37926372289529],[35.547994916490026,48.41019671597135],[35.546805185987196,48.432801595527984],[35.52063111492369,48.505375156204565],[35.51587219291158,48.523221113748114],[35.57178952654859,48.53749787978363],[35.572979257051415,48.56724114235749],[35.58844575358958,48.581517908391135],[35.59677386711007,48.592225482917456],[35.59201494509806,48.604122787947766],[35.59439440610372,48.620779014988315],[35.64674254823225,48.64814281655438],[35.661019314267584,48.66122985208769],[35.64674254823225,48.675506618121254],[35.624137668677214,48.67312715711702],[35.60986090264188,48.68740392315067],[35.62889659068843,48.70762934170032],[35.653880931249915,48.73023422125695],[35.67648581080495,48.7457007177936],[35.70265988186926,48.767115866847234],[35.73478260544832,48.7885310158981],[35.73478260544832,48.81589481746595],[35.72288530041864,48.85396619355924],[35.710987995389665,48.919401371220374],[35.70170380657015,48.95508740860801],[35.687427040535255,48.96103606112134],[35.69337569304983,48.97888201866587],[35.64102755092219,48.981261479671964],[35.62794051538941,48.972933366150755],[35.61723294086326,48.98721013218707],[35.57797183426751,48.989589593191305],[35.56488479873562,48.97769228816375],[35.51967503962457,48.97769228816375],[35.50182908208103,48.97888201866587],[35.48874204654834,48.975312827157744],[35.47327555001062,48.984830671181065],[35.443532287438096,49.001486898221614],[35.41735821637343,49.01933285576436],[35.38642522329799,49.02885069978768],[35.35549223022255,49.05026584884033],[35.32812842865506,49.07049126739007],[35.29719543557953,49.08000911141339],[35.29838516608245,49.09666533845393],[35.28767759155639,49.10499345197514],[35.2603137899889,49.10380372147116],[35.24722675445692,49.11451129599846],[35.19249915132264,49.11689075700358],[35.17465319377918,49.125218870523895],[35.19606834283139,49.12997779253689],[35.219862952890225,49.137116175554205],[35.20558618685462,49.141875097564444],[35.18655049880816,49.141875097564444],[35.17108400227043,49.14425455857143],[35.17465319377918,49.151392941587766],[35.19249915132264,49.154962133096866],[35.19606834283139,49.15972105510995],[35.17227373277335,49.16566970762417],[35.14253047020074,49.16447997712019],[35.11516666863325,49.15853132460597],[35.11516666863325,49.16804916862929],[35.104459094107185,49.16685943812628],[35.087802867066465,49.15853132460597],[35.06519798751063,49.16447997712019],[35.064008257007714,49.1763772821505],[35.04854176047,49.18113620416082],[35.02950607242353,49.1716183601375],[35.0057114623655,49.15734159410296],[34.97715793029509,49.16091078561206],[34.97239900828343,49.17518755164749],[34.961691433757366,49.189464317682024],[34.9355173626935,49.201361622710465],[34.91767140514915,49.19660270069925],[34.90101517810852,49.17875674315659],[34.88435895106797,49.15615186360085],[34.870082185033084,49.14425455857143],[34.871271915536,49.11451129599846],[34.874841107044745,49.064542614876736],[34.90577410012018,49.03123016079369],[34.88197949006214,49.01576366425704],[34.86175407151276,49.02647123878345],[34.84152865296267,49.064542614876736],[34.849856766482986,49.10737291298115],[34.847477305477156,49.15853132460597],[34.86532326302151,49.18351566516683],[34.86532326302151,49.194223239693244],[34.84033892245985,49.19660270069925],[34.82130323441338,49.201361622710465],[34.803457276869835,49.19541297019714],[34.80702646837849,49.18589512617382],[34.79037024133714,49.17875674315659],[34.78442158882265,49.18589512617382],[34.73802209920941,49.17875674315659],[34.74753994323264,49.16804916862929],[34.71422748915066,49.15615186360085],[34.684484226578135,49.151392941587766],[34.654740964005526,49.145444289073545],[34.61442231918407,49.13619082960669]]]]}},{"type":"Feature","properties":{"kind":"district","id":"uyezd-1897-759","name":"Бахмутский","provinceId":"gubernia-1897-7"},"geometry":{"type":"MultiPolygon","coordinates":[[[[38.25447405029044,49.02944953873616],[38.24494151823633,49.01263174335415],[38.242562057230586,48.99954470782271],[38.25564909276248,48.98526794178728],[38.26159774527723,48.973370636758744],[38.22947502169861,48.96147333172942],[38.21043933365188,48.9567144097182],[38.209249603148606,48.94719656569488],[38.22114690817811,48.94481710468878],[38.22352636918386,48.9412479131788],[38.20568041163969,48.93529926066546],[38.17950634057573,48.93173006915548],[38.14262469498563,48.93529926066546],[38.09384574436602,48.92935060815124],[38.074810056319286,48.94005818267668],[38.05577436827255,48.9412479131788],[38.03197975821443,48.93529926066546],[38.02960029720869,48.92221222513304],[38.046256524249586,48.903176537085514],[38.06529221229632,48.89246896256096],[38.06886140380453,48.86272569998711],[38.07599978682256,48.85082839495769],[38.07599978682256,48.83893108992836],[38.06172302078731,48.824654323893824],[38.053394907266906,48.813946749367496],[38.06172302078731,48.804428905344174],[38.04387706324385,48.772306181766],[38.052205176763636,48.76159860723968],[38.046256524249586,48.750891032713255],[38.02841056670542,48.748511571708136],[38.01056460916196,48.75683968522846],[37.964165119548085,48.749701302210255],[37.91776562993422,48.73899372768393],[37.87255587082362,48.73423480567271],[37.84400233875401,48.71757857863119],[37.81663853718679,48.70211208209365],[37.80831042366629,48.679507202537906],[37.79165419662539,48.669989358514584],[37.79165419662539,48.660471514492244],[37.77856716109332,48.658092053485255],[37.73454713248529,48.665230436503364],[37.716701174941825,48.67355855002457],[37.690527103877955,48.67355855002457],[37.67625033784262,48.666420167005484],[37.62866111772637,48.678317472034905],[37.588210280627166,48.69735316008243],[37.55608755704854,48.71876830913428],[37.55489782654527,48.740183458186934],[37.52872375548132,48.74137318868905],[37.52991348598459,48.728286153157605],[37.52753402497805,48.71400938712307],[37.53943133000756,48.70925046511185],[37.54062106051083,48.70211208209365],[37.5334826774928,48.68664558555611],[37.521585372464095,48.68545585505311],[37.51206752844042,48.668799628011584],[37.498980492908444,48.64738447895982],[37.48946264888548,48.62240013839896],[37.465668038826465,48.61645148588376],[37.464478308324075,48.581949301298685],[37.45852965580933,48.57362118777925],[37.43830423726013,48.57838010979047],[37.42878639323636,48.585518492808674],[37.41450962720111,48.581949301298685],[37.40261232217249,48.566482804761144],[37.385956095131505,48.57124172677227],[37.37286905959961,48.56291361325293],[37.28244954137753,48.55458549973173],[37.238429512770196,48.53911900319419],[37.20511705868822,48.520083315147545],[37.17180460460713,48.516514123638444],[37.16942514360059,48.53792927269207],[37.14800999454812,48.59503633683111],[37.13611268951949,48.600984989346216],[37.12064619298178,48.62240013839896],[37.080195355882665,48.64619474845584],[37.0623493983384,48.679507202537906],[37.036175327274535,48.68545585505311],[36.993345029169674,48.69378396857245],[36.95408392257295,48.69021477706432],[36.92077146849185,48.69616342957854],[36.89816658893611,48.71044019561485],[36.847008177310755,48.70568127360186],[36.82797248926411,48.69735316008243],[36.81369572322967,48.70092235159065],[36.78633192166244,48.69973262108853],[36.78633192166244,48.69140450756733],[36.76491677261006,48.68664558555611],[36.72922485752234,48.69735316008243],[36.728589954632426,48.6975436309494],[36.72224749884333,48.67904480156544],[36.7210577683405,48.66357830502692],[36.724626959849786,48.646922077986375],[36.734144803873015,48.640973425472154],[36.751990761416124,48.53151821920343],[36.79482105952133,48.5208106446771],[36.81266701706515,48.448237084000525],[36.81861566957999,48.3875608283506],[36.81742593907717,48.36495594879584],[36.819805400082814,48.35662783527552],[36.85668704567318,48.35305864376731],[36.872153542210555,48.36138675728674],[36.89237896076073,48.36138675728674],[36.92450168433918,48.23527532397746],[36.93520925886523,48.2102909834166],[36.93758871987089,48.198393678387184],[36.90189680478405,48.19125529537085],[36.89237896076073,48.18292718185053],[36.874533003217,48.18768610386175],[36.866204889696505,48.18292718185053],[36.8911892302572,48.08180008910221],[36.93758871987089,48.031831407980484],[36.96614225194156,48.01279571993295],[37.01968012457212,48.01041625892685],[37.041095273625125,48.01398545043685],[37.058941231168944,48.00565733691564],[37.08630503273528,48.00327787590963],[37.10415099027901,48.01041625892685],[37.12199694782282,48.00684706741865],[37.16482724592804,48.01279571993295],[37.224313771073525,48.01279571993295],[37.249298111635014,48.00565733691564],[37.27309272169358,47.99970868440142],[37.293009691594165,48.00988748981404],[37.30847618813153,47.99799018478649],[37.340598911710686,47.992041532270406],[37.38580867082155,47.992041532270406],[37.41555193339425,47.980144227242846],[37.45243357898471,47.971816113720756],[37.48336657206015,47.95872907819011],[37.53333525318312,47.94683177316078],[37.577355281790354,47.92422689360415],[37.62494450190696,47.902811744553276],[37.68205156604751,47.87187875147721],[37.715364020128604,47.87901713449355],[37.732020247169594,47.85403279393269],[37.774850545274894,47.84213548890336],[37.81768084337931,47.83856629739515],[37.85995961834847,47.83602595980304],[37.89089261142488,47.834836229301814],[37.91825641299193,47.834836229301814],[37.970604555119664,47.81818000226038],[37.99558889568115,47.80628269723096],[38.00827935437886,47.81818000226035],[38.02136638991066,47.82769784628269],[38.003520432367644,47.83721569030699],[38.00471016287047,47.85625137835363],[37.98091555281181,47.85625137835363],[37.960690134262435,47.868148683382074],[37.93451606319812,47.870528144389056],[37.916670105654305,47.89194329344082],[37.889306304087256,47.91692763400168],[37.86432196352657,47.924066017018994],[37.85599385000607,47.964516854119175],[37.85480411950325,47.98831146417703],[37.870270616040614,48.020434187756095],[37.88335765157321,48.04184933680884],[37.877408999058375,48.05017745032818],[37.88573711257878,48.07992071290212],[37.889306304087256,48.102525592456885],[37.924998219174796,48.106094783965105],[37.95712094275395,48.107284514468105],[37.97734636130342,48.12988939402474],[38.01184854588734,48.13226885502897],[38.047540460974886,48.14059696855017],[38.08204264555969,48.14416616005839],[38.09275022008583,48.16082238709893],[38.1379599791967,48.178668344643455],[38.14509836221437,48.194134841181],[38.16889297227223,48.20603214621131],[38.18911839082241,48.2036526852053],[38.243845993955794,48.20722187671254],[38.24979464647063,48.21792945123886],[38.23908707194458,48.22744729526316],[38.24741518546507,48.250052174817924],[38.2783481785406,48.250052174817924],[38.32236820714864,48.248862444315805],[38.37114715776798,48.250052174817924],[38.36638823575667,48.273846784875786],[38.386613654306146,48.28574408990609],[38.41754664738167,48.278605706888776],[38.423495299896516,48.28812355091121],[38.43182341341701,48.30715923895785],[38.45561802347487,48.336902501531796],[38.45799748448052,48.36307657259478],[38.44491044894872,48.39757875717984],[38.44134125744033,48.420183636734706],[38.43182341341701,48.43446040277013],[38.428254221907736,48.45825501282799],[38.44491044894872,48.46420366534221],[38.44134125744033,48.497516119424276],[38.461566675989715,48.502275041435496],[38.477033172527875,48.52963884300334],[38.49130993856241,48.55938210557542],[38.507966165603406,48.55938210557542],[38.523432662141566,48.58317671563417],[38.53295050616489,48.60697132569203],[38.50558670459784,48.59983294267569],[38.49012020805968,48.60578159518991],[38.467515328504554,48.62719674424167],[38.47108452001304,48.646232432288315],[38.45561802347487,48.65931946782074],[38.4782229030307,48.67716542536438],[38.49725859107734,48.6926319219028],[38.49012020805968,48.69858057441702],[38.47346398101868,48.69858057441702],[38.47346398101868,48.739031411517296],[38.467515328504554,48.77353359610059],[38.47346398101868,48.79613847565722],[38.49130993856241,48.821122816218086],[38.49130993856241,48.85562500080138],[38.494799611879486,48.87359484285294],[38.47933311534105,48.89263053090056],[38.44958985276888,48.90571756643298],[38.39605198013699,48.94259921202317],[38.36630871756411,48.97829112711045],[38.33299626348293,49.00803438968253],[38.28897623487481,49.02825980823306],[38.25447405029044,49.02944953873616]]]]}},{"type":"Feature","properties":{"kind":"district","id":"uyezd-1897-760","name":"Славяносербский","provinceId":"gubernia-1897-7"},"geometry":{"type":"MultiPolygon","coordinates":[[[[38.494799611879486,48.87359484285294],[38.49130993856241,48.85562500080138],[38.49130993856241,48.821122816218086],[38.47346398101868,48.79613847565722],[38.467515328504554,48.77353359610059],[38.47346398101868,48.739031411517296],[38.47346398101868,48.69858057441702],[38.49012020805968,48.69858057441702],[38.49725859107734,48.6926319219028],[38.4782229030307,48.67716542536438],[38.45561802347487,48.65931946782074],[38.47108452001304,48.646232432288315],[38.467515328504554,48.62719674424167],[38.49012020805968,48.60578159518991],[38.50558670459784,48.59983294267569],[38.53295050616489,48.60697132569203],[38.523432662141566,48.58317671563417],[38.507966165603406,48.55938210557542],[38.49130993856241,48.55938210557542],[38.477033172527875,48.52963884300334],[38.461566675989715,48.502275041435496],[38.44134125744033,48.497516119424276],[38.44491044894872,48.46420366534221],[38.428254221907736,48.45825501282799],[38.43182341341701,48.43446040277013],[38.44134125744033,48.420183636734706],[38.44491044894872,48.39757875717984],[38.45799748448052,48.36307657259478],[38.45561802347487,48.336902501531796],[38.43182341341701,48.30715923895785],[38.423495299896516,48.28812355091121],[38.41754664738167,48.278605706888776],[38.386613654306146,48.28574408990609],[38.36638823575667,48.273846784875786],[38.37114715776798,48.250052174817924],[38.40366645818118,48.229694563990975],[38.42270214622773,48.227315102983994],[38.43816864276589,48.21779725896155],[38.45244540880043,48.21660752845855],[38.4940859764029,48.229694563990975],[38.51550112545511,48.241591869019416],[38.5321573524961,48.241591869019416],[38.547623849033464,48.23207402499698],[38.582126033618266,48.20352049292613],[38.61662821820299,48.170208038844066],[38.673735282342825,48.16306965582684],[38.68682231787454,48.169018308342835],[38.71299638893876,48.17615669136015],[38.76772399207303,48.17972588286827],[38.82840024772206,48.18210534387348],[38.86766135431809,48.174966960857056],[38.94618356751013,48.142844237278084],[38.96640898606031,48.14998262029619],[38.99377278762736,48.13689558476377],[39.01875712818813,48.152362081300424],[39.02946470271419,48.18686426588647],[39.06277715679617,48.20114103192012],[39.083002575345546,48.21541779795555],[39.124643142948024,48.21541779795555],[39.191268051111095,48.22136645046977],[39.21625239167178,48.21065887594433],[39.24718538474811,48.21541779795555],[39.28049783882929,48.220176719966766],[39.306671909893595,48.21184860644733],[39.32213840643168,48.251109713043626],[39.343553555483965,48.25467890455184],[39.35664059101648,48.236832947008196],[39.37329681805667,48.245161060529405],[39.40898873314421,48.2439713300264],[39.426834690688025,48.235643216505196],[39.450629300746684,48.236832947008196],[39.451819031249514,48.24754052153364],[39.43040388219722,48.2796632451127],[39.473234180301716,48.28442216712392],[39.48632121583423,48.29275028064512],[39.53866935796205,48.32725246522931],[39.58744830858131,48.33796003975661],[39.64098618121275,48.2760940536036],[39.67310890479182,48.296319472153336],[39.629088876183786,48.34866761428205],[39.65050402523599,48.35818545830625],[39.70166243686178,48.41053360043319],[39.72783650792601,48.4176719834513],[39.73973381295498,48.42600009697251],[39.74092354345781,48.44384605451526],[39.76471815351638,48.48667635261976],[39.79089222457989,48.50095311865519],[39.84918901922335,48.51285042368451],[39.86465551576063,48.51879907619873],[39.85989659374941,48.541403955753594],[39.85989659374941,48.554490991286016],[39.850378749726175,48.56876775732144],[39.817066295644196,48.58661371486508],[39.78613330256867,48.59732128939229],[39.76471815351638,48.58780344536808],[39.73854408245215,48.5925623673793],[39.71950839440551,48.591372636876294],[39.69452405384412,48.58899317587108],[39.6683499827798,48.59018290637418],[39.64574510322477,48.58661371486508],[39.65050402523599,48.48548662211667],[39.6088634576344,48.461692012058805],[39.6041045356223,48.57828560134565],[39.59696615260463,48.5949418283853],[39.573171542546774,48.5937520978823],[39.55770504600861,48.59732128939229],[39.536289896956404,48.58661371486508],[39.51368501740128,48.63301320447957],[39.47799310231373,48.63777212648981],[39.44706010923741,48.65680781453743],[39.418506577167534,48.66513592805765],[39.40779900264138,48.68060242459519],[39.36139951302769,48.70558676515615],[39.35426113001003,48.72938137521578],[39.34117409447832,48.76864248181207],[39.31024110140279,48.780539786839626],[39.299057431849945,48.7736574806086],[39.28002174380322,48.75581152306407],[39.265744977767966,48.75224233155586],[39.2597963252541,48.73796556552043],[39.24195036770985,48.74391421803652],[39.23481198469262,48.7165504164677],[39.20625845262221,48.707032572444376],[39.184843303569735,48.71179149445648],[39.147961657979636,48.674909848866285],[39.132495161441916,48.67253038786107],[39.11583893440101,48.65944335232874],[39.0837162108223,48.65944335232874],[39.058731870260914,48.65349469981355],[39.03731672120844,48.651115238807535],[39.01352211115022,48.66063308283175],[39.00043507561824,48.702273650433156],[38.983778848577344,48.71417095546258],[38.98615830958309,48.72844772149711],[38.97188154354863,48.74629367904164],[38.945707472483974,48.73915529602344],[38.93143070644952,48.74986287054976],[38.90287717437903,48.74867314004764],[38.858857145771694,48.75581152306407],[38.833872805210305,48.753432062059844],[38.794611698613565,48.76532936708739],[38.76248897503495,48.77484721111071],[38.75416086151445,48.768898558597385],[38.74345328698821,48.760570445076176],[38.689915414357216,48.760570445076176],[38.66374134329325,48.77484721111071],[38.62329050619414,48.78436505513493],[38.607824009656426,48.803400743180674],[38.58759859110651,48.80934939569579],[38.5757012860778,48.82481589223333],[38.54595802350484,48.837902927765754],[38.494799611879486,48.87359484285294]]]]}}]}
