{"type":"FeatureCollection","features":[{"type":"Feature","properties":{"kind":"province","id":"gubernia-1897-3","name":"Орловская губерния"},"geometry":{"type":"MultiPolygon","coordinates":[[[[36.00607311471114,53.61403322797196],[35.99298607917846,53.62117161098918],[35.97514012163473,53.6390175685337],[35.90375629145973,53.6390175685337],[35.87877195089851,53.61998188048618],[35.85973626285241,53.589048887411096],[35.832372461284734,53.581910504393775],[35.82404434776486,53.559305624838125],[35.8085778512267,53.54859805031082],[35.797870276700465,53.53670074528238],[35.80143946820921,53.51409586572664],[35.826423808770514,53.515285596229646],[35.84783895782299,53.511716404720545],[35.85854653234922,53.498629369189985],[35.839510844302225,53.479593681142454],[35.81214704273545,53.47721422013636],[35.78954216317979,53.481973142147574],[35.75503997859552,53.47840395063936],[35.76693728362484,53.45936826259272],[35.7954908156949,53.4522298795755],[35.820475156256116,53.44271203555218],[35.826423808770514,53.43319419152796],[35.84902868832617,53.43914284404396],[35.8668746458699,53.432004461026736],[35.85497734084048,53.421296886499434],[35.82999300027926,53.418917425494314],[35.81214704273545,53.41177904247709],[35.79192162418615,53.416537964488306],[35.79192162418615,53.435573652533975],[35.72648644652546,53.44271203555218],[35.72648644652546,53.46531691510792],[35.69198426194119,53.48078341164546],[35.655102616350554,53.45936826259272],[35.607513396234395,53.46888610661702],[35.56111390662052,53.491490986170895],[35.55493391761891,53.484154314736784],[35.55255445661308,53.46511862669014],[35.54779553460142,53.43775482512318],[35.53113930756079,53.44608293864439],[35.50020631448544,53.427047250597745],[35.469273321409204,53.42942671160384],[35.38599218620523,53.412770484561435],[35.34078242709418,53.410391023557196],[35.305090512007176,53.39254506601267],[35.27462415494432,53.382072255772044],[35.26701913591344,53.37945803048025],[35.22775802931769,53.38183749148723],[35.23013749032352,53.371129916960825],[35.21824018529455,53.38064776098325],[35.212291532779176,53.39016560500657],[35.193255844732796,53.405632101544114],[35.18254827020665,53.406821832047214],[35.16351258216027,53.415149945568416],[35.14804608562255,53.41396021506532],[35.14685635511964,53.400873179533875],[35.13614878059269,53.39492452701868],[35.11116444003174,53.36518126444483],[35.10997470952891,53.34971476790817],[35.080231446956304,53.33424827136965],[35.080231446956304,53.325920157848444],[35.023124382816285,53.337817462877865],[35.013606538793056,53.37826829997813],[34.973155701693585,53.38183749148723],[34.961258396664604,53.38897587450357],[34.90296160202159,53.38897587450357],[34.86251076492212,53.35447368991841],[34.8125420838003,53.35090449841029],[34.78398855172989,53.34614557639907],[34.74115825362539,53.35209422891418],[34.73639933161373,53.39373479651479],[34.667394962444654,53.39373479651479],[34.65430792691197,53.405632101544114],[34.63765169987133,53.404442371042],[34.584113827239975,53.417529406574424],[34.52581703259775,53.44608293864439],[34.48655592600129,53.47106727920436],[34.435397514375666,53.479395392725564],[34.396136407779906,53.51151811630463],[34.38899802476251,53.562676527930336],[34.39494667727699,53.5840916769821],[34.38423910275085,53.59479925150754],[34.38542883325376,53.634060358103824],[34.40208506029448,53.66618308168289],[34.431828322867005,53.69592634425683],[34.42231047884378,53.70425445777617],[34.39375694677417,53.68759823073563],[34.37829045023645,53.69116742224375],[34.360444492692096,53.70782364928439],[34.29738877603751,53.77444855744852],[34.28430174050562,53.791104784490045],[34.29262985402593,53.83393508259455],[34.28668120151136,53.85059130963421],[34.24147144240112,53.84940157913209],[34.183174647758186,53.943390288863185],[34.158190307196435,53.91007783478014],[34.142723810658715,53.91007783478014],[34.127257314120996,53.89104214673448],[34.05587348394609,53.88866268572838],[34.00590480282338,53.895801068745605],[33.96783342673054,53.887472955224396],[33.94522854717462,53.870816728183854],[33.90001878806438,53.87438591969384],[33.88693175253249,53.91007783478014],[33.85956795096491,53.91840594830135],[33.83577334090687,53.91245729578624],[33.829824688392385,53.9362519058441],[33.83339387990104,53.954097863388625],[33.814358191854666,53.957667054896746],[33.74416409218267,53.950528671879525],[33.73107705664998,53.964805437914066],[33.729887326147065,53.97789247344649],[33.740594900673926,53.99216923948191],[33.74178463117684,54.00406654451035],[33.75963058872039,54.00525627501433],[33.765579241234875,54.033809807084296],[33.67634945351651,54.0349995375873],[33.66543656096182,54.02927592358171],[33.66662629146474,53.994773738996635],[33.67376467448214,53.96384074592155],[33.65353925593276,53.95194344089214],[33.62617545436607,53.942425596868816],[33.6356932983893,53.9329077528446],[33.67019548297348,53.938856405359715],[33.67495440498506,53.93171802234249],[33.66662629146474,53.91982071731307],[33.68090305749955,53.90554395127853],[33.66543656096182,53.90197475976854],[33.636883028892214,53.90554395127853],[33.629744645874815,53.88412880222588],[33.66543656096182,53.867472575185246],[33.68923117101986,53.85319580914893],[33.620226801850784,53.84962661764072],[33.571447851231795,53.79846820601599],[33.515530517594605,53.74493033338419],[33.51077159558304,53.73065356734965],[33.51909970910335,53.713997340309106],[33.47745914150106,53.71994599282243],[33.453664531442925,53.716376801314226],[33.42511099937332,53.704479496285785],[33.41440342484717,53.69377192175857],[33.38703962327968,53.69734111326856],[33.331122289642494,53.67592596421582],[33.32398390662509,53.65094162365406],[33.31327633209894,53.63904431862554],[33.28710226103516,53.63666485761953],[33.25497953745601,53.65570054566617],[33.23713357991246,53.67354650320883],[33.214528700357334,53.67354650320883],[33.22761573588923,53.63904431862554],[33.24546169343277,53.58550644599382],[33.200251934321734,53.590265368005035],[33.16099082772598,53.5759886019705],[33.14671406169117,53.598593481526244],[33.149093522696916,53.621198361081014],[33.13481675666211,53.63785458812164],[33.13719621766794,53.64856216264797],[33.12529891263817,53.66759785069461],[33.105073494088785,53.6711670422046],[33.0634329264872,53.65808000667129],[33.01703343687325,53.64618270164285],[32.99323882681521,53.634285396613436],[32.98847990480364,53.620008630578894],[33.00751559285001,53.60097294253225],[33.05510481296618,53.60097294253225],[33.061053465481464,53.58312698498773],[33.08722753654524,53.56766048844929],[33.10150430258013,53.53910695638022],[33.0848480755395,53.5295891123569],[33.06224319598429,53.526019920848775],[33.04320750793711,53.49865611928092],[33.02655128089648,53.479620431235176],[33.03963831642845,53.467723126205755],[33.038448585925536,53.45701555167854],[33.02536155039356,53.44511824665001],[33.020602628381994,53.42489282809947],[33.04082804693137,53.388011182509196],[33.038448585925536,53.36659603345832],[33.038448585925536,53.34399115390258],[33.01703343687325,53.32376573535204],[32.961116103236144,53.32138627434595],[32.92899337965779,53.32019654384294],[32.91947553563456,53.32733492686204],[32.8944911950728,53.32257600484993],[32.87664523752926,53.3011608557963],[32.89211173406697,53.282125167749655],[32.91471661362219,53.26071001869789],[32.943270145692594,53.26665867121301],[32.96825448625354,53.27141759322422],[32.99442855731812,53.270227862721214],[33.01227451486167,53.25238190517847],[33.010496639835274,53.24066187955558],[33.02018344527829,53.2383826312152],[33.08204943142917,53.178896106070155],[33.11774134651698,53.16105014852563],[33.165330566633855,53.15748095701751],[33.209350595241276,53.17056799254895],[33.25099116284357,53.17056799254895],[33.28430361692484,53.182465297579256],[33.31523661000108,53.207449638141014],[33.28430361692484,53.21339829065434],[33.246232240832,53.21458802115832],[33.2533706238494,53.23481343970708],[33.30690849648076,53.2395723617183],[33.327133915030046,53.252659397251605],[33.37710259615275,53.258608049764945],[33.3949485536963,53.26693616328615],[33.37829232665567,53.28240265982458],[33.424691816268826,53.29429996485213],[33.44610696532183,53.27526427680549],[33.45086588733349,53.260987510770946],[33.48774753292342,53.255038858256725],[33.587684895168735,53.23600317021098],[33.64122276779929,53.22410586518164],[33.665017377858135,53.23243397870098],[33.691191448922,53.216967482164335],[33.71736551998586,53.21934694316856],[33.73521147753013,53.21934694316856],[33.7328320165243,53.20982909914524],[33.71736551998586,53.20982909914524],[33.69714010143649,53.1931728721047],[33.66858656936679,53.186034489087476],[33.654309803331984,53.16105014852563],[33.674535221881364,53.14439392148509],[33.64955088132041,53.13725553846777],[33.62575627126158,53.11465065891301],[33.59125408667748,53.09323550986116],[33.629325462770325,53.07895874382484],[33.69238117942491,53.04207709823554],[33.711416867471286,53.04207709823554],[33.74472932155336,53.0575435947721],[33.773282853622966,53.0706306303055],[33.80064665519055,53.0706306303055],[33.81968234323692,53.04683602024578],[33.82206180424275,53.019472218679795],[33.864892102347966,53.034938715218225],[33.892255903914744,53.034938715218225],[33.9101018614583,53.01471329666769],[33.877979137879855,52.98497003409463],[33.844666683797875,52.96831380705409],[33.818492612734005,52.95165758001345],[33.78874935016148,52.95165758001345],[33.77685204513171,52.97664192057529],[33.73878066903878,52.952847310515565],[33.70665794545972,52.938570544482005],[33.69000171841908,52.91715539542838],[33.72569363350689,52.90882728190904],[33.74472932155336,52.89098132436452],[33.69000171841908,52.864807253300555],[33.656689264337814,52.873135366821764],[33.62337681025575,52.865996983802674],[33.60910004422094,52.90168889889173],[33.57697732064187,52.89811970738174],[33.55913136309833,52.89098132436452],[33.560321093601246,52.881463480341196],[33.534147022537375,52.874325097323876],[33.484178341414676,52.84934075676213],[33.424691816268826,52.84696129575603],[33.41874316375434,52.85528940927723],[33.400897206210786,52.85409967877512],[33.36401556062006,52.864807253300555],[33.35092852508818,52.85053048726602],[33.34141068106494,52.826735877208165],[33.37472313514692,52.808889919663635],[33.38899990118173,52.78985423161699],[33.385430709673074,52.75773150803802],[33.41279451123977,52.75178285552282],[33.44610696532183,52.7446444725056],[33.48893726342634,52.7446444725056],[33.49131672443217,52.712521748927415],[33.44967615683058,52.7113320184253],[33.431830199286225,52.70657309641231],[33.431830199286225,52.69348606088077],[33.469901575379865,52.68515794736046],[33.50678322096988,52.67801956434235],[33.51511133449091,52.66969145082292],[33.50202429895822,52.65898387629659],[33.477039958397356,52.656604415290495],[33.43777885180151,52.633999535734844],[33.42826100777748,52.609015195173],[33.38899990118173,52.58997950712636],[33.38424097917016,52.561425975056395],[33.39137936218756,52.54714920902185],[33.403276667216616,52.53168271248521],[33.37829232665567,52.52097513795799],[33.37591286564984,52.492421605888026],[33.37948205715858,52.47338591784227],[33.3949485536963,52.46743726532716],[33.4151739722456,52.46981672633228],[33.4151739722456,52.45672969079986],[33.41041505023402,52.44245292476532],[33.43777885180151,52.41508912319934],[33.45443507884215,52.411519931689355],[33.4651426533683,52.38772532163149],[33.469901575379865,52.36512044207575],[33.467522114374034,52.342515562520006],[33.458004270350806,52.329428526988565],[33.462763192362466,52.31277229994792],[33.441348043310256,52.31158256944581],[33.44015831280734,52.2973058034095],[33.45919400085372,52.28064957636886],[33.52700863951998,52.27945984586675],[33.57578759013896,52.27470092385464],[33.60196166120354,52.2996852644155],[33.63646384578772,52.30206472542249],[33.661448186349475,52.30801337793671],[33.66858656936679,52.322290143971244],[33.6067205832152,52.328238796486445],[33.56626974611573,52.323479874473364],[33.581736242654245,52.335377179503666],[33.618617888244174,52.34132583201789],[33.64122276779929,52.34846421503521],[33.68286333540168,52.360361520065425],[33.70665794545972,52.37820747760817],[33.73045255551855,52.36749990308273],[33.79112881116731,52.37701774710605],[33.84228722279214,52.37106909459086],[33.85775371932985,52.35679232855641],[33.86370237184505,52.325859335479464],[33.87678940737703,52.31396203045004],[33.92080943598435,52.31515176095402],[33.95293215956351,52.2996852644155],[33.963639734089654,52.25566523580889],[33.99100353565635,52.23900900876647],[34.013608415212275,52.21878359021772],[34.04811059979646,52.20569655468539],[34.06357709633417,52.19855817166807],[34.07071547935237,52.170004639598105],[34.0861819758901,52.15929706507267],[34.10759712494239,52.14621002954025],[34.11711496896554,52.1295538024997],[34.10402793343364,52.1152770364633],[34.05524898281386,52.114087305961185],[34.007659762697784,52.117656497470286],[33.9672089255984,52.14502029903636],[33.94222458503745,52.117656497470286],[33.90071620971299,52.09756327119883],[33.91261351474205,52.0797173136543],[33.93878758580663,52.07495839164309],[33.9649616568705,52.07733785264918],[33.99232545843799,52.06187135611076],[34.037535217548324,52.047594590075235],[34.09226282068259,52.02736917152559],[34.117247161243455,52.00833348347895],[34.13152392727906,51.98572860392507],[34.11605743074054,51.95955453286112],[34.14699042381678,51.91434477374874],[34.155318537337095,51.89887827721218],[34.086314168168016,51.885791241679755],[34.114867700237625,51.8596171706158],[34.18030287789805,51.85009932659248],[34.250496977570045,51.84177121307127],[34.27191212662305,51.85485824860369],[34.32069107724204,51.884601511175774],[34.36471110585016,51.84771986558647],[34.39088517691403,51.83344309955193],[34.40397221244672,51.810838219996185],[34.40632251086802,51.835917635380625],[34.384907361815735,51.85257386242117],[34.38609709231865,51.86685062845571],[34.40394304986219,51.87160955046781],[34.45034253947615,51.90254254354298],[34.43368631243552,51.915629579075315],[34.387286822821565,51.88588631650235],[34.35992302125478,51.906111735051994],[34.32899002817863,51.915629579075315],[34.3337489501902,51.93823445863017],[34.36706140427227,51.93228580611595],[34.389666283827395,51.954890685670804],[34.387286822821565,51.982254487239544],[34.422978737908664,52.01675667182283],[34.48603445456317,52.04649993439669],[34.540762057697435,52.08219184948397],[34.57407451177951,52.070294544454555],[34.57288478127659,52.04649993439669],[34.61809454038692,52.04649993439669],[34.657355646983476,52.067915083448455],[34.694237292573405,52.066725352946335],[34.728739477158385,52.08100211897999],[34.74896489570768,52.10003780702663],[34.719221633135156,52.15952433217265],[34.68471944855017,52.16904217619597],[34.688288640058914,52.21306220480437],[34.7073243281061,52.226149240336795],[34.75729300922799,52.21663139631258],[34.776328697275176,52.19402651675773],[34.80845142085353,52.19878543876983],[34.86436875449071,52.208303282792265],[34.88221471203427,52.23090816234712],[34.8988709390749,52.24399519787946],[34.8988709390749,52.25589250290887],[34.87745579002261,52.25351304190278],[34.8703174070052,52.26422061643008],[34.90957851360096,52.28563576548184],[34.92742447114531,52.3094303755397],[34.932183393156876,52.335604446603654],[34.92385527963656,52.354640134650296],[34.90719905259513,52.36772717018263],[34.904069602744755,52.36944836760038],[34.92372308735784,52.37195732308286],[34.95584581093708,52.36957786207587],[34.97607122948637,52.355301096042226],[35.005814492058896,52.34340379101192],[35.02960910211773,52.312470797935944],[35.022470719100326,52.27796861335176],[35.02841937161482,52.26845076932844],[35.048644790164104,52.270830230335335],[35.06649074770766,52.28986591838198],[35.09266481877232,52.30771187592473],[35.112890237321615,52.31366052843984],[35.12002862033901,52.342214060509804],[35.165238379450145,52.36362920956165],[35.21639679107488,52.339834599503796],[35.224724904595995,52.30771187592473],[35.27112439420915,52.31366052843984],[35.29016008225633,52.28272753536298],[35.317523883823114,52.274399421843555],[35.335369841366656,52.25893292530512],[35.38176933098053,52.22799993222995],[35.406753671541566,52.22205127971573],[35.39842555802116,52.23275885424117],[35.45434289165836,52.23870750675636],[35.48408615423088,52.22443074072183],[35.509070494792624,52.22562047122394],[35.513829416804285,52.21253343569241],[35.58164405547045,52.23751777625238],[35.59830028251109,52.239897237258475],[35.61257704854589,52.24465615927058],[35.6268538145807,52.2470356202757],[35.64351004162213,52.25060481178569],[35.65302788564536,52.25893292530512],[35.668494382183084,52.25536373379691],[35.68039168721205,52.26131238631113],[35.71608360229995,52.26012265580901],[35.73749875135216,52.281537804860776],[35.750585786884045,52.28272753536298],[35.764862552918856,52.2910556488841],[35.79460581549226,52.2934351098902],[35.82910800007636,52.2934351098902],[35.857661532146764,52.30176322340962],[35.88264587270781,52.30057349290742],[35.90406102175993,52.28748645737598],[35.9587886248942,52.28510699636899],[35.9802037739465,52.30176322340962],[36.00637784501116,52.30176322340962],[36.05872598713952,52.31722971994805],[36.0932281717237,52.31722971994805],[36.142007122343486,52.31603998944594],[36.18364768994499,52.31841945045194],[36.22409852704446,52.336265407994695],[36.24551367609675,52.362439479058565],[36.31332831476291,52.37314705358497],[36.32403588928898,52.382664897608294],[36.35919903526438,52.372882669029394],[36.39013202833982,52.35622644198885],[36.419875290913225,52.33957021494821],[36.44485963147409,52.32053452690157],[36.448428822982834,52.30387829985925],[36.492448851590964,52.27413503728806],[36.494828312596795,52.243202044212],[36.54003807170704,52.22892527817568],[36.56145322076004,52.2420123137081],[36.5935759443384,52.2420123137081],[36.58048890880651,52.22892527817568],[36.57810944780068,52.213458781639034],[36.60190405785872,52.20632039862171],[36.6149910933914,52.213458781639034],[36.62926785942629,52.20988959012904],[36.63164732043204,52.19680255459839],[36.64949327797559,52.18728471057507],[36.654252199987155,52.17181821403665],[36.66971869652488,52.17062848353275],[36.68637492356631,52.18252578856208],[36.72920522167081,52.18133605805997],[36.756569023238306,52.17300794453876],[36.774414980781856,52.149213334480905],[36.780363633296346,52.123039263417034],[36.811296626371785,52.1099522278855],[36.843419349950935,52.11114195838762],[36.923131293646165,52.123039263417034],[36.923131293646165,52.099244653358284],[36.98975620180941,52.105193305872504],[37.03972488293211,52.136126298949456],[37.06589895399598,52.15159279548611],[37.117057365621505,52.1551619869961],[37.156318472217265,52.13136737693824],[37.17297469925861,52.1063830363764],[37.21699472786602,52.07188085179133],[37.18249254328184,52.04094785871527],[37.24911745144518,52.01953270966351],[37.28718882753802,52.00168675211898],[37.3133628986026,52.01477378765229],[37.3419164306723,52.032619745195035],[37.37879807626222,51.97789214206112],[37.3990234948124,51.95647699300936],[37.43471540989941,51.94338995747604],[37.453751097946586,51.96004618451846],[37.47278678599305,51.96718456753568],[37.48587382152503,51.99454836910175],[37.50966843158298,52.00882513513629],[37.59057010578112,52.00763540463409],[37.61912363785153,51.99454836910175],[37.64053878690382,51.995738099605646],[37.67623070199163,51.982651064072336],[37.71192261707873,51.980271603067216],[37.72619938311354,51.94457968797994],[37.72144046110188,51.93268238294972],[37.73214803562802,51.911267233898755],[37.76427075920718,51.885093162833115],[37.78925509976804,51.86962666629646],[37.82375728435302,51.87319585780459],[37.84636216390814,51.88628289333701],[37.868967043463265,51.911267233898755],[37.885623270504695,51.9303029219454],[37.92250491609471,51.9303029219454],[37.9284535686092,51.916026155909975],[37.918935724585964,51.89461100685644],[37.935591951626606,51.891041815348224],[37.954627639673774,51.89936992886943],[38.012924434316,51.896990467862445],[38.04861634940381,51.88628289333701],[38.124759101590286,51.90293912037755],[38.13308721511069,51.917215886412095],[38.11762071857298,51.925543999933296],[38.1188104490758,51.93744130496272],[38.1473639811455,51.93149265244752],[38.18543535723914,51.9279234609394],[38.21398888930875,51.917215886412095],[38.236593768864665,51.918405616916075],[38.24254242137924,51.93149265244752],[38.267526761940104,51.926733730435416],[38.298459755016346,51.9279234609394],[38.33891059211501,51.9303029219454],[38.322254365074386,51.952907801499364],[38.298459755016346,51.96956402854178],[38.34604897513242,51.995738099605646],[38.43289930184505,51.995738099605646],[38.47691933045317,52.006445674131086],[38.49595501849964,52.02429163167472],[38.52450855057005,52.027860823182934],[38.56376965716581,52.05522462475069],[38.59827184175079,52.061173277265894],[38.630394565329055,52.043327319721364],[38.637532948346546,52.03143001469292],[38.651809714382146,52.02548136217861],[38.694640012486644,52.04570678072737],[38.72438327505988,52.04213758921925],[38.72914219707154,52.02548136217861],[38.74579842411218,52.01239432664628],[38.76483411215864,52.01834297915961],[38.78386980020502,52.03975812821226],[38.78624926121156,52.052845163744685],[38.7969568357377,52.06593219927622],[38.80885414076677,52.07188085179133],[38.8100438712696,52.08734734832976],[38.78149033919919,52.108762497381605],[38.720814083551225,52.11114195838762],[38.66013782790246,52.117090610902814],[38.61492806879133,52.13374683794247],[38.538785316604944,52.18847444107719],[38.51737016755264,52.232494469685676],[38.557821004651316,52.28008368980139],[38.58161561471015,52.295550186339824],[38.60659995527111,52.301498838854926],[38.62444591281465,52.31577560488858],[38.6767940549431,52.31815506589557],[38.682742707457585,52.34432913695943],[38.706537317515625,52.35622644198885],[38.73152165807737,52.360985364000065],[38.769593034170214,52.35027778947365],[38.79457737473187,52.375262130035495],[38.813613062778344,52.372882669029394],[38.818371984790005,52.34670859796553],[38.84692551685961,52.35027778947365],[38.88380716245034,52.36574428601217],[38.91949907753744,52.38477997405792],[38.93496557407586,52.43712811618575],[38.95519099262525,52.46806110926172],[38.94805260960784,52.48590706680535],[38.924257999549006,52.51089140736711],[38.90165311999388,52.55372170547161],[38.93139638256721,52.606069847601205],[38.95757045363108,52.63224391866517],[38.95994991463691,52.6465206846997],[38.936155304578776,52.66198718123813],[38.91117096401703,52.683402330290875],[38.91117096401703,52.738129933423814],[38.93139638256721,52.744078585938034],[38.94329368759627,52.772632118008886],[38.975416411174535,52.7797705010262],[38.98493425519777,52.79404726706163],[38.995641829724626,52.80237538058097],[39.03252347531464,52.79523699756374],[39.04561051084653,52.81189322460429],[39.02538509229724,52.829739182147925],[38.994452099221,52.838067295669134],[38.983744524694856,52.8226007991307],[38.95994991463691,52.827359721142805],[38.93258611307012,52.84877487019457],[38.87785850993585,52.83687756516613],[38.78030060869627,52.84044675667523],[38.6910708209779,52.85948244472187],[38.69345028198373,52.90231274282628],[38.72438327505988,52.95466088495411],[38.704157856509795,52.979645225515945],[38.658948097399545,52.971317111994736],[38.59827184175079,52.96893765099051],[38.52093935906139,53.01176794909501],[38.485651636823704,53.04363716813991],[38.455908374251095,52.9948582175211],[38.37381696955012,52.9936684870172],[38.342883976473885,52.943699805894504],[38.29172556484916,52.89730031628188],[38.27863852931647,52.90324896879521],[38.26198230227574,52.943699805894504],[38.24532607523511,52.943699805894504],[38.23223903970322,52.927043578853954],[38.20844442964447,52.88183381974345],[38.18464981958644,52.878264628235236],[38.15966547902539,52.8616084011946],[38.13349140796082,52.84495217415228],[38.09898922337672,52.83900352163894],[38.06686649979757,52.83900352163894],[37.991913478113915,52.81520891158109],[37.97287779006754,52.81877810308832],[37.93480641397461,52.82710621660864],[37.9062528819042,52.82353702510043],[37.88245827184616,52.8116397200711],[37.82059228569449,52.83662406063285],[37.78727983161251,52.84138298264496],[37.730172767473206,52.84257271314707],[37.69567058288822,52.84257271314707],[37.6631512824753,52.836095291519996],[37.62507990638245,52.847992596550306],[37.59890583531788,52.853941249064526],[37.56559338123661,52.855130979567534],[37.54655769318934,52.834905561017884],[37.489450629050125,52.82419798649058],[37.39784138032503,52.80873148995393],[37.29195536556603,52.77898822738007],[37.27054021651382,52.76709092235163],[37.218192074385385,52.762332000339526],[37.16584393225685,52.73020927676046],[37.132531478175665,52.72545035474924],[37.10754713761392,52.708794127708614],[37.09089091057328,52.72545035474924],[37.057578456491214,52.758762808830426],[36.989763817825846,52.761142269836434],[36.917190257147226,52.76828065285375],[36.88863672507762,52.746865503801004],[36.87198049803698,52.738537390281664],[36.8529448099906,52.746865503801004],[36.83390912194334,52.748055234304985],[36.81606316439979,52.74329631229377],[36.757766369756865,52.75519361732221],[36.75181771724229,52.79445472391761],[36.71731553265819,52.80397256794093],[36.68995173109061,52.826577447496675],[36.684003078576126,52.853941249064526],[36.68757227008487,52.87654612862027],[36.67448523455289,52.89320235566082],[36.65663927700943,52.900340738678125],[36.68757227008487,52.91580723521656],[36.68519280907904,52.94317103678263],[36.69827984461092,52.97053483835039],[36.7113668801437,52.993139717904356],[36.73992041221331,52.999088370419464],[36.747058795230714,53.00741648394067],[36.74229987321914,53.01812405846611],[36.69590038360509,53.02288298047732],[36.68281334807321,53.02883163299341],[36.688762000587786,53.04191866852396],[36.70184903611967,53.053815973553384],[36.7042284971255,53.07404139210303],[36.679244156564465,53.072851661600914],[36.65544954650652,53.062144087074586],[36.64593170248328,53.078800314115135],[36.65307008550069,53.088318158138456],[36.667346851535484,53.10140519367088],[36.65188035499777,53.108543576688106],[36.65544954650652,53.11806142071143],[36.661398199021,53.11925115121354],[36.669726312541314,53.131148456242954],[36.684003078576126,53.131148456242954],[36.684003078576126,53.144235491775376],[36.693520922599355,53.15018414429049],[36.70779768863416,53.152563605296585],[36.72564364617851,53.15970198831381],[36.716125802155275,53.178737676360456],[36.72564364617851,53.19539390340108],[36.7042284971255,53.209670669435624],[36.73873068171039,53.22870635748227],[36.7458690647278,53.246552315026705],[36.77323286629458,53.2441728540207],[36.77204313579166,53.260829081061246],[36.747058795230714,53.27510584709578],[36.75419717824812,53.30841830117696],[36.77085340528875,53.3334026417388],[36.755386908751035,53.34411021626602],[36.69471065310218,53.34648967727024],[36.708987419137074,53.39288916688385],[36.6542598160036,53.41549404644048],[36.55670191476402,53.36433563481477],[36.53052784370024,53.369094556825985],[36.51030242515087,53.371474017832085],[36.49840512012109,53.383371322860526],[36.50316404213346,53.398837819398956],[36.493646198109516,53.403596741411064],[36.47342077956014,53.39407889738774],[36.46628239654274,53.40002754990294],[36.48293862358337,53.43020492538748],[36.46747212704565,53.43734330840657],[36.4567645525195,53.43615357790259],[36.4567645525195,53.426635733880154],[36.44843643899919,53.425446003376265],[36.430590481455724,53.44210223041681],[36.399657488379404,53.45399953544711],[36.37467314781854,53.47303522349375],[36.35206826826261,53.47422495399587],[36.34433534728555,53.47604446481415],[36.33184284971324,53.47898387600709],[36.33184284971324,53.508727138580944],[36.311617431163945,53.51705525210038],[36.3009098566378,53.5265730961237],[36.3151866226726,53.54917797567944],[36.3080482396552,53.55988555020665],[36.26997686356156,53.563454741713976],[36.26640767205291,53.55274716718854],[36.25094117551518,53.55512662819454],[36.249751445012265,53.563454741713976],[36.17241896232287,53.54798824517732],[36.137916777737885,53.55512662819454],[36.10698378466245,53.561075280708764],[36.09032755762182,53.58011096875639],[36.07367133058038,53.58011096875639],[36.04154860700211,53.570593124733065],[36.02370264945857,53.581300699258506],[36.027271840967316,53.59676719579693],[36.00607311471114,53.61403322797196]]]]}},{"type":"Feature","properties":{"kind":"district","id":"uyezd-1897-309","name":"Трубчевский","provinceId":"gubernia-1897-3"},"geometry":{"type":"MultiPolygon","coordinates":[[[[34.32012607353076,53.08558618439114],[34.29395200246698,53.07487860986384],[34.25588062637334,53.07606834036782],[34.215429789274665,53.11057052495289],[34.185686526701346,53.140313787524974],[34.180927604689685,53.18076462462338],[34.171409760666535,53.19742085166578],[34.088128625462566,53.214077078706424],[34.03459075283121,53.205748965185215],[33.98581180221222,53.18433381613248],[33.96082746165055,53.18790300764246],[33.95725827014181,53.20336950417912],[33.90847931952202,53.19504139065978],[33.841854411358774,53.222405192225764],[33.791885730236956,53.25452791580483],[33.7657116591723,53.26404575982815],[33.74191704911426,53.26166629882205],[33.72883001358228,53.24857926328971],[33.71217378654164,53.24976899379361],[33.69670729000322,53.24263061077541],[33.69670729000322,53.231923036249086],[33.68718944597998,53.231923036249086],[33.67886133245966,53.24263061077541],[33.66577429692778,53.24382034127939],[33.665017377858135,53.23243397870098],[33.691191448922,53.216967482164335],[33.71736551998586,53.21934694316856],[33.73521147753013,53.21934694316856],[33.7328320165243,53.20982909914524],[33.71736551998586,53.20982909914524],[33.69714010143649,53.1931728721047],[33.66858656936679,53.186034489087476],[33.654309803331984,53.16105014852563],[33.674535221881364,53.14439392148509],[33.64955088132041,53.13725553846777],[33.62575627126158,53.11465065891301],[33.59125408667748,53.09323550986116],[33.629325462770325,53.07895874382484],[33.69238117942491,53.04207709823554],[33.711416867471286,53.04207709823554],[33.74472932155336,53.0575435947721],[33.773282853622966,53.0706306303055],[33.80064665519055,53.0706306303055],[33.81968234323692,53.04683602024578],[33.82206180424275,53.019472218679795],[33.864892102347966,53.034938715218225],[33.892255903914744,53.034938715218225],[33.9101018614583,53.01471329666769],[33.877979137879855,52.98497003409463],[33.844666683797875,52.96831380705409],[33.818492612734005,52.95165758001345],[33.78874935016148,52.95165758001345],[33.77685204513171,52.97664192057529],[33.73878066903878,52.952847310515565],[33.70665794545972,52.938570544482005],[33.69000171841908,52.91715539542838],[33.72569363350689,52.90882728190904],[33.74472932155336,52.89098132436452],[33.69000171841908,52.864807253300555],[33.656689264337814,52.873135366821764],[33.62337681025575,52.865996983802674],[33.60910004422094,52.90168889889173],[33.57697732064187,52.89811970738174],[33.55913136309833,52.89098132436452],[33.560321093601246,52.881463480341196],[33.534147022537375,52.874325097323876],[33.484178341414676,52.84934075676213],[33.424691816268826,52.84696129575603],[33.41874316375434,52.85528940927723],[33.400897206210786,52.85409967877512],[33.36401556062006,52.864807253300555],[33.35092852508818,52.85053048726602],[33.34141068106494,52.826735877208165],[33.37472313514692,52.808889919663635],[33.38899990118173,52.78985423161699],[33.385430709673074,52.75773150803802],[33.41279451123977,52.75178285552282],[33.44610696532183,52.7446444725056],[33.48893726342634,52.7446444725056],[33.49131672443217,52.712521748927415],[33.44967615683058,52.7113320184253],[33.431830199286225,52.70657309641231],[33.431830199286225,52.69348606088077],[33.469901575379865,52.68515794736046],[33.50678322096988,52.67801956434235],[33.51511133449091,52.66969145082292],[33.50202429895822,52.65898387629659],[33.477039958397356,52.656604415290495],[33.43777885180151,52.633999535734844],[33.42826100777748,52.609015195173],[33.38899990118173,52.58997950712636],[33.38424097917016,52.561425975056395],[33.39137936218756,52.54714920902185],[33.403276667216616,52.53168271248521],[33.37829232665567,52.52097513795799],[33.37591286564984,52.492421605888026],[33.37948205715858,52.47338591784227],[33.3949485536963,52.46743726532716],[33.4151739722456,52.46981672633228],[33.4151739722456,52.45672969079986],[33.41041505023402,52.44245292476532],[33.43777885180151,52.41508912319934],[33.45443507884215,52.411519931689355],[33.4651426533683,52.38772532163149],[33.469901575379865,52.36512044207575],[33.467522114374034,52.342515562520006],[33.458004270350806,52.329428526988565],[33.462763192362466,52.31277229994792],[33.441348043310256,52.31158256944581],[33.44015831280734,52.2973058034095],[33.45919400085372,52.28064957636886],[33.52700863951998,52.27945984586675],[33.57578759013896,52.27470092385464],[33.60196166120354,52.2996852644155],[33.63646384578772,52.30206472542249],[33.661448186349475,52.30801337793671],[33.66858656936679,52.322290143971244],[33.6067205832152,52.328238796486445],[33.56626974611573,52.323479874473364],[33.581736242654245,52.335377179503666],[33.618617888244174,52.34132583201789],[33.64122276779929,52.34846421503521],[33.68286333540168,52.360361520065425],[33.70665794545972,52.37820747760817],[33.73045255551855,52.36749990308273],[33.79112881116731,52.37701774710605],[33.84228722279214,52.37106909459086],[33.85775371932985,52.35679232855641],[33.86370237184505,52.325859335479464],[33.87678940737703,52.31396203045004],[33.92080943598435,52.31515176095402],[33.95293215956351,52.2996852644155],[33.963639734089654,52.25566523580889],[33.99100353565635,52.23900900876647],[34.03235055611836,52.27162338400288],[34.04662732215317,52.27162338400288],[34.07637058472649,52.28946934154741],[34.1061138472991,52.30493583808406],[34.140616031883994,52.30017691607284],[34.17630794697109,52.30255637707886],[34.17987713847975,52.309694760096164],[34.19772309602401,52.31802287361737],[34.22270743658497,52.319212604119485],[34.236984202619766,52.344196944681244],[34.20129228753276,52.36918128524299],[34.192964174012445,52.39297589530085],[34.18106686898267,52.39773481731207],[34.16560037244495,52.39892454781605],[34.157272258924635,52.41677050535871],[34.1691695639536,52.43818565441056],[34.192964174012445,52.44175484592055],[34.21081013155599,52.44889322893778],[34.21318959256182,52.46792891698442],[34.19772309602401,52.48101595251684],[34.185825790994244,52.52741544212947],[34.204861479041504,52.55002032168521],[34.23817393312268,52.565486818223725],[34.2893323447483,52.557158704702516],[34.35833671391738,52.58095331476038],[34.38570051548416,52.619024690853664],[34.430910274595206,52.6428193009133],[34.428530813589376,52.65709606694784],[34.39164916799865,52.67256256348627],[34.32145506832666,52.705875017566555],[34.28695288374247,52.7284798971223],[34.31193722430342,52.73799774114562],[34.33454210385935,52.74870531567195],[34.36785455794062,52.76417181220949],[34.396408090010226,52.790345883273446],[34.4237718915778,52.805812379811876],[34.451135693144494,52.80700211031488],[34.48325841672365,52.815330223836085],[34.479689225214905,52.84626321691215],[34.484448147226566,52.87124755747212],[34.48563787772948,52.9045600115533],[34.472550842197506,52.92002650809173],[34.420202700069055,52.93311354362415],[34.38332105447833,52.94739030965958],[34.38570051548416,52.97118491971744],[34.36428536643187,52.9926000687692],[34.33454210385935,53.018774139833155],[34.32012607353076,53.08558618439114]]]]}},{"type":"Feature","properties":{"kind":"district","id":"uyezd-1897-310","name":"Карачевский","provinceId":"gubernia-1897-3"},"geometry":{"type":"MultiPolygon","coordinates":[[[[34.48325841672365,52.815330223836085],[34.509829064622,52.826963144308145],[34.55979774574391,52.79127122922087],[34.60143831334629,52.80911718676539],[34.57169505077368,52.843619371348694],[34.58716154731148,52.84956802386389],[34.61095615736943,52.851947484869896],[34.626422653907156,52.86265505939534],[34.645458341954416,52.86622425090444],[34.71565244162641,52.85908586788721],[34.743016243193196,52.86860371191053],[34.76086220073665,52.86265505939534],[34.812020612362275,52.832911796823254],[34.83462549191739,52.826963144308145],[34.883404442537184,52.8079274562615],[34.91195797460679,52.79246095972307],[34.93099366265396,52.79840961223818],[34.9619266557294,52.79484042072908],[34.97620342176421,52.78532257670576],[34.98929045729699,52.76390742765311],[35.0047569538347,52.75795877513978],[35.01308506735502,52.76866634966521],[35.029741294395656,52.76985608016822],[35.048776982442035,52.761527966647904],[35.051156443447866,52.74249227860126],[35.117781351611114,52.744871739607355],[35.134437578652545,52.74130254809914],[35.14752461418452,52.747251200612475],[35.17726787675704,52.747251200612475],[35.208200869833284,52.75082039212246],[35.25341062894353,52.747251200612475],[35.25460035944644,52.75795877513978],[35.28315389151685,52.77937392419154],[35.28672308302559,52.79246095972307],[35.27601550849945,52.812686378272716],[35.27958470000819,52.82220422229604],[35.29029227453434,52.83172206631936],[35.324794459118436,52.832911796823254],[35.34858906917727,52.81863503078871],[35.37357340973823,52.83172206631936],[35.41521397734052,52.843619371348694],[35.40331667231075,52.851947484869896],[35.37000421822948,52.86741398140842],[35.3711939487324,52.87812155593385],[35.40093721130492,52.87574209492776],[35.425921551866665,52.882880477945065],[35.456854544942104,52.89358805247228],[35.45328535343336,52.90667508800293],[35.425921551866665,52.923331315045246],[35.41283451633469,52.91857239303226],[35.36286583521208,52.95069511661132],[35.36643502672074,52.96259242164163],[35.38428098426428,52.964971882645855],[35.42235236035792,52.954264308119534],[35.440198317901476,52.95783349962855],[35.45090589242762,52.96854107415585],[35.447336700918875,52.99352541471582],[35.46042373645085,53.00304325873914],[35.47945942449803,53.01137137226035],[35.47945942449803,53.02326867728879],[35.468751849971085,53.035165982318205],[35.468751849971085,53.051822209358754],[35.4354393958899,53.063719514389064],[35.42949074337541,53.082755202435706],[35.41878316884927,53.09346277696114],[35.414024246837606,53.11606765651688],[35.44257777890731,53.12082657852899],[35.4770799634922,53.14224172758075],[35.50801295656764,53.14938011059806],[35.53180756662576,53.16365687663349],[35.52228972260244,53.17436445115982],[35.509202687070555,53.18864121719435],[35.48183888550377,53.19340013920646],[35.46042373645085,53.204107713731894],[35.41045505532895,53.20648717473888],[35.36286583521208,53.21481528825822],[35.35334799118884,53.227902323791525],[35.35334799118884,53.24455855083217],[35.37714260124688,53.27073262189603],[35.34383014716561,53.302855345475095],[35.30456904056915,53.34211645207138],[35.28791281352851,53.36234187062014],[35.27462415494432,53.382072255772044],[35.26701913591344,53.37945803048025],[35.22775802931769,53.38183749148723],[35.23013749032352,53.371129916960825],[35.21824018529455,53.38064776098325],[35.212291532779176,53.39016560500657],[35.193255844732796,53.405632101544114],[35.18254827020665,53.406821832047214],[35.16351258216027,53.415149945568416],[35.14804608562255,53.41396021506532],[35.14685635511964,53.400873179533875],[35.13614878059269,53.39492452701868],[35.11116444003174,53.36518126444483],[35.10997470952891,53.34971476790817],[35.080231446956304,53.33424827136965],[35.080231446956304,53.325920157848444],[35.023124382816285,53.337817462877865],[35.013606538793056,53.37826829997813],[34.973155701693585,53.38183749148723],[34.961258396664604,53.38897587450357],[34.90296160202159,53.38897587450357],[34.86251076492212,53.35447368991841],[34.874540487889305,53.348516625535034],[34.89833509794814,53.34256797301984],[34.90190428945689,53.31996309346507],[34.8531253388371,53.299737674915335],[34.81743342374929,53.28546090887991],[34.79006962218251,53.292599291898995],[34.76508528162155,53.292599291898995],[34.73177282753957,53.284271178376905],[34.7115474089902,53.26047656831993],[34.70797821748154,53.23787168876428],[34.69251172094382,53.217646270213656],[34.66276845837049,53.211697617700324],[34.65800953635883,53.19266192965368],[34.60685112473331,53.16648785858884],[34.58424624517809,53.17243651110404],[34.555692713108485,53.16767758909193],[34.543795408078715,53.1557802840634],[34.53903648606715,53.141503518027086],[34.510482953997446,53.149831631549176],[34.49739591846556,53.143882979034075],[34.49501645745973,53.131985674003765],[34.47717049991618,53.126037021489545],[34.458134811869,53.12841648249555],[34.45575535086317,53.11651917746622],[34.43196074080514,53.1034321419338],[34.3308336480569,53.139124057022855],[34.32250553453659,53.131985674003765],[34.3165568820221,53.11651917746622],[34.32012607353076,53.08558618439114],[34.33454210385935,53.018774139833155],[34.36428536643187,52.9926000687692],[34.38570051548416,52.97118491971744],[34.38332105447833,52.94739030965958],[34.420202700069055,52.93311354362415],[34.472550842197506,52.92002650809173],[34.48563787772948,52.9045600115533],[34.484448147226566,52.87124755747212],[34.479689225214905,52.84626321691215],[34.48325841672365,52.815330223836085]]]]}},{"type":"Feature","properties":{"kind":"district","id":"uyezd-1897-311","name":"Болховский","provinceId":"gubernia-1897-3"},"geometry":{"type":"MultiPolygon","coordinates":[[[[35.27462415494432,53.382072255772044],[35.28791281352851,53.36234187062014],[35.30456904056915,53.34211645207138],[35.34383014716561,53.302855345475095],[35.37714260124688,53.27073262189603],[35.35334799118884,53.24455855083217],[35.35334799118884,53.227902323791525],[35.36286583521208,53.21481528825822],[35.41045505532895,53.20648717473888],[35.46042373645085,53.204107713731894],[35.48183888550377,53.19340013920646],[35.509202687070555,53.18864121719435],[35.52228972260244,53.17436445115982],[35.53180756662576,53.16365687663349],[35.50801295656764,53.14938011059806],[35.4770799634922,53.14224172758075],[35.44257777890731,53.12082657852899],[35.414024246837606,53.11606765651688],[35.41878316884927,53.09346277696114],[35.42949074337541,53.082755202435706],[35.4354393958899,53.063719514389064],[35.468751849971085,53.051822209358754],[35.468751849971085,53.035165982318205],[35.47945942449803,53.02326867728879],[35.499552650769395,53.025119369182036],[35.5150191473072,53.031068021697145],[35.550711062394214,53.03344748270413],[35.601869474019836,53.052483170750776],[35.66492519067434,53.04415505722957],[35.670873843188915,53.050103709744675],[35.69823764475561,53.050103709744675],[35.72322198531735,53.06794966728742],[35.73749875135216,53.083416163824964],[35.73868848185508,53.1000723908664],[35.76367282241594,53.121487539919144],[35.78508797146903,53.13933349746189],[35.80055446800675,53.14052322796579],[35.84933341862645,53.13576430595368],[35.85647180164394,53.17264595154485],[35.87907668119907,53.17502541254997],[35.92547617081302,53.16312810752153],[35.95165024187689,53.159558916011534],[35.97782431294067,53.14885134148521],[35.98972161797044,53.131005383942465],[36.02660326356045,53.116728617907036],[36.06586437015701,53.12505673142735],[36.08965898021505,53.12029780941525],[36.136058469829,53.12981565343857],[36.17175038491601,53.133384844947585],[36.14914550536089,53.16074864651543],[36.14676604435515,53.18097406506419],[36.15271469686964,53.19406110059661],[36.15390442737247,53.21547624964935],[36.15152496636672,53.2333222071929],[36.12297143429632,53.26306546976507],[36.13724820033192,53.28923954083071],[36.15747361888121,53.31898280340377],[36.1919758034654,53.321362264407995],[36.21696014402714,53.32374172541401],[36.22766771855321,53.34396714396374],[36.22766771855321,53.39036663357823],[36.237185562576435,53.41892016564722],[36.25741098112573,53.44509423671117],[36.275256938670076,53.46531965526171],[36.290723435207795,53.46531965526171],[36.306189931745514,53.47483749928503],[36.32641535029481,53.46888884677081],[36.34433534728555,53.47604446481415],[36.33184284971324,53.47898387600709],[36.33184284971324,53.508727138580944],[36.311617431163945,53.51705525210038],[36.3009098566378,53.5265730961237],[36.3151866226726,53.54917797567944],[36.3080482396552,53.55988555020665],[36.26997686356156,53.563454741713976],[36.26640767205291,53.55274716718854],[36.25094117551518,53.55512662819454],[36.249751445012265,53.563454741713976],[36.17241896232287,53.54798824517732],[36.137916777737885,53.55512662819454],[36.10698378466245,53.561075280708764],[36.09032755762182,53.58011096875639],[36.07367133058038,53.58011096875639],[36.04154860700211,53.570593124733065],[36.02370264945857,53.581300699258506],[36.027271840967316,53.59676719579693],[36.00607311471106,53.61403322797196],[35.99298607917846,53.62117161098918],[35.97514012163473,53.6390175685337],[35.90375629145973,53.6390175685337],[35.87877195089851,53.61998188048618],[35.85973626285241,53.589048887411096],[35.832372461284734,53.581910504393775],[35.82404434776486,53.559305624838125],[35.8085778512267,53.54859805031082],[35.797870276700465,53.53670074528238],[35.80143946820921,53.51409586572664],[35.826423808770514,53.515285596229646],[35.84783895782299,53.511716404720545],[35.85854653234922,53.498629369189985],[35.839510844302225,53.479593681142454],[35.81214704273545,53.47721422013636],[35.78954216317979,53.481973142147574],[35.75503997859552,53.47840395063936],[35.76693728362484,53.45936826259272],[35.7954908156949,53.4522298795755],[35.820475156256116,53.44271203555218],[35.826423808770514,53.43319419152796],[35.84902868832617,53.43914284404396],[35.8668746458699,53.432004461026736],[35.85497734084048,53.421296886499434],[35.82999300027926,53.418917425494314],[35.81214704273545,53.41177904247709],[35.79192162418615,53.416537964488306],[35.79192162418615,53.435573652533975],[35.72648644652546,53.44271203555218],[35.72648644652546,53.46531691510792],[35.69198426194119,53.48078341164546],[35.655102616350554,53.45936826259272],[35.607513396234395,53.46888610661702],[35.561113906620704,53.491490986170895],[35.55493391761891,53.484154314736784],[35.55255445661308,53.46511862669014],[35.54779553460142,53.43775482512318],[35.53113930756079,53.44608293864439],[35.50020631448544,53.427047250597745],[35.469273321409204,53.42942671160384],[35.38599218620523,53.412770484561435],[35.34078242709418,53.410391023557196],[35.305090512007176,53.39254506601267],[35.27462415494432,53.382072255772044]]]]}},{"type":"Feature","properties":{"kind":"district","id":"uyezd-1897-312","name":"Мценский","provinceId":"gubernia-1897-3"},"geometry":{"type":"MultiPolygon","coordinates":[[[[36.17175038491601,53.133384844947585],[36.219339605032886,53.12624646193036],[36.26216990313739,53.113159426397935],[36.27644666917299,53.12029780941525],[36.293102896213625,53.117918348410925],[36.280015860681644,53.1000723908664],[36.306189931745514,53.0584318232641],[36.31094885375708,53.03820640471437],[36.288343974201965,53.025119369182036],[36.306189931745514,53.00965287264441],[36.32879481130064,53.00727341163929],[36.34902022985072,52.98823772359265],[36.34545103834207,52.960873922024795],[36.321656428283234,52.95849446101879],[36.321656428283234,52.94183823397815],[36.287154243699135,52.93232038995483],[36.301431009733946,52.87640305631791],[36.30737966224843,52.85260844626005],[36.301431009733946,52.82881383620228],[36.31689750627166,52.80382949564044],[36.35377915186238,52.816916531172865],[36.36091753487979,52.80263976513832],[36.346640768844985,52.76456838904504],[36.359727804376874,52.74910189250661],[36.38471214493782,52.73601485697419],[36.40850675499586,52.737204587478075],[36.41326567700823,52.72173809093965],[36.42873217354595,52.71816889943143],[36.4810803156744,52.72411755194477],[36.48940842919471,52.71459970792145],[36.48227004617731,52.70389213339512],[36.51082357824701,52.70270240289301],[36.51320303925284,52.69556401987578],[36.49416735120637,52.659872104788505],[36.56555118138128,52.674148870823046],[36.635745281053275,52.69080509786359],[36.639314472561935,52.71459970792145],[36.6297966285387,52.73363539596809],[36.647642586082256,52.738394317980195],[36.66191935211705,52.7467224315014],[36.67738584865478,52.73363539596809],[36.710698302736844,52.73363539596809],[36.72021614676008,52.72530728244875],[36.7428210263152,52.7467224315014],[36.757766369756865,52.75519361732221],[36.75181771724229,52.79445472391761],[36.71731553265819,52.80397256794093],[36.68995173109061,52.826577447496675],[36.684003078576126,52.853941249064526],[36.68757227008487,52.87654612862027],[36.67448523455289,52.89320235566082],[36.65663927700943,52.900340738678125],[36.68757227008487,52.91580723521656],[36.68519280907904,52.94317103678263],[36.69827984461092,52.97053483835039],[36.7113668801437,52.993139717904356],[36.73992041221331,52.999088370419464],[36.747058795230714,53.00741648394067],[36.74229987321914,53.01812405846611],[36.69590038360509,53.02288298047732],[36.68281334807321,53.02883163299341],[36.688762000587786,53.04191866852396],[36.70184903611967,53.053815973553384],[36.7042284971255,53.07404139210303],[36.679244156564465,53.072851661600914],[36.65544954650652,53.062144087074586],[36.64593170248328,53.078800314115135],[36.65307008550069,53.088318158138456],[36.667346851535484,53.10140519367088],[36.65188035499777,53.108543576688106],[36.65544954650652,53.11806142071143],[36.661398199021,53.11925115121354],[36.669726312541314,53.131148456242954],[36.684003078576126,53.131148456242954],[36.684003078576126,53.144235491775376],[36.693520922599355,53.15018414429049],[36.70779768863416,53.152563605296585],[36.72564364617851,53.15970198831381],[36.716125802155275,53.178737676360456],[36.72564364617851,53.19539390340108],[36.7042284971255,53.209670669435624],[36.73873068171039,53.22870635748227],[36.7458690647278,53.246552315026705],[36.77323286629458,53.2441728540207],[36.77204313579166,53.260829081061246],[36.747058795230714,53.27510584709578],[36.75419717824812,53.30841830117696],[36.77085340528875,53.3334026417388],[36.755386908751035,53.34411021626602],[36.69471065310218,53.34648967727024],[36.708987419137074,53.39288916688385],[36.6542598160036,53.41549404644048],[36.55670191476402,53.36433563481477],[36.53052784370024,53.369094556825985],[36.51030242515087,53.371474017832085],[36.49840512012109,53.383371322860526],[36.50316404213346,53.398837819398956],[36.493646198109516,53.403596741411064],[36.47342077956014,53.39407889738774],[36.46628239654274,53.40002754990294],[36.48293862358337,53.43020492538748],[36.46747212704565,53.43734330840657],[36.4567645525195,53.43615357790259],[36.4567645525195,53.426635733880154],[36.44843643899919,53.425446003376265],[36.430590481455724,53.44210223041681],[36.399657488379404,53.45399953544711],[36.37467314781854,53.47303522349375],[36.35206826826261,53.47422495399587],[36.34433534728555,53.47604446481415],[36.32641535029481,53.46888884677081],[36.306189931745514,53.47483749928503],[36.290723435207795,53.46531965526171],[36.275256938670076,53.46531965526171],[36.25741098112573,53.44509423671117],[36.237185562576435,53.41892016564722],[36.22766771855321,53.39036663357823],[36.22766771855321,53.34396714396374],[36.21696014402714,53.32374172541401],[36.1919758034654,53.321362264407995],[36.15747361888121,53.31898280340377],[36.13724820033192,53.28923954083071],[36.12297143429632,53.26306546976507],[36.15152496636672,53.2333222071929],[36.15390442737247,53.21547624964935],[36.15271469686964,53.19406110059661],[36.14676604435515,53.18097406506419],[36.14914550536089,53.16074864651543],[36.17175038491601,53.133384844947585]]]]}},{"type":"Feature","properties":{"kind":"district","id":"uyezd-1897-313","name":"Кромский","provinceId":"gubernia-1897-3"},"geometry":{"type":"MultiPolygon","coordinates":[[[[35.25341062894353,52.747251200612475],[35.243760592642374,52.72530728244875],[35.26874493320332,52.68604617585246],[35.28421142974104,52.70032294188691],[35.317523883823114,52.70865105540811],[35.410322863050226,52.68128725384027],[35.38890771399802,52.671769409816946],[35.392476905506676,52.656302913278516],[35.45672235266419,52.62061099819222],[35.482896423727965,52.62061099819222],[35.513829416804285,52.62893911171156],[35.53643429635941,52.61347261517402],[35.56617755893193,52.61228288467101],[35.585213246979194,52.59443692712826],[35.58045432496753,52.580160161091946],[35.55309052339996,52.56588339505829],[35.56736728943485,52.544468246004755],[35.554280253902874,52.53019147996933],[35.528106182839096,52.53732986298745],[35.51858833881586,52.51591471393479],[35.56736728943485,52.44572061426334],[35.60067974351692,52.443341153257236],[35.599490013014005,52.410028699176145],[35.61852570106038,52.37314705358497],[35.670873843188915,52.339834599503796],[35.66135599916568,52.31009133693074],[35.63994085011338,52.280348074358656],[35.65302788564536,52.25893292530512],[35.668494382183084,52.25536373379691],[35.68039168721205,52.26131238631113],[35.71608360229995,52.26012265580901],[35.73749875135216,52.281537804860776],[35.750585786884045,52.28272753536298],[35.764862552918856,52.2910556488841],[35.79460581549226,52.2934351098902],[35.82910800007636,52.2934351098902],[35.857661532146764,52.30176322340962],[35.88264587270781,52.30057349290742],[35.90406102175993,52.28748645737598],[35.9587886248942,52.28510699636899],[35.9802037739465,52.30176322340962],[36.00637784501116,52.30176322340962],[36.05872598713952,52.31722971994805],[36.0932281717237,52.31722971994805],[36.142007122343486,52.31603998944594],[36.11345359027308,52.336265407994695],[36.08727951920922,52.344593521515904],[36.017085419537224,52.38623408911829],[36.01232649752565,52.43739250074213],[36.05515679563006,52.44215142275512],[36.052777334624324,52.47189468532818],[36.014705958531394,52.47189468532818],[35.97544485193484,52.482602259853614],[35.9802037739465,52.49330983437905],[36.00042919249658,52.5206736359469],[35.995670270485014,52.54208878499866],[36.04444922110392,52.55041689851987],[36.05872598713952,52.561124473045304],[36.09203844122088,52.55041689851987],[36.109884398764336,52.57183204757163],[36.06824383116275,52.59443692712826],[36.03374164657785,52.62418018970132],[35.993290809479184,52.644405608250075],[36.00399838400533,52.66582075730184],[36.02541353305754,52.68366671484637],[36.07538221418024,52.6979434808809],[36.11583305127883,52.6943742893718],[36.12297143429632,52.72054836043576],[36.04563895160683,52.7407737789854],[36.01827515004014,52.75861973652993],[36.00637784501116,52.787173268599894],[35.98853188746752,52.799070573628335],[35.952839972379806,52.78598353809778],[35.936183745339164,52.799070573628335],[35.89216371673095,52.7955013821211],[35.87788695069615,52.78598353809778],[35.82315934756187,52.80145003463443],[35.81007231202999,52.78598353809778],[35.793416084989346,52.788362999102006],[35.78389824096612,52.805019226144424],[35.75653443939862,52.813347339663764],[35.73749875135216,52.82524464469229],[35.73630902084925,52.84309060223673],[35.71132468028829,52.85260844626005],[35.65183815514244,52.86688521229459],[35.60424893502557,52.87045440380457],[35.57450567245305,52.86212629028337],[35.54119321837098,52.86688521229459],[35.54238294887389,52.84547006324283],[35.519778069318775,52.84071114123072],[35.509070494792624,52.826434375196186],[35.51026022529554,52.808588417651656],[35.466240196687416,52.80739868714954],[35.448394239143866,52.84784952424892],[35.43649693411489,52.84071114123072],[35.41521397734052,52.843619371348694],[35.37357340973823,52.83172206631936],[35.34858906917727,52.81863503078871],[35.324794459118436,52.832911796823254],[35.29029227453434,52.83172206631936],[35.27958470000819,52.82220422229604],[35.27601550849945,52.812686378272716],[35.28672308302559,52.79246095972307],[35.28315389151685,52.77937392419154],[35.25460035944644,52.75795877513978],[35.25341062894353,52.747251200612475]]]]}},{"type":"Feature","properties":{"kind":"district","id":"uyezd-1897-314","name":"Малоархангельский","provinceId":"gubernia-1897-3"},"geometry":{"type":"MultiPolygon","coordinates":[[[[36.49416735120637,52.659872104788505],[36.46799328014171,52.652733721771284],[36.41921432952272,52.63845695573488],[36.41921432952272,52.614662345678],[36.38114295342908,52.61347261517402],[36.359727804376874,52.630128842214646],[36.33712292482095,52.636077494728866],[36.31808723677457,52.63131857271854],[36.287154243699135,52.634887764226754],[36.250272598108324,52.60395477115158],[36.265739094646044,52.59681638813258],[36.294292626716455,52.61228288467101],[36.35139969085655,52.58372935260105],[36.35139969085655,52.54327851550264],[36.42159379052855,52.52781201896413],[36.42754244304312,52.49568929538506],[36.41921432952272,52.46832549381908],[36.378763492423246,52.45404872778276],[36.36924564840011,52.42787465671881],[36.34902022985072,52.421926004204586],[36.32403588928898,52.382664897608294],[36.35919903526438,52.372882669029394],[36.39013202833982,52.35622644198885],[36.419875290913225,52.33957021494821],[36.44485963147409,52.32053452690157],[36.448428822982834,52.30387829985925],[36.492448851590964,52.27413503728806],[36.494828312596795,52.243202044212],[36.54003807170704,52.22892527817568],[36.56145322076004,52.2420123137081],[36.5935759443384,52.2420123137081],[36.58048890880651,52.22892527817568],[36.57810944780068,52.213458781639034],[36.60190405785872,52.20632039862171],[36.6149910933914,52.213458781639034],[36.62926785942629,52.20988959012904],[36.63164732043204,52.19680255459839],[36.64949327797559,52.18728471057507],[36.654252199987155,52.17181821403665],[36.66971869652488,52.17062848353275],[36.68637492356631,52.18252578856208],[36.72920522167081,52.18133605805997],[36.756569023238306,52.17300794453876],[36.774414980781856,52.149213334480905],[36.780363633296346,52.123039263417034],[36.811296626371785,52.1099522278855],[36.843419349950935,52.11114195838762],[36.923131293646165,52.123039263417034],[36.923131293646165,52.099244653358284],[36.98975620180941,52.105193305872504],[37.03972488293211,52.136126298949456],[37.06589895399598,52.15159279548611],[37.117057365621505,52.1551619869961],[37.157508202720095,52.16349010051544],[37.243168798930604,52.16943875303055],[37.33596777815781,52.205130668117825],[37.35262400519835,52.231304739181695],[37.337157508660724,52.2455815052181],[37.321691012123004,52.2420123137081],[37.29670667156125,52.243202044212],[37.27053260049739,52.26818638477197],[37.2859990970351,52.295550186339824],[37.29789640206408,52.31696533539256],[37.30146559357283,52.34075994545033],[37.29551694105834,52.36336482500607],[37.27767098351479,52.360985364000065],[37.263394217479984,52.39429781808124],[37.21937418887185,52.40262593160245],[37.21461526686019,52.422851350151205],[37.22770230239209,52.42880000266632],[37.222943380380514,52.44545622970686],[37.22413311088343,52.453784343228065],[37.26220448697707,52.459732995741405],[37.265773678485814,52.49780437183469],[37.21937418887185,52.54777305295828],[37.23484068540958,52.58941362055889],[37.26815313949156,52.591793081564894],[37.271722331000305,52.583464968045554],[37.2859990970351,52.57870604603336],[37.29670667156125,52.584654698547666],[37.31098343759606,52.584654698547666],[37.31574235960843,52.575136854524345],[37.3288293951404,52.56918820201004],[37.35500346620418,52.57632658502824],[37.36214184922167,52.607259578103324],[37.35143427469553,52.63462337967117],[37.34667535268396,52.665556372746344],[37.319311551117174,52.70719694034873],[37.338347239163554,52.72861208940049],[37.33953696966647,52.7393196639277],[37.321691012123004,52.755975890968344],[37.29195536556603,52.77898822738007],[37.27054021651382,52.76709092235163],[37.218192074385385,52.762332000339526],[37.16584393225685,52.73020927676046],[37.132531478175665,52.72545035474924],[37.10754713761392,52.708794127708614],[37.09089091057328,52.72545035474924],[37.057578456491214,52.758762808830426],[36.989763817825846,52.761142269836434],[36.917190257147226,52.76828065285375],[36.88863672507762,52.746865503801004],[36.87198049803698,52.738537390281664],[36.8529448099906,52.746865503801004],[36.83390912194334,52.748055234304985],[36.81606316439979,52.74329631229377],[36.757766369756865,52.75519361732221],[36.7428210263152,52.7467224315014],[36.72021614676008,52.72530728244875],[36.710698302736844,52.73363539596809],[36.67738584865478,52.73363539596809],[36.66191935211705,52.7467224315014],[36.647642586082256,52.738394317980195],[36.6297966285387,52.73363539596809],[36.639314472561935,52.71459970792145],[36.635745281053275,52.69080509786359],[36.56555118138128,52.674148870823046],[36.49416735120637,52.659872104788505]]]]}},{"type":"Feature","properties":{"kind":"district","id":"uyezd-1897-315","name":"Ливенский","provinceId":"gubernia-1897-3"},"geometry":{"type":"MultiPolygon","coordinates":[[[[37.69567058288822,52.84257271314707],[37.6631512824753,52.836095291519996],[37.62507990638245,52.847992596550306],[37.59890583531788,52.853941249064526],[37.56559338123661,52.855130979567534],[37.54655769318934,52.834905561017884],[37.489450629050125,52.82419798649058],[37.39784138032503,52.80873148995393],[37.29195536556603,52.77898822738007],[37.321691012123004,52.755975890968344],[37.33953696966647,52.7393196639277],[37.338347239163554,52.72861208940049],[37.319311551117174,52.70719694034873],[37.34667535268396,52.665556372746344],[37.35143427469553,52.63462337967117],[37.36214184922167,52.607259578103324],[37.35500346620418,52.57632658502824],[37.3288293951404,52.56918820201004],[37.31574235960843,52.575136854524345],[37.31098343759606,52.584654698547666],[37.29670667156125,52.584654698547666],[37.2859990970351,52.57870604603336],[37.271722331000305,52.583464968045554],[37.26815313949156,52.591793081564894],[37.23484068540958,52.58941362055889],[37.21937418887185,52.54777305295828],[37.265773678485814,52.49780437183469],[37.26220448697707,52.459732995741405],[37.22413311088343,52.453784343228065],[37.222943380380514,52.44545622970686],[37.22770230239209,52.42880000266632],[37.21461526686019,52.422851350151205],[37.21937418887185,52.40262593160245],[37.263394217479984,52.39429781808124],[37.27767098351479,52.360985364000065],[37.29551694105834,52.36336482500607],[37.30146559357283,52.34075994545033],[37.29789640206408,52.31696533539256],[37.2859990970351,52.295550186339824],[37.27053260049739,52.26818638477197],[37.29670667156125,52.243202044212],[37.321691012123004,52.2420123137081],[37.337157508660724,52.2455815052181],[37.35262400519835,52.231304739181695],[37.33596777815781,52.205130668117825],[37.243168798930604,52.16943875303055],[37.157508202720095,52.16349010051544],[37.117057365621505,52.1551619869961],[37.156318472217265,52.13136737693824],[37.17297469925861,52.1063830363764],[37.21699472786602,52.07188085179133],[37.18249254328184,52.04094785871527],[37.24911745144518,52.01953270966351],[37.28718882753802,52.00168675211898],[37.3133628986026,52.01477378765229],[37.3419164306723,52.032619745195035],[37.37879807626222,51.97789214206112],[37.3990234948124,51.95647699300936],[37.43471540989941,51.94338995747604],[37.453751097946586,51.96004618451846],[37.47278678599305,51.96718456753568],[37.48587382152503,51.99454836910175],[37.50966843158298,52.00882513513629],[37.59057010578112,52.00763540463409],[37.61912363785153,51.99454836910175],[37.64053878690382,51.995738099605646],[37.67623070199163,51.982651064072336],[37.71192261707873,51.980271603067216],[37.72619938311354,51.94457968797994],[37.72144046110188,51.93268238294972],[37.73214803562802,51.911267233898755],[37.76427075920718,51.885093162833115],[37.78925509976804,51.86962666629646],[37.82375728435302,51.87319585780459],[37.84636216390814,51.88628289333701],[37.868967043463265,51.911267233898755],[37.885623270504695,51.9303029219454],[37.92250491609471,51.9303029219454],[37.9284535686092,51.916026155909975],[37.918935724585964,51.89461100685644],[37.935591951626606,51.891041815348224],[37.954627639673774,51.89936992886943],[38.012924434316,51.896990467862445],[38.04861634940381,51.88628289333701],[38.124759101590286,51.90293912037755],[38.13308721511069,51.917215886412095],[38.11762071857298,51.925543999933296],[38.1188104490758,51.93744130496272],[38.1473639811455,51.93149265244752],[38.18543535723914,51.9279234609394],[38.21398888930875,51.917215886412095],[38.236593768864665,51.918405616916075],[38.24254242137924,51.93149265244752],[38.24373215188207,51.965994837031786],[38.25443972640822,51.98503052507843],[38.29251110250106,52.01477378765229],[38.29251110250106,52.02667109268073],[38.25919864841979,52.03499920620193],[38.21398888930875,52.03380947569804],[38.22707592484144,52.064742468774014],[38.280613797472,52.099244653358284],[38.300839216022176,52.123039263417034],[38.3305824785947,52.13731602945157],[38.344859244629504,52.149213334480905],[38.3591360106644,52.149213334480905],[38.365084663179594,52.16349010051544],[38.353187358149825,52.17776686655175],[38.33415167010335,52.18490524956907],[38.28299325847783,52.217027973148134],[38.25206026540239,52.221786895158374],[38.244921882384986,52.232494469685676],[38.23778349936758,52.26818638477197],[38.22826565534435,52.28008368980139],[38.19733266226811,52.295550186339824],[38.116430988070064,52.293170725333724],[38.08311853398799,52.293170725333724],[38.06765203745027,52.31696533539256],[38.052185540912554,52.36455455550819],[38.034339583369004,52.393108087578156],[38.0272012003516,52.41214377562577],[38.02601146984868,52.460922726245386],[38.02363200884285,52.48471733630235],[38.01530389532254,52.503753024349884],[37.99507847677245,52.525168173402534],[37.98675036325213,52.5489627834604],[37.98912982425796,52.57632658502824],[38.012924434316,52.616777422126646],[38.01173470381308,52.62986445765907],[37.98675036325213,52.6429514931906],[37.96414548369701,52.67388448626755],[37.952248178668036,52.70600720984475],[37.949868717662206,52.74645804694502],[37.97723251922899,52.75002723845314],[37.98912982425796,52.77025265700199],[37.9926990157667,52.79285753655765],[37.991913478113915,52.81520891158109],[37.97287779006754,52.81877810308832],[37.93480641397461,52.82710621660864],[37.9062528819042,52.82353702510043],[37.88245827184616,52.8116397200711],[37.82059228569449,52.83662406063285],[37.78727983161251,52.84138298264496],[37.730172767473206,52.84257271314707],[37.69567058288822,52.84257271314707]]]]}},{"type":"Feature","properties":{"kind":"district","id":"uyezd-1897-322","name":"Дмитровский","provinceId":"gubernia-1897-3"},"geometry":{"type":"MultiPolygon","coordinates":[[[[35.65302788564536,52.25893292530512],[35.63994085011338,52.280348074358656],[35.66135599916568,52.31009133693074],[35.670873843188915,52.339834599503796],[35.61852570106038,52.37314705358497],[35.599490013014005,52.410028699176145],[35.60067974351692,52.443341153257236],[35.56736728943485,52.44572061426334],[35.51858833881586,52.51591471393479],[35.528106182839096,52.53732986298745],[35.554280253902874,52.53019147996933],[35.56736728943485,52.544468246004755],[35.55309052339996,52.56588339505829],[35.58045432496753,52.580160161091946],[35.585213246979194,52.59443692712826],[35.56617755893193,52.61228288467101],[35.53643429635941,52.61347261517402],[35.513829416804285,52.62893911171156],[35.482896423727965,52.62061099819222],[35.45672235266419,52.62061099819222],[35.392476905506676,52.656302913278516],[35.38890771399802,52.671769409816946],[35.410322863050226,52.68128725384027],[35.317523883823114,52.70865105540811],[35.28421142974104,52.70032294188691],[35.26874493320332,52.68604617585246],[35.243760592642374,52.72530728244875],[35.25341062894353,52.747251200612475],[35.208200869833284,52.75082039212246],[35.17726787675704,52.747251200612475],[35.14752461418452,52.747251200612475],[35.134437578652545,52.74130254809914],[35.117781351611114,52.744871739607355],[35.051156443447866,52.74249227860126],[35.048776982442035,52.761527966647904],[35.029741294395656,52.76985608016822],[35.01308506735502,52.76866634966521],[35.0047569538347,52.75795877513978],[34.98929045729699,52.76390742765311],[34.97620342176421,52.78532257670576],[34.9619266557294,52.79484042072908],[34.93099366265396,52.79840961223818],[34.91195797460679,52.79246095972307],[34.883404442537184,52.8079274562615],[34.83462549191739,52.826963144308145],[34.812020612362275,52.832911796823254],[34.76086220073665,52.86265505939534],[34.743016243193196,52.86860371191053],[34.750154626210595,52.821014491793036],[34.75372381771925,52.77342527167643],[34.74658543470185,52.75795877513978],[34.7644313922454,52.74963066161857],[34.79179519381289,52.75438958362979],[34.79893357683038,52.74011281759525],[34.84414333594063,52.738923087093134],[34.85366117996457,52.730594973571925],[34.81796926487676,52.700851710998876],[34.771569775262805,52.67943656194622],[34.759672470233824,52.66278033490559],[34.766810853251144,52.64255491635594],[34.750154626210595,52.62470895881328],[34.740636782187366,52.596155426743316],[34.75134435671342,52.56403270316425],[34.79179519381289,52.5913965047321],[34.84414333594063,52.56284297266214],[34.82153845638541,52.55213539813484],[34.8286768394029,52.52120240505975],[34.847712527450085,52.522392135561866],[34.87507632901686,52.51644348304676],[34.92266554913365,52.51525375254455],[34.92504501013948,52.50573590852123],[34.91076824410388,52.48670022047459],[34.8631790239878,52.46171587991284],[34.88697363404584,52.43673153935286],[34.85247144946165,52.40936773778502],[34.859609832479144,52.39390124124658],[34.904069602744755,52.36944836760038],[34.92372308735784,52.37195732308286],[34.95584581093708,52.36957786207587],[34.97607122948637,52.355301096042226],[35.005814492058896,52.34340379101192],[35.02960910211773,52.312470797935944],[35.022470719100326,52.27796861335176],[35.02841937161482,52.26845076932844],[35.048644790164104,52.270830230335335],[35.06649074770766,52.28986591838198],[35.09266481877232,52.30771187592473],[35.112890237321615,52.31366052843984],[35.12002862033901,52.342214060509804],[35.165238379450145,52.36362920956165],[35.21639679107488,52.339834599503796],[35.224724904595995,52.30771187592473],[35.27112439420915,52.31366052843984],[35.29016008225633,52.28272753536298],[35.317523883823114,52.274399421843555],[35.335369841366656,52.25893292530512],[35.38176933098053,52.22799993222995],[35.406753671541566,52.22205127971573],[35.39842555802116,52.23275885424117],[35.45434289165836,52.23870750675636],[35.48408615423088,52.22443074072183],[35.509070494792624,52.22562047122394],[35.513829416804285,52.21253343569241],[35.58164405547045,52.23751777625238],[35.59830028251109,52.239897237258475],[35.61257704854589,52.24465615927058],[35.6268538145807,52.2470356202757],[35.64351004162213,52.25060481178569],[35.65302788564536,52.25893292530512]]]]}},{"type":"Feature","properties":{"kind":"district","id":"uyezd-1897-323","name":"Орловский","provinceId":"gubernia-1897-3"},"geometry":{"type":"MultiPolygon","coordinates":[[[[36.32403588928898,52.382664897608294],[36.34902022985072,52.421926004204586],[36.36924564840011,52.42787465671881],[36.378763492423246,52.45404872778276],[36.41921432952272,52.46832549381908],[36.42754244304312,52.49568929538506],[36.42159379052855,52.52781201896413],[36.35139969085655,52.54327851550264],[36.35139969085655,52.58372935260105],[36.294292626716455,52.61228288467101],[36.265739094646044,52.59681638813258],[36.250272598108324,52.60395477115158],[36.287154243699135,52.634887764226754],[36.31808723677457,52.63131857271854],[36.33712292482095,52.636077494728866],[36.359727804376874,52.630128842214646],[36.38114295342908,52.61347261517402],[36.41921432952272,52.614662345678],[36.41921432952272,52.63845695573488],[36.46799328014171,52.652733721771284],[36.49416735120637,52.659872104788505],[36.51320303925284,52.69556401987578],[36.51082357824701,52.70270240289301],[36.48227004617731,52.70389213339512],[36.48940842919471,52.71459970792145],[36.4810803156744,52.72411755194477],[36.42873217354595,52.71816889943143],[36.41326567700823,52.72173809093965],[36.40850675499586,52.737204587478075],[36.38471214493782,52.73601485697419],[36.359727804376874,52.74910189250661],[36.346640768844985,52.76456838904504],[36.36091753487979,52.80263976513832],[36.35377915186238,52.816916531172865],[36.31689750627166,52.80382949564044],[36.301431009733946,52.82881383620228],[36.30737966224843,52.85260844626005],[36.301431009733946,52.87640305631791],[36.287154243699135,52.93232038995483],[36.321656428283234,52.94183823397815],[36.321656428283234,52.95849446101879],[36.34545103834207,52.960873922024795],[36.34902022985072,52.98823772359265],[36.32879481130064,53.00727341163929],[36.306189931745514,53.00965287264441],[36.288343974201965,53.025119369182036],[36.31094885375708,53.03820640471437],[36.306189931745514,53.0584318232641],[36.280015860681644,53.1000723908664],[36.293102896213625,53.117918348410925],[36.27644666917299,53.12029780941525],[36.26216990313739,53.113159426397935],[36.219339605032886,53.12624646193036],[36.17175038491601,53.133384844947585],[36.136058469829,53.12981565343857],[36.08965898021505,53.12029780941525],[36.06586437015701,53.12505673142735],[36.02660326356045,53.116728617907036],[35.98972161797044,53.131005383942465],[35.97782431294067,53.14885134148521],[35.95165024187689,53.159558916011534],[35.92547617081302,53.16312810752153],[35.87907668119907,53.17502541254997],[35.85647180164394,53.17264595154485],[35.84933341862645,53.13576430595368],[35.80055446800675,53.14052322796579],[35.78508797146903,53.13933349746189],[35.76367282241594,53.121487539919144],[35.73868848185508,53.1000723908664],[35.73749875135216,53.083416163824964],[35.72322198531735,53.06794966728742],[35.69823764475561,53.050103709744675],[35.670873843188915,53.050103709744675],[35.66492519067434,53.04415505722957],[35.601869474019836,53.052483170750776],[35.550711062394214,53.03344748270413],[35.5150191473072,53.031068021697145],[35.499552650769395,53.025119369182036],[35.47945942449803,53.02326867728879],[35.47945942449803,53.01137137226035],[35.46042373645085,53.00304325873914],[35.447336700918875,52.99352541471582],[35.45090589242762,52.96854107415585],[35.440198317901476,52.95783349962855],[35.42235236035792,52.954264308119534],[35.38428098426428,52.964971882645855],[35.36643502672074,52.96259242164163],[35.36286583521208,52.95069511661132],[35.41283451633469,52.91857239303226],[35.425921551866665,52.923331315045246],[35.45328535343336,52.90667508800293],[35.456854544942104,52.89358805247228],[35.425921551866665,52.882880477945065],[35.40093721130492,52.87574209492776],[35.3711939487324,52.87812155593385],[35.37000421822948,52.86741398140842],[35.40331667231075,52.851947484869896],[35.41521397734052,52.843619371348694],[35.43649693411489,52.84071114123072],[35.448394239143866,52.84784952424892],[35.466240196687416,52.80739868714954],[35.51026022529554,52.808588417651656],[35.509070494792624,52.826434375196186],[35.519778069318775,52.84071114123072],[35.54238294887389,52.84547006324283],[35.54119321837098,52.86688521229459],[35.57450567245305,52.86212629028337],[35.60424893502557,52.87045440380457],[35.65183815514244,52.86688521229459],[35.71132468028829,52.85260844626005],[35.73630902084925,52.84309060223673],[35.73749875135216,52.82524464469229],[35.75653443939862,52.813347339663764],[35.78389824096612,52.805019226144424],[35.793416084989346,52.788362999102006],[35.81007231202999,52.78598353809778],[35.82315934756187,52.80145003463443],[35.87788695069615,52.78598353809778],[35.89216371673095,52.7955013821211],[35.936183745339164,52.799070573628335],[35.952839972379806,52.78598353809778],[35.98853188746752,52.799070573628335],[36.00637784501116,52.787173268599894],[36.01827515004014,52.75861973652993],[36.04563895160683,52.7407737789854],[36.12297143429632,52.72054836043576],[36.11583305127883,52.6943742893718],[36.07538221418024,52.6979434808809],[36.02541353305754,52.68366671484637],[36.00399838400533,52.66582075730184],[35.993290809479184,52.644405608250075],[36.03374164657785,52.62418018970132],[36.06824383116275,52.59443692712826],[36.109884398764336,52.57183204757163],[36.09203844122088,52.55041689851987],[36.05872598713952,52.561124473045304],[36.04444922110392,52.55041689851987],[35.995670270485014,52.54208878499866],[36.00042919249658,52.5206736359469],[35.9802037739465,52.49330983437905],[35.97544485193484,52.482602259853614],[36.014705958531394,52.47189468532818],[36.052777334624324,52.47189468532818],[36.05515679563006,52.44215142275512],[36.01232649752565,52.43739250074213],[36.017085419537224,52.38623408911829],[36.08727951920922,52.344593521515904],[36.11345359027308,52.336265407994695],[36.142007122343486,52.31603998944594],[36.18364768994499,52.31841945045194],[36.22409852704446,52.336265407994695],[36.24551367609675,52.362439479058565],[36.31332831476291,52.37314705358497],[36.32403588928898,52.382664897608294]]]]}},{"type":"Feature","properties":{"kind":"district","id":"uyezd-1897-751","name":"Брянский","provinceId":"gubernia-1897-3"},"geometry":{"type":"MultiPolygon","coordinates":[[[[33.66543656096182,54.02927592358171],[33.66662629146474,53.994773738996635],[33.67376467448214,53.96384074592155],[33.65353925593276,53.95194344089214],[33.62617545436607,53.942425596868816],[33.6356932983893,53.9329077528446],[33.67019548297348,53.938856405359715],[33.67495440498506,53.93171802234249],[33.66662629146474,53.91982071731307],[33.68090305749955,53.90554395127853],[33.66543656096182,53.90197475976854],[33.636883028892214,53.90554395127853],[33.629744645874815,53.88412880222588],[33.66543656096182,53.867472575185246],[33.68923117101986,53.85319580914893],[33.620226801850784,53.84962661764072],[33.571447851231795,53.79846820601599],[33.515530517594605,53.74493033338419],[33.51077159558304,53.73065356734965],[33.51909970910335,53.713997340309106],[33.47745914150106,53.71994599282243],[33.453664531442925,53.716376801314226],[33.42511099937332,53.704479496285785],[33.41440342484717,53.69377192175857],[33.38703962327968,53.69734111326856],[33.331122289642494,53.67592596421582],[33.32398390662509,53.65094162365406],[33.31327633209894,53.63904431862554],[33.28710226103516,53.63666485761953],[33.25497953745601,53.65570054566617],[33.23713357991246,53.67354650320883],[33.214528700357334,53.67354650320883],[33.22761573588923,53.63904431862554],[33.24546169343277,53.58550644599382],[33.200251934321734,53.590265368005035],[33.16099082772598,53.5759886019705],[33.14671406169117,53.598593481526244],[33.149093522696916,53.621198361081014],[33.13481675666211,53.63785458812164],[33.13719621766794,53.64856216264797],[33.12529891263817,53.66759785069461],[33.105073494088785,53.6711670422046],[33.0634329264872,53.65808000667129],[33.01703343687325,53.64618270164285],[32.99323882681521,53.634285396613436],[32.98847990480364,53.620008630578894],[33.00751559285001,53.60097294253225],[33.05510481296618,53.60097294253225],[33.061053465481464,53.58312698498773],[33.08722753654524,53.56766048844929],[33.10150430258013,53.53910695638022],[33.0848480755395,53.5295891123569],[33.06224319598429,53.526019920848775],[33.04320750793711,53.49865611928092],[33.02655128089648,53.479620431235176],[33.03963831642845,53.467723126205755],[33.038448585925536,53.45701555167854],[33.02536155039356,53.44511824665001],[33.020602628381994,53.42489282809947],[33.04082804693137,53.388011182509196],[33.038448585925536,53.36659603345832],[33.038448585925536,53.34399115390258],[33.01703343687325,53.32376573535204],[32.961116103236144,53.32138627434595],[32.92899337965779,53.32019654384294],[32.91947553563456,53.32733492686204],[32.8944911950728,53.32257600484993],[32.87664523752926,53.3011608557963],[32.89211173406697,53.282125167749655],[32.91471661362219,53.26071001869789],[32.943270145692594,53.26665867121301],[32.96825448625354,53.27141759322422],[32.99442855731812,53.270227862721214],[33.01227451486167,53.25238190517847],[33.01049663983537,53.240661879555844],[33.02018344527829,53.2383826312152],[33.08204943142917,53.178896106070155],[33.11774134651698,53.16105014852563],[33.165330566633855,53.15748095701751],[33.209350595241276,53.17056799254895],[33.25099116284357,53.17056799254895],[33.28430361692484,53.182465297579256],[33.31523661000108,53.207449638141014],[33.28430361692484,53.21339829065434],[33.246232240832,53.21458802115832],[33.2533706238494,53.23481343970708],[33.30690849648076,53.2395723617183],[33.327133915030046,53.252659397251605],[33.37710259615275,53.258608049764945],[33.3949485536963,53.26693616328615],[33.37829232665567,53.28240265982458],[33.424691816268826,53.29429996485213],[33.44610696532183,53.27526427680549],[33.45086588733349,53.260987510770946],[33.48774753292342,53.255038858256725],[33.587684895168735,53.23600317021098],[33.64122276779929,53.22410586518164],[33.665017377858135,53.23243397870098],[33.66577429692778,53.24382034127939],[33.67886133245966,53.24263061077541],[33.68718944597998,53.231923036249086],[33.69670729000322,53.231923036249086],[33.69670729000322,53.24263061077541],[33.71217378654164,53.24976899379361],[33.72883001358228,53.24857926328971],[33.74191704911426,53.26166629882205],[33.7657116591723,53.26404575982815],[33.791885730236956,53.25452791580483],[33.841854411358774,53.222405192225764],[33.90847931952202,53.19504139065978],[33.95725827014181,53.20336950417912],[33.96082746165055,53.18790300764246],[33.98581180221222,53.18433381613248],[34.03459075283121,53.205748965185215],[34.088128625462566,53.214077078706424],[34.171409760666535,53.19742085166578],[34.180927604689685,53.18076462462338],[34.185686526701346,53.140313787524974],[34.215429789274665,53.11057052495289],[34.25588062637334,53.07606834036782],[34.29395200246698,53.07487860986384],[34.32012607353076,53.08558618439114],[34.3165568820221,53.11651917746622],[34.32250553453659,53.131985674003765],[34.3308336480569,53.139124057022855],[34.43196074080514,53.1034321419338],[34.45575535086317,53.11651917746622],[34.458134811869,53.12841648249555],[34.47717049991618,53.126037021489545],[34.49501645745973,53.131985674003765],[34.49739591846556,53.143882979034075],[34.510482953997446,53.149831631549176],[34.53903648606715,53.141503518027086],[34.543795408078715,53.1557802840634],[34.555692713108485,53.16767758909193],[34.58424624517809,53.17243651110404],[34.60685112473331,53.16648785858884],[34.65800953635883,53.19266192965368],[34.66276845837049,53.211697617700324],[34.69251172094382,53.217646270213656],[34.70797821748154,53.23787168876428],[34.7115474089902,53.26047656831993],[34.73177282753957,53.284271178376905],[34.76508528162155,53.292599291898995],[34.79006962218251,53.292599291898995],[34.81743342374929,53.28546090887991],[34.8531253388371,53.299737674915335],[34.90190428945689,53.31996309346507],[34.89833509794814,53.34256797301984],[34.874540487889305,53.348516625535034],[34.86251076492212,53.35447368991841],[34.8125420838003,53.35090449841029],[34.78398855172989,53.34614557639907],[34.74115825362539,53.35209422891418],[34.73639933161373,53.39373479651479],[34.667394962444654,53.39373479651479],[34.65430792691197,53.405632101544114],[34.63765169987133,53.404442371042],[34.584113827239975,53.417529406574424],[34.52581703259775,53.44608293864439],[34.48655592600129,53.47106727920436],[34.435397514375666,53.479395392725564],[34.396136407779906,53.51151811630463],[34.38899802476251,53.562676527930336],[34.39494667727699,53.5840916769821],[34.38423910275085,53.59479925150754],[34.38542883325376,53.634060358103824],[34.40208506029448,53.66618308168289],[34.431828322867005,53.69592634425683],[34.42231047884378,53.70425445777617],[34.39375694677417,53.68759823073563],[34.37829045023645,53.69116742224375],[34.360444492692096,53.70782364928439],[34.29738877603751,53.77444855744852],[34.28430174050562,53.791104784490045],[34.29262985402593,53.83393508259455],[34.28668120151136,53.85059130963421],[34.24147144240112,53.84940157913209],[34.183174647758186,53.943390288863185],[34.158190307196435,53.91007783478014],[34.142723810658715,53.91007783478014],[34.127257314120996,53.89104214673448],[34.05587348394609,53.88866268572838],[34.00590480282338,53.895801068745605],[33.96783342673054,53.887472955224396],[33.94522854717462,53.870816728183854],[33.90001878806438,53.87438591969384],[33.88693175253249,53.91007783478014],[33.85956795096491,53.91840594830135],[33.83577334090687,53.91245729578624],[33.829824688392385,53.9362519058441],[33.83339387990104,53.954097863388625],[33.814358191854666,53.957667054896746],[33.74416409218267,53.950528671879525],[33.73107705664998,53.964805437914066],[33.729887326147065,53.97789247344649],[33.740594900673926,53.99216923948191],[33.74178463117684,54.00406654451035],[33.75963058872039,54.00525627501433],[33.765579241234875,54.033809807084296],[33.67634945351651,54.0349995375873],[33.66543656096182,54.02927592358171]]]]}},{"type":"Feature","properties":{"kind":"district","id":"uyezd-1897-752","name":"Севский","provinceId":"gubernia-1897-3"},"geometry":{"type":"MultiPolygon","coordinates":[[[[34.40397221244672,51.810838219996185],[34.40632251086802,51.835917635380625],[34.384907361815735,51.85257386242117],[34.38609709231865,51.86685062845571],[34.40394304986219,51.87160955046781],[34.45034253947615,51.90254254354298],[34.43368631243552,51.915629579075315],[34.387286822821565,51.88588631650235],[34.35992302125478,51.906111735051994],[34.32899002817863,51.915629579075315],[34.3337489501902,51.93823445863017],[34.36706140427227,51.93228580611595],[34.389666283827395,51.954890685670804],[34.387286822821565,51.982254487239544],[34.422978737908664,52.01675667182283],[34.48603445456317,52.04649993439669],[34.540762057697435,52.08219184948397],[34.57407451177951,52.070294544454555],[34.57288478127659,52.04649993439669],[34.61809454038692,52.04649993439669],[34.657355646983476,52.067915083448455],[34.694237292573405,52.066725352946335],[34.728739477158385,52.08100211897999],[34.74896489570768,52.10003780702663],[34.719221633135156,52.15952433217265],[34.68471944855017,52.16904217619597],[34.688288640058914,52.21306220480437],[34.7073243281061,52.226149240336795],[34.75729300922799,52.21663139631258],[34.776328697275176,52.19402651675773],[34.80845142085353,52.19878543876983],[34.86436875449071,52.208303282792265],[34.88221471203427,52.23090816234712],[34.8988709390749,52.24399519787946],[34.8988709390749,52.25589250290887],[34.87745579002261,52.25351304190278],[34.8703174070052,52.26422061643008],[34.90957851360096,52.28563576548184],[34.92742447114531,52.3094303755397],[34.932183393156876,52.335604446603654],[34.92385527963656,52.354640134650296],[34.90719905259513,52.36772717018263],[34.904069602744755,52.36944836760038],[34.859609832479144,52.39390124124658],[34.85247144946165,52.40936773778502],[34.88697363404584,52.43673153935286],[34.8631790239878,52.46171587991284],[34.91076824410388,52.48670022047459],[34.92504501013948,52.50573590852123],[34.92266554913365,52.51525375254455],[34.87507632901686,52.51644348304676],[34.847712527450085,52.522392135561866],[34.8286768394029,52.52120240505975],[34.82153845638541,52.55213539813484],[34.84414333594063,52.56284297266214],[34.79179519381289,52.5913965047321],[34.75134435671342,52.56403270316425],[34.740636782187366,52.596155426743316],[34.750154626210595,52.62470895881328],[34.766810853251144,52.64255491635594],[34.759672470233824,52.66278033490559],[34.771569775262805,52.67943656194622],[34.81796926487676,52.700851710998876],[34.85366117996457,52.730594973571925],[34.84414333594063,52.738923087093134],[34.79893357683038,52.74011281759525],[34.79179519381289,52.75438958362979],[34.7644313922454,52.74963066161857],[34.74658543470185,52.75795877513978],[34.75372381771925,52.77342527167643],[34.750154626210595,52.821014491793036],[34.743016243193196,52.86860371191053],[34.71565244162641,52.85908586788721],[34.645458341954416,52.86622425090444],[34.626422653907156,52.86265505939534],[34.61095615736943,52.851947484869896],[34.58716154731148,52.84956802386389],[34.57169505077368,52.843619371348694],[34.60143831334629,52.80911718676539],[34.55979774574391,52.79127122922087],[34.509829064622,52.826963144308145],[34.48325841672365,52.815330223836085],[34.451135693144494,52.80700211031488],[34.4237718915778,52.805812379811876],[34.396408090010226,52.790345883273446],[34.36785455794062,52.76417181220949],[34.33454210385935,52.74870531567195],[34.31193722430342,52.73799774114562],[34.28695288374247,52.7284798971223],[34.32145506832666,52.705875017566555],[34.39164916799865,52.67256256348627],[34.428530813589376,52.65709606694784],[34.430910274595206,52.6428193009133],[34.38570051548416,52.619024690853664],[34.35833671391738,52.58095331476038],[34.2893323447483,52.557158704702516],[34.23817393312268,52.565486818223725],[34.204861479041504,52.55002032168521],[34.185825790994244,52.52741544212947],[34.19772309602401,52.48101595251684],[34.21318959256182,52.46792891698442],[34.21081013155599,52.44889322893778],[34.192964174012445,52.44175484592055],[34.1691695639536,52.43818565441056],[34.157272258924635,52.41677050535871],[34.16560037244495,52.39892454781605],[34.18106686898267,52.39773481731207],[34.192964174012445,52.39297589530085],[34.20129228753276,52.36918128524299],[34.236984202619766,52.344196944681244],[34.22270743658497,52.319212604119485],[34.19772309602401,52.31802287361737],[34.17987713847975,52.309694760096164],[34.17630794697109,52.30255637707886],[34.140616031883994,52.30017691607284],[34.1061138472991,52.30493583808406],[34.07637058472649,52.28946934154741],[34.04662732215317,52.27162338400288],[34.03235055611836,52.27162338400288],[33.99100353565635,52.23900900876647],[34.013608415212275,52.21878359021772],[34.04811059979646,52.20569655468539],[34.06357709633417,52.19855817166807],[34.07071547935237,52.170004639598105],[34.0861819758901,52.15929706507267],[34.10759712494239,52.14621002954025],[34.11711496896554,52.1295538024997],[34.10402793343364,52.1152770364633],[34.05524898281386,52.114087305961185],[34.007659762697784,52.117656497470286],[33.9672089255984,52.14502029903636],[33.94222458503745,52.117656497470286],[33.90071620971299,52.09756327119883],[33.91261351474205,52.0797173136543],[33.93878758580663,52.07495839164309],[33.9649616568705,52.07733785264918],[33.99232545843799,52.06187135611076],[34.037535217548324,52.047594590075235],[34.09226282068259,52.02736917152559],[34.117247161243455,52.00833348347895],[34.13152392727906,51.98572860392507],[34.11605743074054,51.95955453286112],[34.14699042381678,51.91434477374874],[34.155318537337095,51.89887827721218],[34.086314168168016,51.885791241679755],[34.114867700237625,51.8596171706158],[34.18030287789805,51.85009932659248],[34.250496977570045,51.84177121307127],[34.27191212662305,51.85485824860369],[34.32069107724204,51.884601511175774],[34.36471110585016,51.84771986558647],[34.39088517691403,51.83344309955193],[34.40397221244672,51.810838219996185]]]]}},{"type":"Feature","properties":{"kind":"district","id":"uyezd-1897-754","name":"Елецкий","provinceId":"gubernia-1897-3"},"geometry":{"type":"MultiPolygon","coordinates":[[[[37.991913478113915,52.81520891158109],[37.9926990157667,52.79285753655765],[37.98912982425796,52.77025265700199],[37.97723251922899,52.75002723845314],[37.949868717662206,52.74645804694502],[37.952248178668036,52.70600720984475],[37.96414548369701,52.67388448626755],[37.98675036325213,52.6429514931906],[38.01173470381308,52.62986445765907],[38.012924434316,52.616777422126646],[37.98912982425796,52.57632658502824],[37.98675036325213,52.5489627834604],[37.99507847677245,52.525168173402534],[38.01530389532254,52.503753024349884],[38.02363200884285,52.48471733630235],[38.02601146984868,52.460922726245386],[38.0272012003516,52.41214377562577],[38.034339583369004,52.393108087578156],[38.052185540912554,52.36455455550819],[38.06765203745027,52.31696533539256],[38.08311853398799,52.293170725333724],[38.116430988070064,52.293170725333724],[38.19733266226811,52.295550186339824],[38.22826565534435,52.28008368980139],[38.23778349936758,52.26818638477197],[38.244921882384986,52.232494469685676],[38.25206026540239,52.221786895158374],[38.28299325847783,52.217027973148134],[38.33415167010335,52.18490524956907],[38.353187358149825,52.17776686655175],[38.365084663179594,52.16349010051544],[38.3591360106644,52.149213334480905],[38.344859244629504,52.149213334480905],[38.3305824785947,52.13731602945157],[38.300839216022176,52.123039263417034],[38.280613797472,52.099244653358284],[38.22707592484144,52.064742468774014],[38.21398888930875,52.03380947569804],[38.25919864841979,52.03499920620193],[38.29251110250106,52.02667109268073],[38.29251110250106,52.01477378765229],[38.25443972640822,51.98503052507843],[38.24373215188207,51.965994837031786],[38.24254242137924,51.93149265244752],[38.267526761940104,51.926733730435416],[38.298459755016346,51.9279234609394],[38.33891059211501,51.9303029219454],[38.322254365074386,51.952907801499364],[38.298459755016346,51.96956402854178],[38.34604897513242,51.995738099605646],[38.43289930184505,51.995738099605646],[38.47691933045317,52.006445674131086],[38.49595501849964,52.02429163167472],[38.52450855057005,52.027860823182934],[38.56376965716581,52.05522462475069],[38.59827184175079,52.061173277265894],[38.630394565329055,52.043327319721364],[38.637532948346546,52.03143001469292],[38.651809714382146,52.02548136217861],[38.694640012486644,52.04570678072737],[38.72438327505988,52.04213758921925],[38.72914219707154,52.02548136217861],[38.74579842411218,52.01239432664628],[38.76483411215864,52.01834297915961],[38.78386980020502,52.03975812821226],[38.78624926121156,52.052845163744685],[38.7969568357377,52.06593219927622],[38.80885414076677,52.07188085179133],[38.8100438712696,52.08734734832976],[38.78149033919919,52.108762497381605],[38.720814083551225,52.11114195838762],[38.66013782790246,52.117090610902814],[38.61492806879133,52.13374683794247],[38.538785316604944,52.18847444107719],[38.51737016755264,52.232494469685676],[38.557821004651316,52.28008368980139],[38.58161561471015,52.295550186339824],[38.60659995527111,52.301498838854926],[38.62444591281465,52.31577560488858],[38.6767940549431,52.31815506589557],[38.682742707457585,52.34432913695943],[38.706537317515625,52.35622644198885],[38.73152165807737,52.360985364000065],[38.769593034170214,52.35027778947365],[38.79457737473187,52.375262130035495],[38.813613062778344,52.372882669029394],[38.818371984790005,52.34670859796553],[38.84692551685961,52.35027778947365],[38.88380716245034,52.36574428601217],[38.91949907753744,52.38477997405792],[38.93496557407586,52.43712811618575],[38.95519099262525,52.46806110926172],[38.94805260960784,52.48590706680535],[38.924257999549006,52.51089140736711],[38.90165311999388,52.55372170547161],[38.93139638256721,52.606069847601205],[38.95757045363108,52.63224391866517],[38.95994991463691,52.6465206846997],[38.936155304578776,52.66198718123813],[38.91117096401703,52.683402330290875],[38.91117096401703,52.738129933423814],[38.93139638256721,52.744078585938034],[38.94329368759627,52.772632118008886],[38.975416411174535,52.7797705010262],[38.98493425519777,52.79404726706163],[38.995641829724626,52.80237538058097],[39.03252347531464,52.79523699756374],[39.04561051084653,52.81189322460429],[39.02538509229724,52.829739182147925],[38.994452099221,52.838067295669134],[38.983744524694856,52.8226007991307],[38.95994991463691,52.827359721142805],[38.93258611307012,52.84877487019457],[38.87785850993585,52.83687756516613],[38.78030060869627,52.84044675667523],[38.6910708209779,52.85948244472187],[38.69345028198373,52.90231274282628],[38.72438327505988,52.95466088495411],[38.704157856509795,52.979645225515945],[38.658948097399545,52.971317111994736],[38.59827184175079,52.96893765099051],[38.52093935906139,53.01176794909501],[38.485651636823704,53.04363716813991],[38.455908374251095,52.9948582175211],[38.37381696955012,52.9936684870172],[38.342883976473885,52.943699805894504],[38.29172556484916,52.89730031628188],[38.27863852931647,52.90324896879521],[38.26198230227574,52.943699805894504],[38.24532607523511,52.943699805894504],[38.23223903970322,52.927043578853954],[38.20844442964447,52.88183381974345],[38.18464981958644,52.878264628235236],[38.15966547902539,52.8616084011946],[38.13349140796082,52.84495217415228],[38.09898922337672,52.83900352163894],[38.06686649979757,52.83900352163894],[37.991913478113915,52.81520891158109]]]]}}]}
