{"type":"FeatureCollection","features":[{"type":"Feature","properties":{"kind":"province","id":"gubernia-1897-30","name":"Радомская губерния"},"geometry":{"type":"MultiPolygon","coordinates":[[[[20.04199617993528,51.54447862172219],[20.072929173011516,51.54328889121821],[20.083636747537575,51.53734023870399],[20.10676213418781,51.53551846387104],[20.14074381167768,51.53020185568677],[20.137174620169024,51.51473535914825],[20.14557709184604,51.509418750964855],[20.152641116706743,51.51473535914825],[20.152641116706743,51.52306347266945],[20.166917882741547,51.52306347266945],[20.195471414811955,51.51949428116044],[20.228783868893135,51.52663266417767],[20.251388748448345,51.53615050820099],[20.2906498550449,51.56232457926485],[20.332290422647286,51.581360267312476],[20.350136380190747,51.574221884295156],[20.37274125974587,51.58611918932458],[20.40843317483368,51.61467272139365],[20.440555898412033,51.61467272139365],[20.460781316961413,51.60634460787422],[20.490524579534735,51.60634460787422],[20.48933484903182,51.568273231780054],[20.622584665358406,51.55875538775673],[20.63448197038738,51.5932575723418],[20.642039778286986,51.615359794838724],[20.68605980689513,51.62249817785596],[20.722941452485145,51.62011871685173],[20.75982309807587,51.61892898634775],[20.774099864110763,51.62368790835994],[20.81811989271889,51.63558521338927],[20.824068545233377,51.6415338659026],[20.878796148367652,51.65581063193892],[20.87641668736182,51.64272359640658],[20.916867524460493,51.6451030574117],[20.937092943009784,51.65819009294501],[20.952559439548303,51.6462927879156],[20.997769198658634,51.66651820646435],[20.99657946815572,51.67841551149466],[21.01918434771164,51.687933355517984],[21.035840574752186,51.68674362501409],[21.044168688272592,51.68674362501409],[21.05011734078708,51.69864093004342],[21.066773567827713,51.70815877406674],[21.083429794869147,51.70815877406674],[21.12388063196782,51.736712306135814],[21.132208745488047,51.737902036639795],[21.134588206493877,51.745040419657016],[21.18455688761658,51.7771631432352],[21.20240284516004,51.77597341273308],[21.214300150189104,51.7831117957503],[21.246422873768168,51.79738856178484],[21.288063441369754,51.81047559731815],[21.266648292317548,51.831890746369915],[21.249992065276913,51.841408590393236],[21.25356125678566,51.85092643441656],[21.274976405837865,51.85806481743387],[21.289013999419193,51.84175197376496],[21.318757261992516,51.83580332125163],[21.356828638085446,51.8215265552162],[21.398469205687743,51.8179573637071],[21.405607588705145,51.80843951968378],[21.411556241219632,51.79059356214112],[21.42940219876318,51.77631679610481],[21.425833007254525,51.762040030071155],[21.407987049710975,51.747763264034845],[21.403228127699403,51.73586595900631],[21.40679731920806,51.71802000146178],[21.43535085127767,51.71564054045756],[21.448437886809646,51.69541512190702],[21.46747357485682,51.684707547380604],[21.48056061038871,51.65972320682063],[21.501975759441006,51.658533476316734],[21.544806057546218,51.65734374581462],[21.55908282358111,51.63354913575499],[21.576928781124572,51.61094425620013],[21.634035845264677,51.62046210022345],[21.642363958784994,51.61213398670402],[21.64831261129948,51.594288029158605],[21.670917490855402,51.594288029158605],[21.67924560437572,51.58714964614227],[21.673296951861232,51.581200993627164],[21.687573717896036,51.56573449708864],[21.71493751946273,51.5609755750784],[21.744680782036053,51.57525234111196],[21.774424044608665,51.57168314960384],[21.814874881708047,51.56573449708864],[21.835100300257427,51.533611773511446],[21.848187335789405,51.51695554647081],[21.866033293332865,51.48959174490305],[21.879120328865643,51.47769443987363],[21.91600197445557,51.46579713484519],[21.931468470993288,51.43129495026003],[21.93860685401069,51.389654382657646],[21.9742987690985,51.368239233604996],[21.980247421612987,51.35515219807435],[21.968350116584013,51.33968570153592],[21.925519818478712,51.32302947449537],[21.888638172888786,51.29923486443565],[21.856515449309633,51.292096481418426],[21.850566796795146,51.286147828904205],[21.851280635097304,51.27068133236568],[21.82867575554147,51.25640456633115],[21.80845033699209,51.24926618331392],[21.807260606489177,51.22547157325518],[21.78346599643114,51.18740019716278],[21.78346599643114,51.16955423961825],[21.776327613413027,51.14456989905828],[21.794173570957287,51.12315475000465],[21.787035187939885,51.10887798396922],[21.792983840454372,51.083893643409255],[21.78584545743697,51.06842714687082],[21.813209259003752,51.05652984184238],[21.812019528500837,51.03392496228575],[21.79893249296886,51.03035577077843],[21.795363301460203,51.00537143021667],[21.80369141498052,50.978007628648825],[21.809640067495007,50.96016167110608],[21.80845033699209,50.93993625255643],[21.827486025038557,50.91733137300157],[21.83224494705013,50.87688053590139],[21.84652171308502,50.86141403936287],[21.842952521576276,50.82810158528169],[21.867936862137938,50.81263508874504],[21.866033293332848,50.80192751421782],[21.86500246238789,50.779249233428104],[21.862283982037816,50.779982791617854],[21.843248293991707,50.73477303250637],[21.821833144939145,50.72406545798093],[21.824212605944798,50.68837354289374],[21.808746109406634,50.680045429372534],[21.776623385827836,50.680045429372534],[21.74569039275222,50.66814812434409],[21.718326591185527,50.62769728724382],[21.679065484589238,50.60628213819295],[21.652891413524838,50.56464157058967],[21.619578959443746,50.53846749952572],[21.61482003743173,50.51705235047396],[21.586266505361767,50.50991396745576],[21.55652324278862,50.52062154198306],[21.45063722802926,50.487309087900016],[21.442309114508678,50.475411782871575],[21.451826958532532,50.457565825327045],[21.382822589363098,50.43258148476707],[21.369735553831298,50.43971986778438],[21.353079326790752,50.44090959828739],[21.343561482766898,50.42782256275585],[21.297161993153118,50.41116633571442],[21.288833879633245,50.39926903068411],[21.256906507294254,50.388626573238405],[21.20108745039288,50.412442704182496],[21.179672301340585,50.45051408027578],[21.23439990447486,50.468360037819416],[21.228451251960372,50.479067612346626],[21.246297209503833,50.486205995363946],[21.20108745039288,50.52189791045113],[21.16777499631161,50.554020634030195],[21.16063661329412,50.575435783082845],[21.17848257083767,50.61826608118646],[21.161826343797035,50.636112038730985],[21.15785125678246,50.64366470405818],[21.14992903876726,50.65871691828584],[21.128513889715055,50.66347584029705],[21.10709874066276,50.65752718778373],[21.064268442557548,50.67061422331606],[21.045232754511172,50.68370125884759],[21.027386796967622,50.66228610979485],[20.991694881879724,50.65871691828584],[20.947674853272396,50.69678829438001],[20.950054314278223,50.711065060413645],[20.985746229365255,50.719393173933874],[20.96433108031305,50.76579266354837],[20.944105661763757,50.7800694295829],[20.970279732827535,50.81100242265896],[21.02500733596181,50.82170999718529],[21.06545817306048,50.822899727689176],[21.107098740662778,50.85859164277646],[21.088063052616402,50.8788170613261],[21.052371137528592,50.897852749372746],[21.013110030932836,50.91926789842362],[21.01192030042992,50.944252238985456],[21.00478191741172,50.970426310049326],[21.021438144453064,50.98470307608564],[21.01192030042992,51.01801553016682],[20.995264073388487,51.02396418268015],[20.9464851227695,51.01920526066894],[20.876291023097505,51.03943067921867],[20.866773179073473,51.059656097769206],[20.87748075360042,51.08345070782707],[20.831081263986462,51.116763161908246],[20.80847638443134,51.116763161908246],[20.80371746241977,51.0977274738616],[20.779922852360933,51.09534801285648],[20.7704050083377,51.10010693486761],[20.726384979729485,51.10605558738281],[20.666898454584437,51.0977274738616],[20.65619088005749,51.10486585687883],[20.601463276924015,51.10010693486761],[20.603842737929845,51.08820962983828],[20.572909744853607,51.08107124682097],[20.544356212784,51.07274313329985],[20.518182141719333,51.0941582823525],[20.49319780115847,51.10248639587371],[20.48843887914681,51.07750205531195],[20.48843887914681,51.04537933173289],[20.43728046752128,51.02991283519535],[20.38612205589646,51.02158472167592],[20.357568523826053,51.02753337419014],[20.313548495218726,51.02753337419014],[20.281425771639572,51.00968741664562],[20.23145709051687,51.0084976861435],[20.207662480458833,51.0108771471496],[20.18505760090371,50.99779011161628],[20.163642451850706,50.97637496256445],[20.12200188424912,50.988272267592976],[20.075602394635162,50.99422092010897],[20.023254252506717,50.988272267592976],[19.93402446478826,50.978754423569654],[19.863830365116353,50.96685711854113],[19.819913152724833,50.95842618880393],[19.81277476970743,50.97746187685057],[19.82348234423349,50.9953078343951],[19.847276954291527,51.01434352244085],[19.853225606806102,51.05479435954024],[19.84132830177704,51.088106813621415],[19.86631264233879,51.103573310159845],[19.891296982899654,51.128557650721596],[19.882968869379425,51.16305983530489],[19.90319428792871,51.19280309787795],[19.888917521893916,51.222546360452725],[19.885348330385227,51.245151240007544],[19.863933181332982,51.25228962302481],[19.880589408373623,51.28084315509568],[19.892486713402604,51.29274046012324],[19.88177913887648,51.298689112637476],[19.89129698289969,51.31891453118715],[19.87583048636202,51.321293992193205],[19.886538060888086,51.33319129722349],[19.86750237284167,51.33557075822773],[19.85084614580029,51.35817563778346],[19.834189918759648,51.38434970884737],[19.838948840771252,51.40219566639189],[19.86155372032715,51.408144318907034],[19.882968869379397,51.40933404940915],[19.894866174408435,51.418851893432475],[19.91628132346068,51.42718000695368],[19.929368358993372,51.44621569500032],[19.946024586033957,51.461682191536966],[19.9626808130746,51.462871922040904],[19.97695757910941,51.461682191536966],[19.987665153635533,51.47952814908149],[19.98290623162393,51.49023572360693],[19.99004461464216,51.49975356763025],[20.019787877214696,51.53068656070718],[20.04199617993528,51.54447862172219]]]]}},{"type":"Feature","properties":{"kind":"district","id":"uyezd-1897-159","name":"Опоченский","provinceId":"gubernia-1897-30"},"geometry":{"type":"MultiPolygon","coordinates":[[[[19.880589408373623,51.28084315509568],[19.903062095650796,51.271016862421675],[19.938754010737853,51.26387847940441],[19.95659996828215,51.25317090487897],[19.94708212425894,51.24365306085474],[19.968497273311186,51.226996833815065],[19.972066464819875,51.20915087627054],[19.963738351299583,51.19844330174419],[20.006568649404073,51.172269230680286],[20.03869137298318,51.19844330174419],[20.07914221008184,51.19963303224813],[20.143387657239316,51.18059734420149],[20.141008196233543,51.173458961182405],[20.16956172830396,51.16632057816514],[20.160043884280753,51.18535626621269],[20.157664423274923,51.20796114576751],[20.185028224841687,51.20915087627054],[20.21596121791714,51.2032022237554],[20.220720139928744,51.18535626621269],[20.23499690596435,51.17464869168634],[20.25879151602237,51.17702815269149],[20.282586126080446,51.19844330174419],[20.299242353121826,51.22104818129992],[20.29805262261891,51.23532494733445],[20.294483431110223,51.25317090487897],[20.313519119156638,51.25555036588503],[20.362298069775647,51.25198117437503],[20.38966187134315,51.26268874890229],[20.382523488325717,51.268637401417436],[20.36705699178799,51.27696551493591],[20.338503459717572,51.30908823851496],[20.386092679834462,51.323365004551306],[20.408697559389566,51.29481147248134],[20.489599233587683,51.29838066398952],[20.522911687669705,51.303139586000725],[20.547896028230696,51.29838066398952],[20.58596740432432,51.32217527404737],[20.594295517844614,51.34002123159189],[20.636566632837003,51.353512012971805],[20.683525305563023,51.34240069259886],[20.694232880089146,51.36500557215186],[20.721596681656706,51.3626261111458],[20.762047518755367,51.36024665014065],[20.762047518755367,51.38523099070335],[20.748960483223414,51.40426667874817],[20.748960483223414,51.41616398377755],[20.74301183070895,51.423302366794815],[20.694232880089146,51.411405061765436],[20.688284227574627,51.42092290578876],[20.715648029142187,51.4613737428881],[20.68709449707177,51.47446077842051],[20.665679348019523,51.485168352948676],[20.65854096500209,51.50777323250168],[20.663299887013693,51.53870622557861],[20.67876638355142,51.575587871167954],[20.68605980689513,51.62249817785596],[20.642039778287003,51.61535979483874],[20.63448197038738,51.5932575723418],[20.622584665358406,51.55875538775673],[20.48933484903182,51.568273231780054],[20.490524579534735,51.60634460787422],[20.460781316961413,51.60634460787422],[20.440555898412033,51.61467272139365],[20.40843317483368,51.61467272139365],[20.37274125974587,51.58611918932458],[20.350136380190747,51.574221884295156],[20.332290422647286,51.581360267312476],[20.2906498550449,51.56232457926485],[20.251388748448345,51.53615050820099],[20.228783868893135,51.52663266417767],[20.195471414811955,51.51949428116044],[20.166917882741547,51.52306347266945],[20.152641116706743,51.52306347266945],[20.152641116706743,51.51473535914825],[20.14557709184604,51.509418750964855],[20.137174620169024,51.51473535914825],[20.14074381167768,51.53020185568677],[20.10676213418781,51.53551846387104],[20.083636747537575,51.53734023870399],[20.072929173011516,51.54328889121821],[20.04199617993528,51.54447862172219],[20.019787877214696,51.53068656070718],[19.99004461464216,51.49975356763025],[19.98290623162393,51.49023572360693],[19.987665153635533,51.47952814908149],[19.97695757910941,51.461682191536966],[19.9626808130746,51.462871922040904],[19.946024586033957,51.461682191536966],[19.929368358993372,51.44621569500032],[19.91628132346068,51.42718000695368],[19.894866174408435,51.418851893432475],[19.882968869379397,51.40933404940915],[19.86155372032715,51.408144318907034],[19.838948840771252,51.40219566639189],[19.834189918759648,51.38434970884737],[19.85084614580029,51.35817563778346],[19.86750237284167,51.33557075822773],[19.886538060888086,51.33319129722349],[19.87583048636202,51.321293992193205],[19.89129698289969,51.31891453118715],[19.88177913887648,51.298689112637476],[19.892486713402604,51.29274046012324],[19.880589408373623,51.28084315509568]]]]}},{"type":"Feature","properties":{"kind":"district","id":"uyezd-1897-160","name":"Конский","provinceId":"gubernia-1897-30"},"geometry":{"type":"MultiPolygon","coordinates":[[[[20.163642451850706,50.97637496256445],[20.18505760090371,50.99779011161628],[20.207662480458833,51.0108771471496],[20.23145709051687,51.0084976861435],[20.281425771639572,51.00968741664562],[20.313548495218726,51.02753337419014],[20.357568523826053,51.02753337419014],[20.38612205589646,51.02158472167592],[20.43728046752128,51.02991283519535],[20.48843887914681,51.04537933173289],[20.48843887914681,51.07750205531195],[20.49319780115847,51.10248639587371],[20.518182141719333,51.0941582823525],[20.544356212784,51.07274313329985],[20.572909744853607,51.08107124682097],[20.603842737929845,51.08820962983828],[20.601463276924015,51.10010693486761],[20.65619088005749,51.10486585687883],[20.666898454584437,51.0977274738616],[20.726384979729485,51.10605558738281],[20.7704050083377,51.10010693486761],[20.779922852360933,51.09534801285648],[20.80371746241977,51.0977274738616],[20.80847638443134,51.116763161908246],[20.831081263986462,51.116763161908246],[20.87748075360042,51.08345070782707],[20.88450562842822,51.1064985229641],[20.87974670641629,51.127913672016845],[20.855952096358255,51.14694936006251],[20.854762365855073,51.16479531760704],[20.877367245410728,51.17788235313946],[20.896402933457725,51.1897796581679],[20.907110507983962,51.211194807220636],[20.908300238486344,51.24569699180482],[20.942802423070617,51.30161432544175],[20.903541316475216,51.32540893550049],[20.871418592896507,51.30280405594475],[20.844054791328837,51.281388906892104],[20.82620883378511,51.276629984880884],[20.817880720265237,51.26354294934935],[20.797655301715146,51.25997375784114],[20.765532578136437,51.27544025437779],[20.75482500361011,51.2885272899111],[20.775050422160202,51.29328621192232],[20.784568266183346,51.307562977957744],[20.772670961153928,51.31827055248327],[20.752445542604548,51.3230294744944],[20.704856322487675,51.31351163047205],[20.698907669973366,51.33016785751171],[20.683525305563023,51.34240069259886],[20.636566632837003,51.353512012971805],[20.594295517844614,51.34002123159189],[20.58596740432432,51.32217527404737],[20.547896028230696,51.29838066398952],[20.522911687669705,51.303139586000725],[20.489599233587683,51.29838066398952],[20.408697559389566,51.29481147248134],[20.386092679834462,51.323365004551306],[20.338503459717572,51.30908823851496],[20.36705699178799,51.27696551493591],[20.382523488325717,51.268637401417436],[20.38966187134315,51.26268874890229],[20.362298069775647,51.25198117437503],[20.313519119156638,51.25555036588503],[20.294483431110223,51.25317090487897],[20.29805262261891,51.23532494733445],[20.299242353121826,51.22104818129992],[20.282586126080446,51.19844330174419],[20.25879151602237,51.17702815269149],[20.23499690596435,51.17464869168634],[20.220720139928744,51.18535626621269],[20.21596121791714,51.2032022237554],[20.185028224841687,51.20915087627054],[20.157664423274923,51.20796114576751],[20.160043884280753,51.18535626621269],[20.16956172830396,51.16632057816514],[20.141008196233543,51.173458961182405],[20.143387657239316,51.18059734420149],[20.07914221008184,51.19963303224813],[20.03869137298318,51.19844330174419],[20.006568649404073,51.172269230680286],[19.963738351299583,51.19844330174419],[19.972066464819875,51.20915087627054],[19.968497273311186,51.226996833815065],[19.94708212425894,51.24365306085474],[19.95659996828215,51.25317090487897],[19.938754010737853,51.26387847940441],[19.903062095650796,51.271016862421675],[19.880589408373623,51.28084315509568],[19.863933181332982,51.25228962302481],[19.885348330385227,51.245151240007544],[19.888917521893916,51.222546360452725],[19.903194287928727,51.19280309787791],[19.882968869379425,51.16305983530489],[19.891296982899654,51.128557650721596],[19.86631264233879,51.103573310159845],[19.84132830177704,51.088106813621415],[19.853225606806102,51.05479435954024],[19.847276954291527,51.01434352244085],[19.82348234423349,50.9953078343951],[19.81277476970743,50.97746187685057],[19.819913152724833,50.95842618880393],[19.863830365116353,50.96685711854113],[19.93402446478826,50.978754423569654],[20.023254252506717,50.988272267592976],[20.075602394635162,50.99422092010897],[20.12200188424912,50.988272267592976],[20.163642451850706,50.97637496256445]]]]}},{"type":"Feature","properties":{"kind":"district","id":"uyezd-1897-161","name":"Сандомирский","provinceId":"gubernia-1897-30"},"geometry":{"type":"MultiPolygon","coordinates":[[[[21.86500246238789,50.779249233428104],[21.866033293332848,50.80192751421782],[21.833910569754494,50.79954805321173],[21.787511080140536,50.7924096701945],[21.749439704047695,50.7947891312006],[21.711368327954055,50.77218425164486],[21.68519425689019,50.77337398214786],[21.648312611299463,50.784081556675076],[21.63641530627049,50.7935994006984],[21.622138540235596,50.7935994006984],[21.612620696212453,50.78051236516606],[21.595964469171818,50.78051236516606],[21.568600667604326,50.7947891312006],[21.561462284586835,50.79003020918841],[21.576928781124554,50.77694317365608],[21.574549320118724,50.765045868628434],[21.56265201508975,50.76147667711942],[21.545995788049115,50.77099452114274],[21.512683333967136,50.77099452114274],[21.482940071394523,50.7519588330961],[21.45557626982783,50.7460101805809],[21.421074085242847,50.749579372090004],[21.398469205687725,50.749579372090004],[21.398469205687725,50.72816422303637],[21.411556241219614,50.70080042147039],[21.383002709149206,50.68414419442976],[21.32827510601573,50.694851768955196],[21.313998339980127,50.68414419442976],[21.313998339980127,50.672246889399545],[21.21881989974718,50.64131389632526],[21.15785125678246,50.64366470405818],[21.161826343797035,50.636112038730985],[21.17848257083767,50.61826608118646],[21.16063661329412,50.575435783082845],[21.16777499631161,50.554020634030195],[21.20108745039288,50.52189791045113],[21.246297209503833,50.486205995363946],[21.228451251960372,50.479067612346626],[21.23439990447486,50.468360037819416],[21.179672301340585,50.45051408027578],[21.20108745039288,50.412442704182496],[21.256906507294254,50.388626573238405],[21.288833879633245,50.39926903068411],[21.297161993153118,50.41116633571442],[21.343561482766898,50.42782256275585],[21.353079326790752,50.44090959828739],[21.369735553831298,50.43971986778438],[21.382822589363098,50.43258148476707],[21.451826958532532,50.457565825327045],[21.442309114508678,50.475411782871575],[21.45063722802926,50.487309087900016],[21.55652324278862,50.52062154198306],[21.586266505361767,50.50991396745576],[21.61482003743173,50.51705235047396],[21.619578959443746,50.53846749952572],[21.652891413524838,50.56464157058967],[21.679065484589238,50.60628213819295],[21.718326591185527,50.62769728724382],[21.74569039275222,50.66814812434409],[21.776623385827836,50.680045429372534],[21.808746109406634,50.680045429372534],[21.824212605944798,50.68837354289374],[21.821833144939145,50.72406545798093],[21.843248293991707,50.73477303250637],[21.862283982037816,50.779982791617854],[21.86500246238789,50.779249233428104]]]]}},{"type":"Feature","properties":{"kind":"district","id":"uyezd-1897-162","name":"Козеницкий","provinceId":"gubernia-1897-30"},"geometry":{"type":"MultiPolygon","coordinates":[[[[21.05011734078708,51.69864093004342],[21.070103586882894,51.68113835587248],[21.09389819694093,51.65972320682063],[21.11888253750268,51.65496428480853],[21.15219499158395,51.671620511849156],[21.168851218624585,51.668051320340055],[21.196215020192078,51.682328086374596],[21.215250708238543,51.684707547380604],[21.212871247232712,51.66567185933396],[21.197404750694993,51.64663617128732],[21.17479987113987,51.62997994424677],[21.179558793151443,51.60737506469103],[21.166471757618755,51.57406261060985],[21.177179332145702,51.56692422759262],[21.22833774377043,51.58239072413106],[21.268788580869813,51.54788853954598],[21.283065346904706,51.541939887030786],[21.273547502881474,51.53004258200146],[21.252132353829268,51.52171446848203],[21.26402965885824,51.50029931942849],[21.258081006343755,51.47650470937063],[21.29972157394534,51.432484680762144],[21.37943351764048,51.426536028247924],[21.423453546248695,51.44914090780456],[21.446058425803816,51.444381985792454],[21.448437886809646,51.4205873757346],[21.450817347815388,51.40987980120738],[21.44248923429516,51.37656734712532],[21.421074085242864,51.35991112008557],[21.410366510716717,51.33968570153592],[21.40679731920806,51.31113216946596],[21.416315163231292,51.298045133933535],[21.455576269827848,51.283768367898105],[21.50078602893809,51.292096481418426],[21.53885740503173,51.29447594242541],[21.584067164142063,51.280199176389004],[21.618569348726957,51.286147828904205],[21.642363958784994,51.29923486443565],[21.62332827073853,51.315891091478065],[21.64355368928791,51.32897812700871],[21.695901831416354,51.29090675091631],[21.725645093988877,51.27544025437779],[21.782752158128982,51.25759429683513],[21.80416730718119,51.25997375784025],[21.819633803719707,51.26949160186357],[21.850566796795146,51.286147828904205],[21.856515449309633,51.292096481418426],[21.888638172888786,51.29923486443565],[21.925519818478712,51.32302947449537],[21.968350116584013,51.33968570153592],[21.980247421612987,51.35515219807435],[21.9742987690985,51.368239233604996],[21.93860685401069,51.389654382657646],[21.931468470993288,51.43129495026003],[21.91600197445557,51.46579713484519],[21.879120328865643,51.47769443987363],[21.866033293332865,51.48959174490305],[21.848187335789405,51.51695554647081],[21.835100300257427,51.533611773511446],[21.814874881708047,51.56573449708864],[21.774424044608665,51.57168314960384],[21.744680782036053,51.57525234111196],[21.71493751946273,51.5609755750784],[21.687573717896036,51.56573449708864],[21.673296951861232,51.581200993627164],[21.67924560437572,51.58714964614227],[21.670917490855402,51.594288029158605],[21.64831261129948,51.594288029158605],[21.642363958784994,51.61213398670402],[21.634035845264677,51.62046210022345],[21.576928781124572,51.61094425620013],[21.55908282358111,51.63354913575499],[21.544806057546218,51.65734374581462],[21.501975759441006,51.658533476316734],[21.48056061038871,51.65972320682063],[21.46747357485682,51.684707547380604],[21.448437886809646,51.69541512190702],[21.43535085127767,51.71564054045756],[21.40679731920806,51.71802000146178],[21.403228127699403,51.73586595900631],[21.407987049710975,51.747763264034845],[21.425833007254525,51.762040030071155],[21.42940219876318,51.77631679610481],[21.411556241219632,51.79059356214112],[21.405607588705145,51.80843951968378],[21.398469205687743,51.8179573637071],[21.356828638085446,51.8215265552162],[21.318757261992516,51.83580332125163],[21.289013999419193,51.84175197376496],[21.274976405837865,51.85806481743387],[21.25356125678566,51.85092643441656],[21.249992065276913,51.841408590393236],[21.266648292317548,51.831890746369915],[21.288063441369754,51.81047559731815],[21.246422873768168,51.79738856178484],[21.214300150189104,51.7831117957503],[21.20240284516004,51.77597341273308],[21.18455688761658,51.7771631432352],[21.134588206493877,51.745040419657016],[21.132208745488047,51.737902036639795],[21.12388063196782,51.736712306135814],[21.083429794869147,51.70815877406674],[21.066773567827713,51.70815877406674],[21.05011734078708,51.69864093004342]]]]}},{"type":"Feature","properties":{"kind":"district","id":"uyezd-1897-164","name":"Илжецкий","provinceId":"gubernia-1897-30"},"geometry":{"type":"MultiPolygon","coordinates":[[[[21.052371137528592,50.897852749372746],[21.100560687757664,50.90662379847436],[21.136252602844674,50.91733137300157],[21.141011524856335,50.93874652205254],[21.183841822961636,50.95302328808885],[21.19573912799061,50.96492059311729],[21.158857482400684,50.976817898146706],[21.14220125535925,50.99823304719936],[21.181462361955806,51.011320082731785],[21.2088261635225,51.02559684876632],[21.355163015381063,51.03035577077843],[21.35873220689052,51.06009903335139],[21.38371654745147,51.0612887638536],[21.41464954052691,51.049391458824175],[21.407511157509507,51.001802238708464],[21.537191782327348,50.985146011666046],[21.550278817859326,50.99585358619335],[21.591919385461622,50.99704331669547],[21.61571399551966,50.975628167642725],[21.73468704581144,50.993474125187255],[21.76324057788105,50.978007628648825],[21.80369141498052,50.978007628648825],[21.795363301460203,51.00537143021667],[21.79893249296886,51.03035577077843],[21.812019528500837,51.03392496228575],[21.813209259003752,51.05652984184238],[21.78584545743697,51.06842714687082],[21.792983840454372,51.083893643409255],[21.787035187939885,51.10887798396922],[21.794173570957287,51.12315475000465],[21.776327613413027,51.14456989905828],[21.78346599643114,51.16955423961825],[21.78346599643114,51.18740019716278],[21.807260606489177,51.22547157325518],[21.80845033699209,51.24926618331392],[21.82867575554147,51.25640456633115],[21.851280635097304,51.27068133236568],[21.850566796795146,51.286147828904205],[21.819633803719707,51.26949160186357],[21.80416730718119,51.25997375784025],[21.782752158128982,51.25759429683513],[21.725645093988877,51.27544025437779],[21.695901831416354,51.29090675091631],[21.64355368928791,51.32897812700871],[21.62332827073853,51.315891091478065],[21.642363958784994,51.29923486443565],[21.618569348726957,51.286147828904205],[21.584067164142063,51.280199176389004],[21.53885740503173,51.29447594242541],[21.50078602893809,51.292096481418426],[21.455576269827848,51.283768367898105],[21.416315163231292,51.298045133933535],[21.40679731920806,51.31113216946596],[21.377054056634737,51.30875270845897],[21.363967021102848,51.284958098402086],[21.338982680541807,51.27900944588689],[21.304480495956913,51.24807645281181],[21.27949615539596,51.2421278002967],[21.26402965885824,51.24807645281181],[21.19859448119782,51.2433175307997],[21.164092296612925,51.21238453772453],[21.12959011202874,51.18740019716278],[21.067724125877152,51.21238453772453],[21.064154934368407,51.173123431128246],[21.018945175257365,51.15289801257771],[20.970166224638376,51.14813909056649],[20.919007813012758,51.155277473583716],[20.89283374194818,51.16479531760704],[20.877367245410728,51.17788235313946],[20.854762365855073,51.16479531760704],[20.855952096358255,51.14694936006251],[20.87974670641629,51.127913672016845],[20.88450562842822,51.1064985229641],[20.87748075360042,51.08345070782707],[20.866773179073473,51.059656097769206],[20.876291023097505,51.03943067921867],[20.9464851227695,51.01920526066894],[20.995264073388487,51.02396418268015],[21.01192030042992,51.01801553016682],[21.021438144453064,50.98470307608564],[21.00478191741172,50.970426310049326],[21.01192030042992,50.944252238985456],[21.013110030932836,50.91926789842362],[21.052371137528592,50.897852749372746]]]]}},{"type":"Feature","properties":{"kind":"district","id":"uyezd-1897-165","name":"Опатовский","provinceId":"gubernia-1897-30"},"geometry":{"type":"MultiPolygon","coordinates":[[[[21.15785125678246,50.64366470405818],[21.21881989974718,50.64131389632526],[21.313998339980127,50.672246889399545],[21.313998339980127,50.68414419442976],[21.32827510601573,50.694851768955196],[21.383002709149206,50.68414419442976],[21.411556241219614,50.70080042147039],[21.398469205687725,50.72816422303637],[21.398469205687725,50.749579372090004],[21.421074085242847,50.749579372090004],[21.45557626982783,50.7460101805809],[21.482940071394523,50.7519588330961],[21.512683333967136,50.77099452114274],[21.545995788049115,50.77099452114274],[21.56265201508975,50.76147667711942],[21.574549320118724,50.765045868628434],[21.576928781124554,50.77694317365608],[21.561462284586835,50.79003020918841],[21.568600667604326,50.7947891312006],[21.595964469171818,50.78051236516606],[21.612620696212453,50.78051236516606],[21.622138540235596,50.7935994006984],[21.63641530627049,50.7935994006984],[21.648312611299463,50.784081556675076],[21.68519425689019,50.77337398214786],[21.711368327954055,50.77218425164486],[21.749439704047695,50.7947891312006],[21.787511080140536,50.7924096701945],[21.833910569754494,50.79954805321173],[21.866033293332848,50.80192751421782],[21.867936862137938,50.81263508874504],[21.842952521576276,50.82810158528169],[21.84652171308502,50.86141403936287],[21.83224494705013,50.87688053590139],[21.827486025038557,50.91733137300157],[21.80845033699209,50.93993625255643],[21.809640067495007,50.96016167110608],[21.80369141498052,50.978007628648825],[21.76324057788105,50.978007628648825],[21.73468704581144,50.993474125187255],[21.61571399551966,50.975628167642725],[21.591919385461622,50.99704331669547],[21.550278817859326,50.99585358619335],[21.537191782327348,50.985146011666046],[21.407511157509507,51.001802238708464],[21.41464954052691,51.049391458824175],[21.38371654745147,51.0612887638536],[21.35873220689052,51.06009903335139],[21.355163015381063,51.03035577077843],[21.2088261635225,51.02559684876632],[21.181462361955806,51.011320082731785],[21.14220125535925,50.99823304719936],[21.158857482400684,50.976817898146706],[21.19573912799061,50.96492059311729],[21.183841822961636,50.95302328808885],[21.141011524856335,50.93874652205254],[21.136252602844674,50.91733137300157],[21.100560687757664,50.90662379847436],[21.052371137528592,50.897852749372746],[21.088063052616402,50.8788170613261],[21.107098740662778,50.85859164277646],[21.06545817306048,50.822899727689176],[21.02500733596181,50.82170999718529],[20.970279732827535,50.81100242265896],[20.944105661763757,50.7800694295829],[20.96433108031305,50.76579266354837],[20.985746229365255,50.719393173933874],[20.950054314278244,50.711065060413645],[20.947674853272396,50.69678829438001],[20.991694881879724,50.65871691828584],[21.027386796967622,50.66228610979485],[21.045232754511172,50.68370125884759],[21.064268442557548,50.67061422331606],[21.10709874066276,50.65752718778373],[21.128513889715055,50.66347584029705],[21.14992903876726,50.65871691828584],[21.15785125678246,50.64366470405818]]]]}},{"type":"Feature","properties":{"kind":"district","id":"uyezd-1897-716","name":"Радомский","provinceId":"gubernia-1897-30"},"geometry":{"type":"MultiPolygon","coordinates":[[[[20.877367245410728,51.17788235313946],[20.89283374194818,51.16479531760704],[20.919007813012758,51.155277473583716],[20.970166224638376,51.14813909056649],[21.018945175257365,51.15289801257771],[21.064154934368407,51.173123431128246],[21.067724125877152,51.21238453772453],[21.12959011202874,51.18740019716278],[21.164092296612925,51.21238453772453],[21.19859448119782,51.2433175307997],[21.26402965885824,51.24807645281181],[21.27949615539596,51.2421278002967],[21.304480495956913,51.24807645281181],[21.338982680541807,51.27900944588689],[21.363967021102848,51.284958098402086],[21.377054056634737,51.30875270845897],[21.40679731920806,51.31113216946596],[21.410366510716717,51.33968570153592],[21.421074085242864,51.35991112008557],[21.44248923429516,51.37656734712532],[21.450817347815388,51.40987980120738],[21.448437886809646,51.4205873757346],[21.446058425803816,51.444381985792454],[21.423453546248695,51.44914090780456],[21.37943351764048,51.426536028247924],[21.29972157394534,51.432484680762144],[21.258081006343755,51.47650470937063],[21.26402965885824,51.50029931942849],[21.252132353829268,51.52171446848203],[21.273547502881474,51.53004258200146],[21.283065346904706,51.541939887030786],[21.268788580869813,51.54788853954598],[21.22833774377043,51.58239072413106],[21.177179332145702,51.56692422759262],[21.166471757618755,51.57406261060985],[21.179558793151443,51.60737506469103],[21.17479987113987,51.62997994424677],[21.197404750694993,51.64663617128732],[21.212871247232712,51.66567185933396],[21.215250708238543,51.684707547380604],[21.196215020192078,51.682328086374596],[21.168851218624585,51.668051320340055],[21.15219499158395,51.671620511849156],[21.11888253750268,51.65496428480853],[21.09389819694093,51.65972320682063],[21.070103586882894,51.68113835587248],[21.05011734078708,51.69864093004342],[21.044168688272592,51.68674362501409],[21.035840574752186,51.68674362501409],[21.01918434771164,51.687933355517984],[20.99657946815572,51.67841551149466],[20.997769198658634,51.66651820646435],[20.952559439548303,51.6462927879156],[20.937092943009784,51.65819009294501],[20.916867524460493,51.6451030574117],[20.87641668736182,51.64272359640658],[20.878796148367652,51.65581063193892],[20.824068545233377,51.6415338659026],[20.81811989271889,51.63558521338927],[20.774099864110763,51.62368790835994],[20.75982309807587,51.61892898634775],[20.722941452485145,51.62011871685173],[20.68605980689513,51.62249817785596],[20.67876638355142,51.575587871167954],[20.663299887013693,51.53870622557861],[20.65854096500209,51.50777323250168],[20.665679348019523,51.485168352948676],[20.68709449707177,51.47446077842051],[20.715648029142187,51.4613737428881],[20.688284227574627,51.42092290578876],[20.694232880089146,51.411405061765436],[20.74301183070895,51.423302366794815],[20.748960483223414,51.41616398377755],[20.748960483223414,51.40426667874817],[20.762047518755367,51.38523099070335],[20.762047518755367,51.36024665014065],[20.721596681656706,51.3626261111458],[20.694232880089146,51.36500557215186],[20.683525305563023,51.34240069259886],[20.698907669973366,51.33016785751171],[20.704856322487675,51.31351163047205],[20.752445542604548,51.3230294744944],[20.772670961153928,51.31827055248327],[20.784568266183346,51.307562977957744],[20.775050422160202,51.29328621192232],[20.75482500361011,51.2885272899111],[20.765532578136437,51.27544025437779],[20.797655301715146,51.25997375784114],[20.817880720265237,51.26354294934935],[20.82620883378511,51.276629984880884],[20.844054791328837,51.281388906892104],[20.871418592896507,51.30280405594475],[20.903541316475216,51.32540893550049],[20.942802423070617,51.30161432544175],[20.908300238486344,51.24569699180482],[20.907110507983962,51.211194807220636],[20.896402933457725,51.1897796581679],[20.877367245410728,51.17788235313946]]]]}}]}
