{"type":"FeatureCollection","features":[{"type":"Feature","properties":{"kind":"province","id":"gubernia-1897-34","name":"Сувалкская губерния"},"geometry":{"type":"MultiPolygon","coordinates":[[[[22.922107192992296,53.59603116372814],[22.95660937757639,53.611497660266664],[23.00776778920201,53.621015504289986],[23.055357009318794,53.63291280931931],[23.05892620082754,53.66384580239448],[23.07439269736526,53.66384580239448],[23.11484353446393,53.68050202943503],[23.201693861177358,53.71381448351621],[23.236196045761453,53.709055561505],[23.258800925316663,53.71500421402019],[23.2825955353755,53.70667610049898],[23.34327179102426,53.72809124955252],[23.352789635047493,53.73998855458194],[23.37182532309387,53.73047071055862],[23.400378855163478,53.69715825647566],[23.440829692262948,53.70429663949289],[23.471762685338387,53.69596852597355],[23.50150594791171,53.67931229893291],[23.569320586577962,53.67574310742381],[23.614530345688205,53.67693283792593],[23.663309296307993,53.66146634138839],[23.676396331839882,53.629343617809326],[23.715657438436438,53.62577442630209],[23.733503395979987,53.63767173133053],[23.759677467044565,53.66146634138839],[23.770385041570712,53.67693283792593],[23.76562611955905,53.71381448351621],[23.772764502576543,53.72809124955252],[23.79655911263449,53.751885859609494],[23.807266687160638,53.770921547657025],[23.835820219231046,53.80185454073309],[23.810835878669295,53.829218342300045],[23.81440507017804,53.841115647329374],[23.792989921125834,53.844684838838475],[23.7834720771026,53.86015133537602],[23.74302124000313,53.87680756241665],[23.7406417789973,53.89227405895508],[23.773954233079458,53.8994124419723],[23.782282346599686,53.922017321528045],[23.81202560917221,53.937483818064706],[23.842958602248533,53.952950314602276],[23.857235368283316,53.94938112309407],[23.87151213431812,53.94105300957473],[23.883409439347094,53.94343247057896],[23.896496474879783,53.95532977560927],[23.901255396891443,53.976744924661915],[23.934567850972712,53.98864222969045],[23.95003434751043,54.027903336285846],[23.99405437611856,54.04218010232216],[24.013090064165024,54.07192336489513],[24.04402305724126,54.08144120891845],[24.0749560503167,54.07192336489513],[24.107078773895765,54.07668228690546],[24.14158095847995,54.060026059864825],[24.1594269160235,54.062405520870925],[24.16418583803507,54.07549255640335],[24.15347826350901,54.08857959193577],[24.152288533006097,54.10523581897631],[24.138011766971292,54.11475366299963],[24.12849392294806,54.124271507022954],[24.138011766971292,54.13140989004027],[24.1594269160235,54.133789351046275],[24.180842065076504,54.143307195069596],[24.17965233457359,54.15996342211023],[24.170134490549646,54.16710180512746],[24.152288533006097,54.16472234412136],[24.089232816351505,54.17899911015687],[24.066627936796383,54.1920861456892],[24.0392641352296,54.183758032168],[24.009520872656278,54.1920861456892],[24.007141411650448,54.18137857116199],[24.000003028633135,54.17542991864866],[23.967880305054692,54.17899911015687],[23.934567850972712,54.203983450718624],[23.9476548865046,54.24562401832101],[23.975018688072094,54.25871105385157],[23.997623567627304,54.27774674189821],[23.988105723604072,54.30867973497516],[24.027366830199828,54.31462838748849],[24.024987369193997,54.33961272805024],[24.027366830199828,54.363407338108985],[24.008331142153363,54.37887383464751],[24.010710603159193,54.38482248716084],[24.035694943720856,54.38006356514963],[24.077335511322442,54.359838146600865],[24.09280200786016,54.3657867991142],[24.083284163837018,54.39434033118416],[24.04402305724126,54.42051440224803],[24.05711009277315,54.444309012307755],[24.051161440258664,54.46810362236552],[24.055920362270236,54.48713931041216],[24.051161440258664,54.5061749984588],[24.05948955377898,54.52402095600156],[24.09280200786016,54.522831225499445],[24.102319851883394,54.53353880002577],[24.09280200786016,54.55614367958062],[24.0678176672993,54.56447179310183],[24.023797638691082,54.55614367958062],[24.000003028633135,54.53353880002577],[24.015469525170854,54.513313381476124],[23.975018688072094,54.50260580695068],[23.939326772984284,54.521641494997326],[23.890547822364585,54.54543610505519],[23.89173755286741,54.55257448807241],[23.96074192203649,54.57398963712417],[23.984536532095415,54.587076672657574],[24.010710603159193,54.601353438692016],[24.01190033366211,54.60968155221145],[23.99405437611856,54.60968155221145],[23.9833468015925,54.61681993523054],[23.957172730527834,54.62752750975598],[23.95360353901909,54.63823508428141],[23.995244106621474,54.65251185031772],[24.015469525170854,54.6429940062944],[24.01903871667951,54.6310967012641],[24.035694943720856,54.62395831824776],[24.038074404726686,54.61563020472656],[24.04759224874992,54.606112360704216],[24.064248475790553,54.61563020472656],[24.077335511322442,54.64656319780262],[24.096371199368907,54.65489131132382],[24.1308733839538,54.65846050283106],[24.14158095847995,54.671547538364365],[24.132063114456717,54.681065382387686],[24.102319851883394,54.685824304398906],[24.09042254685442,54.69772160942833],[24.096371199368907,54.71199837546286],[24.129683653450975,54.747690290550054],[24.15347826350901,54.76672597859758],[24.160616646526414,54.78100274463123],[24.149909072000266,54.80598708519298],[24.1594269160235,54.8190741207254],[24.185600987088076,54.8190741207254],[24.23319020720415,54.80717681569696],[24.25490690807978,54.81660055001608],[24.25252744707386,54.82968758554672],[24.21802526248994,54.848723273593365],[24.189471730420067,54.863000039627906],[24.14426197130867,54.87727680566333],[24.128795474771305,54.895122763206075],[24.0942932901865,54.89750222421306],[24.080016524151606,54.88917411069275],[24.05503218359012,54.89393303270485],[24.04432460906433,54.88322545817755],[24.038375956549398,54.86775896164001],[24.013391615987913,54.87132815314822],[23.99554565844463,54.89036384119486],[23.976509970398165,54.895122763206075],[23.964612665369014,54.88798438018974],[23.956284551848253,54.86656923113611],[23.94438724681919,54.863000039627906],[23.93486940279587,54.8689486921431],[23.911074792737654,54.895122763206075],[23.877762338656208,54.89393303270485],[23.83731150155656,54.905830337732404],[23.7278562952889,54.94271198332268],[23.68621572768669,54.940332522317476],[23.660041656622646,54.939142791814476],[23.633867585558892,54.949850366341735],[23.6100729754997,54.967696323885285],[23.586278365441487,55.029562310035544],[23.55891456387497,55.04859799808219],[23.5053766912437,55.05692611160339],[23.428044208554216,55.08310018266823],[23.355470647876302,55.07358233864491],[23.303122505748302,55.079530991158244],[23.263861399151924,55.08785910467847],[23.204374874005634,55.09142829618846],[23.12942185232198,55.103325601217875],[23.09491966773806,55.10808452322821],[23.052089369633205,55.10808452322821],[22.996172035996103,55.096187218199674],[22.97118769543462,55.096187218199674],[22.943750453713257,55.08915165139844],[22.883074198064495,55.091531112404446],[22.846192552473948,55.08915165139844],[22.786706027328457,55.078444076873],[22.721270849668034,55.065357041339695],[22.68676866508323,55.058218658323355],[22.654645941505052,55.055839197316374],[22.62383580778315,55.06519300532274],[22.590523353701524,55.05448543079456],[22.645250956835977,54.97834267860887],[22.664286644882797,54.97834267860887],[22.669045566894724,54.98905025313529],[22.683322332928995,54.98786052263219],[22.68570179393456,54.97596321760375],[22.701168290472722,54.97834267860887],[22.714255326004523,54.971204295592536],[22.71187586499896,54.960496721064345],[22.72615263103394,54.956927529556225],[22.75351643260081,54.94384049402558],[22.747567780086502,54.92956372798926],[22.75946508511512,54.927184266983254],[22.767793198636504,54.93075345849226],[22.77850077316203,54.91766642295896],[22.79872619171212,54.91766642295896],[22.821331071266975,54.90576911793052],[22.8451256813259,54.89506154340508],[22.835607837302756,54.872456663849334],[22.855833255851337,54.8629388198269],[22.85107433384012,54.84866205379237],[22.868920291383937,54.84033394026938],[22.867730560880755,54.83081609624606],[22.868920291383937,54.81891879121851],[22.868920291383937,54.80464202518219],[22.85226406434259,54.797503642164884],[22.839714717064002,54.78024828965768],[22.833228376296393,54.77132957110279],[22.801105652717684,54.76776037959191],[22.790398078191448,54.75229388305526],[22.76541373763023,54.75229388305526],[22.73804993606336,54.74515550003617],[22.728532092039593,54.718981428974075],[22.73329101405143,54.71184304595774],[22.716634787010886,54.68804843589624],[22.73210128354905,54.68091005287991],[22.728532092039593,54.66425382583839],[22.747567780086502,54.649977059803845],[22.727342361536323,54.649977059803845],[22.71187586499896,54.62856191075297],[22.697599098964776,54.61190568371145],[22.678563410917867,54.59286999566392],[22.690460715946486,54.57383430761639],[22.676183949911415,54.52743481800279],[22.688081254940922,54.4524817963202],[22.691650446449668,54.43820503028655],[22.676183949911415,54.43225637777055],[22.68570179393456,54.417979611736015],[22.703547751479086,54.417979611736015],[22.728532092039593,54.406082306705706],[22.734480744554613,54.39299527117417],[22.75589589360673,54.38704661865995],[22.776121312156466,54.34778551206277],[22.73210128354905,54.3192319799937],[22.73804993606336,54.29900656144494],[22.710686134496576,54.28116060390317],[22.684512063432177,54.278781142895205],[22.645250956835977,54.28591952591163],[22.629784460297724,54.28354006490642],[22.60123092822856,54.259745454847675],[22.542934133585362,54.27402222088408],[22.517949793024144,54.22762273126959],[22.572677396158596,54.16099782310634],[22.62026661627467,54.095562645445206],[22.58100550967847,54.068198843880026],[22.603610389234124,54.044404233821275],[22.654768800858943,54.024178815271625],[22.671379499512295,53.98998031804422],[22.695219637957614,53.940897680066854],[22.741619127572104,53.88141115492181],[22.715445056507704,53.84452950933153],[22.67975314142025,53.800509480723136],[22.64882014834481,53.75886891311986],[22.67940217039716,53.73403990206683],[22.700817319449367,53.74117828508406],[22.70557624146174,53.73166044106074],[22.7174735464908,53.73166044106074],[22.734129773531436,53.73879882407796],[22.767442227612705,53.73879882407796],[22.781718993648308,53.74712693759916],[22.810272525717917,53.751885859609494],[22.823359561249895,53.72214259703742],[22.876897433881254,53.7209528665353],[22.887605008407313,53.698347986979556],[22.87808716438417,53.67693283792593],[22.87808716438417,53.64005119233663],[22.869759050863763,53.63410253982143],[22.88046662538991,53.600790085740336],[22.91139961846535,53.611497660266664],[22.922107192992296,53.59603116372814]]]]}},{"type":"Feature","properties":{"kind":"district","id":"uyezd-1897-108","name":"Владиславовский","provinceId":"gubernia-1897-34"},"geometry":{"type":"MultiPolygon","coordinates":[[[[22.839714717064002,54.78024828965768],[22.850723362816943,54.772674631111855],[22.86737958985749,54.772674631111855],[22.895933121927452,54.775054092116974],[22.92805584550625,54.76315678708764],[22.97326560461756,54.766725978597634],[22.994680753670032,54.75720813457333],[23.004198597693087,54.76196705658455],[23.00776778920192,54.775054092116974],[23.022044555236903,54.776243822619975],[23.036321321271885,54.769105439603635],[23.05892620082754,54.770295170105754],[23.067254314347412,54.75839786507731],[23.076772158371266,54.75244921256123],[23.102946229434867,54.75720813457333],[23.11127434295554,54.74769029055001],[23.119602456476212,54.74769029055001],[23.13744841401994,54.75006975155611],[23.14458679703672,54.74055190753367],[23.155294371562956,54.73579298552157],[23.160053293574883,54.74055190753367],[23.179088981621792,54.74055190753367],[23.173140329106683,54.72984433300646],[23.18979655614803,54.73103406351035],[23.195745208662338,54.74174163803579],[23.213591166206065,54.74174163803579],[23.207642513691844,54.72627514149736],[23.246903620288045,54.74293136853879],[23.27069823034608,54.754828673567324],[23.28973391839299,54.776243822619975],[23.324236102977352,54.77743355312307],[23.35516909605288,54.78338220563729],[23.406327507678498,54.81193573770725],[23.43369130924537,54.836920078268115],[23.452726997292277,54.866663340841086],[23.476521607350314,54.88212983738049],[23.58478708311595,54.92614986598711],[23.63386758555869,54.949850366340755],[23.610072975499676,54.967696323885285],[23.586278365441462,55.029562310035544],[23.558914563874946,55.04859799808219],[23.505376691243676,55.05692611160339],[23.42804420855419,55.08310018266823],[23.355470647876277,55.07358233864491],[23.303122505748277,55.079530991158244],[23.2638613991519,55.08785910467847],[23.20437487400561,55.09142829618846],[23.129421852321954,55.103325601217875],[23.094919667738036,55.10808452322821],[23.05208936963318,55.10808452322821],[22.99617203599608,55.096187218199674],[22.971187695434594,55.096187218199674],[22.94375045371321,55.089151651398424],[22.88307419806445,55.09153111240443],[22.8461925524739,55.089151651398424],[22.78670602732841,55.078444076872984],[22.721270849667988,55.06535704133968],[22.686768665083182,55.05821865832334],[22.654645941505006,55.05583919731636],[22.623835807783102,55.065193005322726],[22.590523353701524,55.05448543079456],[22.645250956835977,54.97834267860887],[22.664286644882797,54.97834267860887],[22.669045566894724,54.98905025313529],[22.683322332928995,54.98786052263219],[22.68570179393456,54.97596321760375],[22.701168290472722,54.97834267860887],[22.714255326004523,54.971204295592536],[22.71187586499896,54.960496721064345],[22.72615263103394,54.956927529556225],[22.75351643260081,54.94384049402558],[22.747567780086502,54.92956372798926],[22.75946508511512,54.927184266983254],[22.767793198636504,54.93075345849226],[22.77850077316203,54.91766642295896],[22.79872619171212,54.91766642295896],[22.821331071266975,54.90576911793052],[22.8451256813259,54.89506154340508],[22.835607837302756,54.872456663849334],[22.855833255851337,54.8629388198269],[22.85107433384012,54.84866205379237],[22.868920291383937,54.84033394026938],[22.867730560880755,54.83081609624606],[22.868920291383937,54.81891879121851],[22.868920291383937,54.80464202518219],[22.85226406434259,54.797503642164884],[22.839714717064002,54.78024828965768]]]]}},{"type":"Feature","properties":{"kind":"district","id":"uyezd-1897-109","name":"Августовский","provinceId":"gubernia-1897-34"},"geometry":{"type":"MultiPolygon","coordinates":[[[[22.64882014834481,53.75886891311986],[22.67940217039716,53.73403990206683],[22.700817319449367,53.74117828508406],[22.70557624146174,53.73166044106074],[22.7174735464908,53.73166044106074],[22.734129773531436,53.73879882407796],[22.767442227612705,53.73879882407796],[22.781718993648308,53.74712693759916],[22.810272525717917,53.751885859609494],[22.823359561249895,53.72214259703742],[22.876897433881254,53.7209528665353],[22.887605008407313,53.698347986979556],[22.87808716438417,53.67693283792593],[22.87808716438417,53.64005119233663],[22.869759050863763,53.63410253982143],[22.88046662538991,53.600790085740336],[22.91139961846535,53.611497660266664],[22.922107192992296,53.59603116372814],[22.95660937757639,53.611497660266664],[23.00776778920201,53.621015504289986],[23.055357009318794,53.63291280931931],[23.05892620082754,53.66384580239448],[23.07439269736526,53.66384580239448],[23.11484353446393,53.68050202943503],[23.201693861177358,53.71381448351621],[23.236196045761453,53.709055561505],[23.258800925316663,53.71500421402019],[23.2825955353755,53.70667610049898],[23.34327179102426,53.72809124955252],[23.352789635047493,53.73998855458194],[23.37182532309387,53.73047071055862],[23.400378855163478,53.69715825647566],[23.440829692262948,53.70429663949289],[23.471762685338387,53.69596852597355],[23.50150594791171,53.67931229893291],[23.569320586577962,53.67574310742381],[23.614530345688205,53.67693283792593],[23.663309296307993,53.66146634138839],[23.676396331839882,53.629343617809326],[23.715657438436438,53.62577442630209],[23.733503395979987,53.63767173133053],[23.759677467044565,53.66146634138839],[23.770385041570712,53.67693283792593],[23.76562611955905,53.71381448351621],[23.772764502576543,53.72809124955252],[23.79655911263449,53.751885859609494],[23.807266687160638,53.770921547657025],[23.835820219231046,53.80185454073309],[23.810835878669295,53.829218342300045],[23.81440507017804,53.841115647329374],[23.792989921125834,53.844684838838475],[23.7834720771026,53.86015133537602],[23.74302124000313,53.87680756241665],[23.7406417789973,53.89227405895508],[23.773954233079458,53.8994124419723],[23.782282346599686,53.922017321528045],[23.81202560917221,53.937483818064706],[23.842958602248537,53.95295031460225],[23.840579141242706,53.96722708063865],[23.821543453195442,53.973175733151976],[23.713277977430607,53.95532977560923],[23.64427360826153,53.95176058410013],[23.629996842226724,53.923207052030165],[23.58002816110402,53.912499477504724],[23.553854090040243,53.93153516555137],[23.536008132495894,53.94819139259201],[23.48841891237982,53.95057085359801],[23.44558861427452,53.9398632790708],[23.397999394157736,53.96960654164377],[23.334943677503855,53.96246815862557],[23.237385776264368,53.9362940875617],[23.20883224419476,53.96841681114076],[23.144586797037253,53.95176058410013],[23.123171647984247,53.96246815862557],[23.107705151446527,53.989831960192525],[23.144586797037253,53.998160073713734],[23.098187307423295,54.01957522276647],[23.08391054138849,54.0267136057837],[23.026803477248386,54.01124710924526],[22.979214257131513,54.01124710924526],[22.939953150535757,54.006488187234936],[22.87808716438417,53.981503846673185],[22.87570770337834,53.95532977560923],[22.86500012885219,53.937483818064706],[22.845964440805727,53.937483818064706],[22.829308213764293,53.94700166208803],[22.816221178232404,53.95057085359801],[22.813841717226573,53.96960654164377],[22.80432387320343,53.981503846673185],[22.781718993648308,53.98507303818131],[22.785288185156965,53.96722708063865],[22.755544922583642,53.96841681114076],[22.709145432970484,53.977934655164084],[22.671379499512295,53.98998031804422],[22.695219637957614,53.940897680066854],[22.741619127572104,53.88141115492181],[22.715445056507704,53.84452950933153],[22.67975314142025,53.800509480723136],[22.64882014834481,53.75886891311986]]]]}},{"type":"Feature","properties":{"kind":"district","id":"uyezd-1897-110","name":"Мариампольский","provinceId":"gubernia-1897-34"},"geometry":{"type":"MultiPolygon","coordinates":[[[[23.63386758555869,54.949850366340755],[23.58478708311595,54.92614986598711],[23.476521607350314,54.88212983738049],[23.452726997292277,54.866663340841086],[23.43369130924537,54.836920078268115],[23.406327507678498,54.81193573770725],[23.35516909605288,54.78338220563729],[23.324236102977352,54.77743355312307],[23.28973391839299,54.776243822619975],[23.27069823034608,54.754828673567324],[23.246903620288045,54.74293136853879],[23.207642513691844,54.72627514149736],[23.243334428778944,54.71080864496071],[23.289733918392812,54.71080864496071],[23.327805294485742,54.700101070433405],[23.38491235862576,54.67035780786044],[23.373015053596784,54.66559888584922],[23.345651252030002,54.67035780786044],[23.292113379398643,54.6537015808198],[23.30282095392479,54.629906970761944],[23.28021607436967,54.614440474223514],[23.263559847328235,54.59778424718297],[23.261180386322405,54.58231775064445],[23.245713889784685,54.57398963712422],[23.23381658475571,54.57636909813023],[23.22191927972665,54.58826640315965],[23.195745208662782,54.59421505567475],[23.18384790363301,54.55852314058757],[23.240954967773114,54.540677183043044],[23.258800925316663,54.5156928424812],[23.281405804872584,54.50617499845877],[23.290923648895703,54.519262033991225],[23.2837852658783,54.53591826103187],[23.320666911468226,54.55138475756851],[23.340892330018406,54.54186691354519],[23.33732313850966,54.508554459464015],[23.35516909605321,54.49308796292736],[23.40870696868457,54.49427769342948],[23.43369130924552,54.54067718304308],[23.52530055796972,54.54424637455121],[23.61928926770055,54.53948745253999],[23.66330929630797,54.51807230348734],[23.67044767932528,54.50260580695068],[23.74421097050602,54.4585857783422],[23.76205692805037,54.46215496985042],[23.776333694085174,54.45977550884432],[23.783472077102576,54.46929335286764],[23.77990288559383,54.47762146638884],[23.794179651628724,54.48594957990827],[23.85366617677457,54.48594957990827],[23.86913267331229,54.47762146638884],[23.939326772984284,54.521641494997326],[23.890547822364585,54.54543610505519],[23.89173755286741,54.55257448807241],[23.96074192203649,54.57398963712417],[23.984536532095415,54.587076672657574],[24.010710603159193,54.601353438692016],[24.01190033366211,54.60968155221145],[23.99405437611856,54.60968155221145],[23.9833468015925,54.61681993523054],[23.957172730527834,54.62752750975598],[23.95360353901909,54.63823508428141],[23.995244106621474,54.65251185031772],[24.015469525170854,54.6429940062944],[24.01903871667951,54.6310967012641],[24.035694943720856,54.62395831824776],[24.038074404726686,54.61563020472656],[24.04759224874992,54.606112360704216],[24.064248475790553,54.61563020472656],[24.077335511322442,54.64656319780262],[24.096371199368907,54.65489131132382],[24.1308733839538,54.65846050283106],[24.14158095847995,54.671547538364365],[24.132063114456717,54.681065382387686],[24.102319851883394,54.685824304398906],[24.09042254685442,54.69772160942833],[24.096371199368907,54.71199837546286],[24.129683653450975,54.747690290550054],[24.15347826350901,54.76672597859758],[24.160616646526414,54.78100274463123],[24.149909072000266,54.80598708519298],[24.1594269160235,54.8190741207254],[24.185600987088076,54.8190741207254],[24.23319020720415,54.80717681569696],[24.25490690807969,54.81660055001524],[24.25252744707386,54.82968758554668],[24.21802526248994,54.84872327359332],[24.189471730420067,54.86300003962786],[24.14426197130867,54.877276805663286],[24.128795474771305,54.89512276320604],[24.0942932901865,54.89750222421303],[24.080016524151606,54.88917411069271],[24.05503218359012,54.89393303270481],[24.04432460906433,54.883225458177506],[24.038375956549398,54.867758961639964],[24.013391615987913,54.871328153148184],[23.99554565844463,54.89036384119483],[23.976509970398165,54.89512276320604],[23.964612665369014,54.88798438018971],[23.956284551848253,54.866569231136076],[23.94438724681919,54.86300003962786],[23.93486940279587,54.868948692143064],[23.911074792737654,54.89512276320604],[23.877762338656208,54.89393303270481],[23.83731150155656,54.90583033773237],[23.7278562952889,54.942711983322646],[23.68621572768669,54.94033252231743],[23.660041656622646,54.93914279181443],[23.63386758555869,54.949850366340755]]]]}},{"type":"Feature","properties":{"kind":"district","id":"uyezd-1897-111","name":"Волковышский","provinceId":"gubernia-1897-34"},"geometry":{"type":"MultiPolygon","coordinates":[[[[23.207642513691844,54.72627514149736],[23.213591166206065,54.74174163803579],[23.195745208662338,54.74174163803579],[23.18979655614803,54.73103406351035],[23.173140329106683,54.72984433300646],[23.179088981621792,54.74055190753367],[23.160053293574883,54.74055190753367],[23.155294371562956,54.73579298552157],[23.14458679703672,54.74055190753367],[23.13744841401994,54.75006975155611],[23.119602456476212,54.74769029055001],[23.11127434295554,54.74769029055001],[23.102946229434867,54.75720813457333],[23.076772158371266,54.75244921256123],[23.067254314347412,54.75839786507731],[23.05892620082754,54.770295170105754],[23.036321321271885,54.769105439603635],[23.022044555236903,54.776243822619975],[23.00776778920192,54.775054092116974],[23.004198597693087,54.76196705658455],[22.994680753670032,54.75720813457333],[22.97326560461756,54.766725978597634],[22.92805584550625,54.76315678708764],[22.895933121927452,54.775054092116974],[22.86737958985749,54.772674631111855],[22.850723362816943,54.772674631111855],[22.839714717064002,54.78024828965768],[22.833228376296393,54.77132957110279],[22.801105652717684,54.76776037959191],[22.790398078191448,54.75229388305526],[22.76541373763023,54.75229388305526],[22.73804993606336,54.74515550003617],[22.728532092039593,54.718981428974075],[22.73329101405143,54.71184304595774],[22.716634787010886,54.68804843589624],[22.73210128354905,54.68091005287991],[22.728532092039593,54.66425382583839],[22.747567780086502,54.649977059803845],[22.727342361536323,54.649977059803845],[22.71187586499896,54.62856191075297],[22.697599098964776,54.61190568371145],[22.678563410917867,54.59286999566392],[22.690460715946486,54.57383430761639],[22.676183949911415,54.52743481800279],[22.688081254940922,54.4524817963202],[22.691650446449668,54.43820503028655],[22.676183949911415,54.43225637777055],[22.68570179393456,54.417979611736015],[22.703547751479086,54.417979611736015],[22.728532092039593,54.406082306705706],[22.734480744554613,54.39299527117417],[22.75589589360673,54.38704661865995],[22.79123683767154,54.38601221766469],[22.812651986723747,54.40742736671655],[22.8376363272847,54.41218628872865],[22.859051476337704,54.40742736671655],[22.91377907947118,54.41099655822467],[22.9363839590271,54.40266844470533],[22.947091533553248,54.36935599062414],[22.958988838582222,54.35745868559473],[23.004198597693264,54.384822487160804],[22.999439675681693,54.393150600682006],[23.008957519704836,54.41694521073987],[23.022044555236814,54.42646305476319],[23.037511051774533,54.44787820381583],[23.06606458384494,54.44549874280983],[23.08629000239432,54.45501658683315],[23.107705151446527,54.462154969850374],[23.123171647984247,54.46810362236548],[23.13268949200828,54.48475984940612],[23.164812215586544,54.487139310412125],[23.200504130674442,54.477621466388804],[23.220729549223734,54.487139310412125],[23.268318769340606,54.48951877141734],[23.281405804872584,54.50617499845877],[23.258800925316663,54.5156928424812],[23.240954967773114,54.540677183043044],[23.18384790363301,54.55852314058757],[23.195745208662782,54.59421505567475],[23.22191927972665,54.58826640315965],[23.23381658475571,54.57636909813023],[23.245713889784685,54.57398963712422],[23.261180386322405,54.58231775064445],[23.263559847328235,54.59778424718297],[23.28021607436967,54.614440474223514],[23.30282095392479,54.629906970761944],[23.292113379398643,54.6537015808198],[23.345651252030002,54.67035780786044],[23.373015053596784,54.66559888584922],[23.38491235862576,54.67035780786044],[23.327805294485742,54.700101070433405],[23.289733918392812,54.71080864496071],[23.243334428778944,54.71080864496071],[23.207642513691844,54.72627514149736]]]]}},{"type":"Feature","properties":{"kind":"district","id":"uyezd-1897-112","name":"Сувалкский","provinceId":"gubernia-1897-34"},"geometry":{"type":"MultiPolygon","coordinates":[[[[22.958988838582222,54.35745868559473],[22.947091533553248,54.36935599062414],[22.9363839590271,54.40266844470533],[22.91377907947118,54.41099655822467],[22.859051476337704,54.40742736671655],[22.8376363272847,54.41218628872865],[22.812651986723747,54.40742736671655],[22.79123683767154,54.38601221766469],[22.75589589360673,54.38704661865995],[22.776121312156466,54.34778551206277],[22.73210128354905,54.3192319799937],[22.73804993606336,54.29900656144494],[22.710686134496576,54.28116060390317],[22.684512063432177,54.278781142895205],[22.645250956835977,54.28591952591163],[22.629784460297724,54.28354006490642],[22.60123092822856,54.259745454847675],[22.542934133585362,54.27402222088408],[22.517949793024144,54.22762273126959],[22.572677396158596,54.16099782310634],[22.62026661627467,54.095562645445206],[22.58100550967847,54.068198843880026],[22.603610389234124,54.044404233821275],[22.654768800858943,54.024178815271625],[22.671379499512295,53.98998031804422],[22.709145432970484,53.977934655164084],[22.755544922583642,53.96841681114076],[22.785288185156965,53.96722708063865],[22.781718993648308,53.98507303818131],[22.80432387320343,53.981503846673185],[22.813841717226573,53.96960654164377],[22.816221178232404,53.95057085359801],[22.829308213764293,53.94700166208803],[22.845964440805727,53.937483818064706],[22.86500012885219,53.937483818064706],[22.87570770337834,53.95532977560923],[22.87808716438417,53.981503846673185],[22.939953150535757,54.006488187234936],[22.979214257131513,54.01124710924526],[23.026803477248386,54.01124710924526],[23.08391054138849,54.0267136057837],[23.098187307423295,54.01957522276647],[23.144586797037253,53.998160073713734],[23.196934939165697,54.00886764823917],[23.199314400171527,54.0302827972928],[23.17076086810112,54.04099037181823],[23.174330059609776,54.05764659885878],[23.16838140709529,54.06121579036876],[23.151725180054655,54.054077407350654],[23.138638144522766,54.06240552087088],[23.13744841401985,54.075492556403304],[23.14220733603151,54.09452824444995],[23.104135959937782,54.11951258501179],[23.09461811591455,54.13854827305745],[23.146966258043083,54.16234288311629],[23.169571137598204,54.151635308588986],[23.18860682564467,54.15520450009809],[23.210021974697675,54.18613749317406],[23.227867932241224,54.18613749317406],[23.292113379398643,54.18851695418104],[23.238575506767283,54.20517318122168],[23.22667820173831,54.217070486251004],[23.24452415928177,54.238485635301885],[23.174330059609776,54.25990078435551],[23.174330059609776,54.27060835888095],[23.196934939165697,54.26941862837883],[23.235006315258538,54.26109051485763],[23.304010684427706,54.314628387488455],[23.2825955353755,54.3336640755351],[23.251662542299172,54.35269976358174],[23.223109010229564,54.33961272805029],[23.182658173130093,54.33009488402697],[23.15053544955174,54.3467511110684],[23.116033264966845,54.32652569251787],[23.092238654908808,54.28964404692847],[23.05892620082754,54.303920812962126],[23.031562399260046,54.319387309500556],[23.04108024328319,54.3443716500624],[23.00776778920201,54.35388949408572],[22.958988838582222,54.35745868559473]]]]}},{"type":"Feature","properties":{"kind":"district","id":"uyezd-1897-113","name":"Кальварийский","provinceId":"gubernia-1897-34"},"geometry":{"type":"MultiPolygon","coordinates":[[[[23.235006315258538,54.26109051485763],[23.26118038632238,54.26228024536155],[23.305200414930507,54.25038294033223],[23.338512869012575,54.23610617429769],[23.349220443538723,54.217070486251046],[23.394430202648966,54.22539859977039],[23.399189124660627,54.256331592845555],[23.48960864288271,54.25990078435555],[23.50507513942043,54.28131593340731],[23.539577324004615,54.286074855419415],[23.582407622109827,54.282505663911294],[23.677586062342773,54.297972160447856],[23.704949863910265,54.32890515352392],[23.74421097050602,54.32652569251782],[23.81559480068093,54.33723326704512],[23.821543453195417,54.34794084157144],[23.829871566716534,54.35507922458778],[23.864373751300718,54.34913057207356],[23.89173755286741,54.357458685594764],[23.863184020797803,54.366976529618086],[23.83344075822528,54.377684104143526],[23.864373751300718,54.38482248716084],[23.919101354434993,54.37530464313752],[23.96550084404815,54.34794084157144],[24.024987369193997,54.33961272805024],[24.027366830199828,54.363407338108985],[24.008331142153363,54.37887383464751],[24.010710603159193,54.38482248716084],[24.035694943720856,54.38006356514963],[24.077335511322442,54.359838146600865],[24.09280200786016,54.3657867991142],[24.083284163837018,54.39434033118416],[24.04402305724126,54.42051440224803],[24.05711009277315,54.444309012307755],[24.051161440258664,54.46810362236552],[24.055920362270236,54.48713931041216],[24.051161440258664,54.5061749984588],[24.05948955377898,54.52402095600156],[24.09280200786016,54.522831225499445],[24.102319851883394,54.53353880002577],[24.09280200786016,54.55614367958062],[24.0678176672993,54.56447179310183],[24.023797638691082,54.55614367958062],[24.000003028633135,54.53353880002577],[24.015469525170854,54.513313381476124],[23.975018688072094,54.50260580695068],[23.939326772984284,54.521641494997326],[23.86913267331229,54.47762146638884],[23.85366617677457,54.48594957990827],[23.794179651628724,54.48594957990827],[23.77990288559383,54.47762146638884],[23.783472077102576,54.46929335286764],[23.776333694085174,54.45977550884432],[23.76205692805037,54.46215496985042],[23.74421097050602,54.4585857783422],[23.67044767932528,54.50260580695068],[23.66330929630797,54.51807230348734],[23.61928926770055,54.53948745253999],[23.52530055796972,54.54424637455121],[23.43369130924552,54.54067718304308],[23.40870696868457,54.49427769342948],[23.35516909605321,54.49308796292736],[23.33732313850966,54.508554459464015],[23.340892330018406,54.54186691354519],[23.320666911468226,54.55138475756851],[23.2837852658783,54.53591826103187],[23.290923648895703,54.519262033991225],[23.281405804872584,54.50617499845877],[23.268318769340606,54.48951877141734],[23.220729549223734,54.487139310412125],[23.200504130674442,54.477621466388804],[23.164812215586544,54.487139310412125],[23.13268949200828,54.48475984940612],[23.123171647984247,54.46810362236548],[23.107705151446527,54.462154969850374],[23.08629000239432,54.45501658683315],[23.06606458384494,54.44549874280983],[23.037511051774533,54.44787820381583],[23.022044555236814,54.42646305476319],[23.008957519704836,54.41694521073987],[22.999439675681693,54.393150600682006],[23.004198597693264,54.384822487160804],[22.958988838582222,54.35745868559473],[23.00776778920201,54.35388949408572],[23.04108024328319,54.3443716500624],[23.031562399260046,54.319387309500556],[23.05892620082754,54.303920812962126],[23.092238654908808,54.28964404692847],[23.116033264966845,54.32652569251787],[23.15053544955174,54.3467511110684],[23.182658173130093,54.33009488402697],[23.223109010229564,54.33961272805029],[23.251662542299172,54.35269976358174],[23.2825955353755,54.3336640755351],[23.304010684427706,54.314628387488455],[23.235006315258538,54.26109051485763]]]]}},{"type":"Feature","properties":{"kind":"district","id":"uyezd-1897-704","name":"Сейнский","provinceId":"gubernia-1897-34"},"geometry":{"type":"MultiPolygon","coordinates":[[[[23.235006315258538,54.26109051485763],[23.196934939165697,54.26941862837883],[23.174330059609776,54.27060835888095],[23.174330059609776,54.25990078435551],[23.24452415928177,54.238485635301885],[23.22667820173831,54.217070486251004],[23.238575506767283,54.20517318122168],[23.292113379398643,54.18851695418104],[23.227867932241224,54.18613749317406],[23.210021974697675,54.18613749317406],[23.18860682564467,54.15520450009809],[23.169571137598204,54.151635308588986],[23.146966258043083,54.16234288311629],[23.09461811591455,54.13854827305745],[23.104135959937782,54.11951258501179],[23.14220733603151,54.09452824444995],[23.13744841401985,54.075492556403304],[23.138638144522766,54.06240552087088],[23.151725180054655,54.054077407350654],[23.16838140709529,54.06121579036876],[23.174330059609776,54.05764659885878],[23.17076086810112,54.04099037181823],[23.199314400171527,54.0302827972928],[23.196934939165697,54.00886764823917],[23.144586797037253,53.998160073713734],[23.107705151446527,53.989831960192525],[23.123171647984247,53.96246815862557],[23.144586797037253,53.95176058410013],[23.20883224419476,53.96841681114076],[23.237385776264368,53.9362940875617],[23.334943677503855,53.96246815862557],[23.397999394157736,53.96960654164377],[23.44558861427452,53.9398632790708],[23.48841891237982,53.95057085359801],[23.536008132495894,53.94819139259201],[23.553854090040243,53.93153516555137],[23.58002816110402,53.912499477504724],[23.629996842226724,53.923207052030165],[23.64427360826153,53.95176058410013],[23.713277977430607,53.95532977560923],[23.821543453195442,53.973175733151976],[23.840579141242706,53.96722708063865],[23.842958602248537,53.95295031460225],[23.857235368283316,53.94938112309407],[23.87151213431812,53.94105300957473],[23.883409439347094,53.94343247057896],[23.896496474879783,53.95532977560927],[23.901255396891443,53.976744924661915],[23.934567850972712,53.98864222969045],[23.95003434751043,54.027903336285846],[23.99405437611856,54.04218010232216],[24.013090064165024,54.07192336489513],[24.04402305724126,54.08144120891845],[24.0749560503167,54.07192336489513],[24.107078773895765,54.07668228690546],[24.14158095847995,54.060026059864825],[24.1594269160235,54.062405520870925],[24.16418583803507,54.07549255640335],[24.15347826350901,54.08857959193577],[24.152288533006097,54.10523581897631],[24.138011766971292,54.11475366299963],[24.12849392294806,54.124271507022954],[24.138011766971292,54.13140989004027],[24.1594269160235,54.133789351046275],[24.180842065076504,54.143307195069596],[24.17965233457359,54.15996342211023],[24.170134490549646,54.16710180512746],[24.152288533006097,54.16472234412136],[24.089232816351505,54.17899911015687],[24.066627936796383,54.1920861456892],[24.0392641352296,54.183758032168],[24.009520872656278,54.1920861456892],[24.007141411650448,54.18137857116199],[24.000003028633135,54.17542991864866],[23.967880305054692,54.17899911015687],[23.934567850972712,54.203983450718624],[23.9476548865046,54.24562401832101],[23.975018688072094,54.25871105385157],[23.997623567627304,54.27774674189821],[23.988105723604072,54.30867973497516],[24.027366830199828,54.31462838748849],[24.024987369193997,54.33961272805024],[23.96550084404815,54.34794084157144],[23.919101354434993,54.37530464313752],[23.864373751300718,54.38482248716084],[23.83344075822528,54.377684104143526],[23.863184020797803,54.366976529618086],[23.89173755286741,54.357458685594764],[23.864373751300718,54.34913057207356],[23.829871566716534,54.35507922458778],[23.821543453195417,54.34794084157144],[23.81559480068093,54.33723326704512],[23.74421097050602,54.32652569251782],[23.704949863910265,54.32890515352392],[23.677586062342773,54.297972160447856],[23.582407622109827,54.282505663911294],[23.539577324004615,54.286074855419415],[23.50507513942043,54.28131593340731],[23.48960864288271,54.25990078435555],[23.399189124660627,54.256331592845555],[23.394430202648966,54.22539859977039],[23.349220443538723,54.217070486251046],[23.338512869012575,54.23610617429769],[23.305200414930507,54.25038294033223],[23.26118038632238,54.26228024536155],[23.235006315258538,54.26109051485763]]]]}}]}
