{"type":"FeatureCollection","features":[{"type":"Feature","properties":{"kind":"province","id":"gubernia-1897-94","name":"Курляндская губерния"},"geometry":{"type":"MultiPolygon","coordinates":[[[[25.674220031267527,56.615100160996036],[25.6362808474517,56.58971924360052],[25.5767943223063,56.58733978259353],[25.506600222634216,56.59447816561173],[25.507789953137486,56.615893314663495],[25.47090830754694,56.62898035019681],[25.453062350002945,56.64206738572834],[25.414990973909838,56.64325711623135],[25.385247711336692,56.633739272208025],[25.37691959781673,56.61946250617349],[25.31029468965295,56.59923708762287],[25.281741157583163,56.606375470640174],[25.26627466104571,56.60042681812685],[25.256756817022477,56.59209870460653],[25.234151937466823,56.60161654862985],[25.199649752882017,56.61232412315529],[25.148491341256488,56.62898035019681],[25.10566104315181,56.63017008069981],[25.050933440017978,56.6170830451665],[25.01286206392487,56.613513853658375],[24.980739340345984,56.62065223667649],[24.943857694755348,56.63135981120281],[24.89745820514148,56.58971924360052],[24.776105693844755,56.583770591085326],[24.765398119318164,56.59685762661685],[24.782054346358887,56.6170830451665],[24.812987339434592,56.62184196717949],[24.820125722451994,56.645636577236466],[24.832023027481057,56.66110307377498],[24.880801978100756,56.67419010930643],[24.9034068576565,56.67537983980944],[24.896268474639008,56.69203606685096],[24.85343817653424,56.70750256338938],[24.826074374966925,56.717020407412704],[24.79276192088548,56.722969059926044],[24.760639197306503,56.727727981939125],[24.727326743225056,56.74795340048699],[24.708291055178503,56.76579935803241],[24.676168331599616,56.77293774104874],[24.64642506902647,56.78364531557507],[24.617871536956685,56.776506932556956],[24.59288719639511,56.76936854954053],[24.58574881337771,56.75509178350599],[24.54648770678204,56.75152259199601],[24.53696986275881,56.76341989702542],[24.469155224092557,56.776506932556956],[24.501277947670733,56.83123453569168],[24.463206571577626,56.84908049323531],[24.421566003975418,56.8455113017271],[24.400150854923034,56.843131840720204],[24.366838400841587,56.84908049323531],[24.345423251789203,56.8455113017271],[24.369217861847417,56.80149127311871],[24.397771393917203,56.74676366998577],[24.33471567726261,56.75628151400909],[24.296644301169593,56.7539020530021],[24.262142116584787,56.75271232249909],[24.202655591439296,56.75509178350599],[24.17172259836368,56.7539020530021],[24.143169066293805,56.77769666306085],[24.12532310874981,56.77888639356385],[24.108666881709087,56.771748010545735],[24.092010654668364,56.77055828004362],[24.069503802628702,56.77139186715549],[24.05988793108939,56.771748010545735],[24.043231704048665,56.77412747155175],[24.01824736348718,56.77055828004362],[23.993263022926495,56.780076124066944],[23.980175987394073,56.780076124066944],[23.97184787387411,56.77293774104874],[23.934966228283564,56.771748010545735],[23.85525428458825,56.797922081610494],[23.727953120776505,56.840752379715],[23.662517943116082,56.86216752876685],[23.635154141548767,56.88239294731649],[23.625636297525535,56.89072106083681],[23.611359531490642,56.878823755808284],[23.59470330444992,56.85740860675652],[23.518560552262905,56.920464323409774],[23.49000702019312,56.947828124977626],[23.456694566111672,56.9811405790588],[23.426951303538527,56.99303788408902],[23.404346423983583,57.01564276364388],[23.378172352918828,57.037057912695644],[23.36399220321798,57.05818260635229],[23.343622762047392,57.06037105870922],[23.30171526806392,57.07980641823818],[23.26153135734598,57.09844243480349],[23.229408633767182,57.12342677536523],[23.2115626762231,57.161498151457636],[23.2056140237087,57.19243114453272],[23.183009144153846,57.238830634147206],[23.17111183912425,57.29712742878925],[23.159214534095366,57.3256809608601],[23.14731722906568,57.34352691840285],[23.13660965453971,57.375649641981916],[23.093779356435032,57.380408563994905],[23.040241483803584,57.395875060531566],[22.97718576714908,57.42323886209852],[22.92959654703274,57.44346428064817],[22.879627865910038,57.48629457875267],[22.857022986354384,57.49224323126778],[22.835607837302444,57.51484811082352],[22.803485113723557,57.51841730233351],[22.771362390145026,57.5434016428926],[22.729721822543173,57.542211912390485],[22.70116829047312,57.55648867842502],[22.64763041784176,57.57433463597043],[22.571487665655457,57.6338211611146],[22.56553901314017,57.676651459219094],[22.556021169117116,57.700446069277845],[22.564349282637345,57.72186121833147],[22.594092545210223,57.74089690637811],[22.601230928228336,57.75398394190867],[22.59290281470731,57.764691516435974],[22.490585991456783,57.73494825386291],[22.407304856253166,57.71472283531238],[22.27881396193833,57.693307686260525],[22.131287379576495,57.65047738815514],[21.995658102244345,57.607647090051614],[21.93022292458401,57.600508707032525],[21.831475292842054,57.60288816803853],[21.77674768970778,57.58861140200399],[21.73629685260884,57.55648867842502],[21.711312512047446,57.52198649384074],[21.666102752937025,57.5053302668002],[21.613754610808492,57.464879429701796],[21.55545781616547,57.447033472158154],[21.520955631580932,57.40539290455489],[21.501919943534734,57.379218833490924],[21.478125333476253,57.370890719971584],[21.41744907782749,57.301886350801354],[21.407931233804437,57.25310740018175],[21.413879886318835,57.2328819816321],[21.400792850786324,57.17934410900118],[21.40198258128924,57.11747812285013],[21.390085276260354,57.068699172230424],[21.38520975844688,57.06201274780145],[21.3484447086585,57.0115921080905],[21.283009530998168,56.95210558294457],[21.215194892332093,56.90689582383308],[21.127154835116194,56.87953202226612],[21.097411572543315,56.859306603716476],[21.07004777097609,56.83551199365861],[21.060529926952945,56.80933792259653],[21.068858040473174,56.75817951096904],[21.053391543935632,56.72367732638574],[21.047966501242335,56.70823682025909],[21.03792504739738,56.67965729777637],[21.023648281362664,56.60708373709979],[20.99271528828687,56.534510176421435],[20.983197444263016,56.51190529686569],[20.999853671304272,56.49524906982515],[20.986766635772472,56.42981389216401],[20.95821310370242,56.36913763651587],[20.965351486719733,56.3382046434399],[20.97367960023996,56.302512728352625],[20.97367960023996,56.238267281195476],[21.006992054321586,56.17759102554645],[21.039114777900295,56.1204839614074],[21.06171965745586,56.05385905324415],[21.05101208292989,55.987234145080905],[21.045063430414693,55.95868061301006],[21.046416269838023,55.93432950338959],[21.07568968503363,55.930734209248875],[21.101863756097586,55.92597528723854],[21.11851998313831,55.939062322770084],[21.144694054202354,55.942631514278204],[21.158970820237247,55.97356450735515],[21.193473004822053,55.97594396836027],[21.198231926833625,55.99141046489781],[21.160160550740517,56.00568723093333],[21.166109203254738,56.0366202240093],[21.147073515208184,56.04018941551752],[21.12089944414414,56.05208672054596],[21.136365940681593,56.0794505221138],[21.157781089734776,56.09491701865223],[21.17562704727797,56.08658890513102],[21.193473004822053,56.09015809663924],[21.212508692868607,56.12228082021919],[21.23273411141843,56.12822947273253],[21.236303302926732,56.14131650826583],[21.22202653689184,56.15559327430037],[21.23749303343009,56.169870040335795],[21.260097912984946,56.177008423352135],[21.27318494851737,56.19366465039366],[21.299359019581324,56.20199276391486],[21.319584438131148,56.2198387214585],[21.365983927744306,56.240064140008144],[21.395727190317363,56.24601279252148],[21.43141910540464,56.248392253528465],[21.456403445966213,56.265048480568126],[21.484956978036,56.27456632459145],[21.48376724753344,56.29836093465108],[21.520648893123276,56.28527389911777],[21.537305120164,56.29241228213597],[21.5444435031822,56.30668904817139],[21.562289460725484,56.31025823967961],[21.575376496257906,56.330483658229255],[21.59917110631603,56.341191232754696],[21.6420014044208,56.35189880728102],[21.662226822970712,56.3483296157729],[21.70029819906373,56.342380963257696],[21.721713348116115,56.347139885268916],[21.75145661068926,56.36617557331556],[21.783579334268147,56.36855503432254],[21.79190744778811,56.38878045287218],[21.825219901869644,56.400677757900624],[21.8513939729336,56.401867488403724],[21.869239930477683,56.39472910538552],[21.896603732044998,56.3852112613622],[21.969177292722822,56.39591883588852],[21.981074597751974,56.410195601923945],[21.989402711271847,56.412575062930046],[22.00011028579844,56.42447236795849],[22.033422739879885,56.42447236795849],[22.0572173499381,56.43280048147881],[22.090529804019546,56.43280048147881],[22.123842258101792,56.4375594034918],[22.141688215645075,56.44231832550213],[22.172621208720713,56.44707724751511],[22.192846627270537,56.43874913399391],[22.199985010288028,56.42209290695337],[22.21069258481462,56.406626410415825],[22.235676925375305,56.406626410415825],[22.253522882919388,56.41376479343216],[22.298732642029897,56.414954523935165],[22.336804018123004,56.400677757900624],[22.36773701119942,56.405436679911844],[22.392721351760105,56.403057218906724],[22.439120841373974,56.41138533242704],[22.46529491243802,56.406626410415825],[22.487899791993673,56.399488027397624],[22.52954035959588,56.392349644380396],[22.58069877122061,56.3864009918652],[22.602113920273794,56.38402153086096],[22.62048864692955,56.3751646482278],[22.640714065479376,56.36564680420359],[22.66926759754925,56.35255976867117],[22.707338973642358,56.37040572621481],[22.76563576828529,56.36921599571269],[22.812035257899158,56.36802626520969],[22.845347711980605,56.36921599571269],[22.86676286103299,56.389441414261455],[22.896506123606134,56.39182087526844],[22.910782889641027,56.40609764130298],[22.92505965567592,56.39776952778266],[22.938146691207542,56.40252844979476],[22.946474804728304,56.4156154853263],[22.969079684283958,56.41085656331419],[22.996443485850474,56.40609764130298],[23.023939479696,56.412971639764706],[23.00966271366102,56.390366760209844],[23.028698401707572,56.37252080266532],[23.060821125286548,56.36776188065322],[23.085805465847233,56.3582440366299],[23.11792818942621,56.35586457562388],[23.159568757028417,56.36181322813988],[23.1809839060808,56.37252080266532],[23.201209324630625,56.365382419647204],[23.27021369379935,56.37252080266532],[23.313043991904117,56.38679756869986],[23.32613102743645,56.37965918568352],[23.345166715483092,56.38203864668864],[23.371340786547048,56.38203864668864],[23.410601893143426,56.37727972467654],[23.43558623370491,56.374900263670526],[23.42844785068671,56.363002958642],[23.49626248935296,56.34039807908724],[23.524816021423547,56.334449426572036],[23.55336955349342,56.33801861808025],[23.575974433048277,56.34991592311056],[23.609286887130523,56.35348511461868],[23.629512305679548,56.35943376713388],[23.686619369820008,56.363002958642],[23.725880476415586,56.3701413416602],[23.738967511948008,56.37608999417353],[23.760382661000392,56.3689516111572],[23.7532442779829,56.34872619260658],[23.7496750864738,56.320172660537494],[23.790125923573537,56.31541373852539],[23.832956221678216,56.31660346902751],[23.830576760672386,56.332069965566916],[23.881735172297915,56.333259696069035],[23.935008660372983,56.334449426572036],[23.951664887413617,56.34158780959024],[23.96118273143694,56.35467484512177],[23.976649227975102,56.36776188065322],[23.993305455015914,56.37727972467654],[24.01115141255911,56.390366760209844],[24.01115141255911,56.35229538411568],[24.001633568535876,56.34158780959024],[24.000443838033316,56.324931582548714],[24.045653597143914,56.326121313050834],[24.109899044300978,56.332069965566916],[24.11822715782174,56.289239667460635],[24.22173371157527,56.29518831997575],[24.288358619738162,56.30232670299395],[24.28240996722403,56.318982930033606],[24.263374279177476,56.32850077405693],[24.264564009679948,56.33801861808025],[24.2764613147091,56.34039807908724],[24.297876463762194,56.326121313050834],[24.33475810935203,56.333259696069035],[24.362121910919345,56.335639157074155],[24.37996786846334,56.36657215015021],[24.404952209024113,56.3689516111572],[24.415659783550705,56.363002958642],[24.410900861539044,56.35229538411568],[24.44659277662632,56.34396727059536],[24.460869542661214,56.330880235063916],[24.48466415271943,56.330880235063916],[24.526304720321637,56.320172660537494],[24.5346328338416,56.32850077405693],[24.55366852188895,56.32850077405693],[24.567945287923845,56.332069965566916],[24.579842592952907,56.32850077405693],[24.60363720301112,56.33682888757724],[24.615534508040184,56.35110565361356],[24.627431813069247,56.35705430612689],[24.633380465584267,56.3689516111572],[24.63694965709257,56.38203864668864],[24.64884696212172,56.385607838196854],[24.684538877208997,56.383228377191735],[24.69762591274133,56.390366760209844],[24.707143756764562,56.407022987249505],[24.735697288834437,56.409402448256486],[24.755482066457404,56.41759836949862],[24.775707485006517,56.4080805254753],[24.807830208585404,56.41997783050374],[24.805450747579574,56.434254596538274],[24.818537783111996,56.434254596538274],[24.83162481864362,56.42235729150983],[24.864937272725065,56.42711621352194],[24.862557811719235,56.441392979556475],[24.880403769263317,56.456859476094905],[24.907767570830543,56.45329028458492],[24.923234067367996,56.44258271005859],[24.914905953848034,56.41997783050374],[24.931562180888758,56.4045113339653],[24.954167060443613,56.383096184913455],[24.976771939999267,56.379526993405335],[24.970823287485224,56.35573238334561],[24.975582209496796,56.33312750379084],[24.99461789754335,56.31171235473899],[25.016033046595734,56.305763702223885],[25.016033046595734,56.292676666692344],[25.026740621121526,56.28196909216602],[25.04696603967135,56.28196909216602],[25.05172496168301,56.26888205663271],[25.080278493752797,56.234379872049416],[25.085037415764457,56.20820580098457],[25.10407310381101,56.19154957394491],[25.10764229532011,56.202257148469464],[25.15880070694564,56.17965226891461],[25.217097501588572,56.17489334690348],[25.214718040582742,56.18798038243493],[25.219476962594403,56.19273930444614],[25.237322920137686,56.18917011293793],[25.25278941667585,56.1772728079086],[25.270635374219133,56.17251388589827],[25.278963487739894,56.159426850364966],[25.296809445283888,56.159426850364966],[25.35510623992602,56.1356322403071],[25.41102357356321,56.14871927583864],[25.443146297142185,56.157047389359846],[25.488356056252695,56.14633981483352],[25.550222042404727,56.145150084330425],[25.610898298053577,56.139201431815316],[25.67276428420481,56.136821970810196],[25.6799026672223,56.14871927583864],[25.68228212822813,56.17608307740649],[25.701317816274596,56.19511876545313],[25.702507546777955,56.22248256702009],[25.714404851807018,56.24984636858607],[25.73700973136196,56.24389771607274],[25.78221949047327,56.26174367361638],[25.82623951908051,56.28077936166302],[25.851223859641994,56.2724512481427],[25.858362242659396,56.25698475160427],[25.854793051151184,56.24032852456275],[25.83575736310383,56.2320004110443],[25.807688536054076,56.224421387099056],[25.807688536054076,56.214903543075735],[25.788652848007523,56.19348839402211],[25.756530124428636,56.17207324497035],[25.752960932919535,56.15303755692371],[25.713699826323868,56.086412648761346],[25.796980961527574,56.06261803870162],[25.83267287661485,56.04834127266806],[25.846949642649655,56.02930558462142],[25.87907236622872,56.018598010095005],[25.914764281315907,56.005510974561695],[25.951645926906544,55.99004447802504],[25.98852757249709,55.981716364503924],[26.008752991046116,55.97457798148661],[26.03373733160769,55.973388250983604],[26.049203828145853,55.94959364092575],[26.068239516192406,55.93412714438732],[26.044444906134192,55.923419569860904],[26.025409218087727,55.90438388181426],[26.025409218087727,55.89367630728883],[26.04206544512836,55.88772765477371],[26.068239516192406,55.89010711577883],[26.09322385675309,55.900814690306134],[26.112259544800445,55.88653792427071],[26.121777388823677,55.856794661697656],[26.151520651396112,55.834189782142886],[26.222904481571376,55.785410831523194],[26.255027205149553,55.76875460448176],[26.263355318670314,55.750908646938115],[26.29428831174593,55.7532881079451],[26.312134269290013,55.74020107241179],[26.34782618437729,55.72592430637815],[26.40017432650529,55.72592430637815],[26.487024653218096,55.72473457587514],[26.50962953277375,55.70688861833061],[26.535803603837707,55.696181043805176],[26.55840848339345,55.691422121792094],[26.590531206972337,55.691422121792094],[26.61670527803638,55.69975023531241],[26.634551235579664,55.714027001348725],[26.640499888094595,55.73544215040147],[26.65358692362613,55.73544215040147],[26.694037760725866,55.73306268939537],[26.72140156229238,55.72354484537205],[26.755903746877188,55.71164754034183],[26.76423186039786,55.698560504810295],[26.81063135001093,55.698560504810295],[26.832046499064113,55.71759619285694],[26.86654868364812,55.7390113419087],[26.884394641192202,55.77351352649475],[26.92603520879432,55.80087732806171],[26.987901194945643,55.836569243148006],[27.009316343998027,55.84608708717133],[27.056905564114366,55.856794661697656],[27.103305053728235,55.84370762616621],[27.12709966378645,55.85560493119465],[27.154463465353764,55.874640619242186],[27.18420672792691,55.87345088873918],[27.267487863130526,55.85084600918255],[27.33649223230005,55.831810321135904],[27.38170199141056,55.81991301610742],[27.39240956593715,55.833000051639814],[27.3650457643701,55.85322547019],[27.310318161236093,55.877020080247405],[27.28295435966878,55.88296873276252],[27.23774460055818,55.88058927175553],[27.18777591943521,55.890107115778854],[27.172309422897758,55.91747091734581],[27.149704543342104,55.91747091734581],[27.110443436745726,55.90200442080916],[27.07356179115589,55.91509145634069],[27.043818528582833,55.903194151312164],[27.043818528582833,55.890107115778854],[27.01645472701543,55.886537924270726],[26.991470386454743,55.89367630728884],[26.953399010360926,55.89486603779096],[26.939122244325944,55.929368222375146],[26.91889682577692,55.93293741388513],[26.890343293706245,55.922229839358806],[26.887963832700503,55.912711995335485],[26.86178976163646,55.911522264832485],[26.834425960069943,55.92698876136913],[26.81301081101676,55.929368222375146],[26.791595661964465,55.919850378351825],[26.76899078240952,55.906763342820376],[26.746385902853866,55.912711995335485],[26.734488597824804,55.929368222375146],[26.71069398776659,55.93888606639847],[26.682140455696715,55.93293741388513],[26.632171774573834,55.886537924270726],[26.595290128983997,55.877020080247405],[26.55483929188435,55.877020080247405],[26.51319872428285,55.89367630728884],[26.45966085165158,55.92817849187214],[26.45847112114822,55.94840391042179],[26.40136405700865,55.979336903498734],[26.374000255441246,56.00194178305359],[26.364482411418013,56.04715154216498],[26.34782618437729,56.101879145298014],[26.34425699286899,56.13876079088919],[26.315703460798403,56.1804013584906],[26.277632084705296,56.21014462106365],[26.23907600359198,56.22129283651613],[26.217660854539684,56.23437987204943],[26.19743543599057,56.24865663808486],[26.203384088504702,56.279589631159055],[26.177210017440746,56.350973461335386],[26.161743520902494,56.39142429843379],[26.10106726525453,56.41521890849165],[26.08916996022547,56.435444327041296],[26.070134272178116,56.45685947609492],[26.008268286026794,56.47708489464457],[25.9416433778639,56.48779246917],[25.923797420319907,56.506828157215764],[25.860741703665227,56.51753573174307],[25.82623951908051,56.54133034180083],[25.772701646450038,56.54727899431603],[25.77389137695251,56.567504412865674],[25.752476227900125,56.575832526385994],[25.753665958402685,56.59605794493564],[25.77508110745587,56.6115244414723],[25.765563263431748,56.62342174650171],[25.753931974962843,56.62461800501938],[25.674220031267527,56.615100160996036]]]]}},{"type":"Feature","properties":{"kind":"district","id":"uyezd-1897-86","name":"Фридрихштадтский","provinceId":"gubernia-1897-94"},"geometry":{"type":"MultiPolygon","coordinates":[[[[25.674220031267527,56.615100160996036],[25.6362808474517,56.58971924360052],[25.5767943223063,56.58733978259353],[25.506600222634216,56.59447816561173],[25.507789953137486,56.615893314663495],[25.47090830754694,56.62898035019681],[25.453062350002945,56.64206738572834],[25.414990973909838,56.64325711623135],[25.385247711336692,56.633739272208025],[25.37691959781673,56.61946250617349],[25.31029468965295,56.59923708762287],[25.281741157583163,56.606375470640174],[25.26627466104571,56.60042681812685],[25.256756817022477,56.59209870460653],[25.234151937466823,56.60161654862985],[25.199649752882017,56.61232412315529],[25.148491341256488,56.62898035019681],[25.10566104315181,56.63017008069981],[25.050933440017978,56.6170830451665],[25.01286206392487,56.613513853658375],[24.980739340345984,56.62065223667649],[24.943857694755348,56.63135981120281],[24.89745820514148,56.58971924360052],[24.776105693844755,56.583770591085326],[24.765398119318164,56.59685762661685],[24.782054346358887,56.6170830451665],[24.812987339434592,56.62184196717949],[24.820125722451994,56.645636577236466],[24.832023027481057,56.66110307377498],[24.880801978100756,56.67419010930643],[24.9034068576565,56.67537983980944],[24.896268474639008,56.69203606685096],[24.85343817653424,56.70750256338938],[24.826074374966925,56.717020407412704],[24.79276192088548,56.722969059926044],[24.760639197306503,56.727727981939125],[24.74358476142834,56.70551315120338],[24.755482066457404,56.692426115671836],[24.73644637841085,56.66982123611521],[24.698375002317032,56.675769888630406],[24.695995541311202,56.66268285309887],[24.673390661756258,56.66268285309887],[24.653165243206434,56.675769888630406],[24.62223225013073,56.67695961913341],[24.599627370575075,56.687667193659735],[24.58535060454018,56.67695961913341],[24.587730065546012,56.66268285309887],[24.572263569008648,56.642457434548334],[24.597247909569244,56.64483689555523],[24.603196562084264,56.63531905153191],[24.597247909569244,56.617473093987385],[24.618663058621717,56.612714171975284],[24.663872817733026,56.61152444147228],[24.701944193826044,56.599627136443836],[24.661493356727195,56.58416063990532],[24.67577012276209,56.57107360437387],[24.654354973709705,56.541330341800816],[24.646026860188943,56.541330341800816],[24.62580144163912,56.48898219967308],[24.643647399183113,56.48898219967308],[24.637698746668182,56.48065408615277],[24.649596051698133,56.47351570313457],[24.674580392258818,56.48422327766089],[24.755482066457404,56.46042866760312],[24.755482066457404,56.41759836949862],[24.775707485006517,56.4080805254753],[24.807830208585404,56.41997783050374],[24.805450747579574,56.434254596538274],[24.818537783111996,56.434254596538274],[24.83162481864362,56.42235729150983],[24.864937272725065,56.42711621352194],[24.862557811719235,56.441392979556475],[24.880403769263317,56.456859476094905],[24.907767570830543,56.45329028458492],[24.923234067367996,56.44258271005859],[24.914905953848034,56.41997783050374],[24.931562180888758,56.4045113339653],[24.954167060443613,56.383096184913455],[24.976771939999267,56.379526993405335],[24.970823287485224,56.35573238334561],[24.975582209496796,56.33312750379084],[24.99461789754335,56.31171235473899],[25.016033046595734,56.305763702223885],[25.016033046595734,56.292676666692344],[25.026740621121526,56.28196909216602],[25.04696603967135,56.28196909216602],[25.05172496168301,56.26888205663271],[25.080278493752797,56.234379872049416],[25.085037415764457,56.20820580098457],[25.10407310381101,56.19154957394491],[25.10764229532011,56.202257148469464],[25.15880070694564,56.17965226891461],[25.217097501588572,56.17489334690348],[25.214718040582742,56.18798038243493],[25.219476962594403,56.19273930444614],[25.237322920137686,56.18917011293793],[25.25278941667585,56.1772728079086],[25.270635374219133,56.17251388589827],[25.278963487739894,56.159426850364966],[25.296809445283888,56.159426850364966],[25.35510623992602,56.1356322403071],[25.41102357356321,56.14871927583864],[25.443146297142185,56.157047389359846],[25.488356056252695,56.14633981483352],[25.550222042404727,56.145150084330425],[25.610898298053577,56.139201431815316],[25.67276428420481,56.136821970810196],[25.6799026672223,56.14871927583864],[25.68228212822813,56.17608307740649],[25.701317816274596,56.19511876545313],[25.702507546777955,56.22248256702009],[25.714404851807018,56.24984636858607],[25.73700973136196,56.24389771607274],[25.78221949047327,56.26174367361638],[25.82623951908051,56.28077936166302],[25.851223859641994,56.2724512481427],[25.858362242659396,56.25698475160427],[25.854793051151184,56.24032852456275],[25.83575736310383,56.23200041104341],[25.916659037302416,56.18917011293793],[25.958299604904624,56.17370361640039],[25.98209421496284,56.18322146042282],[26.017786130050116,56.17965226891461],[26.068944541675556,56.18679065193192],[26.080841846704708,56.19749822645825],[26.09035969072794,56.20701607048157],[26.103446726260362,56.20701607048157],[26.116533761791985,56.19154957394491],[26.130810527826878,56.19035984344191],[26.13437971933598,56.203446878973445],[26.14865648537087,56.212964722996766],[26.1962457054873,56.215344184002774],[26.235506812083678,56.209395531487665],[26.23907600359198,56.221292836516106],[26.217660854539684,56.234379872049416],[26.19743543599057,56.24865663808484],[26.203384088504702,56.27958963115904],[26.177210017440746,56.35097346133537],[26.161743520902494,56.391424298433776],[26.10106726525453,56.41521890849163],[26.08916996022547,56.43544432704128],[26.070134272178116,56.456859476094905],[26.008268286026794,56.47708489464455],[25.9416433778639,56.48779246916999],[25.923797420319907,56.50682815721574],[25.860741703665227,56.517535731743045],[25.82623951908051,56.541330341800816],[25.772701646450038,56.54727899431602],[25.77389137695251,56.56750441286566],[25.752476227900125,56.57583252638598],[25.753665958402685,56.59605794493562],[25.77508110745587,56.61152444147228],[25.765563263431748,56.62342174650169],[25.753931974962843,56.62461800501936],[25.674220031267527,56.615100160996036]]]]}},{"type":"Feature","properties":{"kind":"district","id":"uyezd-1897-87","name":"Туккумский","provinceId":"gubernia-1897-94"},"geometry":{"type":"MultiPolygon","coordinates":[[[[23.30171526806392,57.07980641823818],[23.270081501521226,57.075915914443584],[23.261753388001175,57.0497418433806],[23.23082039492476,57.058069956900034],[23.23438958643395,57.072346722935464],[23.222492281404886,57.084244027963905],[23.203456593358244,57.09019268047999],[23.19155928832918,57.11041809902875],[23.149918720726973,57.12826405657327],[23.08686300407238,57.11755648204686],[23.064258124516726,57.10208998550843],[23.019048365406128,57.09019268047999],[22.996443485850474,57.071156992433345],[22.98573591132468,57.03427534684218],[22.945285074225744,57.03427534684218],[22.933387769195882,57.02475750281886],[22.93695696070507,57.002152623263996],[22.903644506623536,56.97954774370737],[22.857245017009756,56.93790717610587],[22.864383400027158,56.912922835545004],[22.838209328963114,56.9081639135329],[22.82512229343069,56.89507687800146],[22.812035257899158,56.88793849498326],[22.812035257899158,56.851056849392975],[22.82274283242495,56.82845196983723],[22.783481725829283,56.81893412581391],[22.76801522929112,56.79989843776727],[22.76801522929112,56.778483288715506],[22.750169271747037,56.74755029564042],[22.72518493118635,56.74636056513733],[22.706149243139798,56.7285146075928],[22.67164705855508,56.690443231499515],[22.696631399115766,56.67021781294987],[22.733513044706314,56.59645452177028],[22.784671456331843,56.56314206768733],[22.744220619232905,56.52388096109193],[22.704959512636528,56.51674257807373],[22.695441668613295,56.5084144645543],[22.65618056201683,56.51079392556039],[22.60740161139713,56.48937877650766],[22.590745384356406,56.49889662053098],[22.56933023530411,56.48580958499767],[22.5526740082633,56.46796362745412],[22.56814050480155,56.44059982588804],[22.644283256987766,56.4168052158293],[22.696631399115766,56.40133871929087],[22.675216250063382,56.389441414261455],[22.654990831514358,56.398959258284776],[22.640714065479376,56.39776952778266],[22.62048864692955,56.3751646482278],[22.640714065479376,56.36564680420359],[22.66926759754925,56.35255976867117],[22.707338973642358,56.37040572621481],[22.76563576828529,56.36921599571269],[22.812035257899158,56.36802626520969],[22.845347711980605,56.36921599571269],[22.86676286103299,56.389441414261455],[22.896506123606134,56.39182087526844],[22.910782889641027,56.40609764130298],[22.92505965567592,56.39776952778266],[22.938146691207542,56.40252844979476],[22.946474804728304,56.4156154853263],[22.969079684283958,56.41085656331419],[22.996443485850474,56.40609764130298],[23.023939479696,56.412971639764706],[23.00966271366102,56.43319705831346],[23.056062203274887,56.448663554851],[23.092943848864724,56.43081759730834],[23.132204955461102,56.4117819092617],[23.151240643507656,56.408212717753486],[23.152430374011015,56.43319705831346],[23.155999565519227,56.45223274636099],[23.142912529987694,56.46294032088643],[23.103651423391316,56.43676624982434],[23.07747735232727,56.45223274636099],[23.097702770876296,56.489114391951276],[23.109600075906158,56.50933981050092],[23.094133579367995,56.52242684603245],[23.096513040373825,56.52956522905056],[23.07747735232727,56.53789334257088],[23.058441664280718,56.52956522905056],[23.056062203274887,56.52004738502724],[23.044164898245825,56.51885765452424],[23.034647054222503,56.52599603754058],[23.01680109667851,56.52004738502724],[23.00847298315775,56.52480630703757],[23.033457323719233,56.541462534079095],[23.031077862713403,56.558118761120525],[23.051303281263227,56.57596471866417],[23.082236274338932,56.59619013721381],[23.12149738093531,56.61046690324835],[23.096513040373825,56.648538279341636],[23.12506657244361,56.644969087833516],[23.12982549445527,56.639020435318315],[23.145291990993524,56.639020435318315],[23.159568757028417,56.62831286079199],[23.1809839060808,56.6437793573314],[23.17146606205748,56.65805612336496],[23.192881211109864,56.68066100291981],[23.17860444507497,56.69255830795012],[23.204778516138926,56.70088642146946],[23.194070941613134,56.7187323790131],[23.216675821168078,56.73181941454641],[23.22381420418548,56.7627524076206],[23.22262447368301,56.796064861702675],[23.2333320482088,56.82223893276752],[23.27378288530845,56.83770542930506],[23.316613183413217,56.83532596829896],[23.353494829003765,56.83532596829896],[23.395135396605173,56.83294650729384],[23.407032701634325,56.83889515980717],[23.393945666102702,56.860310308861685],[23.371340786547048,56.871017883387125],[23.421309467669218,56.88648437992378],[23.501021411364533,56.89362276294198],[23.48198572331798,56.917417372999836],[23.460570574265684,56.94716063557281],[23.49000702019312,56.947828124977626],[23.456694566111672,56.9811405790588],[23.426951303538527,56.99303788408902],[23.404346423983583,57.01564276364388],[23.378172352918828,57.037057912695644],[23.36399220321798,57.05818260635229],[23.343622762047392,57.06037105870922],[23.30171526806392,57.07980641823818]]]]}},{"type":"Feature","properties":{"kind":"district","id":"uyezd-1897-89","name":"Гольдингенский","provinceId":"gubernia-1897-94"},"geometry":{"type":"MultiPolygon","coordinates":[[[[22.706149243139798,56.7285146075928],[22.69821770645352,56.752573602207136],[22.656577138851222,56.77041955975166],[22.619695493260675,56.79183470880342],[22.60422899672331,56.822767701879485],[22.525706783530467,56.821577971376385],[22.468599719390806,56.821577971376385],[22.39007750619805,56.83823419841791],[22.354385591110773,56.86083907797277],[22.34367801658498,56.87511584400819],[22.28776068294788,56.88463368803151],[22.260396881380476,56.904859106581156],[22.218756313778268,56.93103317764414],[22.196151434223413,56.9595867097141],[22.199720625731715,56.981001858766845],[22.22827415780159,57.00360673832347],[22.246120115345583,57.00955539083681],[22.261586611883835,57.02383215687223],[22.296088796467753,57.01788350435712],[22.323452598035068,57.03097053989043],[22.349626669099113,57.02145269586711],[22.363903435134006,57.02383215687223],[22.356765052116604,57.03572946190165],[22.359144513122345,57.048816497433094],[22.342488286081622,57.08093922101305],[22.33297044205839,57.09997490905969],[22.262776342386307,57.11544140559634],[22.24136119333401,57.117820866603324],[22.200910356235074,57.127338710625764],[22.23303307981316,57.15470251219263],[22.246120115345583,57.17968685275447],[22.22946388830486,57.208240384824435],[22.243740654339753,57.25107068292894],[22.215848083660653,57.230580879822824],[22.173017785555174,57.240098723846145],[22.15398209750862,57.240098723846145],[22.15398209750862,57.229391149320705],[22.137325870467897,57.21868357479438],[22.114720990912243,57.223442496805504],[22.09449557236313,57.20559653926284],[22.107582607894752,57.1746635461859],[22.114720990912243,57.14016136160171],[22.105203146888922,57.12112567355507],[22.056424196270022,57.1365921700935],[22.030250125205267,57.13778190059659],[22.011214437158714,57.14611001411682],[21.969573869557216,57.13778190059659],[21.94339979849246,57.13302297858351],[21.926743571451738,57.11755648204686],[21.89581057837612,57.12350513456019],[21.88034408183787,57.11755648204686],[21.870826237814637,57.10684890751965],[21.856549471779655,57.10684890751965],[21.83989324473902,57.09019268047999],[21.795873216130893,57.083054297461786],[21.749473726517824,57.073536453438464],[21.744714804506252,57.05212130438572],[21.77207860607268,57.0449829213685],[21.755422379032044,57.02356777231576],[21.73757642148876,57.01167046728732],[21.77445806707851,56.991445048737674],[21.741145612997062,56.97716828270225],[21.700694775898214,56.96646070817583],[21.731231192139457,56.953902441757236],[21.74074903616269,56.921779718177284],[21.733610653145288,56.857534271021024],[21.700298199063752,56.855154810014035],[21.711005773590344,56.80875532040132],[21.769302568232476,56.805186128891336],[21.782389603764898,56.78615044084469],[21.875188582992635,56.790909362857775],[21.920398342103145,56.79447855436501],[21.95965944869961,56.76235583078683],[21.958469718196252,56.71595634117332],[21.9430032216588,56.66717739055362],[21.94419295216136,56.635054666975535],[21.95490052668795,56.62553682295221],[21.969177292722843,56.624347092449206],[21.981074597751995,56.61126005691767],[21.970367023225403,56.59222436887103],[21.995351363786888,56.58389625535071],[22.013197321330082,56.563670836801066],[22.04650977541233,56.55891191478807],[22.05840708044148,56.550583801267756],[22.05959681094395,56.5339275742281],[22.088150343013826,56.51132269467146],[22.11432441407858,56.48990754561873],[22.139308754639266,56.480389701595406],[22.172621208720713,56.44707724751511],[22.192846627270537,56.43874913399391],[22.199985010288028,56.42209290695337],[22.21069258481462,56.406626410415825],[22.235676925375305,56.406626410415825],[22.253522882919388,56.41376479343216],[22.298732642029897,56.414954523935165],[22.336804018123004,56.400677757900624],[22.36773701119942,56.405436679911844],[22.392721351760105,56.403057218906724],[22.439120841373974,56.41138533242704],[22.46529491243802,56.406626410415825],[22.487899791993673,56.399488027397624],[22.52954035959588,56.392349644380396],[22.58069877122061,56.3864009918652],[22.602113920273794,56.38402153086096],[22.62048864692955,56.3751646482278],[22.640714065479376,56.39776952778266],[22.654990831514358,56.398959258284776],[22.675216250063382,56.389441414261455],[22.696631399115766,56.40133871929087],[22.644283256987766,56.4168052158293],[22.56814050480155,56.44059982588804],[22.5526740082633,56.46796362745412],[22.56933023530411,56.48580958499767],[22.590745384356406,56.49889662053098],[22.60740161139713,56.48937877650766],[22.65618056201683,56.51079392556039],[22.695441668613295,56.5084144645543],[22.704959512636528,56.51674257807373],[22.744220619232905,56.52388096109193],[22.784671456331843,56.56314206768733],[22.733513044706314,56.59645452177028],[22.696631399115766,56.67021781294987],[22.67164705855508,56.690443231499515],[22.706149243139798,56.7285146075928]]]]}},{"type":"Feature","properties":{"kind":"district","id":"uyezd-1897-90","name":"Газенпотский","provinceId":"gubernia-1897-94"},"geometry":{"type":"MultiPolygon","coordinates":[[[[21.047966501242335,56.70823682025909],[21.080448607045202,56.713576880167224],[21.1256583661558,56.725474185196646],[21.193473004822053,56.74450987324329],[21.250580068961714,56.7516482562614],[21.263667104494047,56.74094068173507],[21.258908182482475,56.71714607167721],[21.27437467901984,56.69811038363057],[21.28389252304316,56.68740280910336],[21.27556440952311,56.66598766005062],[21.262477373990777,56.66598766005062],[21.252959529967455,56.645762241500975],[21.26961575700818,56.63148547546732],[21.28508225354643,56.637434127980654],[21.292220636563922,56.646951972003976],[21.307687133102085,56.6576595465303],[21.33980985668026,56.6576595465303],[21.358845544726815,56.633864936472534],[21.354086622715155,56.61839843993401],[21.365983927744306,56.59936275188737],[21.43141910540464,56.59817302138437],[21.48376724753344,56.59698329088136],[21.558720269217183,56.60055248239135],[21.563479191228755,56.58746544685804],[21.53968458117054,56.57913733333773],[21.54206404217637,56.557722184285964],[21.564668921731315,56.54701460975954],[21.582514879275397,56.54463514875442],[21.622965716374246,56.549394070764755],[21.664606283976454,56.52916865221502],[21.664606283976454,56.51489188618146],[21.672934397496416,56.49585619813482],[21.663416553473184,56.47563077958508],[21.638432212912498,56.46611293556176],[21.626534907883347,56.46016428304665],[21.63248356039748,56.4375594034918],[21.605119758830252,56.42447236795849],[21.54206404217637,56.413764793432165],[21.50042347457425,56.420903176450366],[21.49328509155676,56.42923128997059],[21.475439134012678,56.43399021198181],[21.462352098481055,56.428041559468475],[21.43855748842213,56.42685182896547],[21.43498829691374,56.39353937488429],[21.419521800375577,56.36736530381954],[21.44331641043379,56.35308853778402],[21.454023984960383,56.325724736218035],[21.48376724753344,56.29836093465108],[21.520648893123276,56.28527389911777],[21.537305120164,56.29241228213597],[21.5444435031822,56.30668904817139],[21.562289460725484,56.31025823967961],[21.575376496257906,56.330483658229255],[21.59917110631603,56.341191232754696],[21.6420014044208,56.35189880728102],[21.662226822970712,56.3483296157729],[21.70029819906373,56.342380963257696],[21.721713348116115,56.347139885268916],[21.75145661068926,56.36617557331556],[21.783579334268147,56.36855503432254],[21.79190744778811,56.38878045287218],[21.825219901869644,56.400677757900624],[21.8513939729336,56.401867488403724],[21.869239930477683,56.39472910538552],[21.896603732044998,56.3852112613622],[21.969177292722822,56.39591883588852],[21.981074597751974,56.410195601923945],[21.989402711271847,56.412575062930046],[22.00011028579844,56.42447236795849],[22.033422739879885,56.42447236795849],[22.0572173499381,56.43280048147881],[22.090529804019546,56.43280048147881],[22.123842258101792,56.4375594034918],[22.141688215645075,56.44231832550213],[22.172621208720713,56.44707724751511],[22.139308754639266,56.480389701595406],[22.11432441407858,56.48990754561873],[22.088150343013826,56.51132269467146],[22.05959681094395,56.5339275742281],[22.05840708044148,56.550583801267756],[22.04650977541233,56.55891191478807],[22.013197321330082,56.563670836801066],[21.995351363786888,56.58389625535071],[21.970367023225403,56.59222436887103],[21.981074597751995,56.61126005691767],[21.969177292722843,56.624347092449206],[21.95490052668795,56.62553682295221],[21.94419295216136,56.635054666975535],[21.9430032216588,56.66717739055362],[21.958469718196252,56.71595634117332],[21.95965944869961,56.76235583078683],[21.920398342103145,56.79447855436501],[21.875188582992635,56.790909362857775],[21.782389603764898,56.78615044084469],[21.769302568232476,56.805186128891336],[21.711005773590344,56.80875532040132],[21.700298199063752,56.855154810014035],[21.733610653145288,56.857534271021024],[21.74074903616269,56.921779718177284],[21.731231192139457,56.953902441757236],[21.700694775898214,56.96646070817583],[21.68284881835413,56.97716828270225],[21.656674747290175,56.991445048737674],[21.612654718682048,57.03070615533396],[21.605516335664646,57.06639807042026],[21.57339361208647,57.072346722935464],[21.52104546995767,57.072346722935464],[21.485353554870393,57.084244027963905],[21.448471909279846,57.075915914443584],[21.42705676022746,57.080674836456666],[21.408021072180908,57.072346722935464],[21.38520975844688,57.06201274780145],[21.3484447086585,57.0115921080905],[21.283009530998168,56.95210558294457],[21.215194892332093,56.90689582383308],[21.127154835116194,56.87953202226612],[21.097411572543315,56.859306603716476],[21.07004777097609,56.83551199365861],[21.060529926952945,56.80933792259653],[21.068858040473174,56.75817951096904],[21.053391543935632,56.72367732638574],[21.047966501242335,56.70823682025909]]]]}},{"type":"Feature","properties":{"kind":"district","id":"uyezd-1897-97","name":"Иллукстский","provinceId":"gubernia-1897-94"},"geometry":{"type":"MultiPolygon","coordinates":[[[[27.365045764369924,55.85322547018953],[27.310318161236093,55.87702008024739],[27.28295435966878,55.8829687327625],[27.23774460055818,55.88058927175551],[27.18777591943521,55.89010711577883],[27.172309422897758,55.917470917345796],[27.149704543342104,55.917470917345796],[27.110443436745726,55.90200442080914],[27.07356179115589,55.915091456340676],[27.043818528582833,55.90319415131215],[27.043818528582833,55.89010711577883],[27.01645472701543,55.88653792427071],[26.991470386454743,55.89367630728883],[26.953399010360926,55.89486603779094],[26.939122244325944,55.929368222375125],[26.91889682577692,55.932937413885114],[26.890343293706245,55.92222983935879],[26.887963832700503,55.91271199533547],[26.86178976163646,55.91152226483246],[26.834425960069943,55.92698876136912],[26.81301081101676,55.929368222375125],[26.791595661964465,55.9198503783518],[26.76899078240952,55.906763342820355],[26.746385902853866,55.91271199533547],[26.734488597824804,55.929368222375125],[26.71069398776659,55.938886066398446],[26.682140455696715,55.932937413885114],[26.632171774573834,55.88653792427071],[26.595290128983997,55.87702008024739],[26.55483929188435,55.87702008024739],[26.51319872428285,55.89367630728883],[26.45966085165158,55.92817849187212],[26.45847112114822,55.94840391042177],[26.40136405700865,55.97933690349872],[26.374000255441246,56.00194178305357],[26.364482411418013,56.04715154216497],[26.34782618437729,56.101879145298],[26.34425699286899,56.138760790889165],[26.315703460798403,56.18040135849058],[26.277632084705296,56.210144621063634],[26.23907600359198,56.221292836516106],[26.235506812083678,56.209395531487665],[26.1962457054873,56.215344184002774],[26.14865648537087,56.212964722996766],[26.13437971933598,56.203446878973445],[26.130810527826878,56.19035984344191],[26.116533761791985,56.19154957394491],[26.103446726260362,56.20701607048157],[26.09035969072794,56.20701607048157],[26.080841846704708,56.19749822645825],[26.068944541675556,56.18679065193192],[26.017786130050116,56.17965226891461],[25.98209421496284,56.18322146042282],[25.958299604904624,56.17370361640039],[25.916659037302416,56.18917011293793],[25.83575736310383,56.23200041104341],[25.807688536054076,56.224421387099056],[25.807688536054076,56.214903543075735],[25.788652848007523,56.19348839402211],[25.756530124428636,56.17207324497035],[25.752960932919535,56.15303755692371],[25.713699826323868,56.086412648761346],[25.796980961527574,56.06261803870162],[25.83267287661485,56.04834127266806],[25.846949642649655,56.02930558462142],[25.87907236622872,56.018598010095005],[25.914764281315907,56.005510974561695],[25.951645926906544,55.99004447802504],[25.98852757249709,55.981716364503924],[26.008752991046116,55.97457798148661],[26.03373733160769,55.973388250983604],[26.049203828145853,55.94959364092575],[26.068239516192406,55.93412714438732],[26.044444906134192,55.923419569860904],[26.025409218087727,55.90438388181426],[26.025409218087727,55.89367630728883],[26.04206544512836,55.88772765477371],[26.068239516192406,55.89010711577883],[26.09322385675309,55.900814690306134],[26.112259544800445,55.88653792427071],[26.121777388823677,55.856794661697656],[26.151520651396112,55.834189782142886],[26.222904481571376,55.785410831523194],[26.255027205149553,55.76875460448176],[26.263355318670314,55.750908646938115],[26.29428831174593,55.7532881079451],[26.312134269290013,55.74020107241179],[26.34782618437729,55.72592430637815],[26.40017432650529,55.72592430637815],[26.487024653218096,55.72473457587514],[26.50962953277375,55.70688861833061],[26.535803603837707,55.696181043805176],[26.55840848339345,55.691422121792094],[26.590531206972337,55.691422121792094],[26.61670527803638,55.69975023531241],[26.634551235579664,55.714027001348725],[26.640499888094595,55.73544215040147],[26.65358692362613,55.73544215040147],[26.694037760725866,55.73306268939537],[26.72140156229238,55.72354484537205],[26.755903746877188,55.71164754034183],[26.76423186039786,55.698560504810295],[26.81063135001093,55.698560504810295],[26.832046499064113,55.71759619285694],[26.86654868364812,55.7390113419087],[26.884394641192202,55.77351352649475],[26.92603520879432,55.80087732806171],[26.987901194945643,55.836569243148006],[27.009316343998027,55.84608708717133],[27.056905564114366,55.856794661697656],[27.103305053728235,55.84370762616621],[27.12709966378645,55.85560493119465],[27.154463465353764,55.874640619242186],[27.18420672792691,55.87345088873918],[27.267487863130526,55.85084600918255],[27.33649223230005,55.831810321135904],[27.38170199141056,55.81991301610746],[27.39240956593715,55.8330000516398],[27.365045764369924,55.85322547018953]]]]}},{"type":"Feature","properties":{"kind":"district","id":"uyezd-1897-571","name":"Виндавский","provinceId":"gubernia-1897-94"},"geometry":{"type":"MultiPolygon","coordinates":[[[[21.38520975844688,57.06201274780145],[21.408021072180908,57.072346722935464],[21.42705676022746,57.080674836456666],[21.448471909279846,57.075915914443584],[21.485353554870393,57.084244027963905],[21.52104546995767,57.072346722935464],[21.57339361208647,57.072346722935464],[21.605516335664646,57.06639807042026],[21.612654718682048,57.03070615533396],[21.656674747290175,56.991445048737674],[21.68284881835413,56.97716828270225],[21.700694775898214,56.96646070817583],[21.741145612997062,56.97716828270225],[21.77445806707851,56.991445048737674],[21.73757642148876,57.01167046728732],[21.755422379032044,57.02356777231576],[21.77207860607268,57.0449829213685],[21.744714804506252,57.05212130438572],[21.749473726517824,57.073536453438464],[21.795873216130893,57.083054297461786],[21.83989324473902,57.09019268047999],[21.856549471779655,57.10684890751965],[21.870826237814637,57.10684890751965],[21.88034408183787,57.11755648204686],[21.89581057837612,57.12350513456019],[21.926743571451738,57.11755648204686],[21.94339979849246,57.13302297858351],[21.969573869557216,57.13778190059659],[22.011214437158714,57.14611001411682],[22.030250125205267,57.13778190059659],[22.056424196270022,57.1365921700935],[22.105203146888922,57.12112567355507],[22.114720990912243,57.14016136160171],[22.107582607894752,57.1746635461859],[22.09449557236313,57.20559653926284],[22.114720990912243,57.223442496805504],[22.137325870467897,57.21868357479438],[22.15398209750862,57.229391149320705],[22.15398209750862,57.240098723846145],[22.173017785555174,57.240098723846145],[22.215848083660653,57.230580879822824],[22.243740654339753,57.25107068292894],[22.273483916912898,57.25345014393406],[22.300847718479414,57.24869122192373],[22.32464232853834,57.278434484496785],[22.34010882507579,57.279624214998904],[22.38888777569549,57.26177825745526],[22.424579690782767,57.282003676004905],[22.411492655251145,57.29747017254343],[22.411492655251145,57.32602370461339],[22.405544002736214,57.34505939266003],[22.406733733239484,57.365284811209676],[22.405544002736214,57.38194103824934],[22.44361537882932,57.41406376182929],[22.49239432944902,57.443807024400485],[22.517378670010505,57.48425786150075],[22.5352246275537,57.51043193256373],[22.59352142219672,57.51043193256373],[22.676802557401135,57.503293549547394],[22.732719891038236,57.51519085457672],[22.776739919645475,57.518760046084935],[22.803485113723557,57.51841730233351],[22.771362390145026,57.5434016428926],[22.729721822543173,57.542211912390485],[22.70116829047312,57.55648867842502],[22.64763041784176,57.57433463597043],[22.571487665655457,57.6338211611146],[22.56553901314017,57.676651459219094],[22.556021169117116,57.700446069277845],[22.564349282637345,57.72186121833147],[22.594092545210223,57.74089690637811],[22.601230928228336,57.75398394190867],[22.59290281470731,57.764691516435974],[22.490585991456783,57.73494825386291],[22.407304856253166,57.71472283531238],[22.27881396193833,57.693307686260525],[22.131287379576495,57.65047738815514],[21.995658102244345,57.607647090051614],[21.93022292458401,57.600508707032525],[21.831475292842054,57.60288816803853],[21.77674768970778,57.58861140200399],[21.73629685260884,57.55648867842502],[21.711312512047446,57.52198649384074],[21.666102752937025,57.5053302668002],[21.613754610808492,57.464879429701796],[21.55545781616547,57.447033472158154],[21.520955631580932,57.40539290455489],[21.501919943534734,57.379218833490924],[21.478125333476253,57.370890719971584],[21.41744907782749,57.301886350801354],[21.407931233804437,57.25310740018175],[21.413879886318835,57.2328819816321],[21.400792850786324,57.17934410900118],[21.40198258128924,57.11747812285013],[21.390085276260354,57.068699172230424],[21.38520975844688,57.06201274780145]]]]}},{"type":"Feature","properties":{"kind":"district","id":"uyezd-1897-691","name":"Бауский","provinceId":"gubernia-1897-94"},"geometry":{"type":"MultiPolygon","coordinates":[[[[24.069503802628702,56.771391867155224],[23.992115724512555,56.76037294661637],[23.993305455015914,56.724681031528206],[23.998064377027486,56.713973457002766],[24.004013029541706,56.70207615197344],[24.038515214126424,56.704455612979444],[24.062309824184638,56.704455612979444],[24.055171441167147,56.688989116440126],[24.034946022617323,56.67828154191469],[24.06825847669957,56.623553938779885],[24.098001739271915,56.61879501676867],[24.139642306874123,56.61522582526045],[24.163436916932337,56.60570798123713],[24.161057455926507,56.59975932872203],[24.114657966312638,56.59975932872203],[24.1194168883243,56.58072364067539],[24.114657966312638,56.56525714413695],[24.095622278266084,56.561687952628745],[24.095622278266084,56.57239552715418],[24.06587901569374,56.57596471866417],[24.0742071292137,56.56525714413695],[24.06349955468791,56.56049822212574],[24.027807639599832,56.553359839107536],[24.034946022617323,56.53313442055878],[24.049222788652216,56.52004738502724],[24.062309824184638,56.50339115798581],[24.045653597143914,56.50696034949394],[24.02661790909736,56.52123711552936],[23.995684916021656,56.52837549854756],[23.988546533004254,56.51528846301425],[23.996874646524216,56.50220142748272],[23.957613539927838,56.4998219664776],[23.933818929869624,56.50577061899093],[23.92549081634966,56.49387331396249],[23.942147043390385,56.481976008933074],[23.942147043390385,56.468888973401626],[23.936198390875454,56.44390463283979],[23.935008660372983,56.42724840580013],[23.944526504396215,56.385607838196854],[23.946905965402046,56.36419268914509],[23.935008660372983,56.334449426572036],[23.951664887413617,56.34158780959024],[23.96118273143694,56.35467484512177],[23.976649227975102,56.36776188065322],[23.993305455015914,56.37727972467654],[24.01115141255911,56.390366760209844],[24.01115141255911,56.35229538411568],[24.001633568535876,56.34158780959024],[24.000443838033316,56.324931582548714],[24.045653597143914,56.326121313050834],[24.109899044300978,56.332069965566916],[24.11822715782174,56.289239667460635],[24.22173371157527,56.29518831997575],[24.288358619738162,56.30232670299395],[24.28240996722403,56.318982930033606],[24.263374279177476,56.32850077405693],[24.264564009679948,56.33801861808025],[24.2764613147091,56.34039807908724],[24.297876463762194,56.326121313050834],[24.33475810935203,56.333259696069035],[24.362121910919345,56.335639157074155],[24.37996786846334,56.36657215015021],[24.404952209024113,56.3689516111572],[24.415659783550705,56.363002958642],[24.410900861539044,56.35229538411568],[24.44659277662632,56.34396727059536],[24.460869542661214,56.330880235063916],[24.48466415271943,56.330880235063916],[24.526304720321637,56.320172660537494],[24.5346328338416,56.32850077405693],[24.55366852188895,56.32850077405693],[24.567945287923845,56.332069965566916],[24.579842592952907,56.32850077405693],[24.60363720301112,56.33682888757724],[24.615534508040184,56.35110565361356],[24.627431813069247,56.35705430612689],[24.633380465584267,56.3689516111572],[24.63694965709257,56.38203864668864],[24.64884696212172,56.385607838196854],[24.684538877208997,56.383228377191735],[24.69762591274133,56.390366760209844],[24.707143756764562,56.407022987249505],[24.735697288834437,56.409402448256486],[24.755482066457404,56.41759836949862],[24.755482066457404,56.46042866760312],[24.674580392258818,56.48422327766089],[24.649596051698133,56.47351570313457],[24.637698746668182,56.48065408615277],[24.643647399183113,56.48898219967308],[24.62580144163912,56.48898219967308],[24.646026860188943,56.541330341800816],[24.654354973709705,56.541330341800816],[24.67577012276209,56.57107360437387],[24.661493356727195,56.58416063990532],[24.701944193826044,56.599627136443836],[24.663872817733026,56.61152444147228],[24.618663058621717,56.612714171975284],[24.597247909569244,56.617473093987385],[24.603196562084264,56.63531905153191],[24.597247909569244,56.64483689555523],[24.572263569008648,56.642457434548334],[24.587730065546012,56.66268285309887],[24.58535060454018,56.67695961913341],[24.599627370575075,56.687667193659735],[24.62223225013073,56.67695961913341],[24.653165243206434,56.675769888630406],[24.673390661756258,56.66268285309887],[24.695995541311202,56.66268285309887],[24.698375002317032,56.675769888630406],[24.73644637841085,56.66982123611521],[24.755482066457404,56.692426115671836],[24.74358476142834,56.70551315120338],[24.760639197306503,56.727727981939125],[24.727326743225056,56.74795340048699],[24.708291055178503,56.76579935803241],[24.676168331599616,56.77293774104874],[24.64642506902647,56.78364531557507],[24.617871536956685,56.776506932556956],[24.59288719639511,56.76936854954053],[24.58574881337771,56.75509178350599],[24.54648770678204,56.75152259199601],[24.53696986275881,56.76341989702542],[24.469155224092557,56.776506932556956],[24.501277947670733,56.83123453569168],[24.463206571577626,56.84908049323531],[24.421566003975418,56.8455113017271],[24.400150854923034,56.843131840720204],[24.366838400841587,56.84908049323531],[24.345423251789203,56.8455113017271],[24.369217861847417,56.80149127311871],[24.397771393917203,56.74676366998577],[24.33471567726261,56.75628151400909],[24.296644301169593,56.7539020530021],[24.262142116584787,56.75271232249909],[24.202655591439296,56.75509178350599],[24.17172259836368,56.7539020530021],[24.143169066293805,56.77769666306085],[24.12532310874981,56.77888639356385],[24.108666881709087,56.771748010545735],[24.092010654668364,56.77055828004362],[24.069503802628702,56.771391867155224]]]]}},{"type":"Feature","properties":{"kind":"district","id":"uyezd-1897-692","name":"Добленский","provinceId":"gubernia-1897-94"},"geometry":{"type":"MultiPolygon","coordinates":[[[[23.49000702019312,56.947828124977626],[23.460570574265684,56.94716063557281],[23.48198572331798,56.917417372999836],[23.501021411364533,56.89362276294198],[23.421309467669218,56.88648437992378],[23.371340786547048,56.871017883387125],[23.393945666102702,56.860310308861685],[23.407032701634325,56.83889515980717],[23.395135396605173,56.83294650729384],[23.353494829003765,56.83532596829896],[23.316613183413217,56.83532596829896],[23.27378288530845,56.83770542930506],[23.2333320482088,56.82223893276752],[23.22262447368301,56.796064861702675],[23.22381420418548,56.7627524076206],[23.216675821168078,56.73181941454641],[23.194070941613134,56.7187323790131],[23.204778516138926,56.70088642146946],[23.17860444507497,56.69255830795012],[23.192881211109864,56.68066100291981],[23.17146606205748,56.65805612336496],[23.1809839060808,56.6437793573314],[23.159568757028417,56.62831286079199],[23.145291990993524,56.639020435318315],[23.12982549445527,56.639020435318315],[23.12506657244361,56.644969087833516],[23.096513040373825,56.648538279341636],[23.12149738093531,56.61046690324835],[23.082236274338932,56.59619013721381],[23.051303281263227,56.57596471866417],[23.031077862713403,56.558118761120525],[23.033457323719233,56.541462534079095],[23.00847298315775,56.52480630703757],[23.01680109667851,56.52004738502724],[23.034647054222503,56.52599603754058],[23.044164898245825,56.51885765452424],[23.056062203274887,56.52004738502724],[23.058441664280718,56.52956522905056],[23.07747735232727,56.53789334257088],[23.096513040373825,56.52956522905056],[23.094133579367995,56.52242684603245],[23.109600075906158,56.50933981050092],[23.097702770876296,56.489114391951276],[23.07747735232727,56.45223274636099],[23.103651423391316,56.43676624982434],[23.142912529987694,56.46294032088643],[23.155999565519227,56.45223274636099],[23.152430374011015,56.43319705831346],[23.151240643507656,56.408212717753486],[23.132204955461102,56.4117819092617],[23.092943848864724,56.43081759730834],[23.056062203274887,56.448663554851],[23.00966271366102,56.43319705831346],[23.023939479696,56.412971639764706],[23.00966271366102,56.390366760209844],[23.028698401707572,56.37252080266532],[23.060821125286548,56.36776188065322],[23.085805465847233,56.3582440366299],[23.11792818942621,56.35586457562388],[23.159568757028417,56.36181322813988],[23.1809839060808,56.37252080266532],[23.201209324630625,56.365382419647204],[23.27021369379935,56.37252080266532],[23.313043991904117,56.38679756869986],[23.32613102743645,56.37965918568352],[23.345166715483092,56.38203864668864],[23.371340786547048,56.38203864668864],[23.410601893143426,56.37727972467654],[23.43558623370491,56.374900263670526],[23.42844785068671,56.363002958642],[23.49626248935296,56.34039807908724],[23.524816021423547,56.334449426572036],[23.55336955349342,56.33801861808025],[23.575974433048277,56.34991592311056],[23.609286887130523,56.35348511461868],[23.629512305679548,56.35943376713388],[23.686619369820008,56.363002958642],[23.725880476415586,56.3701413416602],[23.738967511948008,56.37608999417353],[23.760382661000392,56.3689516111572],[23.7532442779829,56.34872619260658],[23.7496750864738,56.320172660537494],[23.790125923573537,56.31541373852539],[23.832956221678216,56.31660346902751],[23.830576760672386,56.332069965566916],[23.881735172297915,56.333259696069035],[23.935008660372983,56.334449426572036],[23.946905965402046,56.36419268914509],[23.944526504396215,56.385607838196854],[23.935008660372983,56.42724840580013],[23.936198390875454,56.44390463283979],[23.942147043390385,56.468888973401626],[23.942147043390385,56.481976008933074],[23.92549081634966,56.49387331396249],[23.933818929869624,56.50577061899093],[23.957613539927838,56.4998219664776],[23.996874646524216,56.50220142748272],[23.988546533004254,56.51528846301425],[23.995684916021656,56.52837549854756],[24.02661790909736,56.52123711552936],[24.045653597143914,56.50696034949394],[24.062309824184638,56.50339115798581],[24.049222788652216,56.52004738502724],[24.034946022617323,56.53313442055878],[24.027807639599832,56.553359839107536],[24.06349955468791,56.56049822212574],[24.0742071292137,56.56525714413695],[24.06587901569374,56.57596471866417],[24.095622278266084,56.57239552715418],[24.095622278266084,56.561687952628745],[24.114657966312638,56.56525714413695],[24.1194168883243,56.58072364067539],[24.114657966312638,56.59975932872203],[24.161057455926507,56.59975932872203],[24.163436916932337,56.60570798123713],[24.139642306874123,56.61522582526045],[24.098001739271915,56.61879501676867],[24.06825847669957,56.623553938779885],[24.034946022617323,56.67828154191469],[24.055171441167147,56.688989116440126],[24.062309824184638,56.704455612979444],[24.038515214126424,56.704455612979444],[24.004013029541706,56.70207615197344],[23.998064377027486,56.713973457002766],[23.993305455015914,56.724681031528206],[23.992115724512555,56.76037294661637],[24.069503802628702,56.771391867155224],[24.05988793108939,56.771748010545735],[24.043231704048665,56.77412747155175],[24.01824736348718,56.77055828004362],[23.993263022926495,56.780076124066944],[23.980175987394073,56.780076124066944],[23.97184787387411,56.77293774104874],[23.934966228283564,56.771748010545735],[23.85525428458825,56.797922081610494],[23.727953120776505,56.840752379715],[23.662517943116082,56.86216752876685],[23.635154141548767,56.88239294731649],[23.625636297525535,56.89072106083681],[23.611359531490642,56.878823755808284],[23.59470330444992,56.85740860675652],[23.518560552262905,56.920464323409774],[23.49000702019312,56.947828124977626]]]]}},{"type":"Feature","properties":{"kind":"district","id":"uyezd-1897-693","name":"Тальсенский","provinceId":"gubernia-1897-94"},"geometry":{"type":"MultiPolygon","coordinates":[[[[22.803485113723557,57.51841730233351],[22.776739919645475,57.518760046084935],[22.732719891038236,57.51519085457672],[22.676802557401135,57.503293549547394],[22.59352142219672,57.51043193256373],[22.5352246275537,57.51043193256373],[22.517378670010505,57.48425786150075],[22.49239432944902,57.443807024400485],[22.44361537882932,57.41406376182929],[22.405544002736214,57.38194103824934],[22.406733733239484,57.365284811209676],[22.405544002736214,57.34505939266003],[22.411492655251145,57.32602370461339],[22.411492655251145,57.29747017254343],[22.424579690782767,57.282003676004905],[22.38888777569549,57.26177825745526],[22.34010882507579,57.279624214998904],[22.32464232853834,57.278434484496785],[22.300847718479414,57.24869122192373],[22.273483916912898,57.25345014393406],[22.243740654339753,57.25107068292894],[22.22946388830486,57.208240384824435],[22.246120115345583,57.17968685275447],[22.23303307981316,57.15470251219263],[22.200910356235074,57.127338710625764],[22.24136119333401,57.117820866603324],[22.262776342386307,57.11544140559634],[22.33297044205839,57.09997490905969],[22.342488286081622,57.08093922101305],[22.359144513122345,57.048816497433094],[22.356765052116604,57.03572946190165],[22.363903435134006,57.02383215687223],[22.349626669099113,57.02145269586711],[22.323452598035068,57.03097053989043],[22.296088796467753,57.01788350435712],[22.261586611883835,57.02383215687223],[22.246120115345583,57.00955539083681],[22.22827415780159,57.00360673832347],[22.199720625731715,56.981001858766845],[22.196151434223413,56.9595867097141],[22.218756313778268,56.93103317764414],[22.260396881380476,56.904859106581156],[22.28776068294788,56.88463368803151],[22.34367801658498,56.87511584400819],[22.354385591110773,56.86083907797277],[22.39007750619805,56.83823419841791],[22.468599719390806,56.821577971376385],[22.525706783530467,56.821577971376385],[22.60422899672331,56.822767701879485],[22.619695493260675,56.79183470880342],[22.656577138851222,56.77041955975166],[22.69821770645352,56.752573602207136],[22.706149243139798,56.7285146075928],[22.72518493118635,56.74636056513733],[22.750169271747037,56.74755029564042],[22.76801522929112,56.778483288715506],[22.76801522929112,56.79989843776727],[22.783481725829283,56.81893412581391],[22.82274283242495,56.82845196983723],[22.812035257899158,56.851056849392975],[22.812035257899158,56.88793849498326],[22.82512229343069,56.89507687800146],[22.838209328963114,56.9081639135329],[22.864383400027158,56.912922835545004],[22.857245017009756,56.93790717610587],[22.903644506623536,56.97954774370737],[22.93695696070507,57.002152623263996],[22.933387769195882,57.02475750281886],[22.945285074225744,57.03427534684218],[22.98573591132468,57.03427534684218],[22.996443485850474,57.071156992433345],[23.019048365406128,57.09019268047999],[23.064258124516726,57.10208998550843],[23.08686300407238,57.11755648204686],[23.149918720726973,57.12826405657327],[23.19155928832918,57.11041809902875],[23.203456593358244,57.09019268047999],[23.222492281404886,57.084244027963905],[23.23438958643395,57.072346722935464],[23.23082039492476,57.058069956900034],[23.261753388001175,57.0497418433806],[23.270081501521226,57.075915914443584],[23.30171526806392,57.07980641823818],[23.26153135734598,57.09844243480349],[23.229408633767182,57.12342677536523],[23.2115626762231,57.161498151457636],[23.2056140237087,57.19243114453272],[23.183009144153846,57.238830634147206],[23.17111183912425,57.29712742878925],[23.159214534095366,57.3256809608601],[23.14731722906568,57.34352691840285],[23.13660965453971,57.375649641981916],[23.093779356435032,57.380408563994905],[23.040241483803584,57.395875060531566],[22.97718576714908,57.42323886209852],[22.92959654703274,57.44346428064817],[22.879627865910038,57.48629457875267],[22.857022986354384,57.49224323126778],[22.835607837302444,57.51484811082352],[22.803485113723557,57.51841730233351]]]]}},{"type":"Feature","properties":{"kind":"district","id":"uyezd-1897-694","name":"Гробинский","provinceId":"gubernia-1897-94"},"geometry":{"type":"MultiPolygon","coordinates":[[[[21.047966501242335,56.70823682025909],[21.03792504739738,56.67965729777637],[21.023648281362664,56.60708373709979],[20.99271528828687,56.534510176421435],[20.983197444263016,56.51190529686569],[20.999853671304272,56.49524906982515],[20.986766635772472,56.42981389216401],[20.95821310370242,56.36913763651587],[20.965351486719733,56.3382046434399],[20.97367960023996,56.302512728352625],[20.97367960023996,56.238267281195476],[21.006992054321586,56.17759102554645],[21.039114777900295,56.1204839614074],[21.06171965745586,56.05385905324415],[21.05101208292989,55.987234145080905],[21.045063430414693,55.95868061301006],[21.046416269838023,55.93432950338959],[21.07568968503363,55.930734209248875],[21.101863756097586,55.92597528723854],[21.11851998313831,55.939062322770084],[21.144694054202354,55.942631514278204],[21.158970820237247,55.97356450735515],[21.193473004822053,55.97594396836027],[21.198231926833625,55.99141046489781],[21.160160550740517,56.00568723093333],[21.166109203254738,56.0366202240093],[21.147073515208184,56.04018941551752],[21.12089944414414,56.05208672054596],[21.136365940681593,56.0794505221138],[21.157781089734776,56.09491701865223],[21.17562704727797,56.08658890513102],[21.193473004822053,56.09015809663924],[21.212508692868607,56.12228082021919],[21.23273411141843,56.12822947273253],[21.236303302926732,56.14131650826583],[21.22202653689184,56.15559327430037],[21.23749303343009,56.169870040335795],[21.260097912984946,56.177008423352135],[21.27318494851737,56.19366465039366],[21.299359019581324,56.20199276391486],[21.319584438131148,56.2198387214585],[21.365983927744306,56.240064140008144],[21.395727190317363,56.24601279252148],[21.43141910540464,56.248392253528465],[21.456403445966213,56.265048480568126],[21.484956978036,56.27456632459145],[21.48376724753344,56.29836093465108],[21.454023984960383,56.325724736218035],[21.44331641043379,56.35308853778402],[21.419521800375577,56.36736530381954],[21.43498829691374,56.39353937488429],[21.43855748842213,56.42685182896547],[21.462352098481055,56.428041559468475],[21.475439134012678,56.43399021198181],[21.49328509155676,56.42923128997059],[21.50042347457425,56.420903176450366],[21.54206404217637,56.413764793432165],[21.605119758830252,56.42447236795849],[21.63248356039748,56.4375594034918],[21.626534907883347,56.46016428304665],[21.638432212912498,56.46611293556176],[21.663416553473184,56.47563077958508],[21.672934397496416,56.49585619813482],[21.664606283976454,56.51489188618146],[21.664606283976454,56.52916865221502],[21.622965716374246,56.549394070764755],[21.582514879275397,56.54463514875442],[21.564668921731315,56.54701460975954],[21.54206404217637,56.557722184285964],[21.53968458117054,56.57913733333773],[21.563479191228755,56.58746544685804],[21.558720269217183,56.60055248239135],[21.48376724753344,56.59698329088136],[21.43141910540464,56.59817302138437],[21.365983927744306,56.59936275188737],[21.354086622715155,56.61839843993401],[21.358845544726815,56.633864936472534],[21.33980985668026,56.6576595465303],[21.307687133102085,56.6576595465303],[21.292220636563922,56.646951972003976],[21.28508225354643,56.637434127980654],[21.26961575700818,56.63148547546732],[21.252959529967455,56.645762241500975],[21.262477373990777,56.66598766005062],[21.27556440952311,56.66598766005062],[21.28389252304316,56.68740280910336],[21.27437467901984,56.69811038363057],[21.258908182482475,56.71714607167721],[21.263667104494047,56.74094068173507],[21.250580068961714,56.7516482562614],[21.193473004822053,56.74450987324329],[21.1256583661558,56.725474185196646],[21.080448607045202,56.713576880167224],[21.047966501242335,56.70823682025909]]]]}}]}
