{"type":"FeatureCollection","features":[{"type":"Feature","properties":{"kind":"province","id":"gubernia-1897-9","name":"Плоцкая губерния"},"geometry":{"type":"MultiPolygon","coordinates":[[[[19.49286615015964,52.573862165805565],[19.526178604240908,52.564344321782244],[19.55116294480186,52.563154591280124],[19.603511086930304,52.5500675557477],[19.65585922905875,52.52865240669506],[19.699879257666876,52.51199617965442],[19.724863598227827,52.47511453406423],[19.798626889408567,52.46916588154903],[19.836698265502207,52.4608377680288],[19.852164762039926,52.46202749853269],[19.911651287185773,52.43347396646185],[19.960430237804758,52.40254097338587],[19.9985016138984,52.38469501584224],[20.04966002552393,52.379936093831915],[20.10557735916032,52.38469501584224],[20.168633075814913,52.38469501584224],[20.182909841849806,52.40492043439189],[20.188858494365004,52.42633558344454],[20.19718660788541,52.454889115515485],[20.21265310442313,52.463217229034825],[20.216222295931786,52.48820156959666],[20.193617416376664,52.51318591015841],[20.17934065034106,52.51080644915143],[20.17934065034106,52.528652406695066],[20.162684423300426,52.55363674725682],[20.129371969219157,52.5952773148592],[20.13651035223656,52.63334869095249],[20.12104385569884,52.669040606039765],[20.104387628657406,52.671420067044885],[20.088921132119687,52.66309195352545],[20.06988544407331,52.66666114503367],[20.05441894753559,52.67736871956088],[20.053229217032676,52.692835216097535],[20.03181406797967,52.698783868612736],[20.023485954459353,52.71187090414418],[20.025865415465184,52.72971686168782],[20.019916762950608,52.74756281923234],[20.06036760005008,52.74756281923234],[20.079403288096543,52.75351147174745],[20.092490323628432,52.751132010740555],[20.115095203184353,52.752321741244444],[20.13413089123073,52.766598507278985],[20.155546040283024,52.74756281923234],[20.17220226732366,52.752321741244444],[20.191237955370834,52.74756281923234],[20.21979148744053,52.75827039375778],[20.262621785545743,52.75827039375778],[20.27957544521193,52.771357429290205],[20.31288789929391,52.763029315770865],[20.33311331784329,52.76540877677509],[20.348758273956925,52.77323125483231],[20.365533474047904,52.77001898247451],[20.378917942205344,52.779834259123206],[20.386651190474648,52.772547159794186],[20.372671857065395,52.75931140794819],[20.37088726131058,52.74592693979137],[20.361071984661884,52.74057315252683],[20.36731806980192,52.7334347695096],[20.379512807457246,52.7249579396766],[20.398548495503622,52.71068117364215],[20.41639445304717,52.71662982615548],[20.43661987159655,52.71781955665938],[20.455655559643727,52.71425036515116],[20.48301936121051,52.70116332961883],[20.50086531875397,52.70592225162996],[20.52347019830989,52.73447578369992],[20.565110765911477,52.70711198213216],[20.52347019830989,52.674989258554874],[20.540126425350525,52.660712492518556],[20.573438879431794,52.67023033654188],[20.598423219993546,52.70116332961883],[20.61745890803992,52.70235306012094],[20.638874057092217,52.694024946602404],[20.667427589162624,52.70473252112784],[20.710257887267037,52.696404407606636],[20.74000114984036,52.71187090414426],[20.761416298892655,52.74994228023844],[20.830296584310638,52.77643903949776],[20.873126882415907,52.785956883522005],[20.899300953479685,52.790715805532244],[20.904059875491345,52.797854188551334],[20.9004906839826,52.802613110561666],[20.868367960404246,52.807372032574655],[20.861229577386844,52.8264077206213],[20.860039846884018,52.85020233067915],[20.88502418744488,52.85734071369647],[20.91833664152695,52.862099635707594],[20.964736131140107,52.8704277492288],[20.99447939371343,52.876376401743116],[21.01946373427438,52.88232505425822],[21.03017130880053,52.89065316777756],[21.00994589025115,52.89422235928578],[21.002807507233747,52.9049299338121],[21.01470481226281,52.91920669984752],[21.018274003771467,52.95727807594179],[21.008756159748234,52.96441645895901],[20.99923831572509,52.98464187750777],[21.001617776730832,53.00010837404629],[20.986151280193113,53.01200567907473],[20.962356670134277,53.015574870584715],[20.96949505315168,53.028661906116255],[20.9920999327076,53.03461055863136],[21.028981578297614,53.040559211144696],[21.04325834433242,53.05721543818524],[21.057535110368022,53.06078462969523],[21.06824268489417,53.06792301271254],[21.06586322388834,53.09528681427852],[21.084898911934804,53.101235466793725],[21.094416755957948,53.111943041320046],[21.112262713501497,53.111943041320046],[21.109883252495667,53.09290735327429],[21.147954628589307,53.0893381617643],[21.17769789116183,53.09528681427852],[21.21338980624973,53.09528681427852],[21.22052818926713,53.08338950925097],[21.25146118234257,53.08101004824496],[21.275255792401406,53.08695870075918],[21.290722288939126,53.103614927799725],[21.297860671956528,53.11670196333215],[21.316896360002993,53.11789169383427],[21.35020881408506,53.11551223282826],[21.368054771628522,53.12621980735547],[21.353778005593767,53.14168630389213],[21.34307043106753,53.157152800430595],[21.329983395534953,53.152393878419446],[21.31808609050597,53.164291183447915],[21.329983395534953,53.17023983596209],[21.319275821008887,53.18570633250056],[21.302619593968245,53.19284471551788],[21.280014714413028,53.20593175105029],[21.247891990833978,53.223777708594696],[21.214579536752694,53.24400312714357],[21.180077352167814,53.255900432171984],[21.145575167583615,53.27255665921439],[21.128918940542974,53.28564369474594],[21.10750379148999,53.28326423373994],[21.087278372940602,53.28564369474594],[21.07300160690579,53.295161538769264],[21.057535110368065,53.29635126927127],[21.04728754595061,53.30380506378515],[21.032439612239678,53.29646843771661],[21.008645002180753,53.28695059369241],[20.9539173990471,53.27624301916697],[20.915846022953282,53.26315598363366],[20.871825994345954,53.248879217600006],[20.838513540263975,53.26672517514276],[20.814718930205938,53.27624301916697],[20.78378593713041,53.28100194117819],[20.76356051858032,53.28695059369241],[20.745714561036504,53.28814032419541],[20.719540489972903,53.29765816821962],[20.674330730861506,53.29646843771661],[20.630310702254533,53.29408897671061],[20.575583099119726,53.31193493425327],[20.533942531517962,53.322642508779595],[20.516096573974234,53.314314395259366],[20.488732772407452,53.27862248017209],[20.445902474302418,53.21794622452395],[20.378087835636165,53.16440835189312],[20.30313481395251,53.12752670630293],[20.246027749812495,53.11681913177563],[20.222233139754458,53.12990616730716],[20.16393634511126,53.12514724529595],[20.127054699520624,53.14537266384559],[20.086603862421953,53.167977543401335],[20.048532486328135,53.185823500944],[20.01759949325252,53.1953413449683],[19.99380488319457,53.185823500944],[19.965251351124518,53.18701323144709],[19.92004159201401,53.1977208059743],[19.890298329440775,53.21437703301396],[19.87483183290261,53.21199757200973],[19.84865776183901,53.20247972798552],[19.823673421277793,53.18463377044286],[19.798689080716485,53.178685117926776],[19.798689080716485,53.163218621390115],[19.80820692473963,53.14418293334259],[19.799878811218868,53.12514724529595],[19.780843123172758,53.13109589781105],[19.746340938587686,53.142993202839584],[19.683285221933716,53.12395751479294],[19.659490611875324,53.11919859278075],[19.640454923828415,53.12752670630293],[19.622608966284687,53.14061374183437],[19.615470583267197,53.163218621390115],[19.596434895220998,53.167977543401335],[19.569071093653417,53.17154673490955],[19.555984058121616,53.20366945848852],[19.496497532976036,53.21556676351705],[19.496497532976036,53.20247972798552],[19.51077429901102,53.1977208059743],[19.51315376001667,53.189392692453985],[19.501256454987164,53.17749538742377],[19.507205107502273,53.16440835189312],[19.45247750436791,53.156080238372894],[19.43820073833284,53.165598082395235],[19.429872624812255,53.18225430943676],[19.372765560673038,53.178685117926776],[19.351350411620565,53.17749538742377],[19.335883915082313,53.167977543401335],[19.323986610052895,53.173926195915556],[19.316848227035404,53.18820296195098],[19.266292024677394,53.23201735812563],[19.21037469103985,53.22249951410231],[19.18420061997625,53.20346382605567],[19.15088816589427,53.19037679052422],[19.155647087906285,53.16063352795116],[19.155647087906285,53.14873622292183],[19.12590382533305,53.13802864839542],[19.116385981309996,53.1320799958812],[19.048571342643744,53.109475116325456],[19.03429457660876,53.114234038336676],[19.010499966550547,53.099957272303115],[18.99384373950938,53.098767541800015],[18.99384373950938,53.088059967272805],[18.981946434480673,53.07973185375337],[18.970049129451343,53.07973185375337],[18.956962093919454,53.067834548723155],[18.946254519393218,53.05474751319163],[18.930788022855054,53.05593724369463],[18.912942065311327,53.04998859118041],[18.89628583827078,53.05117832168341],[18.877250150223784,53.04879886067741],[18.859404192680056,53.05355778268862],[18.830850660610093,53.05593724369463],[18.791589554013893,53.058316704699834],[18.75708736942953,53.04522966916741],[18.740431142388985,53.021435059110445],[18.75113871691522,52.99407125754348],[18.721395454342076,52.952430689940215],[18.738051681382622,52.9107901223388],[18.719015993336424,52.9036517393206],[18.75285377734605,52.89152021008431],[18.787355961930945,52.87843317455189],[18.831375990538273,52.855828294997124],[18.867067905626172,52.8403617984586],[18.89086251568421,52.7975315003541],[18.905139281719013,52.77016769878723],[18.947969579824314,52.72019901766453],[18.99912799144985,52.6773687195609],[19.03719936754269,52.659522762016465],[19.134757268782266,52.65595357050825],[19.207330829460002,52.64048707396982],[19.25848924108482,52.6309692299465],[19.32273468824224,52.6297794994443],[19.37032390835911,52.620261655420975],[19.392046194332103,52.61017630836162],[19.40363636244038,52.60479515888251],[19.438138547025275,52.598846506367494],[19.469071540100803,52.581000548824655],[19.49286615015964,52.573862165805565]]]]}},{"type":"Feature","properties":{"kind":"district","id":"uyezd-1897-120","name":"Цехановский","provinceId":"gubernia-1897-9"},"geometry":{"type":"MultiPolygon","coordinates":[[[[21.002807507233747,52.9049299338121],[20.979533557760604,52.917694281148265],[20.96287733071917,52.928401855675475],[20.91171891909444,52.91888401165215],[20.890303770041346,52.927212125171586],[20.872457812497885,52.9414888912079],[20.877216734509457,52.96290404025966],[20.87126808199497,52.9736116147851],[20.845094010931103,52.97718080629509],[20.816540478860695,52.96171430975666],[20.76419233673296,52.96052457925454],[20.7463463791887,52.96647323176788],[20.70589554209003,52.9759910757912],[20.67853174052245,52.9819397283063],[20.66782416599639,53.010493260376265],[20.677342010019622,53.03071867892503],[20.676152279516707,53.04975436697265],[20.66306524398473,53.06165167200197],[20.633321981412205,53.06879005501929],[20.59406087481565,53.084256551557715],[20.550040846208322,53.098533317592256],[20.520297583635,53.10805116161558],[20.52703938981864,53.09496412608314],[20.53060858132733,53.07116951602529],[20.54131615585345,53.056892749989856],[20.552023730379574,53.046185175463506],[20.57105941842599,53.035477600938066],[20.57105941842599,53.02120083490172],[20.549644269373744,53.00811379937022],[20.536557233841847,52.98788838082055],[20.522280467807036,52.97361161478511],[20.497296127245306,52.961714309756644],[20.47826043919889,52.96647323176785],[20.4532760986379,52.96885269277391],[20.424722566567482,52.96290404025967],[20.43305068008783,52.94148889120788],[20.430671219082,52.93078131668062],[20.405686878521067,52.92007374215427],[20.399738226006548,52.93316077768668],[20.399738226006548,52.95814511824847],[20.380702537960133,52.96290404025967],[20.375943615947733,52.949817004727265],[20.379512807457218,52.93316077768668],[20.366425771924526,52.9248326641673],[20.346200353375195,52.93078131668062],[20.322405743317177,52.928401855675475],[20.322405743317177,52.89152021008431],[20.3331133178433,52.874863983043724],[20.343820892369365,52.86891533052858],[20.37118469393613,52.87010506103252],[20.383081998965906,52.862966678014345],[20.39022038198334,52.84393098996861],[20.354528466895488,52.83798233745438],[20.306939246778654,52.829654223933176],[20.291472750240928,52.81537745789865],[20.2760062537032,52.79396230884504],[20.27957544521189,52.77135742929022],[20.312887899293912,52.76302931577084],[20.3331133178433,52.765408776775075],[20.348758273956946,52.77323125483235],[20.365533474047936,52.77001898247454],[20.378917942205362,52.77983425912316],[20.38665119047465,52.77254715979416],[20.37267185706537,52.75931140794819],[20.3708872613106,52.74592693979139],[20.361071984661862,52.74057315252685],[20.36731806980191,52.733434769509586],[20.379512807457218,52.72495793967664],[20.398548495503633,52.710681173642115],[20.41639445304719,52.71662982615544],[20.43661987159652,52.71781955665938],[20.45565555964373,52.7142503651512],[20.483019361210495,52.701163329618794],[20.500865318753995,52.70592225163],[20.523470198309894,52.73447578369996],[20.56511076591147,52.70711198213212],[20.523470198309894,52.67498925855489],[20.540126425350536,52.66071249251854],[20.57343887943182,52.67023033654186],[20.59842321999355,52.701163329618794],[20.617458908039964,52.70235306012091],[20.63887405709221,52.69402494660244],[20.667427589162628,52.70473252112788],[20.710257887267062,52.69640440760668],[20.740001149840396,52.711870904144234],[20.76141629889264,52.74994228023843],[20.830296584310606,52.7764390394977],[20.873126882415907,52.785956883522005],[20.899300953479685,52.790715805532244],[20.904059875491345,52.797854188551334],[20.9004906839826,52.802613110561666],[20.868367960404246,52.807372032574655],[20.861229577386844,52.8264077206213],[20.860039846884018,52.85020233067915],[20.88502418744488,52.85734071369647],[20.91833664152695,52.862099635707594],[20.964736131140107,52.8704277492288],[20.99447939371343,52.876376401743116],[21.01946373427438,52.88232505425822],[21.03017130880053,52.89065316777756],[21.00994589025115,52.89422235928578],[21.002807507233747,52.9049299338121]]]]}},{"type":"Feature","properties":{"kind":"district","id":"uyezd-1897-121","name":"Серпецкий","provinceId":"gubernia-1897-9"},"geometry":{"type":"MultiPolygon","coordinates":[[[[20.306939246778654,52.829654223933176],[20.27213962956897,52.82965422393316],[20.235257983978155,52.83441314594527],[20.210273643417203,52.83917206795648],[20.224550409452096,52.866535869524334],[20.210273643417203,52.87486398304377],[20.194807146879484,52.866535869524334],[20.17577145883231,52.876053713547655],[20.154356309780102,52.8950894015943],[20.136510352236552,52.8891407490783],[20.143648735253954,52.87248452203767],[20.130561699722065,52.865346139020446],[20.128182238716235,52.8427412594647],[20.102008167651658,52.848689911979804],[20.082972479605193,52.8451207204707],[20.05798813904424,52.854638564495005],[20.06036760005007,52.89984832360551],[20.013968110436114,52.91293535913705],[20.003260535909966,52.93672996919491],[19.977086464846188,52.933160777686695],[19.968758351324983,52.948627274225124],[20.003260535909966,52.96052457925454],[20.016347571441944,52.95457592673944],[20.041331912002807,52.95219646573334],[20.0686957135703,52.96409377076178],[20.080593018599362,52.9736116147851],[20.067505983067473,52.98550891981452],[20.040142181499892,53.00216514685506],[20.008019457921538,53.005734338364164],[19.98660430886933,52.99859595534694],[19.96161996830767,52.98669865031841],[19.944963741267035,52.98669865031841],[19.94377401076412,52.99740622484482],[19.96399942931341,53.008113799370264],[19.99493242238965,53.021200834901705],[20.029434606973833,53.021200834901705],[20.031814067979663,53.03071867892503],[19.98660430886933,53.03071867892503],[19.991363230880992,53.05332355848077],[19.965189159816326,53.06760032451709],[19.93901508875246,53.06403113300709],[19.931876705735057,53.039046792447124],[19.914030748191507,53.04261598395533],[19.90808209567702,53.07830789904261],[19.871200450086295,53.085446282059834],[19.868820989080465,53.06284140250409],[19.84145718751377,53.05332355848077],[19.82123176896368,53.05689274998987],[19.81647284695202,53.021200834901705],[19.79862688940847,52.99978568585083],[19.73795063375971,52.9843191893124],[19.707017640684274,52.979560267300286],[19.6951203356553,52.961714309756644],[19.666566803584892,52.961714309756644],[19.645151654532597,52.95814511824844],[19.660618151070405,52.9450580827161],[19.66775653408772,52.924832664167255],[19.668946264590634,52.893899671090395],[19.646341385035512,52.897468862599496],[19.63682354101237,52.88676128807308],[19.611839200450618,52.87962290505497],[19.5678191718432,52.89508940159429],[19.536886178767052,52.86415640851831],[19.561870519328714,52.84155152896257],[19.535696448264137,52.821326110411945],[19.5119018382061,52.78920338683475],[19.495245611165466,52.77968554281143],[19.472640731609456,52.7689779682851],[19.47145100110663,52.748752549734476],[19.485727767142233,52.74280389722115],[19.501194263679952,52.735665514202054],[19.519040221223502,52.70592225162998],[19.50476345518861,52.69640440760666],[19.5119018382061,52.68093791106823],[19.56306024983163,52.69997359911487],[19.57852674636935,52.68807629408545],[19.57614728536352,52.6726097975488],[19.615408391959274,52.686886563583336],[19.649910576544258,52.684507102578216],[19.683223030625438,52.72495793967662],[19.714156023701676,52.7558909327518],[19.74627874728012,52.77492662079844],[19.76174524381784,52.76659850727901],[19.778401470859183,52.77373689029632],[19.79981661991148,52.7606498547639],[19.80695500292888,52.76778823778112],[19.80219608091731,52.78325473431964],[19.801006350414394,52.80110069186408],[19.83550853499929,52.80110069186408],[19.865251797571812,52.79277257834296],[19.9140307481916,52.77611635130233],[19.9140307481916,52.76540877677512],[19.923548592214743,52.763029315770794],[19.935445897243806,52.77373689029632],[19.973517273337446,52.7618395852669],[19.984224847863594,52.77016769878722],[20.01277837993329,52.7582703937578],[20.019916762950604,52.747562819232364],[20.060367600050075,52.747562819232364],[20.07940328809654,52.75351147174747],[20.09249032362843,52.75113201074058],[20.11509520318435,52.75232174124447],[20.134130891230726,52.76659850727901],[20.15554604028302,52.747562819232364],[20.172202267323655,52.75232174124447],[20.19123795537083,52.747562819232364],[20.219791487440528,52.7582703937578],[20.26262178554574,52.7582703937578],[20.27957544521189,52.77135742929022],[20.2760062537032,52.79396230884504],[20.291472750240928,52.81537745789865],[20.306939246778654,52.829654223933176]]]]}},{"type":"Feature","properties":{"kind":"district","id":"uyezd-1897-122","name":"Плоцкий","provinceId":"gubernia-1897-9"},"geometry":{"type":"MultiPolygon","coordinates":[[[[19.492866150159635,52.57386216580559],[19.526178604240904,52.56434432178227],[19.551162944801856,52.56315459128016],[19.6035110869303,52.55006755574774],[19.655859229058745,52.52865240669509],[19.699879257666872,52.51199617965445],[19.724863598227824,52.47511453406426],[19.798626889408563,52.46916588154906],[19.836698265502203,52.46083776802884],[19.852164762039923,52.46202749853273],[19.91165128718577,52.433473966461875],[19.960430237804758,52.40254097338581],[19.998501613898398,52.38469501584227],[20.049660025523927,52.37993609383194],[20.105577359160318,52.38469501584227],[20.16863307581491,52.38469501584227],[20.182909841849803,52.40492043439191],[20.188858494365,52.42633558344456],[20.197186607885406,52.4548891155155],[20.212653104423126,52.46321722903484],[20.216222295931782,52.48820156959668],[20.19361741637666,52.513185910158434],[20.179340650341057,52.510806449151445],[20.179340650341057,52.52865240669509],[20.162684423300423,52.55363674725684],[20.129371969219154,52.595277314859224],[20.136510352236556,52.63334869095251],[20.121043855698836,52.669040606039786],[20.104387628657403,52.671420067044906],[20.088921132119683,52.66309195352548],[20.069885444073307,52.666661145033686],[20.054418947535588,52.6773687195609],[20.053229217032673,52.692835216097556],[20.031814067979667,52.69878386861275],[20.02348595445935,52.7118709041442],[20.02586541546518,52.729716861687834],[20.019916762950604,52.747562819232364],[20.01277837993329,52.7582703937578],[19.984224847863594,52.77016769878722],[19.973517273337446,52.7618395852669],[19.935445897243806,52.77373689029632],[19.923548592214743,52.763029315770794],[19.9140307481916,52.76540877677512],[19.9140307481916,52.77611635130233],[19.865251797571812,52.79277257834296],[19.83550853499929,52.80110069186408],[19.801006350414394,52.80110069186408],[19.80219608091731,52.78325473431964],[19.80695500292888,52.76778823778112],[19.79981661991148,52.7606498547639],[19.778401470859183,52.77373689029632],[19.76174524381784,52.76659850727901],[19.74627874728012,52.77492662079844],[19.714156023701676,52.7558909327518],[19.683223030625438,52.72495793967662],[19.649910576544258,52.684507102578216],[19.61421866145636,52.66785087553758],[19.56543971083746,52.660712492518584],[19.503573724685694,52.65833303151426],[19.484538036639318,52.6357281519586],[19.492866150159635,52.6274000384374],[19.536886178767052,52.6226411164253],[19.530937526252476,52.60717461988864],[19.505953185691524,52.588138931841996],[19.492866150159635,52.57386216580559]]]]}},{"type":"Feature","properties":{"kind":"district","id":"uyezd-1897-123","name":"Липновский","provinceId":"gubernia-1897-9"},"geometry":{"type":"MultiPolygon","coordinates":[[[[19.649910576544258,52.684507102578216],[19.615408391959274,52.686886563583336],[19.57614728536352,52.6726097975488],[19.57852674636935,52.68807629408545],[19.56306024983163,52.69997359911487],[19.5119018382061,52.68093791106823],[19.50476345518861,52.69640440760666],[19.519040221223502,52.70592225162998],[19.501194263679952,52.735665514202054],[19.485727767142233,52.74280389722115],[19.47145100110663,52.748752549734476],[19.472640731609456,52.7689779682851],[19.495245611165466,52.77968554281143],[19.5119018382061,52.78920338683475],[19.535696448264137,52.821326110411945],[19.507142916194347,52.81299799689173],[19.484538036639314,52.810618535887414],[19.47858938412394,52.83322341544138],[19.486917497645056,52.84987964248192],[19.475020192615283,52.862966678014345],[19.4476563910485,52.88319209656497],[19.45003585205433,52.90222778461161],[19.41434393696732,52.90222778461161],[19.383410943891082,52.90222778461161],[19.35128822031273,52.927212125171586],[19.328683340756807,52.9414888912079],[19.30012980868711,52.95219646573334],[19.2644378935993,52.940299160703916],[19.26205843259356,52.91888401165215],[19.20138217694471,52.91055589813095],[19.17758756688667,52.927212125171586],[19.187105410909904,52.945058082716116],[19.204951368454253,52.95100673523122],[19.18591568040699,52.96171430975666],[19.165690261857698,52.95457592673944],[19.145464843308318,52.96647323176788],[19.108583197717593,52.97242188428298],[19.097875623191445,52.96528350126576],[19.12167023324957,52.958145118248446],[19.131188077272714,52.948627274225124],[19.125239424758227,52.942678621710016],[19.105014006208936,52.9391094302018],[19.057424786091975,52.95219646573334],[19.045527481063,52.99264730283174],[19.053855594583318,53.014062451884485],[19.06337343860735,53.03309813993201],[19.045527481063,53.05927221099597],[19.031250715028197,53.08187709055162],[19.024112332010795,53.092584665077055],[19.010499966550547,53.099957272303115],[18.99384373950938,53.098767541800015],[18.99384373950938,53.088059967272805],[18.981946434480673,53.07973185375337],[18.970049129451343,53.07973185375337],[18.956962093919454,53.067834548723155],[18.946254519393218,53.05474751319163],[18.930788022855054,53.05593724369463],[18.912942065311327,53.04998859118041],[18.89628583827078,53.05117832168341],[18.877250150223784,53.04879886067741],[18.859404192680056,53.05355778268862],[18.830850660610093,53.05593724369463],[18.791589554013893,53.058316704699834],[18.75708736942953,53.04522966916741],[18.740431142388985,53.021435059110445],[18.75113871691522,52.99407125754348],[18.721395454342076,52.952430689940215],[18.738051681382622,52.9107901223388],[18.719015993336424,52.9036517393206],[18.75285377734605,52.89152021008431],[18.787355961930945,52.87843317455189],[18.831375990538273,52.855828294997124],[18.867067905626172,52.8403617984586],[18.89086251568421,52.7975315003541],[18.905139281719013,52.77016769878723],[18.947969579824225,52.72019901766453],[18.999127991449843,52.67736871956092],[19.037199367542684,52.65952276201648],[19.13475726878226,52.65595357050826],[19.207330829459995,52.64048707396984],[19.258489241084813,52.630969229946515],[19.32273468824223,52.62977949944431],[19.370323908359104,52.62026165542099],[19.392046194332103,52.61017630836162],[19.403636362440373,52.60479515888255],[19.438138547025268,52.59884650636745],[19.469071540100796,52.5810005488247],[19.492866150159635,52.57386216580559],[19.505953185691524,52.588138931841996],[19.530937526252476,52.60717461988864],[19.536886178767052,52.6226411164253],[19.492866150159635,52.6274000384374],[19.484538036639318,52.6357281519586],[19.503573724685694,52.65833303151426],[19.56543971083746,52.660712492518584],[19.61421866145636,52.66785087553758],[19.649910576544258,52.684507102578216]]]]}},{"type":"Feature","properties":{"kind":"district","id":"uyezd-1897-124","name":"Рыпинский","provinceId":"gubernia-1897-9"},"geometry":{"type":"MultiPolygon","coordinates":[[[[19.73795063375971,52.9843191893124],[19.734381442251053,52.99859595534694],[19.708207371187186,53.018821373897474],[19.718914945713244,53.03428787043413],[19.678464108613863,53.06522086351107],[19.676084647608032,53.08663601256373],[19.683285221933716,53.12395751479294],[19.659490611875324,53.11919859278075],[19.640454923828415,53.12752670630293],[19.622608966284687,53.14061374183437],[19.615470583267197,53.163218621390115],[19.596434895220998,53.167977543401335],[19.569071093653417,53.17154673490955],[19.555984058121616,53.20366945848852],[19.496497532976036,53.21556676351705],[19.496497532976036,53.20247972798552],[19.51077429901102,53.1977208059743],[19.51315376001667,53.189392692453985],[19.501256454987164,53.17749538742377],[19.507205107502273,53.16440835189312],[19.45247750436791,53.156080238372894],[19.43820073833284,53.165598082395235],[19.429872624812255,53.18225430943676],[19.372765560673038,53.178685117926776],[19.351350411620565,53.17749538742377],[19.335883915082313,53.167977543401335],[19.323986610052895,53.173926195915556],[19.316848227035404,53.18820296195098],[19.266292024677394,53.23201735812563],[19.21037469103985,53.22249951410231],[19.18420061997625,53.20346382605567],[19.15088816589427,53.19037679052422],[19.155647087906285,53.16063352795116],[19.155647087906285,53.14873622292183],[19.12590382533305,53.13802864839542],[19.116385981309996,53.1320799958812],[19.048571342643744,53.109475116325456],[19.03429457660876,53.114234038336676],[19.010499966550547,53.099957272303115],[19.024112332010795,53.092584665077055],[19.031250715028197,53.08187709055162],[19.045527481063,53.05927221099597],[19.06337343860735,53.03309813993201],[19.053855594583318,53.014062451884485],[19.045527481063,52.99264730283174],[19.057424786091975,52.95219646573334],[19.105014006208936,52.9391094302018],[19.125239424758227,52.942678621710016],[19.131188077272714,52.948627274225124],[19.12167023324957,52.958145118248446],[19.097875623191445,52.96528350126576],[19.108583197717593,52.97242188428298],[19.145464843308318,52.96647323176788],[19.165690261857698,52.95457592673944],[19.18591568040699,52.96171430975666],[19.204951368454253,52.95100673523122],[19.187105410909904,52.945058082716116],[19.17758756688667,52.927212125171586],[19.20138217694471,52.91055589813095],[19.26205843259356,52.91888401165215],[19.2644378935993,52.940299160703916],[19.30012980868711,52.95219646573334],[19.328683340756807,52.9414888912079],[19.35128822031273,52.927212125171586],[19.383410943891082,52.90222778461161],[19.41434393696732,52.90222778461161],[19.45003585205433,52.90222778461161],[19.4476563910485,52.88319209656497],[19.475020192615283,52.862966678014345],[19.486917497645056,52.84987964248192],[19.47858938412394,52.83322341544138],[19.484538036639314,52.810618535887414],[19.507142916194347,52.81299799689173],[19.535696448264137,52.821326110411945],[19.561870519328714,52.84155152896257],[19.536886178767052,52.86415640851831],[19.5678191718432,52.89508940159429],[19.611839200450618,52.87962290505497],[19.63682354101237,52.88676128807308],[19.646341385035512,52.897468862599496],[19.668946264590634,52.893899671090395],[19.66775653408772,52.924832664167255],[19.660618151070405,52.9450580827161],[19.645151654532597,52.95814511824844],[19.666566803584892,52.961714309756644],[19.6951203356553,52.961714309756644],[19.707017640684274,52.979560267300286],[19.73795063375971,52.9843191893124]]]]}},{"type":"Feature","properties":{"kind":"district","id":"uyezd-1897-711","name":"Праснышский","provinceId":"gubernia-1897-9"},"geometry":{"type":"MultiPolygon","coordinates":[[[[21.04728754595061,53.30380506378515],[21.032439612239678,53.29646843771661],[21.008645002180753,53.28695059369241],[20.9539173990471,53.27624301916697],[20.915846022953282,53.26315598363366],[20.871825994345954,53.248879217600006],[20.838513540263975,53.26672517514276],[20.814718930205938,53.27624301916697],[20.78378593713041,53.28100194117819],[20.76356051858032,53.28695059369241],[20.745714561036504,53.28814032419541],[20.719540489972903,53.29765816821962],[20.674330730861506,53.29646843771661],[20.630310702254533,53.29408897671061],[20.624993867891888,53.26033666598872],[20.607147910347628,53.235352325426874],[20.61428629336583,53.222265289894544],[20.59644033582148,53.20441933235179],[20.585732761295333,53.17110687827061],[20.57383545626636,53.1580198427373],[20.55836895972864,53.16158903424729],[20.55361003771698,53.1544506512282],[20.528625697155316,53.13898415469066],[20.520297583635,53.10805116161558],[20.550040846208322,53.098533317592256],[20.59406087481565,53.084256551557715],[20.633321981412205,53.06879005501929],[20.66306524398473,53.06165167200197],[20.676152279516707,53.04975436697265],[20.677342010019622,53.03071867892503],[20.66782416599639,53.010493260376265],[20.67853174052245,52.9819397283063],[20.70589554209003,52.9759910757912],[20.7463463791887,52.96647323176788],[20.76419233673296,52.96052457925454],[20.816540478860695,52.96171430975666],[20.845094010931103,52.97718080629509],[20.87126808199497,52.9736116147851],[20.877216734509457,52.96290404025966],[20.872457812497885,52.9414888912079],[20.890303770041346,52.927212125171586],[20.91171891909444,52.91888401165215],[20.96287733071917,52.928401855675475],[20.979533557760604,52.917694281148265],[21.002807507233747,52.9049299338121],[21.01470481226281,52.91920669984752],[21.018274003771467,52.95727807594179],[21.008756159748234,52.96441645895901],[20.99923831572509,52.98464187750777],[21.001617776730832,53.00010837404629],[20.986151280193113,53.01200567907473],[20.962356670134277,53.015574870584715],[20.96949505315168,53.028661906116255],[20.9920999327076,53.03461055863136],[21.028981578297614,53.040559211144696],[21.04325834433242,53.05721543818524],[21.057535110368022,53.06078462969523],[21.06824268489417,53.06792301271254],[21.06586322388834,53.09528681427852],[21.084898911934804,53.101235466793725],[21.094416755957948,53.111943041320046],[21.112262713501497,53.111943041320046],[21.109883252495667,53.09290735327429],[21.147954628589307,53.0893381617643],[21.17769789116183,53.09528681427852],[21.21338980624973,53.09528681427852],[21.22052818926713,53.08338950925097],[21.25146118234257,53.08101004824496],[21.275255792401406,53.08695870075918],[21.290722288939126,53.103614927799725],[21.297860671956528,53.11670196333215],[21.316896360002993,53.11789169383427],[21.35020881408506,53.11551223282826],[21.36805477162858,53.12621980735548],[21.353778005593767,53.14168630389213],[21.34307043106753,53.157152800430595],[21.329983395534953,53.152393878419446],[21.31808609050597,53.164291183447915],[21.329983395534953,53.17023983596209],[21.319275821008887,53.18570633250056],[21.302619593968245,53.19284471551788],[21.280014714413028,53.20593175105029],[21.247891990833978,53.223777708594696],[21.214579536752694,53.24400312714357],[21.180077352167814,53.255900432171984],[21.145575167583615,53.27255665921439],[21.128918940542974,53.28564369474594],[21.10750379148999,53.28326423373994],[21.087278372940602,53.28564369474594],[21.07300160690579,53.295161538769264],[21.057535110368065,53.29635126927127],[21.04728754595061,53.30380506378515]]]]}},{"type":"Feature","properties":{"kind":"district","id":"uyezd-1897-712","name":"Млавский","provinceId":"gubernia-1897-9"},"geometry":{"type":"MultiPolygon","coordinates":[[[[20.630310702254533,53.29408897671061],[20.575583099119726,53.31193493425327],[20.533942531517962,53.322642508779595],[20.516096573974234,53.314314395259366],[20.488732772407452,53.27862248017209],[20.445902474302418,53.21794622452395],[20.378087835636165,53.16440835189312],[20.30313481395251,53.12752670630293],[20.246027749812495,53.11681913177563],[20.222233139754458,53.12990616730716],[20.16393634511126,53.12514724529595],[20.127054699520624,53.14537266384559],[20.086603862421953,53.167977543401335],[20.048532486328135,53.185823500944],[20.01759949325252,53.1953413449683],[19.99380488319457,53.185823500944],[19.965251351124518,53.18701323144709],[19.92004159201401,53.1977208059743],[19.890298329440775,53.21437703301396],[19.87483183290261,53.21199757200973],[19.84865776183901,53.20247972798552],[19.823673421277793,53.18463377044286],[19.798689080716485,53.178685117926776],[19.798689080716485,53.163218621390115],[19.80820692473963,53.14418293334259],[19.799878811218868,53.12514724529595],[19.780843123172758,53.13109589781105],[19.746340938587686,53.142993202839584],[19.683285221933716,53.12395751479294],[19.676084647608032,53.08663601256373],[19.678464108613863,53.06522086351107],[19.718914945713244,53.03428787043413],[19.708207371187186,53.018821373897474],[19.734381442251053,52.99859595534694],[19.73795063375971,52.9843191893124],[19.79862688940847,52.99978568585083],[19.81647284695202,53.021200834901705],[19.82123176896368,53.05689274998987],[19.84145718751377,53.05332355848077],[19.868820989080465,53.06284140250409],[19.871200450086295,53.085446282059834],[19.90808209567702,53.07830789904261],[19.914030748191507,53.04261598395533],[19.931876705735057,53.039046792447124],[19.93901508875246,53.06403113300709],[19.965189159816326,53.06760032451709],[19.991363230880992,53.05332355848077],[19.98660430886933,53.03071867892503],[20.031814067979663,53.03071867892503],[20.029434606973833,53.021200834901705],[19.99493242238965,53.021200834901705],[19.96399942931341,53.008113799370264],[19.94377401076412,52.99740622484482],[19.944963741267035,52.98669865031841],[19.96161996830767,52.98669865031841],[19.98660430886933,52.99859595534694],[20.008019457921538,53.005734338364164],[20.040142181499892,53.00216514685506],[20.067505983067473,52.98550891981452],[20.080593018599362,52.9736116147851],[20.0686957135703,52.96409377076178],[20.041331912002807,52.95219646573334],[20.016347571441944,52.95457592673944],[20.003260535909966,52.96052457925454],[19.968758351324983,52.948627274225124],[19.977086464846188,52.933160777686695],[20.003260535909966,52.93672996919491],[20.013968110436114,52.91293535913705],[20.06036760005007,52.89984832360551],[20.05798813904424,52.854638564495005],[20.082972479605193,52.8451207204707],[20.102008167651658,52.848689911979804],[20.128182238716235,52.8427412594647],[20.130561699722065,52.865346139020446],[20.143648735253954,52.87248452203767],[20.136510352236552,52.8891407490783],[20.154356309780102,52.8950894015943],[20.17577145883231,52.876053713547655],[20.194807146879484,52.866535869524334],[20.210273643417203,52.87486398304377],[20.224550409452096,52.866535869524334],[20.210273643417203,52.83917206795648],[20.235257983978155,52.83441314594527],[20.27213962956897,52.82965422393316],[20.306939246778654,52.829654223933176],[20.354528466895488,52.83798233745438],[20.39022038198334,52.84393098996861],[20.383081998965906,52.862966678014345],[20.37118469393613,52.87010506103252],[20.343820892369365,52.86891533052858],[20.3331133178433,52.874863983043724],[20.322405743317177,52.89152021008431],[20.322405743317177,52.928401855675475],[20.346200353375195,52.93078131668062],[20.366425771924526,52.9248326641673],[20.379512807457218,52.93316077768668],[20.375943615947733,52.949817004727265],[20.380702537960133,52.96290404025967],[20.399738226006548,52.95814511824847],[20.399738226006548,52.93316077768668],[20.405686878521067,52.92007374215427],[20.430671219082,52.93078131668062],[20.43305068008783,52.94148889120788],[20.424722566567482,52.96290404025967],[20.4532760986379,52.96885269277391],[20.47826043919889,52.96647323176785],[20.497296127245306,52.961714309756644],[20.522280467807036,52.97361161478511],[20.536557233841847,52.98788838082055],[20.549644269373744,53.00811379937022],[20.57105941842599,53.02120083490172],[20.57105941842599,53.035477600938066],[20.552023730379574,53.046185175463506],[20.54131615585345,53.056892749989856],[20.53060858132733,53.07116951602529],[20.52703938981864,53.09496412608314],[20.520297583635,53.10805116161558],[20.528625697155316,53.13898415469066],[20.55361003771698,53.1544506512282],[20.55836895972864,53.16158903424729],[20.57383545626636,53.1580198427373],[20.585732761295333,53.17110687827061],[20.59644033582148,53.20441933235179],[20.61428629336583,53.222265289894544],[20.607147910347628,53.235352325426874],[20.624993867891888,53.26033666598872],[20.630310702254533,53.29408897671061]]]]}}]}
