{"type":"FeatureCollection","features":[{"type":"Feature","properties":{"kind":"province","id":"gubernia-1897-6","name":"Астраханская губерния"},"geometry":{"type":"MultiPolygon","coordinates":[[[[51.06055076301547,47.26909090432403],[51.03716529218811,47.28359064366852],[51.03240637017653,47.3050057927194],[51.04549340570842,47.32404148076604],[51.049062597217166,47.345456629819665],[51.04549340570842,47.36925123987753],[51.02526798715904,47.37757935339873],[50.99552472458652,47.38590746691807],[50.993842575443786,47.39936466006043],[50.99314526358078,47.40494315496471],[50.98957607207203,47.43468641753777],[51.00980149062132,47.4549118360883],[51.03597556168519,47.45610156659042],[51.066908554761426,47.45729129709254],[51.09665181733395,47.47037833262496],[51.113308044374584,47.504880517210026],[51.118066966386245,47.5358135102852],[51.082375051299145,47.585782191408796],[51.06333936325277,47.62980222001532],[51.05382151922874,47.70951416371099],[51.044303675205505,47.77375961086912],[51.049062597217166,47.803502873442085],[51.05977017174403,47.82372829199085],[51.072857207275916,47.86179966808511],[51.07404693777883,47.90938888820172],[51.055011249731564,47.98553164038731],[51.049062597217166,48.042638704528215],[51.055011249731564,48.09141765514782],[51.06214963274986,48.14257606677167],[51.050252327719996,48.16993986833951],[51.0228885261533,48.200872861414595],[50.980058228048,48.259169656057615],[50.96221227050454,48.29129237963668],[50.94317658245807,48.31270752868933],[50.89320790133546,48.32341510321565],[50.85513652524253,48.341261060758406],[50.80754730512566,48.36624540132016],[50.762337546014614,48.391229741882],[50.713558595395625,48.40431677741344],[50.68143587181656,48.41859354344798],[50.65288233974687,48.419783273951964],[50.619569885664795,48.44000869250161],[50.588636892589356,48.45666491954127],[50.55770389951321,48.46499303306158],[50.5434271334784,48.48640818211423],[50.50297629637964,48.49592602613755],[50.460145998274434,48.51734117519118],[50.38757243759661,48.55541255128446],[50.299532380381066,48.589914735867765],[50.25670208227585,48.63750395598525],[50.2174409756801,48.68866236761096],[50.1746106775748,48.72197482169214],[50.143677684498556,48.76361538929453],[50.096088464382575,48.77075377231175],[50.024704634207666,48.80406622639293],[49.942613229506605,48.836188949972],[49.891454817881076,48.85879382952774],[49.83077856223232,48.888537092099824],[49.79032772513285,48.899244666627126],[49.75701527105158,48.91471116316369],[49.79032772513285,48.94683388674275],[49.80460449116845,48.965869574789394],[49.82601964022066,48.98847445434514],[49.86528074681641,49.00275122037968],[49.909300775424626,49.02892529144354],[49.94618242101535,49.036063674460856],[49.991392180125594,49.044391787982065],[50.0056689461612,49.051530170999285],[49.986633258114026,49.06342747602871],[49.9628386480559,49.06818639803992],[49.958079726044325,49.05985828452049],[49.94380296000952,49.06342747602871],[49.93904403799795,49.07175558954991],[49.95213107352984,49.08603235558445],[49.93428511598549,49.10030912161987],[49.909300775424626,49.09198100809867],[49.88074724335493,49.09079127759655],[49.82601964022066,49.10506804363109],[49.80936341318002,49.121724270671635],[49.77486122859513,49.13719076721016],[49.77605095909804,49.1538469942507],[49.7938969166415,49.16455456877614],[49.81293260468877,49.19786702285732],[49.81769152670034,49.22166163291695],[49.82720937072357,49.22523082442517],[49.83910667575263,49.24783570398091],[49.84386559776421,49.25140489548903],[49.84505532826712,49.2430767819688],[49.853383441787436,49.24188705146571],[49.85933209430193,49.25616381750025],[49.8783677823491,49.26092273951333],[49.88550616536659,49.26925085303267],[49.87598832134336,49.288286541079316],[49.87717805184619,49.30851195962994],[49.8367272147468,49.3346860306938],[49.8295888317294,49.34301414421314],[49.83910667575263,49.358480640751665],[49.82245044871191,49.36680875427287],[49.81055314368294,49.38227525080952],[49.82007098770617,49.39655201684583],[49.81174287418585,49.414397974388585],[49.816501796197514,49.423915818411906],[49.8295888317294,49.432243931933115],[49.84743478927295,49.440572045452456],[49.84505532826712,49.46198719450608],[49.80936341318002,49.47031530802542],[49.79984556915688,49.48935099607206],[49.79984556915688,49.5060072231127],[49.78199961161253,49.510766145124805],[49.75225634903992,49.53099156367445],[49.73916931350803,49.52980183317233],[49.73203093049062,49.51909425864601],[49.71299524244345,49.52742237216535],[49.70347739842022,49.51552506713602],[49.67730332735635,49.52147371965113],[49.65707790880706,49.53456075518266],[49.64042168176562,49.53099156367445],[49.63209356824531,49.53812994669176],[49.59521192265538,49.53931967719565],[49.538104858515275,49.57025267026985],[49.48099779437526,49.60237539384892],[49.39533719816555,49.60713431586013],[49.353696630563164,49.596426741334696],[49.325143098493555,49.61665215988345],[49.307297140950006,49.64282623094918],[49.29064091390857,49.64639542245642],[49.28707172239982,49.657102996983724],[49.296589566423144,49.67137976301826],[49.335850673019614,49.674948954526386],[49.36797339659797,49.67970787653947],[49.40604477269161,49.673759224024266],[49.45482372331139,49.67970787653947],[49.45839291482005,49.69398464257303],[49.44054695727579,49.69517437307701],[49.428649652246726,49.70588194760333],[49.43816749626996,49.72491763564997],[49.41794207772067,49.75704035922904],[49.38700908464514,49.79511173532232],[49.34893770855159,49.79868092682956],[49.32157390698481,49.812957692864984],[49.30253821893754,49.815337153871965],[49.278743608879594,49.828424189403506],[49.2573284598273,49.84864960795315],[49.25494899882156,49.86530583499369],[49.231154388762725,49.873633948513124],[49.20617004820177,49.895049097565774],[49.17999597713791,49.898618289074875],[49.1657192111031,49.90932586360218],[49.1657192111031,49.91765397712152],[49.17642678562916,49.92122316862973],[49.18356516864665,49.93549993466604],[49.17642678562916,49.95453562271268],[49.159770558587816,49.9592945447239],[49.146683523055835,49.970002119249344],[49.10980187746591,49.983089154781766],[49.08719699790999,49.981899424279646],[49.04793589131423,49.99022753779899],[49.021761820249566,49.99736592081719],[48.971793139127755,50.01759133936683],[48.92539364951379,50.03186810540137],[48.862337932859205,49.99141726830297],[48.81117952123358,49.956915083717895],[48.75764164860303,49.94144858717938],[48.69696539295426,49.92003343812762],[48.63271994579676,49.898618289074875],[48.57085395964508,49.880772331532214],[48.5161263565108,49.86768529599979],[48.498280398967346,49.85459826046737],[48.478054980417966,49.8200960758823],[48.460209022873705,49.791542543812334],[48.41261980275763,49.7748863167717],[48.391204653704534,49.76417874224626],[48.35789219962336,49.72967655766119],[48.325769476045004,49.670190032515166],[48.30792351850065,49.64282623094918],[48.27104187291073,49.62260081239856],[48.21750400027937,49.60951377686614],[48.18062235468855,49.592857549825595],[48.138981787087054,49.56430401775563],[48.100910410993414,49.53931967719565],[48.073546609426636,49.517904528142026],[48.04499307735703,49.46436665551031],[48.034285502830166,49.42153635740581],[48.037854694338826,49.39893147785007],[48.049751999368596,49.351342257734345],[48.027147119812675,49.350152527230456],[48.02119846729819,49.356101179745565],[48.024767658806844,49.367998484774986],[48.011680623274955,49.3691882152771],[47.99740385724015,49.39060336433073],[47.9795578996966,49.39060336433073],[47.97449666311099,49.3967893201574],[47.96885032516975,49.40369039986315],[47.97836816919378,49.415587704892474],[47.96409140315817,49.427485009920034],[47.962901672655256,49.439382314950336],[47.97479897768503,49.439382314950336],[47.98788601321692,49.428674740423034],[47.998593587743066,49.438192584446355],[48.00454224025756,49.45841800299698],[48.027147119812675,49.46079746400308],[48.031906041824335,49.46912557752242],[48.0152498147837,49.47745369104362],[48.031906041824335,49.48102288255272],[48.027147119812675,49.49054072657604],[48.01762927578953,49.49410991808416],[48.01287035377787,49.504817492610584],[48.00454224025756,49.504817492610584],[47.99264493522858,49.48816126556994],[47.97836816919378,49.48578180456296],[47.965281133661,49.513145606129925],[47.95338382863203,49.508386684118705],[47.93672760159139,49.52385318065723],[47.94386598460879,49.52980183317233],[47.96171194215234,49.52504291115934],[47.96766059466683,49.52980183317233],[47.955763289637765,49.53812994669176],[47.958142750643596,49.54407859920598],[47.98193736070243,49.53575048568655],[47.98907574371984,49.54526832970899],[47.97598870818795,49.55597590423629],[47.98312709120535,49.57382186177895],[47.97004005567257,49.594047280329576],[47.96647086416392,49.577391053288935],[47.958142750643596,49.577391053288935],[47.94743517611754,49.590478088819495],[47.9510043676262,49.60237539384892],[47.93791733209431,49.60713431586013],[47.94386598460879,49.61308296837524],[47.95695302014068,49.60832404636402],[47.95457355913485,49.62735973441066],[47.96885032516975,49.62854946491278],[47.95933248114651,49.64282623094918],[47.94862490662045,49.6416365004452],[47.93434814058556,49.652344074972504],[47.94743517611754,49.660672188491844],[47.94386598460879,49.68803599005881],[47.93315841008265,49.70469221709935],[47.91650218304201,49.70350248659635],[47.91412272203618,49.71302033061967],[47.90698433901887,49.718968983134864],[47.89746649499484,49.71421006112267],[47.89746649499484,49.72610736615209],[47.8808102679542,49.72253817464387],[47.87605134594263,49.71302033061967],[47.8665335019194,49.71183060011755],[47.86177457990774,49.72253817464387],[47.84868754437585,49.71539979162665],[47.841549161358444,49.72491763564997],[47.81775455129961,49.72491763564997],[47.8034777852648,49.734435479673294],[47.808236707276464,49.75823008973116],[47.796339402247405,49.76774793375448],[47.770165331183534,49.76774793375448],[47.749939912633444,49.7796452387838],[47.74161179911313,49.76536847274838],[47.72852476358124,49.77012739476048],[47.727335033078326,49.7808349692869],[47.7035404230202,49.78916308280624],[47.69402257899706,49.7808349692869],[47.686884195978855,49.79511173532232],[47.680935543464365,49.78797335230323],[47.65595120290342,49.80225011833954],[47.660710124914985,49.812957692864984],[47.65714093340633,49.822475536889286],[47.66427931642373,49.83794203342683],[47.653571741897586,49.84270095543804],[47.63810524535987,49.84389068594193],[47.63453605385112,49.883151792536445],[47.65000255038884,49.891479906057654],[47.6547614724005,49.91765397712152],[47.63810524535987,49.92003343812762],[47.62501820982798,49.93549993466604],[47.60836198278654,49.94144858717938],[47.59289548624882,49.9592945447239],[47.54530626613195,49.98784807679387],[47.498906776518794,49.99379672930907],[47.48819920199264,50.00807349534351],[47.4715429749513,50.01640160886294],[47.46559432243672,50.03186810540137],[47.432281868355545,50.03781675791559],[47.416815371817826,50.055662715460116],[47.39064130075315,50.06093571855401],[47.39064130075315,50.074022754085526],[47.37041588220377,50.09900709464728],[47.33829315862471,50.12518116571114],[47.30260124353761,50.13945793174568],[47.24430444889468,50.13350927923057],[47.196715228777805,50.13350927923057],[47.18005900173717,50.138268201241786],[47.15983358318779,50.12042224369904],[47.12176220709424,50.07878167609665],[47.09915732753903,50.072833023581545],[47.07893190898974,50.05974598805001],[47.06465514295493,50.05498706603888],[47.03848107189027,50.063315179558224],[47.00754807881483,50.076402215090646],[46.99208158227711,50.06926383207333],[46.98256373825317,50.088299520119975],[46.961148589200874,50.084730328611855],[46.9563896671893,50.09543790313729],[46.945682092663155,50.093058442131195],[46.924266943610945,50.07878167609665],[46.901662064055024,50.08592005911397],[46.88024691500273,50.082350867604866],[46.85407284393895,50.084730328611855],[46.84455499991492,50.074022754085526],[46.8219501203598,50.079971406600635],[46.78387874426696,50.066884371067324],[46.75532521219655,50.06212544905611],[46.72320248861811,50.05141787453067],[46.69345922604479,50.002638923911064],[46.67799272950707,50.006208115419184],[46.66133650246652,49.99906973240196],[46.6458700059288,50.02167461195771],[46.62564458737862,50.03833083899825],[46.60184997732058,50.056176796540996],[46.5959013248061,50.09186871162819],[46.57805536726255,50.14183739275178],[46.568537523239314,50.171580655324746],[46.554260757203714,50.18109849934807],[46.530466147145674,50.17514984683296],[46.5185688421167,50.19299580437651],[46.47335908300566,50.20132391789683],[46.42220067138004,50.20727257041202],[46.42458013238587,50.245343946504335],[46.41863147987139,50.27627693958039],[46.37580118176688,50.2822255920955],[46.33178115315876,50.310779124164576],[46.31036600410655,50.310779124164576],[46.297278968574574,50.325055890200005],[46.24850001795478,50.326245620703986],[46.24850001795478,50.314348315674565],[46.19972106733508,50.31910723768489],[46.17116753526539,50.32981481221122],[46.14499346420161,50.314348315674565],[46.12952696766309,50.326245620703986],[46.10692208810788,50.30602020215336],[46.0736096340259,50.31315858517067],[46.04624583245912,50.31791750718278],[46.0379177189388,50.30007154963825],[46.01769230038951,50.30007154963825],[46.00698472586336,50.3202969681879],[45.99270795982776,50.32267642919399],[45.97843119379296,50.294122897124026],[45.94987766172335,50.30007154963825],[45.948687931220434,50.3202969681879],[45.96058523624941,50.33933265623454],[45.94987766172335,50.34885050025786],[45.93679062619137,50.37859376283083],[45.94511873971177,50.41904459993021],[45.92846251267034,50.45711597602438],[45.91418574663554,50.47020301155503],[45.90365752816322,50.433436153840304],[45.922161703122896,50.40452338046546],[45.92097197261998,50.38310823141184],[45.8793314050184,50.37596984839452],[45.85315733395382,50.354554699341875],[45.80794757484349,50.347416316324555],[45.77225565975568,50.32124224526069],[45.73061509215418,50.28436059967041],[45.683025872037305,50.24509949307501],[45.67469775851699,50.21059730848994],[45.62353934689137,50.18204377642086],[45.57238093526584,50.17133620189365],[45.53906848118457,50.14159293932059],[45.53906848118457,50.110659946244624],[45.5200327931382,50.09400371920398],[45.49266899157062,50.06782964814012],[45.4557873459806,50.040465846573156],[45.43675165793343,50.01786096701839],[45.42961327491602,49.98335878243235],[45.41057758686965,49.95004632835116],[45.38202405479995,49.91792360477299],[45.36179863624986,49.89531872521734],[45.37012674977089,49.84297058308951],[45.389162437817355,49.78705324945258],[45.365367827758604,49.76682783090196],[45.33298071962432,49.752947641702086],[45.32108341459454,49.737481145163656],[45.309186109565566,49.69465084705915],[45.30323745705099,49.67323569800651],[45.28777096051327,49.66490758448619],[45.23780227939066,49.658958931971966],[45.20330009480647,49.6232670168838],[45.15928006619835,49.5840059102884],[45.10812165457273,49.51619127162215],[45.0641016259654,49.46622259049856],[45.04625566842114,49.43528959742348],[45.00580483132247,49.36985441976323],[44.98557941277309,49.329403582664824],[44.976061568749145,49.28657328455846],[44.964164263720086,49.20329214935555],[44.937990192656216,49.1759283477877],[44.92847234863299,49.15451319873496],[44.897539355556745,49.09621640409203],[44.87493447600171,49.05695529749575],[44.847570674434934,49.04386826196519],[44.80593010683255,49.028401765426665],[44.78451495778034,49.01293526888912],[44.753581964704104,48.98676119782526],[44.72145924112575,48.962966587765536],[44.7036132835822,48.93798224720556],[44.68814678704368,48.890393027088066],[44.67981867352345,48.84637299848145],[44.635798644916036,48.805922161381176],[44.60129646033105,48.7726097073],[44.571553197758526,48.73691779221281],[44.53943047417946,48.70241560762774],[44.50968721160685,48.6762415365629],[44.520394786133,48.641739351979595],[44.533481821664886,48.636980429967494],[44.571553197758526,48.62984204695018],[44.59891699932531,48.61556528091573],[44.62747053139492,48.59296040135901],[44.625091070389175,48.569165791301245],[44.61438349586303,48.55369929476272],[44.62390133988626,48.53466360671608],[44.62747053139492,48.51324845766432],[44.62152187888043,48.48112573408525],[44.613193765360116,48.46446950704471],[44.50135909808653,48.482315464589234],[44.48470287104519,48.46090031553649],[44.41688823237894,48.47279762056591],[44.38000658678901,48.47517708157103],[44.3502633242164,48.48112573408525],[44.297915182087955,48.494212769617675],[44.243187578953766,48.50254088313888],[44.2170135078899,48.51086899665822],[44.205116202860836,48.52395603218976],[44.18608051481366,48.53585333722006],[44.171803748778856,48.554889025266704],[44.17061401827594,48.57749390482245],[44.15620909597172,48.59501727091535],[44.133604216415975,48.56408427783937],[44.09077391831148,48.520064249231865],[44.0574614642295,48.49389017816702],[44.03723604568012,48.46771610710316],[43.99559547807844,48.43083446151287],[43.971800868019784,48.41298850396924],[43.99559547807844,48.37729658888205],[43.967041946008564,48.33089709926756],[43.927780839411746,48.282118148648834],[43.890899193821284,48.23095973702313],[43.870673775271904,48.18812943891863],[43.8492586262197,48.13816075779593],[43.82546401616104,48.05487962259213],[43.817135902640544,48.01442878549186],[43.81594617213772,47.972788217890454],[43.82546401616104,47.95732172135193],[43.80166940610318,47.91687088425353],[43.76121856900353,47.86452274212482],[43.73504449794011,47.7717237628985],[43.707680696372975,47.67059667015018],[43.67674770329665,47.57065930790576],[43.72790611492244,47.48856790320407],[43.77192614353048,47.41599434252563],[43.78263371805663,47.39933811548508],[43.787392640067516,47.38149215794355],[43.79414377130429,47.34356041663527],[43.79533350180721,47.303109579535004],[43.81198972884784,47.20793113930179],[43.834594608402966,47.127029465104],[43.87385571499952,47.03660994688201],[43.81793838136233,46.96284665570242],[43.78224646627532,46.910498513574595],[43.752503203702,46.87361686798343],[43.72989832414679,46.82602764786771],[43.70015506157346,46.78081788875534],[43.67873991252126,46.74274651266294],[43.66565287698937,46.71657244159907],[43.67041179900094,46.6808805265118],[43.68587829553866,46.64042968941162],[43.678173975111434,46.63006870676872],[43.61687392636958,46.5476307101853],[43.528833869154035,46.42032954637213],[43.47648572702559,46.35132517720288],[43.403912166347766,46.24543916244325],[43.37535863427816,46.19547048132152],[43.35483042563152,46.169701027914556],[43.31944130064097,46.12527638165015],[43.342714960875554,46.120400260053486],[43.3534225354017,46.08946726697743],[43.368492455105645,46.06752334881184],[43.419650866730464,46.05086712177129],[43.46961954785308,46.04134927774797],[43.48984496640246,46.00803682366679],[43.53029580350184,45.99376005763226],[43.56479798808603,45.99494978813437],[43.60048990317384,45.99019086612316],[43.62190505222613,45.99494978813437],[43.67544292485749,45.99494978813437],[43.72898079748885,45.98662167461503],[43.75753432955846,45.98305248310504],[43.778949478611466,45.974724369585616],[43.80208312727908,45.95714279659755],[43.84729288638941,45.950004413580245],[43.8817950709744,45.94286603056213],[43.917486986061405,45.940486569556924],[43.94247132662307,45.93453791704181],[43.976973511207255,45.914312498493054],[44.02337300082121,45.89765627145242],[44.045977880376334,45.840549207311604],[44.070962220938085,45.82032378876285],[44.11498224954541,45.771544838143235],[44.11736171055124,45.750129689089604],[44.11498224954541,45.716817235009316],[44.12568982407156,45.688263702938464],[44.157812547650714,45.66089990137248],[44.1994531152523,45.64781286584006],[44.25299098788357,45.62401825578043],[44.30295966900627,45.591895532202244],[44.35411808063189,45.58475714918494],[44.41360460577694,45.58118795767592],[44.455245173379325,45.553824156109854],[44.53019819506289,45.528839815548096],[44.59325391171748,45.53121927655411],[44.64441232334301,45.527650085045984],[44.68010423843011,45.51456304951356],[44.70627830949478,45.49195816995693],[44.739590763575954,45.472922481911176],[44.806215671739295,45.446748410847306],[44.86689192738805,45.440799758333],[44.893065998451924,45.43485110581789],[44.93946548806579,45.42057433978336],[44.98943416918849,45.401538651736715],[45.053679616346,45.38131323318618],[45.11435587199405,45.363467275642535],[45.16670401412241,45.34443158759589],[45.2226213477596,45.31825751653194],[45.29519490843742,45.283755331946864],[45.35230197257753,45.25996072188901],[45.43320364677558,45.22426880680182],[45.50458747695049,45.18976662221666],[45.577161037628315,45.15407470713036],[45.630698910259675,45.129090366568605],[45.68542651339395,45.11005467852196],[45.72825681149836,45.09815737349255],[45.75681034356886,45.09458818198345],[45.78165924799266,45.089282538822815],[45.82329981559504,45.13211283692731],[45.89230418476412,45.12497445391],[45.92085771683373,45.13925121994454],[45.95060097940706,45.13568202843641],[45.98986208600281,45.13925121994454],[46.001759391031875,45.127353914915204],[46.01722588757039,45.13211283692731],[46.04339995863426,45.13211283692731],[46.05648699416615,45.123784723406104],[46.07909187372198,45.13092310642333],[46.13144001584971,45.11307714888067],[46.17427031395493,45.10950795737246],[46.20282384602462,45.097610652342155],[46.2218595340718,45.09999011334825],[46.24208495262118,45.09404146083403],[46.2718282151937,45.082144155805494],[46.32179689631641,45.06429819826097],[46.34083258436278,45.07024685077617],[46.377714229953504,45.06191873725496],[46.39674991799997,45.05240089323164],[46.419354797555094,45.05597008473977],[46.497877010748205,45.03693439669313],[46.54978627290739,45.02395708115429],[46.55974299689908,45.02146790015656],[46.566881379917284,45.014329517139245],[46.58829652896949,45.014329517139245],[46.63707547958928,44.997673290096834],[46.654921437132735,44.98220679356018],[46.679905777693776,44.944135417466896],[46.692992813225665,44.92153053791115],[46.695372274231495,44.90249484986451],[46.701320926745986,44.88940781433217],[46.69738408050862,44.875121045385626],[46.7092813855384,44.869172392871405],[46.74616303112832,44.86203400985507],[46.768767910683174,44.86798266236832],[46.799700903758705,44.84537778281355],[46.81754686130323,44.83942913029933],[46.82468524432072,44.84656751331744],[46.85442850689316,44.84656751331744],[46.85442850689316,44.83823939979624],[46.874653925442445,44.82396263376179],[46.88893069147823,44.83585993879023],[46.89368961348936,44.85489562683598],[46.90439718801639,44.875121045385626],[46.92462260656577,44.898915655446245],[46.93057125907999,44.91438215198281],[46.94882032147162,44.95218098350234],[46.94168193845413,44.98549343758529],[46.95714843499229,45.00690858663617],[46.944061399460494,45.023564813677694],[46.96547654851297,45.03903131021612],[47.005927385611635,45.04854915423856],[47.04875768371658,45.05092861524465],[47.06422418025475,45.0652053812791],[47.104675017353415,45.079482147314614],[47.121331244394675,45.087810260833955],[47.148695045961546,45.087810260833955],[47.20104318808954,45.109225409887586],[47.2295967201596,45.12350217592301],[47.25101186921207,45.12469190642423],[47.267668096253416,45.16038382151329],[47.27837567077965,45.187747623080156],[47.266478365749435,45.21868061615622],[47.27004755725898,45.232957382189866],[47.30454974184414,45.259131453255605],[47.31168812486083,45.26864929727706],[47.287893514802704,45.27816714130127],[47.29860108932894,45.29958229035401],[47.31406758586711,45.325756361416985],[47.35094923145783,45.329325552926974],[47.354518422965775,45.341222857955415],[47.354518422965775,45.37810450354658],[47.37593357201825,45.401899113603555],[47.40686656509467,45.409037496622645],[47.43185090565508,45.419745071148085],[47.458024976719486,45.42569372366417],[47.46159416822823,45.43878075919383],[47.4437482106837,45.46376509975647],[47.43185090565508,45.47328294377979],[47.42233306163203,45.49826728434075],[47.45326605470836,45.5208721638964],[47.49133743080137,45.52682081641071],[47.50323473582999,45.55180515697246],[47.5413061119239,45.58273815004755],[47.56391099147876,45.58630734155665],[47.58770560153679,45.57441003652821],[47.594843984555084,45.58868680256363],[47.5996029065663,45.62318898714604],[47.59365425405199,45.648173327707795],[47.57937748801692,45.66245009374322],[47.544875303431844,45.67315766826866],[47.52346015437937,45.68981389531106],[47.51156284935075,45.702900930843484],[47.51632177136188,45.731454462911586],[47.53178826790005,45.76357718649065],[47.5996029065663,45.805217754093036],[47.670986736741206,45.82663290314578],[47.70905811283431,45.81592532862034],[47.74237056691621,45.82425344213879],[47.76497544647186,45.81711505912334],[47.775683020997384,45.82306371163578],[47.79947763105622,45.81473559811636],[47.82922089362937,45.82782263364878],[47.855394964693055,45.85161724370752],[47.86372307821364,45.868273470747184],[47.885138227266204,45.876601584267505],[47.92201987285604,45.86232481823296],[47.93510690838793,45.85280697421053],[47.96009124894986,45.85161724370752],[47.98150639800162,45.882550236782606],[48.013629121581126,45.882550236782606],[48.03385454013042,45.88730915879294],[48.052890228177326,45.83020209465301],[48.099289717790306,45.84923778269965],[48.10285890929905,45.88611942828993],[48.10761783131098,45.90039619432536],[48.145689207404,45.90634484683958],[48.171863278468486,45.90634484683958],[48.21350384607025,45.85637616571874],[48.227780612105235,45.88492969778871],[48.23253953411716,45.90634484683958],[48.237298456129174,45.952744336454074],[48.22540115109967,45.97415948550681],[48.227780612105235,46.014610322605215],[48.25752387467838,46.01223086159912],[48.268231449204706,45.9682108329925],[48.290836328760356,45.9717800245016],[48.287267137250815,45.952744336454074],[48.3074925558001,45.95631352796228],[48.31701039982476,45.97891840751892],[48.327717974350996,46.0074719395879],[48.35865096742661,46.014610322605215],[48.362220158934555,46.030076819143645],[48.39077369100452,46.04078439367006],[48.408619648548246,46.033646010652745],[48.43241425860708,46.043163854676955],[48.44788075514525,46.06576873423092],[48.46929590419772,46.076476308756355],[48.474054826208935,46.097891457809986],[48.49190078375266,46.115737415353536],[48.50855701079321,46.114547684850535],[48.510936471798864,46.11930660686264],[48.51212620230275,46.13953202541228],[48.5026083582797,46.163326635469254],[48.47524455671212,46.187121245529866],[48.44788075514525,46.191880167541086],[48.41694776206892,46.189500706534986],[48.4050504570403,46.20258774206652],[48.37649692497034,46.20258774206652],[48.3396152793797,46.23708992665248],[48.293215789765924,46.22281316061705],[48.283697945742865,46.22876181313039],[48.27061091021107,46.22638235212527],[48.2753698322222,46.2430385791667],[48.2944055202691,46.24184884866369],[48.33723581837405,46.260884536709455],[48.347943392900284,46.25969480620645],[48.350322853905936,46.266833189223675],[48.375307194467155,46.26564345872067],[48.38482503849021,46.24541804017093],[48.412188840057794,46.23114127413648],[48.42646560609197,46.22876181313039],[48.46810617369463,46.22281316061705],[48.492241617350636,46.21850325996303],[48.50141862777572,46.21686450810097],[48.56209488342448,46.20377747256953],[48.602545720523864,46.19663908955221],[48.66798089818375,46.20972612508375],[48.70843173528322,46.20258774206652],[48.72746742333004,46.19306989804409],[48.75840041640566,46.20258774206652],[48.783384756966875,46.24184884866369],[48.79647179249868,46.2811099552591],[48.78933340948119,46.32750944487181],[48.82621505507182,46.344165671913245],[48.870235083680036,46.36320135996087],[48.89402969373816,46.384616509011735],[48.9309113393288,46.39294462253383],[48.89402969373816,46.406031658066254],[48.86309670066175,46.419118693597696],[48.830973977083836,46.43339545963224],[48.79528206199638,46.46551818321219],[48.781005295960604,46.4964511762855],[48.78576421797244,46.52976363036845],[48.81193828903684,46.54998904891721],[48.88332211921113,46.55117877942208],[48.952326488381274,46.566645275958734],[48.98563894246316,46.57497338947816],[49.00467463050927,46.61066530456535],[49.02965897107058,46.62970099261288],[49.09747360973683,46.638029106134084],[49.09747360973683,46.653495602671626],[49.10223253174796,46.67966967373559],[49.158149865385504,46.69632590077711],[49.21287746851916,46.69989509228523],[49.197410971981085,46.71417185831977],[49.20573908550167,46.71655131932489],[49.235482348074015,46.70584374479945],[49.249759114109885,46.71536158882277],[49.2747434546711,46.712982127816765],[49.28426129869425,46.72012051083399],[49.29734833422596,46.70941293630855],[49.335419710319776,46.70822320580555],[49.3592143203779,46.71774104982798],[49.3782500084249,46.730828085361296],[49.394906235465356,46.721310241338855],[49.40918300150034,46.7332075463673],[49.42345976753532,46.73796646837852],[49.427028959044065,46.75938161743126],[49.434167342061556,46.75938161743126],[49.43654680306721,46.739156198880636],[49.452013299605284,46.730828085361296],[49.47104898765228,46.74629458189972],[49.49841278921915,46.76533026994548],[49.50436144173337,46.7796070359809],[49.531725243300244,46.78555568849512],[49.56265823637657,46.78912488000422],[49.59597069045766,46.7712789224597],[49.638800988563496,46.780796766482126],[49.669733981638224,46.792694071512436],[49.66735452063275,46.811729759558105],[49.68876966968522,46.801022185032664],[49.722082123767024,46.795073532518444],[49.722082123767024,46.781986496985134],[49.73397942879653,46.79031461050634],[49.73754862030439,46.809350298553866],[49.75182538634026,46.809350298553866],[49.750635655837165,46.792694071512436],[49.77918918790713,46.78793514950122],[49.808932450479475,46.795073532518444],[49.808932450479475,46.802211915536645],[49.79822487595395,46.814109220565086],[49.80655298947382,46.8212476035824],[49.822019486012074,46.814109220565086],[49.8339167910414,46.82600652559353],[49.84700382657329,46.82362706458841],[49.85890113160262,46.81648868157119],[49.88269574166075,46.806970837546885],[49.91600819574273,46.811729759558105],[49.94099253630306,46.81886814257631],[49.94456172781269,46.808160568050866],[49.95645903284131,46.801022185032664],[49.96835633786993,46.803401646039646],[49.96597687686445,46.81648868157119],[49.99572013943751,46.812919490062086],[50.00404825295827,46.805781107043885],[50.021894210502,46.81529895106809],[50.04449909005756,46.81886814257631],[50.08257046615067,46.83076544760475],[50.11231372872302,46.82600652559353],[50.111123998220634,46.84385248313805],[50.12421103375252,46.84028329162993],[50.131349416770014,46.85337032716137],[50.14681591330809,46.84623194414415],[50.14800564381065,46.84028329162993],[50.17893863688609,46.84385248313805],[50.16823106236056,46.877164937219234],[50.17893863688609,46.873595745711114],[50.183697558898814,46.85574978816836],[50.19440513342434,46.84266275263505],[50.23247650951816,46.86526763219079],[50.23366624002054,46.89739035576986],[50.244373814546776,46.9045287387862],[50.25270192806754,46.90333900828408],[50.25270192806754,46.89620062526686],[50.27530680762239,46.89739035576986],[50.3264652192481,46.92237469633072],[50.31337818371532,46.92594388783796],[50.315757644721685,46.93427200135916],[50.33955225477981,46.93427200135916],[50.36294246341039,46.932869070324706],[50.394301681382984,46.94905339903924],[50.4192860219442,46.96214043457255],[50.46568551155789,46.98355558362342],[50.53825907223607,46.99902208016283],[50.58941748386089,47.025196151226694],[50.60845317190789,47.05731887480487],[50.670319158058945,47.0763545628524],[50.70125215113545,47.13108216598632],[50.7643078677896,47.1548767760432],[50.81903547092405,47.1548767760432],[50.89041930109896,47.17391246409073],[50.91659337216274,47.190568691132256],[50.96180313127316,47.192948152137376],[50.97489016680576,47.21555303169223],[50.99749504636079,47.240537372253094],[51.046273996980844,47.24767575527218],[51.06055076301547,47.26909090432403]]]]}},{"type":"Feature","properties":{"kind":"district","id":"uyezd-1897-533","name":"Черноярский","provinceId":"gubernia-1897-6"},"geometry":{"type":"MultiPolygon","coordinates":[[[[44.15620909597172,48.59501727091535],[44.133604216415975,48.56408427783937],[44.09077391831148,48.520064249231865],[44.0574614642295,48.49389017816702],[44.03723604568012,48.46771610710316],[43.99559547807844,48.43083446151287],[43.971800868019784,48.41298850396924],[43.99559547807844,48.37729658888205],[43.967041946008564,48.33089709926756],[43.927780839411746,48.282118148648834],[43.890899193821284,48.23095973702313],[43.870673775271904,48.18812943891863],[43.8492586262197,48.13816075779593],[43.82546401616104,48.05487962259213],[43.817135902640544,48.01442878549186],[43.81594617213772,47.972788217890454],[43.82546401616104,47.95732172135193],[43.80166940610318,47.91687088425353],[43.76121856900353,47.86452274212482],[43.73504449794011,47.7717237628985],[43.707680696372975,47.67059667015018],[43.67674770329665,47.57065930790576],[43.72790611492244,47.48856790320407],[43.77192614353048,47.41599434252563],[43.78263371805663,47.39933811548508],[43.78739264006784,47.38149215794233],[43.79414377130429,47.34356041663527],[43.79533350180721,47.303109579535004],[43.81198972884784,47.20793113930179],[43.834594608402966,47.127029465104],[43.87385571499952,47.03660994688201],[43.81793838136233,46.96284665570242],[43.78224646627532,46.910498513574595],[43.752503203702,46.87361686798343],[43.72989832414679,46.82602764786771],[43.70015506157346,46.78081788875534],[43.67873991252126,46.74274651266294],[43.66565287698937,46.71657244159907],[43.67041179900094,46.6808805265118],[43.68587829553866,46.64042968941162],[43.678173975111434,46.63006870676872],[43.61687392636958,46.5476307101853],[43.528833869154035,46.42032954637213],[43.47648572702559,46.35132517720288],[43.403912166347766,46.24543916244325],[43.37535863427816,46.19547048132152],[43.35483042563152,46.169701027914556],[43.51979243723026,46.08838714771258],[43.57719550788623,46.076030384978175],[43.765240049690256,46.08564143960956],[43.76919888214928,46.21728127545854],[43.66033098952591,46.22002042406183],[43.83056078526428,46.453712401277],[43.75336355231316,46.475527226093604],[43.83847845018235,46.519130651614674],[44.02454357575686,46.39504174221584],[44.042358321822505,46.486431360423225],[43.96318167264186,46.55044901764978],[44.05027598674057,46.5776676984474],[44.04433773805202,46.615750909688664],[43.959176344032905,46.64321576061244],[43.91369626690396,46.65788324642259],[43.92557276428106,46.672825545204205],[44.002769997232186,46.69726767078911],[43.92755218051058,46.80982997314479],[44.01068766215025,46.950540084113214],[44.240299944774115,46.96405045639638],[44.33135309133185,47.05313336717727],[44.35312666985653,47.19858497746866],[44.20862928510185,47.382520925801416],[44.29374418297104,47.38118064505102],[44.28134100763042,47.45514299566926],[44.26009410706927,47.581842059876465],[44.33927075624992,47.67522181659198],[44.4976240546112,47.7005389652581],[44.501582887070235,47.752467246030676],[44.56690362264426,47.83757071419391],[44.55106829280813,47.945079989467196],[44.703483342480865,47.946405869833036],[44.683689180185716,48.08278941400201],[44.62826552575926,48.109229837266454],[44.71535983985796,48.32421245764528],[45.02612818789198,48.40837607005974],[45.52692049395954,48.32816073411198],[45.60807655936969,48.36631164931587],[45.70308853838647,48.33210870492702],[45.66943846248469,48.1897891602729],[45.90894782625613,48.22540619490865],[45.966350896912104,48.19506732099532],[46.17023076855225,47.888034956946896],[46.17066982327572,47.888403996174446],[46.27909866117564,47.97954182579686],[46.221695590519666,48.04707327315526],[46.219716174290156,48.081467035913114],[46.17244676296247,48.12854978477443],[46.17191662484109,48.12859306135577],[46.14812201478314,48.150008210407535],[46.139793901262735,48.177372011975386],[46.13503497925117,48.20949473555445],[46.13077628380314,48.23930560368962],[46.12908632673659,48.25113530315506],[46.104101986174925,48.27968883522502],[46.075548454105316,48.30110398427856],[46.04342573052617,48.32132940282732],[45.99940570191875,48.33679589936584],[45.96490351733385,48.33203697735374],[45.922073219229354,48.32846778584464],[45.88043265162705,48.33679589936584],[45.830463970504354,48.35345212640638],[45.79715151642317,48.3570213179146],[45.768597984352674,48.3570213179146],[45.73885472178015,48.37010835344702],[45.684127118645875,48.378436466968225],[45.68055792713713,48.401041346522106],[45.68055792713713,48.43078460909605],[45.684127118645875,48.460527871669015],[45.66271196959367,48.472425176698344],[45.63534816802609,48.4985992477623],[45.61869194098554,48.51287601379684],[45.556825954833776,48.52239385782016],[45.54730811081063,48.50811709178473],[45.46164751460092,48.4962197867562],[45.37836637939695,48.51882466631194],[45.34743338632071,48.52239385782016],[45.339105272800396,48.50811709178473],[45.339105272800396,48.48432248172688],[45.31650039324527,48.48432248172688],[45.302223627210466,48.44149218362237],[45.264152251116826,48.458148410662034],[45.22370141401816,48.47956355971566],[45.19038895993609,48.471235446194456],[45.165404619375224,48.460527871669015],[45.10829755523512,48.464097063177135],[45.053569952100844,48.467666254686236],[44.97861693041719,48.451010027645694],[44.92507905778583,48.44863056663871],[44.877489837669756,48.466476524184124],[44.82990061755297,48.50097870876742],[44.80372654648911,48.50097870876742],[44.76922436190412,48.4985992477623],[44.79182924145933,48.52001439681406],[44.816813582021084,48.533101432346484],[44.82276223453548,48.542619276369805],[44.79539843296799,48.540239815364686],[44.77160382290995,48.54618846787802],[44.69903026223213,48.54618846787802],[44.664528077648036,48.544998737375906],[44.63835400658337,48.553326850895246],[44.625091070389175,48.569165791301245],[44.61438349586303,48.55369929476272],[44.62390133988626,48.53466360671608],[44.62747053139492,48.51324845766432],[44.62152187888043,48.48112573408525],[44.613193765360116,48.46446950704471],[44.50135909808653,48.482315464589234],[44.48470287104519,48.46090031553649],[44.41688823237894,48.47279762056591],[44.38000658678901,48.47517708157103],[44.3502633242164,48.48112573408525],[44.297915182087955,48.494212769617675],[44.243187578953766,48.50254088313888],[44.2170135078899,48.51086899665822],[44.205116202860836,48.52395603218976],[44.18608051481366,48.53585333722006],[44.171803748778856,48.554889025266704],[44.17061401827594,48.57749390482245],[44.15620909597172,48.59501727091535]]]]}},{"type":"Feature","properties":{"kind":"district","id":"uyezd-1897-534","name":"Калмыцкая степь","provinceId":"gubernia-1897-6"},"geometry":{"type":"MultiPolygon","coordinates":[[[[43.35483042563152,46.169701027914556],[43.51979243723026,46.08838714771258],[43.57719550788623,46.076030384978175],[43.765240049690256,46.08564143960956],[43.76919888214928,46.21728127545854],[43.66033098952591,46.22002042406183],[43.83056078526428,46.453712401277],[43.75336355231316,46.475527226093604],[43.83847845018235,46.519130651614674],[44.02454357575686,46.39504174221584],[44.042358321822505,46.486431360423225],[43.96318167264186,46.55044901764978],[44.05027598674057,46.5776676984474],[44.04433773805202,46.615750909688664],[43.959176344032905,46.64321576061244],[43.91369626690396,46.65788324642259],[43.92557276428106,46.672825545204205],[44.002769997232186,46.69726767078911],[43.92755218051058,46.80982997314479],[44.01068766215025,46.950540084113214],[44.240299944774115,46.96405045639638],[44.33135309133185,47.05313336717727],[44.35312666985653,47.19858497746866],[44.20862928510185,47.382520925801416],[44.29374418297104,47.38118064505102],[44.28134100763042,47.45514299566926],[44.26009410706927,47.581842059876465],[44.33927075624992,47.67522181659198],[44.4976240546112,47.7005389652581],[44.501582887070235,47.752467246030676],[44.56690362264426,47.83757071419391],[44.55106829280813,47.945079989467196],[44.703483342480865,47.946405869833036],[44.683689180185716,48.08278941400201],[44.62826552575926,48.109229837266454],[44.71535983985796,48.32421245764528],[45.02612818789198,48.40837607005974],[45.52692049395954,48.32816073411198],[45.60807655936969,48.36631164931587],[45.70308853838647,48.33210870492702],[45.66943846248469,48.1897891602729],[45.90894782625613,48.22540619490865],[45.966350896912104,48.19506732099532],[46.17023076855225,47.888034956946896],[46.17066982327572,47.888403996174446],[46.1752948465154,47.88102995879343],[46.20338599039667,47.83624204437195],[46.539886749414414,47.663225193683054],[46.84075801630086,47.767104324436474],[46.90014050318634,47.695210060456525],[46.595310403840855,47.584512368294135],[46.8466962649894,47.405300485406386],[46.985255401055525,47.21203260306079],[46.838778600071336,47.140721339046124],[46.961502406301335,47.01940732043827],[47.3752003982702,47.03424940712635],[47.4347166300208,46.939482941365554],[47.45551959978897,46.906358802550464],[47.45833587990988,46.90187449791959],[47.45860141692322,46.901960683860565],[47.74238210884561,46.49697196759167],[47.694876119337216,46.42967181578812],[47.724567362779965,46.40591882103392],[47.81364109310819,46.41383648595199],[47.839125085038354,46.39106800135865],[47.83887865003429,46.390946084058925],[47.91805529921493,46.32127286708339],[47.910137634296866,46.30760103490662],[47.40142766331123,46.33084111735554],[47.35590109003237,46.324006823651374],[47.27870385708124,46.31580454408185],[47.25693027855657,46.2419286937839],[47.104515228883834,46.19467808562132],[46.99861646060472,46.220705189862144],[46.96298696847344,46.17412166044874],[47.0154414985556,46.152871945807966],[47.04909157445738,46.14052963524787],[47.0698754448673,46.14807248719993],[47.128268223638024,46.160413106631864],[47.18369187806447,46.15629987429714],[47.22031107831052,46.146701136442324],[47.289590646343584,46.184400833856905],[47.30245685183543,46.18303038843142],[47.319281889786325,46.180974656238234],[47.33214809527818,46.17480699846099],[47.33511721962245,46.163840565368425],[47.32324072224535,46.163840565368425],[47.310374516753505,46.16109861546101],[47.31433334921254,46.15218633448709],[47.32324072224535,46.14464404624767],[47.348973133229066,46.13641491676595],[47.36975700363899,46.116522776070056],[47.36480846306519,46.10760327774646],[47.34501430077003,46.115836712063334],[47.31730247355681,46.11995296798206],[47.31136422486826,46.096623452013226],[47.295528895032135,46.08975995051341],[47.2915700625731,46.08358206884337],[47.310374516753505,46.06435756784364],[46.76207622117756,45.933728682785095],[46.88677944363707,45.59126496542318],[46.65914657724272,45.3984001738146],[46.54978627290739,45.02395708115429],[46.49787701074817,45.0369343966931],[46.41935479755506,45.05597008473974],[46.39674991799994,45.05240089323162],[46.37771422995347,45.06191873725494],[46.340832584362744,45.070246850776144],[46.32179689631637,45.06429819826095],[46.271828215193665,45.08214415580548],[46.24208495262114,45.094041460834006],[46.22185953407177,45.09999011334823],[46.202823846024586,45.09761065234213],[46.17427031395489,45.109507957372436],[46.13144001584968,45.11307714888065],[46.07909187372195,45.13092310642331],[46.05648699416612,45.12378472340609],[46.043399958634225,45.13211283692729],[46.01722588757036,45.13211283692729],[46.00175939103184,45.12735391491519],[45.98986208600277,45.13925121994451],[45.95060097940703,45.13568202843639],[45.920857716833694,45.13925121994451],[45.892304184764086,45.12497445390998],[45.82329981559501,45.13211283692729],[45.78165924799262,45.089282538822786],[45.75681034356885,45.094588181983426],[45.728256811498355,45.098157373492526],[45.68542651339394,45.11005467852194],[45.63069891025967,45.12909036656858],[45.57716103762831,45.154074707130334],[45.50458747695048,45.18976662221664],[45.433203646775574,45.224268806801796],[45.35230197257752,45.25996072188899],[45.295194908437416,45.28375533194684],[45.22262134775959,45.318257516531915],[45.1667040141224,45.34443158759587],[45.11435587199405,45.36346727564251],[45.053679616345995,45.38131323318615],[44.98943416918849,45.401538651736686],[44.939465488065785,45.42057433978333],[44.89306599845192,45.43485110581787],[44.86689192738805,45.44079975833297],[44.80621567173929,45.446748410847285],[44.739590763575954,45.472922481911155],[44.70627830949477,45.4919581699569],[44.680104238430104,45.51456304951354],[44.644412323343005,45.52765008504596],[44.593253911717476,45.53121927655408],[44.53019819506289,45.528839815548075],[44.45524517337932,45.553824156109826],[44.41360460577693,45.581187957675894],[44.354118080631885,45.58475714918491],[44.30295966900627,45.59189553220222],[44.252990987883564,45.6240182557804],[44.1994531152523,45.64781286584004],[44.15781254765071,45.66089990137246],[44.12568982407156,45.68826370293844],[44.114982249545406,45.71681723500929],[44.117361710551236,45.75012968908958],[44.114982249545406,45.771544838143214],[44.07096222093808,45.82032378876282],[44.04597788037633,45.84054920731158],[44.02337300082121,45.89765627145239],[43.97697351120725,45.91431249849303],[43.942471326623064,45.93453791704179],[43.917486986061405,45.940486569556896],[43.88179507097439,45.9428660305621],[43.84729288638941,45.95000441358022],[43.802083127279076,45.95714279659753],[43.77894947861146,45.97472436958559],[43.75753432955846,45.98305248310504],[43.72898079748885,45.98662167461503],[43.67544292485749,45.99494978813437],[43.62190505222613,45.99494978813437],[43.60048990317384,45.99019086612316],[43.56479798808603,45.99494978813437],[43.53029580350184,45.99376005763226],[43.48984496640246,46.00803682366679],[43.46961954785308,46.04134927774797],[43.419650866730464,46.05086712177129],[43.368492455105645,46.06752334881184],[43.3534225354017,46.08946726697743],[43.342714960875554,46.120400260053486],[43.31944130064097,46.12527638165015],[43.35483042563152,46.169701027914556]]],[[[47.94923110482988,47.142067721042245],[47.91162219646906,47.24294920501134],[47.784939557780035,47.26578901677819],[47.77702189286197,47.308754881581535],[47.70972174105844,47.37715959835692],[47.64638042171392,47.36509461825741],[47.54345077777908,47.444137008928784],[47.529594864172466,47.46688992628714],[47.491985955811664,47.474918017182226],[47.41430029584606,47.526821927487596],[47.4380878930069,47.73533093753451],[47.29301481319857,48.18713463776102],[47.39044413056045,48.200058934961845],[47.424946315145434,48.21076650948817],[47.49870960632608,48.226233006026604],[47.52369394688712,48.235750850049925],[47.61649292611495,48.24288923306723],[47.73546597640593,48.24169950256512],[47.810418998089496,48.208387048482074],[47.85205956569188,48.18578216892642],[47.888941211281896,48.17031567238976],[47.922253665363876,48.15127998434312],[47.91929054973803,48.09596849265842],[47.91868447385522,48.0846550761789],[47.928202317878366,48.0001842104721],[47.92939204838128,47.95259499035638],[47.942479083913256,47.92166199727943],[47.94128935341034,47.884780351690125],[47.94064471205467,47.84638747092045],[47.940644712054585,47.824423215480785],[47.94064471205458,47.822592860860816],[47.9644393221127,47.77143444923698],[47.99180312367949,47.70956846308397],[48.00013123720025,47.654840859950134],[48.01440800323523,47.61320029234864],[48.03225396077896,47.514452660607304],[48.03939234379645,47.49779643356578],[48.07151506737516,47.4644839794846],[48.10363779095387,47.41570502886499],[48.1333810535263,47.370495269753505],[48.136950245035045,47.34551092919352],[48.1072069824626,47.2086919213579],[48.0937284895846,47.2026196230976],[47.94923110482988,47.142067721042245]]]]}},{"type":"Feature","properties":{"kind":"district","id":"uyezd-1897-535","name":"Енотаевский","provinceId":"gubernia-1897-6"},"geometry":{"type":"MultiPolygon","coordinates":[[[[48.1072069824626,47.2086919213579],[48.113245326274786,47.19652425302515],[48.11559043839414,47.192068539998374],[48.1610286413881,47.129949055598225],[48.10939397127411,47.1131898754946],[47.779163795752645,47.006006330504384],[47.62376627840622,46.95556861152378],[47.57880764342672,46.94097628704158],[47.45860141692322,46.901960683860565],[47.45833587990988,46.90187449791959],[47.45551959978897,46.906358802550464],[47.4347166300208,46.939482941365554],[47.3752003982702,47.03424940712635],[46.961502406301335,47.01940732043827],[46.838778600071336,47.140721339046124],[46.985255401055525,47.21203260306079],[46.8466962649894,47.405300485406386],[46.595310403840855,47.584512368294135],[46.90014050318634,47.695210060456525],[46.84075801630086,47.767104324436474],[46.539886749414414,47.663225193683054],[46.20338599039667,47.83624204437195],[46.1752948465154,47.88102995879343],[46.17066982327572,47.888403996174446],[46.27909866117564,47.97954182579686],[46.221695590519666,48.04707327315526],[46.219716174290156,48.081467035913114],[46.17244676296247,48.12854978477443],[46.14812201478314,48.150008210407535],[46.139793901262735,48.177372011975386],[46.13503497925117,48.20949473555445],[46.13077628380314,48.23930560368962],[46.37284836711308,48.19444300529651],[46.37536054083967,48.20235635253536],[46.383688654359986,48.235668806618406],[46.39152619033406,48.242946518593826],[46.64479580957877,48.146223588466825],[46.68374263412203,48.023213613798454],[46.68834296662812,48.00868388533721],[46.86451101105506,47.9424281267016],[46.906078751874894,47.983516712167635],[47.018905476957315,47.93314553564871],[46.98723481728506,47.86015289559526],[47.066411466465695,47.76577385111009],[47.17527935908908,47.74581266722255],[47.29800316531908,47.6325546288671],[47.2999825815486,47.60320071337727],[47.41430029584606,47.526821927487596],[47.491985955811664,47.474918017182226],[47.529594864172466,47.46688992628714],[47.54345077777908,47.444137008928784],[47.64638042171392,47.36509461825741],[47.70972174105844,47.37715959835692],[47.77702189286197,47.308754881581535],[47.784939557780035,47.26578901677819],[47.91162219646906,47.24294920501134],[47.94923110482988,47.142067721042245],[48.1072069824626,47.2086919213579]]]]}},{"type":"Feature","properties":{"kind":"district","id":"uyezd-1897-548","name":"Красноярский","provinceId":"gubernia-1897-6"},"geometry":{"type":"MultiPolygon","coordinates":[[[[50.993842575443786,47.39936466006043],[50.55997013801298,47.11011636843989],[50.20276419324882,46.955504840109136],[50.14411844112336,46.89152765597227],[50.02416122086674,46.90219051999508],[49.393354182905036,46.768794049601745],[49.27953356478327,46.745220206765396],[49.1951235430932,46.774236151721354],[49.10532567856477,46.75974427733059],[49.09111410837336,46.75778406075187],[49.04233515775402,46.81132193338456],[49.000694590151454,46.86129061450539],[48.944777256514705,46.92672579216742],[48.88767019237469,46.99810962234099],[48.81390690119413,47.0861496795569],[48.76512795057479,47.14087728269081],[48.71277980844599,47.20155353833984],[48.66994951034095,47.24319410594222],[48.6211705597217,47.31100874460759],[48.56763268709042,47.37644392226775],[48.53907915502046,47.414515298362005],[48.476023438366134,47.416894759367125],[48.448659636799356,47.43117152540344],[48.42367529623814,47.45258667445432],[48.39393203366499,47.47519155401006],[48.3415838915369,47.522780774127554],[48.272579522367465,47.58821595178691],[48.20714434470758,47.65008193793894],[48.1405194365438,47.72384522911942],[48.05723830134018,47.78571121527056],[48.01440800323523,47.80355717281509],[47.963249591609525,47.835679896394154],[47.94064471205467,47.84638747092045],[47.940644712054585,47.824423215480785],[47.94064471205458,47.822592860860816],[47.9644393221127,47.77143444923698],[47.99180312367949,47.70956846308397],[48.00013123720025,47.654840859950134],[48.01440800323523,47.61320029234864],[48.03225396077896,47.514452660607304],[48.03939234379645,47.49779643356578],[48.07151506737516,47.4644839794846],[48.10363779095387,47.41570502886499],[48.1333810535263,47.370495269753505],[48.136950245035045,47.34551092919352],[48.1072069824626,47.2086919213579],[48.113245326274786,47.19652425302515],[48.11559043839414,47.192068539998374],[48.1610286413881,47.129949055598225],[48.10939397127411,47.1131898754946],[47.779163795752645,47.006006330504384],[47.62376627840622,46.95556861152378],[47.57880764342672,46.94097628704158],[47.45860141692322,46.901960683860565],[47.74238210884561,46.49697196759167],[47.694876119337216,46.42967181578812],[47.724567362779965,46.40591882103392],[47.81364109310819,46.41383648595199],[47.839125085038354,46.39106800135865],[48.18329707397008,46.56133812873138],[48.492241617350636,46.21850325996303],[48.50141862777572,46.21686450810097],[48.56209488342448,46.20377747256953],[48.602545720523864,46.19663908955221],[48.66798089818375,46.20972612508375],[48.70843173528322,46.20258774206652],[48.72746742333004,46.19306989804409],[48.75840041640566,46.20258774206652],[48.783384756966875,46.24184884866369],[48.79647179249868,46.2811099552591],[48.78933340948119,46.32750944487181],[48.82621505507182,46.344165671913245],[48.870235083680036,46.36320135996087],[48.89402969373816,46.384616509011735],[48.9309113393288,46.39294462253383],[48.89402969373816,46.406031658066254],[48.86309670066175,46.419118693597696],[48.830973977083836,46.43339545963224],[48.79528206199638,46.46551818321219],[48.781005295960604,46.4964511762855],[48.78576421797244,46.52976363036845],[48.81193828903684,46.54998904891721],[48.88332211921113,46.55117877942208],[48.952326488381274,46.566645275958734],[48.98563894246316,46.57497338947816],[49.00467463050927,46.61066530456535],[49.02965897107058,46.62970099261288],[49.09747360973683,46.638029106134084],[49.09747360973683,46.653495602671626],[49.10223253174796,46.67966967373559],[49.158149865385504,46.69632590077711],[49.21287746851916,46.69989509228523],[49.197410971981085,46.71417185831977],[49.20573908550167,46.71655131932489],[49.235482348074015,46.70584374479945],[49.249759114109885,46.71536158882277],[49.2747434546711,46.712982127816765],[49.28426129869425,46.72012051083399],[49.29734833422596,46.70941293630855],[49.335419710319776,46.70822320580555],[49.3592143203779,46.71774104982798],[49.3782500084249,46.730828085361296],[49.394906235465356,46.721310241338855],[49.40918300150034,46.7332075463673],[49.42345976753532,46.73796646837852],[49.427028959044065,46.75938161743126],[49.434167342061556,46.75938161743126],[49.43654680306721,46.739156198880636],[49.452013299605284,46.730828085361296],[49.47104898765228,46.74629458189972],[49.49841278921915,46.76533026994548],[49.50436144173337,46.7796070359809],[49.531725243300244,46.78555568849512],[49.56265823637657,46.78912488000422],[49.59597069045766,46.7712789224597],[49.638800988563496,46.780796766482126],[49.669733981638224,46.792694071512436],[49.66735452063275,46.811729759558105],[49.68876966968522,46.801022185032664],[49.722082123767024,46.795073532518444],[49.722082123767024,46.781986496985134],[49.73397942879653,46.79031461050634],[49.73754862030439,46.809350298553866],[49.75182538634026,46.809350298553866],[49.750635655837165,46.792694071512436],[49.77918918790713,46.78793514950122],[49.808932450479475,46.795073532518444],[49.808932450479475,46.802211915536645],[49.79822487595395,46.814109220565086],[49.80655298947382,46.8212476035824],[49.822019486012074,46.814109220565086],[49.8339167910414,46.82600652559353],[49.84700382657329,46.82362706458841],[49.85890113160262,46.81648868157119],[49.88269574166075,46.806970837546885],[49.91600819574273,46.811729759558105],[49.94099253630306,46.81886814257631],[49.94456172781269,46.808160568050866],[49.95645903284131,46.801022185032664],[49.96835633786993,46.803401646039646],[49.96597687686445,46.81648868157119],[49.99572013943751,46.812919490062086],[50.00404825295827,46.805781107043885],[50.021894210502,46.81529895106809],[50.04449909005756,46.81886814257631],[50.08257046615067,46.83076544760475],[50.11231372872302,46.82600652559353],[50.111123998220634,46.84385248313805],[50.12421103375252,46.84028329162993],[50.131349416770014,46.85337032716137],[50.14681591330809,46.84623194414415],[50.14800564381065,46.84028329162993],[50.17893863688609,46.84385248313805],[50.16823106236056,46.877164937219234],[50.17893863688609,46.873595745711114],[50.183697558898814,46.85574978816836],[50.19440513342434,46.84266275263505],[50.23247650951816,46.86526763219079],[50.23366624002054,46.89739035576986],[50.244373814546776,46.9045287387862],[50.25270192806754,46.90333900828408],[50.25270192806754,46.89620062526686],[50.27530680762239,46.89739035576986],[50.3264652192481,46.92237469633072],[50.31337818371532,46.92594388783796],[50.315757644721685,46.93427200135916],[50.33955225477981,46.93427200135916],[50.36294246341039,46.932869070324706],[50.394301681382984,46.94905339903924],[50.4192860219442,46.96214043457255],[50.46568551155789,46.98355558362342],[50.53825907223607,46.99902208016283],[50.58941748386089,47.025196151226694],[50.60845317190789,47.05731887480487],[50.670319158058945,47.0763545628524],[50.70125215113545,47.13108216598632],[50.7643078677896,47.1548767760432],[50.81903547092405,47.1548767760432],[50.89041930109896,47.17391246409073],[50.91659337216274,47.190568691132256],[50.96180313127316,47.192948152137376],[50.97489016680576,47.21555303169223],[50.99749504636079,47.240537372253094],[51.046273996980844,47.24767575527218],[51.06055076301544,47.269090904324],[51.037165292188206,47.28359064366941],[51.03240637017694,47.305005792719385],[51.0454934057081,47.32404148076603],[51.04906259721753,47.34545662981964],[51.0454934057081,47.369251239877485],[51.025267987158884,47.3775793533996],[50.9955247245864,47.38590746691807],[50.993842575443786,47.39936466006043]]]]}},{"type":"Feature","properties":{"kind":"district","id":"uyezd-1897-630","name":"Астраханский","provinceId":"gubernia-1897-6"},"geometry":{"type":"MultiPolygon","coordinates":[[[[48.492241617350636,46.21850325996303],[48.18329707397008,46.56133812873138],[47.839125085038354,46.39106800135865],[47.83887865003429,46.390946084058925],[47.91805529921493,46.32127286708339],[47.910137634296866,46.30760103490662],[47.40142766331123,46.33084111735554],[47.35590109003237,46.324006823651374],[47.27870385708124,46.31580454408185],[47.25693027855657,46.2419286937839],[47.104515228883834,46.19467808562132],[46.99861646060472,46.220705189862144],[46.96298696847344,46.17412166044874],[47.0154414985556,46.152871945807966],[47.04909157445738,46.14052963524787],[47.0698754448673,46.14807248719993],[47.128268223638024,46.160413106631864],[47.18369187806447,46.15629987429714],[47.22031107831052,46.146701136442324],[47.289590646343584,46.184400833856905],[47.30245685183543,46.18303038843142],[47.319281889786325,46.180974656238234],[47.33214809527818,46.17480699846099],[47.33511721962245,46.163840565368425],[47.32324072224535,46.163840565368425],[47.310374516753505,46.16109861546101],[47.31433334921254,46.15218633448709],[47.32324072224535,46.14464404624767],[47.348973133229066,46.13641491676595],[47.36975700363899,46.116522776070056],[47.36480846306519,46.10760327774646],[47.34501430077003,46.115836712063334],[47.31730247355681,46.11995296798206],[47.31136422486826,46.096623452013226],[47.295528895032135,46.08975995051341],[47.2915700625731,46.08358206884337],[47.310374516753505,46.06435756784364],[46.76207622117756,45.933728682785095],[46.88677944363707,45.59126496542318],[46.65914657724272,45.3984001738146],[46.54978627290739,45.02395708115429],[46.55974299689905,45.02146790015654],[46.56688137991725,45.014329517139224],[46.58829652896945,45.014329517139224],[46.63707547958924,44.99767329009681],[46.6549214371327,44.98220679356016],[46.67990577769375,44.944135417466875],[46.69299281322563,44.92153053791113],[46.69537227423146,44.90249484986449],[46.70132092674595,44.88940781433216],[46.697384080508584,44.87512104538561],[46.7092813855384,44.869172392871405],[46.74616303112832,44.86203400985507],[46.768767910683174,44.86798266236832],[46.799700903758705,44.84537778281355],[46.81754686130323,44.83942913029933],[46.82468524432072,44.84656751331744],[46.85442850689316,44.84656751331744],[46.85442850689316,44.83823939979624],[46.874653925442445,44.82396263376179],[46.88893069147823,44.83585993879023],[46.89368961348936,44.85489562683598],[46.90439718801639,44.875121045385626],[46.92462260656577,44.898915655446245],[46.93057125907999,44.91438215198281],[46.94882032147162,44.95218098350234],[46.94168193845413,44.98549343758529],[46.95714843499229,45.00690858663617],[46.944061399460494,45.023564813677694],[46.96547654851297,45.03903131021612],[47.005927385611635,45.04854915423856],[47.04875768371658,45.05092861524465],[47.06422418025475,45.0652053812791],[47.104675017353415,45.079482147314614],[47.121331244394675,45.087810260833955],[47.148695045961546,45.087810260833955],[47.20104318808954,45.109225409887586],[47.2295967201596,45.12350217592301],[47.25101186921207,45.12469190642423],[47.267668096253416,45.16038382151329],[47.27837567077965,45.187747623080156],[47.266478365749435,45.21868061615622],[47.27004755725898,45.232957382189866],[47.30454974184414,45.259131453255605],[47.31168812486083,45.26864929727706],[47.287893514802704,45.27816714130127],[47.29860108932894,45.29958229035401],[47.31406758586711,45.325756361416985],[47.35094923145783,45.329325552926974],[47.354518422965775,45.341222857955415],[47.354518422965775,45.37810450354658],[47.37593357201825,45.401899113603555],[47.40686656509467,45.409037496622645],[47.43185090565508,45.419745071148085],[47.458024976719486,45.42569372366417],[47.46159416822823,45.43878075919383],[47.4437482106837,45.46376509975647],[47.43185090565508,45.47328294377979],[47.42233306163203,45.49826728434075],[47.45326605470836,45.5208721638964],[47.49133743080137,45.52682081641071],[47.50323473582999,45.55180515697246],[47.5413061119239,45.58273815004755],[47.56391099147876,45.58630734155665],[47.58770560153679,45.57441003652821],[47.594843984555084,45.58868680256363],[47.5996029065663,45.62318898714604],[47.59365425405199,45.648173327707795],[47.57937748801692,45.66245009374322],[47.544875303431844,45.67315766826866],[47.52346015437937,45.68981389531106],[47.51156284935075,45.702900930843484],[47.51632177136188,45.731454462911586],[47.53178826790005,45.76357718649065],[47.5996029065663,45.805217754093036],[47.670986736741206,45.82663290314578],[47.70905811283431,45.81592532862034],[47.74237056691621,45.82425344213879],[47.76497544647186,45.81711505912334],[47.775683020997384,45.82306371163578],[47.79947763105622,45.81473559811636],[47.82922089362937,45.82782263364878],[47.855394964693055,45.85161724370752],[47.86372307821364,45.868273470747184],[47.885138227266204,45.876601584267505],[47.92201987285604,45.86232481823296],[47.93510690838793,45.85280697421053],[47.96009124894986,45.85161724370752],[47.98150639800162,45.882550236782606],[48.013629121581126,45.882550236782606],[48.03385454013042,45.88730915879294],[48.052890228177326,45.83020209465301],[48.099289717790306,45.84923778269965],[48.10285890929905,45.88611942828993],[48.10761783131098,45.90039619432536],[48.145689207404,45.90634484683958],[48.171863278468486,45.90634484683958],[48.21350384607025,45.85637616571874],[48.227780612105235,45.88492969778871],[48.23253953411716,45.90634484683958],[48.237298456129174,45.952744336454074],[48.22540115109967,45.97415948550681],[48.227780612105235,46.014610322605215],[48.25752387467838,46.01223086159912],[48.268231449204706,45.9682108329925],[48.290836328760356,45.9717800245016],[48.287267137250815,45.952744336454074],[48.3074925558001,45.95631352796228],[48.31701039982476,45.97891840751892],[48.327717974350996,46.0074719395879],[48.35865096742661,46.014610322605215],[48.362220158934555,46.030076819143645],[48.39077369100452,46.04078439367006],[48.408619648548246,46.033646010652745],[48.43241425860708,46.043163854676955],[48.44788075514525,46.06576873423092],[48.46929590419772,46.076476308756355],[48.474054826208935,46.097891457809986],[48.49190078375266,46.115737415353536],[48.50855701079321,46.114547684850535],[48.510936471798864,46.11930660686264],[48.51212620230275,46.13953202541228],[48.5026083582797,46.163326635469254],[48.47524455671212,46.187121245529866],[48.44788075514525,46.191880167541086],[48.41694776206892,46.189500706534986],[48.4050504570403,46.20258774206652],[48.37649692497034,46.20258774206652],[48.3396152793797,46.23708992665248],[48.293215789765924,46.22281316061705],[48.283697945742865,46.22876181313039],[48.27061091021107,46.22638235212527],[48.2753698322222,46.2430385791667],[48.2944055202691,46.24184884866369],[48.33723581837405,46.260884536709455],[48.347943392900284,46.25969480620645],[48.350322853905936,46.266833189223675],[48.375307194467155,46.26564345872067],[48.38482503849021,46.24541804017093],[48.412188840057794,46.23114127413648],[48.42646560609197,46.22876181313039],[48.46810617369463,46.22281316061705],[48.492241617350636,46.21850325996303]]]]}},{"type":"Feature","properties":{"kind":"district","id":"uyezd-1897-844","name":"Царевский","provinceId":"gubernia-1897-6"},"geometry":{"type":"MultiPolygon","coordinates":[[[[46.39152619033406,48.242946518593826],[46.40034488140062,48.25113530315506],[46.40673417484241,48.26444265915051],[46.425769862888785,48.28823726921014],[46.46265150847951,48.34415460284707],[46.49120504054921,48.384605439945474],[46.53998399116891,48.452420078611816],[46.60422943832641,48.542839596833815],[46.663715963472264,48.62493100153371],[46.71844356660654,48.702263484224176],[46.78268901376404,48.78554461942895],[46.83741661689752,48.86644629362674],[46.8778674539969,48.925932818771784],[46.8944016082048,48.931129267237324],[46.937110533194684,49.06566025933945],[46.84969166503952,49.12510389222937],[46.893401099117106,49.195463442241596],[47.03439652513279,49.2154251596432],[47.59107091227845,49.29423748082927],[47.97449666311099,49.3967893201574],[47.96885032516974,49.40369039986312],[47.97836816919377,49.41558770489245],[47.96409140315817,49.427485009920005],[47.962901672655256,49.43938231495031],[47.974798977685026,49.43938231495031],[47.987886013216915,49.428674740423006],[47.998593587743066,49.43819258444633],[48.00454224025755,49.45841800299695],[48.027147119812675,49.46079746400305],[48.031906041824335,49.46912557752239],[48.0152498147837,49.47745369104359],[48.031906041824335,49.48102288255269],[48.027147119812675,49.490540726576015],[48.01762927578953,49.49410991808414],[48.01287035377787,49.504817492610556],[48.00454224025755,49.504817492610556],[47.992644935228576,49.48816126556992],[47.97836816919377,49.48578180456293],[47.965281133660994,49.513145606129896],[47.95338382863202,49.508386684118676],[47.936727601591386,49.5238531806572],[47.94386598460879,49.52980183317231],[47.96171194215234,49.52504291115932],[47.967660594666825,49.52980183317231],[47.955763289637765,49.53812994669174],[47.958142750643596,49.54407859920596],[47.98193736070243,49.53575048568653],[47.98907574371983,49.54526832970896],[47.97598870818794,49.55597590423626],[47.98312709120535,49.573821861778924],[47.97004005567257,49.59404728032955],[47.96647086416391,49.57739105328891],[47.958142750643596,49.57739105328891],[47.94743517611754,49.59047808881947],[47.95100436762619,49.60237539384889],[47.9379173320943,49.60713431586011],[47.94386598460879,49.61308296837521],[47.95695302014068,49.608324046364],[47.95457355913485,49.62735973441064],[47.96885032516974,49.62854946491275],[47.95933248114651,49.642826230949154],[47.94862490662045,49.64163650044517],[47.934348140585556,49.652344074972476],[47.94743517611754,49.660672188491816],[47.94386598460879,49.68803599005878],[47.93315841008264,49.70469221709932],[47.916502183042006,49.70350248659632],[47.914122722036176,49.71302033061964],[47.90698433901886,49.71896898313484],[47.89746649499483,49.71421006112264],[47.89746649499483,49.726107366152064],[47.880810267954196,49.72253817464385],[47.87605134594263,49.71302033061964],[47.86653350191939,49.71183060011752],[47.86177457990773,49.72253817464385],[47.84868754437584,49.71539979162662],[47.841549161358444,49.724917635649945],[47.81775455129961,49.724917635649945],[47.8034777852648,49.734435479673266],[47.808236707276464,49.75823008973113],[47.7963394022474,49.76774793375445],[47.770165331183534,49.76774793375445],[47.749939912633444,49.77964523878378],[47.74161179911312,49.76536847274835],[47.728524763581234,49.77012739476046],[47.72733503307832,49.78083496928687],[47.70354042302019,49.78916308280621],[47.69402257899705,49.78083496928687],[47.68688419597885,49.795111735322294],[47.680935543464365,49.78797335230321],[47.65595120290341,49.80225011833952],[47.660710124914985,49.812957692864956],[47.657140933406325,49.82247553688926],[47.66427931642373,49.8379420334268],[47.65357174189758,49.84270095543802],[47.63810524535986,49.84389068594191],[47.634536053851114,49.883151792536424],[47.650002550388834,49.891479906057626],[47.654761472400494,49.91765397712149],[47.63810524535986,49.92003343812759],[47.62501820982797,49.93549993466602],[47.60836198278654,49.94144858717935],[47.59289548624882,49.959294544723875],[47.545306266131945,49.98784807679384],[47.49890677651879,49.99379672930904],[47.48819920199264,50.00807349534349],[47.4715429749513,50.01640160886292],[47.46559432243672,50.031868105401344],[47.43228186835554,50.037816757915564],[47.41681537181782,50.055662715460095],[47.39064130075315,50.06093571855399],[47.39064130075315,50.074022754085526],[47.37041588220377,50.09900709464728],[47.33829315862471,50.12518116571114],[47.30260124353761,50.13945793174568],[47.24430444889468,50.13350927923057],[47.196715228777805,50.13350927923057],[47.18005900173717,50.138268201241786],[47.15983358318779,50.12042224369904],[47.12176220709424,50.07878167609665],[47.09915732753903,50.072833023581545],[47.07893190898974,50.05974598805001],[47.06465514295493,50.05498706603888],[47.03848107189027,50.063315179558224],[47.00754807881483,50.076402215090646],[46.99208158227711,50.06926383207333],[46.98256373825317,50.088299520119975],[46.961148589200874,50.084730328611855],[46.9563896671893,50.09543790313729],[46.945682092663155,50.093058442131195],[46.924266943610945,50.07878167609665],[46.901662064055024,50.08592005911397],[46.88024691500273,50.082350867604866],[46.85407284393895,50.084730328611855],[46.84455499991492,50.074022754085526],[46.8219501203598,50.079971406600635],[46.78387874426696,50.066884371067324],[46.75532521219655,50.06212544905611],[46.72320248861811,50.05141787453067],[46.69345922604479,50.002638923911064],[46.67799272950707,50.006208115419184],[46.66133650246652,49.99906973240196],[46.6458700059288,50.02167461195771],[46.62564458737862,50.03833083899825],[46.60184997732058,50.056176796540996],[46.5959013248061,50.09186871162819],[46.57805536726255,50.14183739275178],[46.568537523239314,50.171580655324746],[46.554260757203714,50.18109849934807],[46.530466147145674,50.17514984683296],[46.5185688421167,50.19299580437651],[46.47335908300566,50.20132391789683],[46.42220067138004,50.20727257041202],[46.42458013238587,50.245343946504335],[46.41863147987139,50.27627693958039],[46.37580118176688,50.2822255920955],[46.33178115315876,50.310779124164576],[46.31036600410655,50.310779124164576],[46.297278968574574,50.325055890200005],[46.24850001795478,50.326245620703986],[46.24850001795478,50.314348315674565],[46.19972106733508,50.31910723768489],[46.17116753526539,50.32981481221122],[46.14499346420161,50.314348315674565],[46.12952696766309,50.326245620703986],[46.10692208810788,50.30602020215336],[46.0736096340259,50.31315858517067],[46.04624583245912,50.31791750718278],[46.0379177189388,50.30007154963825],[46.01769230038951,50.30007154963825],[46.00698472586336,50.3202969681879],[45.99270795982776,50.32267642919399],[45.97843119379296,50.294122897124026],[45.94987766172335,50.30007154963825],[45.948687931220434,50.3202969681879],[45.96058523624941,50.33933265623454],[45.94987766172335,50.34885050025786],[45.93679062619137,50.37859376283083],[45.94511873971177,50.41904459993021],[45.92846251267034,50.45711597602438],[45.91418574663554,50.47020301155503],[45.90365752816313,50.43343615384022],[45.922161703122896,50.40452338046546],[45.92097197261998,50.38310823141184],[45.8793314050184,50.37596984839452],[45.85315733395382,50.354554699341875],[45.80794757484349,50.347416316324555],[45.77225565975568,50.32124224526069],[45.73061509215418,50.28436059967041],[45.683025872037305,50.24509949307501],[45.67469775851699,50.21059730848994],[45.62353934689137,50.18204377642086],[45.57238093526584,50.17133620189365],[45.53906848118457,50.14159293932059],[45.53906848118457,50.110659946244624],[45.5200327931382,50.09400371920398],[45.49266899157062,50.06782964814012],[45.4557873459806,50.040465846573156],[45.43675165793343,50.01786096701839],[45.42961327491602,49.98335878243235],[45.41057758686965,49.95004632835116],[45.38202405479995,49.91792360477299],[45.36179863624986,49.89531872521734],[45.37012674977089,49.84297058308951],[45.389162437817355,49.78705324945258],[45.365367827758604,49.76682783090196],[45.33298071962432,49.752947641702086],[45.32108341459454,49.737481145163656],[45.309186109565566,49.69465084705915],[45.30323745705099,49.67323569800651],[45.28777096051327,49.66490758448619],[45.23780227939066,49.658958931971966],[45.20330009480647,49.6232670168838],[45.15928006619835,49.5840059102884],[45.10812165457273,49.51619127162215],[45.0641016259654,49.46622259049856],[45.04625566842114,49.43528959742348],[45.00580483132247,49.36985441976323],[44.98557941277309,49.329403582664824],[44.976061568749145,49.28657328455846],[44.964164263720086,49.20329214935555],[44.937990192656216,49.1759283477877],[44.92847234863299,49.15451319873496],[44.897539355556745,49.09621640409203],[44.87493447600171,49.05695529749575],[44.847570674434934,49.04386826196519],[44.80593010683255,49.028401765426665],[44.78451495778034,49.01293526888912],[44.753581964704104,48.98676119782526],[44.72145924112575,48.962966587765536],[44.7036132835822,48.93798224720556],[44.68814678704368,48.890393027088066],[44.67981867352345,48.84637299848145],[44.635798644916036,48.805922161381176],[44.60129646033105,48.7726097073],[44.571553197758526,48.73691779221281],[44.53943047417946,48.70241560762774],[44.50968721160685,48.6762415365629],[44.520394786133,48.641739351979595],[44.533481821664886,48.636980429967494],[44.571553197758526,48.62984204695018],[44.59891699932531,48.61556528091573],[44.62747053139492,48.59296040135901],[44.625091070389175,48.569165791301245],[44.63835400658337,48.553326850895246],[44.664528077648036,48.544998737375906],[44.69903026223213,48.54618846787802],[44.77160382290995,48.54618846787802],[44.79539843296799,48.540239815364686],[44.82276223453548,48.542619276369805],[44.816813582021084,48.533101432346484],[44.79182924145933,48.52001439681406],[44.76922436190412,48.4985992477623],[44.80372654648911,48.50097870876742],[44.82990061755297,48.50097870876742],[44.877489837669756,48.466476524184124],[44.92507905778583,48.44863056663871],[44.97861693041719,48.451010027645694],[45.053569952100844,48.467666254686236],[45.10829755523512,48.464097063177135],[45.165404619375224,48.460527871669015],[45.19038895993609,48.471235446194456],[45.22370141401816,48.47956355971566],[45.264152251116826,48.458148410662034],[45.302223627210466,48.44149218362237],[45.31650039324527,48.48432248172688],[45.339105272800396,48.48432248172688],[45.339105272800396,48.50811709178473],[45.34743338632071,48.52239385782016],[45.37836637939695,48.51882466631194],[45.46164751460092,48.4962197867562],[45.54730811081063,48.50811709178473],[45.556825954833776,48.52239385782016],[45.61869194098554,48.51287601379684],[45.63534816802609,48.4985992477623],[45.66271196959367,48.472425176698344],[45.684127118645875,48.460527871669015],[45.68055792713713,48.43078460909605],[45.68055792713713,48.401041346522106],[45.684127118645875,48.378436466968225],[45.73885472178015,48.37010835344702],[45.768597984352674,48.3570213179146],[45.79715151642317,48.3570213179146],[45.830463970504354,48.35345212640638],[45.88043265162705,48.33679589936584],[45.922073219229354,48.32846778584464],[45.96490351733385,48.33203697735374],[45.99940570191875,48.33679589936584],[46.04342573052617,48.32132940282732],[46.075548454105316,48.30110398427856],[46.104101986174925,48.27968883522502],[46.12908632673659,48.25113530315506],[46.13077628380314,48.23930560368962],[46.37284836711308,48.19444300529651],[46.37536054083967,48.20235635253536],[46.383688654359986,48.235668806618406],[46.39152619033406,48.242946518593826]]]]}},{"type":"Feature","properties":{"kind":"district","id":"uyezd-1897-845","name":"Внутренняя Киргизская орда","provinceId":"gubernia-1897-6"},"geometry":{"type":"MultiPolygon","coordinates":[[[[47.94064471205467,47.84638747092045],[47.963249591609525,47.835679896394154],[48.01440800323523,47.80355717281509],[48.05723830134018,47.78571121527056],[48.1405194365438,47.72384522911942],[48.20714434470758,47.65008193793894],[48.272579522367465,47.58821595178691],[48.3415838915369,47.522780774127554],[48.39393203366499,47.47519155401006],[48.42367529623814,47.45258667445432],[48.448659636799356,47.43117152540344],[48.476023438366134,47.416894759367125],[48.53907915502046,47.414515298362005],[48.56763268709042,47.37644392226775],[48.6211705597217,47.31100874460759],[48.66994951034095,47.24319410594222],[48.71277980844599,47.20155353833984],[48.76512795057479,47.14087728269081],[48.81390690119413,47.0861496795569],[48.88767019237469,46.99810962234099],[48.944777256514705,46.92672579216742],[49.000694590151454,46.86129061450539],[49.04233515775402,46.81132193338456],[49.09111410837336,46.75778406075187],[49.10532567856477,46.75974427733059],[49.1951235430932,46.774236151721354],[49.27953356478327,46.745220206765396],[49.393354182905036,46.768794049601745],[50.02416122086674,46.90219051999508],[50.14411844112336,46.89152765597227],[50.20276419324882,46.955504840109136],[50.55997013801298,47.11011636843989],[50.993842575443786,47.39936466006043],[50.99314526358114,47.40494315496562],[50.98957607207171,47.434686417537705],[51.009801490621726,47.454911836088286],[51.03597556168563,47.456101566591315],[51.06690855476154,47.457291297093434],[51.09665181733402,47.47037833262584],[51.113308044374605,47.50488051721095],[51.118066966386664,47.53581351028515],[51.08237505129949,47.585782191409635],[51.06333936325291,47.629802220015335],[51.05382151922879,47.7095141637119],[51.044303675205526,47.77375961087],[51.04906259721753,47.803502873442085],[51.059770171744276,47.82372829199085],[51.07285720727617,47.86179966808595],[51.0740469377788,47.90938888820165],[51.05501124973142,47.98553164038822],[51.04906259721753,48.042638704528144],[51.05501124973142,48.09141765514778],[51.06214963275028,48.14257606677256],[51.05025232772016,48.1699398683395],[51.02288852615368,48.20087286141552],[50.98005822804839,48.259169656057566],[50.96221227050444,48.291292379637525],[50.94317658245785,48.312707528691135],[50.8932079013353,48.323415103216576],[50.855136525242926,48.34126106075837],[50.80754730512564,48.36624540132016],[50.76233754601435,48.39122974188285],[50.71355859539602,48.40431677741344],[50.68143587181669,48.41859354344797],[50.65288233974678,48.41978327395191],[50.619569885664816,48.44000869250249],[50.588636892589705,48.456664919541254],[50.557703899513,48.464993033062456],[50.54342713347842,48.486408182114246],[50.502976296379984,48.49592602613848],[50.460145998274754,48.51734117519209],[50.38757243759699,48.55541255128537],[50.299532380381265,48.58991473586866],[50.256702082276036,48.637503955986176],[50.21744097568023,48.68866236761096],[50.17461067757495,48.72197482169213],[50.14367768449824,48.7636153892945],[50.09608846438255,48.770753772311764],[50.02470463420741,48.80406622639293],[49.94261322950632,48.836188949971984],[49.8914548178812,48.85879382952771],[49.830778562231956,48.888537092099796],[49.79032772513273,48.899244666627965],[49.75701527105156,48.9147111631637],[49.79032772513273,48.94683388674366],[49.804604491168845,48.965869574790304],[49.82601964022069,48.98847445434603],[49.865280746816495,49.00275122037965],[49.90930077542441,49.028925291444466],[49.94618242101575,49.03606367446082],[49.991392180125445,49.04439178798202],[50.00566894616156,49.051530170999285],[49.98663325811418,49.063427476028664],[49.96283864805554,49.06818639804078],[49.958079726044275,49.05985828452049],[49.94380296000975,49.063427476028664],[49.93904403799769,49.071755589549866],[49.95213107352964,49.08603235558439],[49.93428511598563,49.10030912162074],[49.90930077542441,49.09198100809954],[49.880747243355245,49.09079127759651],[49.82601964022069,49.105068043631036],[49.80936341318011,49.12172427067253],[49.77486122859477,49.137190767210996],[49.7760509590982,49.15384699425067],[49.79389691664136,49.16455456877611],[49.81293260468874,49.19786702285728],[49.8176915267,49.22166163291786],[49.827209370723324,49.225230824425125],[49.839106675752646,49.247835703981764],[49.84386559776391,49.25140489548903],[49.84505532826728,49.24307678196965],[49.85338344178717,49.24188705146662],[49.85933209430186,49.25616381750115],[49.878367782349244,49.26092273951326],[49.88550616536651,49.269250853033554],[49.87598832134324,49.2882865410802],[49.87717805184582,49.30851195963078],[49.836727214746645,49.334686030694684],[49.829588831729325,49.34301414421316],[49.839106675752646,49.35848064075162],[49.82245044871206,49.366808754272824],[49.81055314368274,49.38227525081038],[49.82007098770606,49.39655201684673],[49.811742874186166,49.41439797438852],[49.81650179619743,49.42391581841275],[49.829588831729325,49.432243931933044],[49.847434789273336,49.44057204545243],[49.84505532826728,49.46198719450604],[49.80936341318011,49.47031530802633],[49.799845569156844,49.48935099607297],[49.799845569156844,49.50600722311265],[49.78199961161283,49.51076614512476],[49.75225634904035,49.53099156367534],[49.7391693135084,49.529801833172314],[49.73203093049034,49.519094258645964],[49.7129952424437,49.52742237216535],[49.70347739842043,49.51552506713688],[49.677303327356526,49.52147371965111],[49.65707790880731,49.53456075518261],[49.64042168176593,49.53099156367534],[49.632093568245296,49.53812994669261],[49.595211922655494,49.539319677196545],[49.53810485851568,49.57025267027075],[49.48099779437507,49.6023753938498],[49.39533719816541,49.607134315860094],[49.35369663056355,49.59642674133465],[49.32514309849364,49.616652159884325],[49.307297140950425,49.64282623094914],[49.290640913908305,49.64639542245732],[49.28707172239967,49.65710299698367],[49.29658956642294,49.671379763019104],[49.335850673019536,49.67494895452637],[49.367973396598074,49.679707876540306],[49.4060447726913,49.67375922402425],[49.45482372331122,49.679707876540306],[49.458392914819854,49.693984642573014],[49.44054695727584,49.69517437307695],[49.42864965224652,49.70588194760421],[49.43816749626984,49.724917635650854],[49.417942077720625,49.757040359228995],[49.38700908464551,49.79511173532228],[49.34893770855149,49.79868092683046],[49.32157390698501,49.812957692864984],[49.30253821893763,49.81533715387195],[49.27874360887978,49.82842418940345],[49.257328459827136,49.84864960795312],[49.254948998821874,49.865305834993706],[49.23115438876249,49.873633948514],[49.20617004820201,49.89504909756579],[49.179995977138105,49.898618289074875],[49.16571921110358,49.909325863602135],[49.16571921110358,49.91765397712152],[49.176426785629474,49.921223168629695],[49.18356516864674,49.93549993466604],[49.176426785629474,49.95453562271268],[49.15977055858809,49.9592945447248],[49.1466835230562,49.97000211924933],[49.1098018774656,49.98308915478174],[49.087196997910326,49.98189942428053],[49.04793589131452,49.990227537799],[49.02176182024988,49.99736592081808],[48.971793139128124,50.017591339366845],[48.92539364951379,50.031868105401344],[48.8623379328592,49.99141726830294],[48.81117952123358,49.956915083717874],[48.75764164860302,49.94144858717935],[48.69696539295426,49.92003343812759],[48.63271994579675,49.89861828907485],[48.57085395964508,49.880772331532185],[48.5161263565108,49.86768529599976],[48.49828039896734,49.85459826046734],[48.47805498041796,49.820096075882276],[48.4602090228737,49.79154254381231],[48.412619802757625,49.77488631677167],[48.391204653704534,49.76417874224624],[48.35789219962335,49.729676557661165],[48.325769476045,49.67019003251514],[48.30792351850065,49.642826230949154],[48.27104187291072,49.62260081239853],[48.21750400027936,49.60951377686611],[48.18062235468855,49.59285754982557],[48.138981787087054,49.5643040177556],[48.100910410993414,49.53931967719563],[48.07354660942663,49.517904528142],[48.04499307735702,49.46436665551029],[48.034285502830166,49.421536357405785],[48.03785469433882,49.39893147785004],[48.049751999368596,49.35134225773432],[48.027147119812675,49.350152527230435],[48.021198467298184,49.35610117974554],[48.024767658806844,49.36799848477496],[48.011680623274955,49.36918821527708],[47.99740385724015,49.3906033643307],[47.9795578996966,49.3906033643307],[47.97449666311099,49.3967893201574],[47.59107091227845,49.29423748082927],[47.03439652513279,49.2154251596432],[46.893401099117106,49.195463442241596],[46.84969166503952,49.12510389222937],[46.937110533194684,49.06566025933945],[46.8944016082048,48.931129267237324],[46.8778674539969,48.925932818771784],[46.83741661689752,48.86644629362674],[46.78268901376404,48.78554461942895],[46.71844356660654,48.702263484224176],[46.663715963472264,48.62493100153371],[46.60422943832641,48.542839596833815],[46.53998399116891,48.452420078611816],[46.49120504054921,48.384605439945474],[46.46265150847951,48.34415460284707],[46.425769862888785,48.28823726921014],[46.40673417484241,48.26444265915051],[46.40034488140062,48.25113530315506],[46.39152619033406,48.242946518593826],[46.64479580957877,48.146223588466825],[46.68374263412203,48.023213613798454],[46.68834296662812,48.00868388533721],[46.86451101105506,47.9424281267016],[46.906078751874894,47.983516712167635],[47.018905476957315,47.93314553564871],[46.98723481728506,47.86015289559526],[47.066411466465695,47.76577385111009],[47.17527935908908,47.74581266722255],[47.29800316531908,47.6325546288671],[47.2999825815486,47.60320071337727],[47.41430029584606,47.526821927487596],[47.4380878930069,47.73533093753451],[47.29301481319857,48.18713463776102],[47.39044413056045,48.200058934961845],[47.424946315145434,48.21076650948817],[47.49870960632608,48.226233006026604],[47.52369394688712,48.235750850049925],[47.61649292611495,48.24288923306723],[47.73546597640593,48.24169950256512],[47.810418998089496,48.208387048482074],[47.85205956569188,48.18578216892642],[47.888941211281896,48.17031567238976],[47.922253665363876,48.15127998434312],[47.91929054973803,48.09596849265842],[47.91868447385522,48.0846550761789],[47.928202317878366,48.0001842104721],[47.92939204838128,47.95259499035638],[47.942479083913256,47.92166199727943],[47.94128935341034,47.884780351690125],[47.94064471205467,47.84638747092045]]]]}}]}
