{"type":"FeatureCollection","features":[{"type":"Feature","properties":{"kind":"province","id":"gubernia-1897-33","name":"Калишская губерния"},"geometry":{"type":"MultiPolygon","coordinates":[[[[19.0550127275526,51.722817428905785],[19.081186798617267,51.7192482373958],[19.09546356465207,51.69545362733794],[19.05739218855843,51.687125513818515],[19.065720302079548,51.6740384782852],[19.024079734477162,51.6764179392913],[19.02170027347142,51.696643357841836],[18.993146741401723,51.69426389683582],[18.9634034788284,51.6740384782852],[19.00147485492204,51.65500279023945],[19.008613237939443,51.62169033615649],[19.00385431592787,51.580049768555966],[18.982439166874865,51.59313680408653],[18.94555752128485,51.587188151573194],[18.897968301167978,51.585998421069306],[18.876553152115772,51.576480577045984],[18.84918935054908,51.576480577045984],[18.837292045519305,51.5479270449769],[18.834912584513475,51.49557890284908],[18.809928243952523,51.4539383352467],[18.783754172888656,51.42181561166763],[18.78256444238574,51.4099183066383],[18.792082286408974,51.39921073211286],[18.820635818478582,51.39445181009978],[18.81825635747275,51.35043178149317],[18.839671506525047,51.339724206965954],[18.834912584513475,51.32901663243963],[18.859896925075137,51.31949878841631],[18.843240698033703,51.29808363936357],[18.845620159039534,51.28856579534104],[18.858707194572222,51.28618633433513],[18.89439910965932,51.29332471735235],[19.001474854922066,51.284996603832916],[19.0062337769337,51.26834037679238],[18.984818627880607,51.26001226327108],[18.984818627880607,51.25168414974996],[18.997905663413295,51.23859711421852],[18.99433647190464,51.21599223466278],[18.977680244863294,51.205284660136456],[18.993146741401723,51.17197220605607],[18.949126712793596,51.16721328404317],[18.937229407764622,51.15650570951773],[18.95864455681674,51.110106219904125],[18.952695904302235,51.089880801353516],[18.894399109659304,51.10534729789204],[18.87298396060701,51.070845113307854],[18.669540044608517,51.07441430481686],[18.651694087064968,51.05061969475723],[18.668350314105602,51.01849697118003],[18.667160583602687,50.998271552629404],[18.610750517570878,50.97628832459947],[18.573868871980952,50.99294455163913],[18.544125609407807,51.00008293465724],[18.503674772308425,51.01316997018878],[18.450136899677155,51.019118622703],[18.423962828613554,51.03577484974452],[18.431101211631045,51.05837972930026],[18.44180878615728,51.0667078428196],[18.4275320201223,51.07384622583869],[18.432290942133427,51.08931272237535],[18.403737410063375,51.10358948840988],[18.404927140566645,51.12143544595441],[18.370424955982283,51.14166086450406],[18.30261031731612,51.14166086450406],[18.259780019211085,51.155937630538595],[18.221708643118067,51.166645205065805],[18.193155111048014,51.165455474562805],[18.158652926462942,51.165455474562805],[18.153894004451814,51.18092197109946],[18.152704273948633,51.19400900663277],[18.14437616042796,51.211854964175515],[18.16460157897805,51.208285772666414],[18.162222117971687,51.23327011322817],[18.156273465457378,51.252305801275696],[18.149135082439887,51.26539283680634],[18.155083734954196,51.28918744686509],[18.133668585901635,51.28680798585997],[18.12534047238176,51.309412865415624],[18.136048046908087,51.328448553462266],[18.15032481294307,51.373658312571976],[18.16341184847487,51.3831761565953],[18.17173996199554,51.40340157514495],[18.187206458532906,51.41291941916827],[18.187206458532906,51.42243726319248],[18.17768861450985,51.43433456822092],[18.18482699752734,51.44385241224522],[18.153894004451814,51.45693944777666],[18.15032481294307,51.4676470223021],[18.12534047238176,51.471216213812085],[18.109873975843687,51.490251901857846],[18.114632897855525,51.50333893738937],[18.100356131820543,51.5176157034248],[18.115822628357908,51.540220582980545],[18.133668585901635,51.54378977448867],[18.152704273948633,51.54497950499176],[18.162222117971435,51.55330761851207],[18.16460157897805,51.567584384547416],[18.158652926462942,51.59018926410316],[18.087269096287944,51.59970710812559],[18.070612869247398,51.6127941436589],[18.05276691170367,51.634209292710665],[18.056336103212416,51.66276282478063],[18.07775125226489,51.67228066880493],[18.08607936578556,51.682988243330364],[18.075371791259325,51.70559312288611],[18.037300415165507,51.706782853389115],[18.011126344101907,51.710352044897235],[17.9861420035406,51.7377158464642],[17.968296045996873,51.750802881995725],[17.975434429014364,51.780546144568696],[17.925465747891838,51.7876845275869],[17.9337938614126,51.80672021563443],[17.98019335102629,51.80672021563443],[17.9861420035406,51.81980725116596],[17.981383081528673,51.844791591726825],[17.969485776500054,51.85192997474405],[17.938552783423727,51.875724584802796],[17.937363052921345,51.88762188983132],[17.92784520889749,51.906657577877965],[17.89929167682744,51.93164191843972],[17.870738144757475,51.95662625900147],[17.826718116150058,51.97090302503512],[17.79459539257135,51.98161059956242],[17.77436997402126,51.99826682660208],[17.751765094466403,52.012543592638394],[17.747006172454387,52.029199819678055],[17.719642370887605,52.03276901118804],[17.692278569320823,52.04704577722258],[17.660155845742114,52.092255536334065],[17.641120157695116,52.12199879890615],[17.642309888198387,52.144603678460996],[17.60423851210448,52.13865502594669],[17.626843391660135,52.16958801902186],[17.65063800171826,52.19814155109182],[17.687519647308896,52.21836696964147],[17.748195902957658,52.23383346618088],[17.798164584080094,52.26238699825085],[17.802923506091222,52.28261241680049],[17.79459539257135,52.31116594887045],[17.83385649916755,52.317114601384674],[17.865979222746347,52.333770828424335],[17.869548414255092,52.3754113960276],[17.890963563307565,52.37898058753582],[17.902860868336184,52.38849843155825],[17.90643005984493,52.413482772120005],[17.98495227303742,52.44084657368696],[18.0384901456686,52.46464118374571],[18.133668585901635,52.51223040386142],[18.17649888400667,52.48605633279845],[18.23598540915305,52.48367687179146],[18.299041125807374,52.5110406733602],[18.33830223240393,52.53959420543105],[18.348381673097663,52.50830809367287],[18.350761134103493,52.46190860405936],[18.355520056115065,52.44287291601272],[18.34600221209192,52.42502695846997],[18.362658439132556,52.41075019243543],[18.384073588185473,52.40004261790821],[18.404299006734853,52.39052477388489],[18.442370382828493,52.39052477388489],[18.45307795735455,52.40123234841211],[18.46854445389227,52.40004261790821],[18.50185690797363,52.375058277346376],[18.54468720607884,52.375058277346376],[18.589896965189883,52.366730163827036],[18.607742922733433,52.37981719935946],[18.570861277142708,52.39647342639911],[18.561343433119475,52.41312965343966],[18.54468720607884,52.41312965343966],[18.54468720607884,52.42621668897208],[18.53516936205561,52.4416831855106],[18.554205050102073,52.445252377018726],[18.601794270218946,52.429785880481184],[18.589896965189883,52.41550911444665],[18.61607103625375,52.40837073142942],[18.647004029329988,52.409560461931534],[18.67198836989094,52.40480153991943],[18.66484998687345,52.422647497463956],[18.677937022405427,52.428596149978176],[18.67674729190251,52.447631838025714],[18.712439206989618,52.44882156852782],[18.740992739060026,52.45595995154504],[18.761218157609317,52.45833941255114],[18.783823037165238,52.4476318380257],[18.80880737772619,52.44049345500848],[18.83141225728131,52.44644210752172],[18.84687875381903,52.44049345500848],[18.834981448790057,52.43454480249328],[18.818325221749422,52.42978588048118],[18.83379171828714,52.42145776696184],[18.848068484321946,52.42145776696184],[18.86472471136338,52.40718100092543],[18.901606356953305,52.39171450438877],[18.876622016392353,52.37505827734637],[18.850447945327776,52.35126366728851],[18.81951495225225,52.35126366728851],[18.81118683873202,52.33936636225918],[18.838550640298802,52.31319229119522],[18.87543228588944,52.32271013521854],[18.90398581795916,52.332227979241864],[18.92049974056922,52.29588564250663],[18.90741270503733,52.27566022395788],[18.926448393083795,52.26376291892757],[18.947863542136,52.24829642239003],[18.95619165565632,52.23401965635549],[18.947863542136,52.22450181233217],[18.926448393083795,52.237588847863705],[18.924068932077965,52.20427639378252],[18.9407251591186,52.198327741268216],[18.97641707420641,52.19713801076432],[19.018057641807996,52.19713801076432],[19.059698209410293,52.20427639378252],[19.102528507514794,52.20308666327854],[19.129892309082287,52.20546612428464],[19.165584224169386,52.19594828026132],[19.194137756239794,52.191189358250995],[19.225070749315233,52.1947585497592],[19.247675628870443,52.20546612428464],[19.283367543958164,52.20546612428464],[19.295264848987227,52.19237908875311],[19.34761299111576,52.191189358250995],[19.353561643630158,52.18048178372378],[19.371407601173797,52.17810232271857],[19.37854598419111,52.15549744316283],[19.37854598419111,52.14241040763138],[19.389253558717257,52.126943911092866],[19.429704395816728,52.14003094662529],[19.467775771910368,52.14478986863739],[19.49513957347706,52.14597959913951],[19.513882566761254,52.14109012263011],[19.498708764985807,52.13170283310413],[19.502277956494552,52.11623633656748],[19.493949842974146,52.10433903153717],[19.49513957347706,52.09363145701174],[19.516554722529357,52.08887253499874],[19.534400680072817,52.05437035041545],[19.560574751137484,52.053180619911465],[19.56652340365197,52.036524392870916],[19.552246637617166,52.0246270878415],[19.555815829125912,52.01867843532817],[19.545108254599764,52.01035032180697],[19.534400680072817,52.0246270878415],[19.50822660900904,52.02343735733939],[19.501088225991637,52.00678113029884],[19.51060607001483,51.985365981245195],[19.428323720911862,51.97398275729756],[19.39620099733349,51.9478086862337],[19.29507390458526,51.94661895573158],[19.274848486035967,51.93710111170826],[19.259381989498248,51.94423949472549],[19.245105223463355,51.93591138120428],[19.249864145475016,51.92639353718096],[19.242725762457614,51.921634615169744],[19.229638726925636,51.92044488466763],[19.215361960890032,51.89308108309978],[19.22606953541618,51.87404539505314],[19.22844899642201,51.85738916801259],[19.207033847369804,51.849061054491386],[19.189187889826254,51.84787132398927],[19.151116513732614,51.84192267147407],[19.105906754622282,51.844302132480166],[19.059507265008325,51.85025078499528],[19.044040768470605,51.844302132480166],[19.04523049897352,51.82169725292442],[19.00953858388571,51.8193177919202],[19.024079734477162,51.78706287606205],[19.0550127275526,51.722817428905785]]]]}},{"type":"Feature","properties":{"kind":"district","id":"uyezd-1897-139","name":"Ленчицкий","provinceId":"gubernia-1897-33"},"geometry":{"type":"MultiPolygon","coordinates":[[[[19.513882566761676,52.141090122630374],[19.49513957347706,52.14597959913951],[19.467775771910368,52.14478986863739],[19.429704395816728,52.14003094662529],[19.389253558717257,52.126943911092866],[19.37854598419111,52.14241040763138],[19.37854598419111,52.15549744316283],[19.371407601173797,52.17810232271857],[19.353561643630158,52.18048178372378],[19.34761299111576,52.191189358250995],[19.295264848987227,52.19237908875311],[19.283367543958164,52.20546612428464],[19.247675628870443,52.20546612428464],[19.225070749315233,52.1947585497592],[19.194137756239794,52.191189358250995],[19.165584224169386,52.19594828026132],[19.129892309082287,52.20546612428464],[19.102528507514794,52.20308666327854],[19.059698209410293,52.20427639378252],[19.018057641807996,52.19713801076432],[18.97641707420641,52.19713801076432],[18.9407251591186,52.198327741268216],[18.932206101196304,52.1845650563146],[18.916739604658584,52.1845650563146],[18.89532445560629,52.169098559776074],[18.885806611583146,52.15125260223341],[18.88699634208606,52.13697583619701],[18.903652569126606,52.12983745317979],[18.908411491138267,52.12388880066557],[18.9250677181789,52.11912987865435],[18.929826640190473,52.101283921109825],[18.927447179184732,52.085817424573165],[18.982174782319007,52.081058502560175],[19.02262561941839,52.07273038904074],[19.010728314388615,52.03703847395356],[18.995261817850896,52.02514116892414],[18.990502895839235,52.014433594397815],[18.928636909687647,52.004915750374494],[18.913170413149928,51.96922383528731],[18.926257448681817,51.96803410478333],[18.93577529270496,51.944239494725466],[18.961949363769627,51.944239494725466],[18.9738466687986,51.91092704064428],[18.932206101196304,51.929962728690924],[18.901273108120865,51.928772998187036],[18.881047689571485,51.924014076176704],[18.871529845547542,51.91092704064428],[18.872719576050457,51.88356323907644],[18.9179293351615,51.85144051549737],[18.9738466687986,51.82050752242229],[19.0095385838857,51.81931779192017],[19.04523049897351,51.82169725292441],[19.044040768470595,51.84430213248015],[19.059507265008314,51.850250784995254],[19.10590675462227,51.84430213248015],[19.151116513732603,51.84192267147405],[19.189187889826243,51.84787132398925],[19.207033847369793,51.849061054491365],[19.228448996422,51.857389168012574],[19.22606953541617,51.874045395053116],[19.21536196089002,51.89308108309976],[19.229638726925625,51.9204448846676],[19.242725762457603,51.92163461516972],[19.249864145475005,51.92639353718094],[19.245105223463344,51.935911381204264],[19.259381989498237,51.944239494725466],[19.274848486035957,51.937101111708245],[19.295073904585248,51.946618955731566],[19.39620099733348,51.94780868623368],[19.428323720911834,51.97398275729755],[19.51060607001487,51.98536598124521],[19.501088225991637,52.00678113029884],[19.50822660900904,52.02343735733939],[19.534400680072817,52.0246270878415],[19.545108254599764,52.01035032180697],[19.555815829125912,52.01867843532817],[19.552246637617166,52.0246270878415],[19.56652340365197,52.036524392870916],[19.560574751137484,52.053180619911465],[19.534400680072817,52.05437035041545],[19.516554722529357,52.08887253499874],[19.49513957347706,52.09363145701174],[19.493949842974146,52.10433903153717],[19.502277956494552,52.11623633656748],[19.498708764985807,52.13170283310413],[19.513882566761676,52.141090122630374]]]]}},{"type":"Feature","properties":{"kind":"district","id":"uyezd-1897-140","name":"Кольский","provinceId":"gubernia-1897-33"},"geometry":{"type":"MultiPolygon","coordinates":[[[[18.903985817959136,52.332227979241864],[18.87543228588944,52.32271013521854],[18.838550640298802,52.31319229119522],[18.81118683873202,52.33936636225918],[18.81951495225225,52.35126366728851],[18.850447945327776,52.35126366728851],[18.876622016392353,52.37505827734637],[18.901606356953305,52.39171450438877],[18.86472471136338,52.40718100092543],[18.848068484321946,52.42145776696184],[18.83379171828714,52.42145776696184],[18.818325221749422,52.42978588048118],[18.834981448790057,52.43454480249328],[18.84687875381903,52.44049345500848],[18.83141225728131,52.44644210752172],[18.80880737772619,52.44049345500848],[18.783823037165238,52.4476318380257],[18.761218157609317,52.45833941255114],[18.740992739060026,52.45595995154504],[18.71243920698961,52.448821568527826],[18.67674729190251,52.447631838025714],[18.677937022405427,52.428596149978176],[18.66484998687345,52.422647497463956],[18.67198836989094,52.40480153991943],[18.647004029329988,52.409560461931534],[18.61607103625375,52.40837073142942],[18.589896965189883,52.41550911444665],[18.601794270218946,52.429785880481184],[18.554205050102073,52.445252377018726],[18.53516936205561,52.4416831855106],[18.54468720607884,52.42621668897208],[18.54468720607884,52.41312965343966],[18.561343433119475,52.41312965343966],[18.570861277142708,52.39647342639911],[18.607742922733433,52.37981719935946],[18.589896965189883,52.366730163827036],[18.54468720607884,52.375058277346376],[18.50185690797363,52.375058277346376],[18.46854445389227,52.40004261790821],[18.45307795735455,52.40123234841211],[18.442370382828493,52.39052477388489],[18.404299006734853,52.39052477388489],[18.384073588185473,52.40004261790821],[18.31711543118899,52.39871654683888],[18.293320821130955,52.37849112829012],[18.277854324593235,52.35231705722438],[18.290941360125125,52.30710729811467],[18.333771658230336,52.313055950629874],[18.384930069855155,52.313055950629874],[18.425380906954626,52.29877918459347],[18.450365247515577,52.30829702861679],[18.469400935562753,52.29520999308535],[18.468211205059838,52.26427700001027],[18.484867432100472,52.25713861699295],[18.507472311655683,52.248810503471745],[18.478918779585985,52.233344006933315],[18.430139828966198,52.19884182234913],[18.431329559469113,52.1869445173206],[18.451554978018493,52.160770446256734],[18.471780396568583,52.15482179374153],[18.49557500662662,52.12745799217369],[18.469400935562753,52.06202281451353],[18.54673341825215,52.04893577898111],[18.59194317736248,52.03346928244357],[18.63001455345612,52.016813055402935],[18.662137277034475,52.018002785906916],[18.675224312567163,52.02514116892414],[18.707347036145517,52.02038224691115],[18.69663946161937,52.03584874344958],[18.700208653128115,52.065592006022634],[18.745418412239157,52.06321254501742],[18.783489788332,52.07273038904074],[18.81085358989949,52.087007155075284],[18.860822271021394,52.087007155075284],[18.89532445560629,52.085817424573165],[18.927447179184732,52.085817424573165],[18.929826640190473,52.101283921109825],[18.9250677181789,52.11912987865435],[18.908411491138267,52.12388880066557],[18.903652569126606,52.12983745317979],[18.88699634208606,52.13697583619701],[18.885806611583146,52.15125260223341],[18.89532445560629,52.169098559776074],[18.916739604658584,52.1845650563146],[18.932206101196304,52.1845650563146],[18.9407251591186,52.198327741268216],[18.924068932077965,52.20427639378252],[18.926448393083795,52.237588847863705],[18.947863542136,52.22450181233217],[18.95619165565632,52.23401965635549],[18.947863542136,52.24829642239003],[18.926448393083795,52.26376291892757],[18.90741270503733,52.27566022395788],[18.92049974056922,52.29588564250663],[18.903985817959136,52.332227979241864]]]]}},{"type":"Feature","properties":{"kind":"district","id":"uyezd-1897-141","name":"Слупецкий","provinceId":"gubernia-1897-33"},"geometry":{"type":"MultiPolygon","coordinates":[[[[18.384073588185473,52.40004261790821],[18.362658439132556,52.41075019243543],[18.34600221209192,52.42502695846997],[18.355520056115065,52.44287291601272],[18.350761134103493,52.46190860405936],[18.348381673097663,52.50830809367287],[18.33830223240393,52.53959420543105],[18.299041125807374,52.5110406733602],[18.23598540915305,52.48367687179146],[18.17649888400667,52.48605633279845],[18.133668585901635,52.51223040386142],[18.0384901456686,52.46464118374571],[17.98495227303742,52.44084657368696],[17.90643005984493,52.413482772120005],[17.902860868336184,52.38849843155825],[17.890963563307565,52.37898058753582],[17.869548414255092,52.3754113960276],[17.865979222746347,52.333770828424335],[17.83385649916755,52.317114601384674],[17.79459539257135,52.31116594887045],[17.802923506091222,52.28261241680049],[17.798164584080094,52.26238699825085],[17.748195902957658,52.23383346618088],[17.687519647308896,52.21836696964147],[17.65063800171826,52.19814155109182],[17.626843391660135,52.16958801902186],[17.60423851210448,52.13865502594669],[17.642309888198387,52.144603678460996],[17.641120157695116,52.12199879890615],[17.660155845742114,52.092255536334065],[17.692278569320823,52.04704577722258],[17.719642370887605,52.03276901118804],[17.747006172454387,52.029199819678055],[17.751765094466403,52.012543592638394],[17.778167513368953,52.026330899426284],[17.803151853929904,52.03465901294749],[17.84955134354386,52.03703847395359],[17.86501784008158,52.027520629930265],[17.887622719636703,52.01443359439784],[17.953057897297125,52.00372601987054],[17.993508734396507,51.9894492538361],[18.016113613951717,51.97993140981278],[18.006595769928484,52.00015682836242],[18.01254442244297,52.01443359439784],[18.00302657841974,52.03465901294749],[18.02563145797495,52.04536658747293],[18.047046607027866,52.05726389250324],[18.0637028340685,52.07629958054988],[18.054184990045357,52.09057634658353],[18.036339032501008,52.09771472960075],[17.99231900389359,52.101283921109854],[17.962575741320357,52.115560687145276],[17.948298975285464,52.13459637519104],[17.980421698864617,52.15720125474766],[17.999457386911082,52.16790882927399],[18.000647117413997,52.191703439330965],[17.950678436291295,52.189323978326726],[17.910227599192623,52.190513708828846],[17.919745443215856,52.20360074436127],[17.92093517371877,52.21430831888671],[17.94948870578838,52.22263643240791],[17.99231900389359,52.24048238995057],[18.013734152945887,52.264277000010296],[18.036339032501008,52.260707808500214],[18.088687174629452,52.267846191517535],[18.164829926816022,52.27498457453662],[18.202901302909574,52.3023483761026],[18.15055316078113,52.36540409275773],[18.120809898208606,52.409424121364346],[18.166019657318937,52.409424121364346],[18.182675884360282,52.39752681633679],[18.2266959129677,52.423700887400656],[18.24216240950542,52.417752234886436],[18.263577558558424,52.423700887400656],[18.281423516101974,52.38325005030039],[18.293320821130955,52.37849112829012],[18.31711543118899,52.39871654683888],[18.384073588185473,52.40004261790821]]]]}},{"type":"Feature","properties":{"kind":"district","id":"uyezd-1897-142","name":"Конинский","provinceId":"gubernia-1897-33"},"geometry":{"type":"MultiPolygon","coordinates":[[[[18.293320821130955,52.37849112829012],[18.281423516101974,52.38325005030039],[18.263577558558424,52.423700887400656],[18.24216240950542,52.417752234886436],[18.2266959129677,52.423700887400656],[18.182675884360282,52.39752681633679],[18.166019657318937,52.409424121364346],[18.120809898208606,52.409424121364346],[18.15055316078113,52.36540409275773],[18.202901302909574,52.3023483761026],[18.164829926816022,52.27498457453662],[18.088687174629452,52.267846191517535],[18.036339032501008,52.260707808500214],[18.013734152945887,52.264277000010296],[17.99231900389359,52.24048238995057],[17.94948870578838,52.22263643240791],[17.92093517371877,52.21430831888671],[17.919745443215856,52.20360074436127],[17.910227599192623,52.190513708828846],[17.950678436291295,52.189323978326726],[18.000647117413997,52.191703439330965],[17.999457386911082,52.16790882927399],[17.980421698864617,52.15720125474766],[17.948298975285464,52.13459637519104],[17.962575741320357,52.115560687145276],[17.99231900389359,52.101283921109854],[18.036339032501008,52.09771472960075],[18.054184990045357,52.09057634658353],[18.0637028340685,52.07629958054988],[18.047046607027866,52.05726389250324],[18.02563145797495,52.04536658747293],[18.00302657841974,52.03465901294749],[18.01254442244297,52.01443359439784],[18.006595769928484,52.00015682836242],[18.016113613951717,51.97993140981278],[18.034223956051814,51.97266083451812],[18.16271485036683,51.994075983569886],[18.235288411044653,52.0000246360842],[18.266221404120092,51.988127331054784],[18.282877631160638,52.03333709016529],[18.2947749361905,52.049993317205924],[18.32570792926594,52.04285493418861],[18.326897659768765,52.03214735966317],[18.349502539323975,52.02381924614197],[18.380435532400213,52.02857816815505],[18.410178794972737,52.063080352738346],[18.469400935562753,52.06202281451353],[18.49557500662662,52.12745799217369],[18.471780396568583,52.15482179374153],[18.451554978018493,52.160770446256734],[18.431329559469113,52.1869445173206],[18.430139828966198,52.19884182234913],[18.478918779585985,52.233344006933315],[18.507472311655683,52.248810503471745],[18.484867432100472,52.25713861699295],[18.468211205059838,52.26427700001027],[18.469400935562753,52.29520999308535],[18.450365247515577,52.30829702861679],[18.425380906954626,52.29877918459347],[18.384930069855155,52.313055950629874],[18.333771658230336,52.313055950629874],[18.290941360125125,52.30710729811467],[18.277854324593235,52.35231705722438],[18.293320821130955,52.37849112829012]]]]}},{"type":"Feature","properties":{"kind":"district","id":"uyezd-1897-143","name":"Калишский","provinceId":"gubernia-1897-33"},"geometry":{"type":"MultiPolygon","coordinates":[[[[17.751765094466403,52.012543592638394],[17.77436997402126,51.99826682660208],[17.79459539257135,51.98161059956242],[17.826718116150058,51.97090302503512],[17.870738144757475,51.95662625900147],[17.89929167682744,51.93164191843972],[17.92784520889749,51.906657577877965],[17.937363052921345,51.88762188983132],[17.938552783423727,51.875724584802796],[17.969485776500054,51.85192997474405],[17.981383081528673,51.844791591726825],[17.9861420035406,51.81980725116596],[17.98019335102629,51.80672021563443],[17.9337938614126,51.80672021563443],[17.925465747891838,51.7876845275869],[17.975434429014364,51.780546144568696],[17.968296045996873,51.750802881995725],[17.9861420035406,51.7377158464642],[18.011126344101907,51.710352044897235],[18.037300415165507,51.706782853389115],[18.075371791259325,51.70559312288611],[18.08607936578556,51.682988243330364],[18.07775125226489,51.67228066880493],[18.056336103212416,51.66276282478063],[18.05276691170367,51.634209292710665],[18.070612869247398,51.6127941436589],[18.087269096287944,51.59970710812559],[18.158652926462942,51.59018926410316],[18.16460157897805,51.567584384547416],[18.16222211797142,51.553307618511994],[18.179371077407474,51.53959893145562],[18.211493800985828,51.549116775479916],[18.280498170154907,51.552685966988044],[18.3435538868095,51.53959893145562],[18.337605234294923,51.5824292295611],[18.353071730832642,51.59908545660164],[18.37091768837699,51.60146491760774],[18.38400472390888,51.619310875152266],[18.39709175944077,51.631208180179826],[18.426835022013382,51.632397910683714],[18.4351631355345,51.64905413772524],[18.474424242130254,51.64667467671825],[18.52439292325287,51.6633309037588],[18.51368534872681,51.722817428905714],[18.486321547159317,51.73590446443636],[18.486321547159317,51.773975840529644],[18.449439901569303,51.775165571032645],[18.400660950949515,51.784683415055966],[18.394712298435028,51.80371910310261],[18.355451191838473,51.83465209617955],[18.322138737757204,51.83465209617955],[18.306672241219484,51.84892886221498],[18.253134368588125,51.844169940202875],[18.306672241219484,51.87629266378194],[18.385194454411796,51.90127700434183],[18.372107418879907,51.927451075405784],[18.306672241219484,51.93339972792089],[18.266221404120092,51.988127331054784],[18.235288411044653,52.0000246360842],[18.16271485036683,51.994075983569886],[18.034223956051814,51.97266083451812],[18.016113613951717,51.97993140981278],[17.993508734396507,51.9894492538361],[17.953057897297125,52.00372601987054],[17.887622719636703,52.01443359439784],[17.86501784008158,52.027520629930265],[17.84955134354386,52.03703847395359],[17.803151853929904,52.03465901294749],[17.778167513368953,52.026330899426284],[17.751765094466403,52.012543592638394]]]]}},{"type":"Feature","properties":{"kind":"district","id":"uyezd-1897-144","name":"Велюнский","provinceId":"gubernia-1897-33"},"geometry":{"type":"MultiPolygon","coordinates":[[[[18.16222211797142,51.553307618511994],[18.152704273948633,51.54497950499176],[18.133668585901635,51.54378977448867],[18.115822628357908,51.540220582980545],[18.100356131820543,51.5176157034248],[18.114632897855525,51.50333893738937],[18.109873975843687,51.490251901857846],[18.12534047238176,51.471216213812085],[18.15032481294307,51.4676470223021],[18.153894004451814,51.45693944777666],[18.18482699752734,51.44385241224522],[18.17768861450985,51.43433456822092],[18.187206458532906,51.42243726319248],[18.187206458532906,51.41291941916827],[18.17173996199554,51.40340157514495],[18.16341184847487,51.3831761565953],[18.15032481294307,51.373658312571976],[18.136048046908087,51.328448553462266],[18.12534047238176,51.309412865415624],[18.133668585901635,51.28680798585997],[18.155083734954196,51.28918744686509],[18.149135082439887,51.26539283680634],[18.156273465457378,51.252305801275696],[18.162222117971687,51.23327011322817],[18.16460157897805,51.208285772666414],[18.14437616042796,51.211854964175515],[18.152704273948633,51.19400900663277],[18.153894004451814,51.18092197109946],[18.158652926462942,51.165455474562805],[18.193155111048014,51.165455474562805],[18.221708643118067,51.166645205065805],[18.259780019211085,51.155937630538595],[18.30261031731612,51.14166086450406],[18.370424955982283,51.14166086450406],[18.404927140566645,51.12143544595441],[18.403737410063375,51.10358948840988],[18.432290942133427,51.08931272237535],[18.4275320201223,51.07384622583869],[18.44180878615728,51.0667078428196],[18.431101211631045,51.05837972930026],[18.423962828613554,51.03577484974452],[18.450136899677155,51.019118622703],[18.503674772308425,51.01316997018878],[18.544125609407807,51.00008293465724],[18.573868871980952,50.99294455163913],[18.610750517570878,50.97628832459947],[18.667160583602687,50.998271552629404],[18.668350314105602,51.01849697118003],[18.651694087064968,51.05061969475723],[18.669540044608517,51.07441430481686],[18.87298396060701,51.070845113307854],[18.894399109659304,51.10534729789204],[18.952695904302235,51.089880801353516],[18.958644556816722,51.11010621990414],[18.937229407764605,51.156505709517745],[18.94912671279358,51.16721328404318],[18.993146741401706,51.17197220605608],[18.977680244863276,51.20528466013646],[18.99433647190462,51.21599223466279],[18.997905663413277,51.238597114218535],[18.98481862788059,51.25168414974998],[18.98481862788059,51.26001226327109],[19.006233776933684,51.26834037679239],[19.001474854922023,51.28499660383302],[18.894399109659304,51.29332471735236],[18.858707194572204,51.28618633433514],[18.845620159039516,51.28856579534106],[18.843240698033686,51.29808363936358],[18.85989692507512,51.31949878841632],[18.834912584513457,51.32901663243964],[18.83967150652503,51.33972420696597],[18.818256357472734,51.35043178149318],[18.820635818478564,51.394451810099795],[18.792082286408956,51.39921073211288],[18.761149293332718,51.396831271105896],[18.713560073216644,51.389692888089556],[18.668350314105602,51.376605852557134],[18.657642739579455,51.36827773903593],[18.62552001600039,51.36589827802983],[18.555325916328396,51.384933966076474],[18.51606480973264,51.389692888089556],[18.497029121685376,51.38017504406517],[18.469665320118594,51.384933966076474],[18.448250171066388,51.37184693054583],[18.413747986481493,51.37422639155095],[18.3994712204466,51.395641540603776],[18.359020383348017,51.39326207959759],[18.3078619717224,51.400400462614996],[18.304292780213743,51.41943615066164],[18.320949007254377,51.43252318619406],[18.322138737757204,51.45512806574882],[18.344743617312414,51.470594562287346],[18.364969035862504,51.50747620787665],[18.3435538868095,51.53959893145562],[18.280498170154907,51.552685966988044],[18.211493800985828,51.549116775479916],[18.179371077407474,51.53959893145562],[18.16222211797142,51.553307618511994]]]]}},{"type":"Feature","properties":{"kind":"district","id":"uyezd-1897-145","name":"Турекский","provinceId":"gubernia-1897-33"},"geometry":{"type":"MultiPolygon","coordinates":[[[[18.927447179184732,52.085817424573165],[18.89532445560629,52.085817424573165],[18.860822271021394,52.087007155075284],[18.81085358989949,52.087007155075284],[18.783489788332,52.07273038904074],[18.745418412239157,52.06321254501742],[18.700208653128115,52.065592006022634],[18.69663946161937,52.03584874344958],[18.707347036145517,52.02038224691115],[18.675224312567163,52.02514116892414],[18.662137277034475,52.018002785906916],[18.63001455345612,52.016813055402935],[18.59194317736248,52.03346928244357],[18.54673341825215,52.04893577898111],[18.469400935562753,52.06202281451353],[18.410178794972737,52.063080352738346],[18.380435532400213,52.02857816815505],[18.349502539323975,52.02381924614197],[18.326897659768765,52.03214735966317],[18.32570792926594,52.04285493418861],[18.2947749361905,52.049993317205924],[18.282877631160638,52.03333709016529],[18.266221404120092,51.988127331054784],[18.306672241219484,51.93339972792089],[18.372107418879907,51.927451075405784],[18.385194454411796,51.90127700434183],[18.306672241219484,51.87629266378194],[18.253134368588125,51.844169940202875],[18.306672241219484,51.84892886221498],[18.322138737757204,51.83465209617955],[18.355451191838473,51.83465209617955],[18.394712298435028,51.80371910310261],[18.400660950949515,51.784683415055966],[18.449439901569303,51.775165571032645],[18.486321547159317,51.773975840529644],[18.486321547159317,51.73590446443636],[18.51368534872681,51.722817428905714],[18.588638370410365,51.724007159407876],[18.633848129520608,51.7311455424251],[18.635037860023523,51.75256069147872],[18.64812489555621,51.75731961348905],[18.656453009076618,51.74780176946573],[18.71237034271372,51.74423257795752],[18.718318995228206,51.76207853550204],[18.781374711882886,51.7751655710326],[18.781374711882886,51.803719103102566],[18.75758010182396,51.82751371316229],[18.72664710874861,51.83822128768773],[18.72664710874861,51.85487751472827],[18.73735468327467,51.864395358751594],[18.756390371321135,51.85130832322015],[18.76828767635011,51.866774819757694],[18.792082286408945,51.85487751472827],[18.801600130432178,51.83941101819162],[18.830153662501786,51.84298020969894],[18.823015279484384,51.85725697573437],[18.836102315016362,51.863205628249474],[18.83372285401053,51.88224131629612],[18.83967150652502,51.90365646534788],[18.856327733566452,51.89770781283278],[18.872719576050457,51.88356323907644],[18.871529845547542,51.91092704064428],[18.881047689571485,51.924014076176704],[18.901273108120865,51.928772998187036],[18.932206101196304,51.929962728690924],[18.9738466687986,51.91092704064428],[18.961949363769627,51.944239494725466],[18.93577529270496,51.944239494725466],[18.926257448681817,51.96803410478333],[18.913170413149928,51.96922383528731],[18.928636909687647,52.004915750374494],[18.990502895839235,52.014433594397815],[18.995261817850896,52.02514116892414],[19.010728314388615,52.03703847395356],[19.02262561941839,52.07273038904074],[18.982174782319007,52.081058502560175],[18.927447179184732,52.085817424573165]]]]}},{"type":"Feature","properties":{"kind":"district","id":"uyezd-1897-148","name":"Серадзский","provinceId":"gubernia-1897-33"},"geometry":{"type":"MultiPolygon","coordinates":[[[[18.9738466687986,51.82050752242229],[18.9179293351615,51.85144051549737],[18.872719576050457,51.88356323907644],[18.856327733566452,51.89770781283278],[18.83967150652502,51.90365646534788],[18.83372285401053,51.88224131629612],[18.836102315016362,51.863205628249474],[18.823015279484384,51.85725697573437],[18.830153662501786,51.84298020969894],[18.801600130432178,51.83941101819162],[18.792082286408945,51.85487751472827],[18.76828767635011,51.866774819757694],[18.756390371321135,51.85130832322015],[18.73735468327467,51.864395358751594],[18.72664710874861,51.85487751472827],[18.72664710874861,51.83822128768773],[18.75758010182396,51.82751371316229],[18.781374711882886,51.803719103102566],[18.781374711882886,51.7751655710326],[18.718318995228206,51.76207853550204],[18.71237034271372,51.74423257795752],[18.656453009076618,51.74780176946573],[18.64812489555621,51.75731961348905],[18.635037860023523,51.75256069147872],[18.633848129520608,51.7311455424251],[18.588638370410365,51.724007159407876],[18.51368534872681,51.722817428905714],[18.52439292325287,51.6633309037588],[18.474424242130254,51.64667467671825],[18.4351631355345,51.64905413772524],[18.426835022013382,51.632397910683714],[18.39709175944077,51.631208180179826],[18.38400472390888,51.619310875152266],[18.37091768837699,51.60146491760774],[18.353071730832642,51.59908545660164],[18.337605234294923,51.5824292295611],[18.3435538868095,51.53959893145562],[18.364969035862504,51.50747620787665],[18.344743617312414,51.470594562287346],[18.322138737757204,51.45512806574882],[18.320949007254377,51.43252318619406],[18.304292780213743,51.41943615066164],[18.3078619717224,51.400400462614996],[18.359020383348017,51.39326207959759],[18.3994712204466,51.395641540603776],[18.413747986481493,51.37422639155095],[18.448250171066388,51.37184693054583],[18.469665320118594,51.384933966076474],[18.497029121685376,51.38017504406517],[18.51606480973264,51.389692888089556],[18.555325916328396,51.384933966076474],[18.62552001600039,51.36589827802983],[18.657642739579455,51.36827773903593],[18.668350314105602,51.376605852557134],[18.713560073216644,51.389692888089556],[18.761149293332718,51.396831271105896],[18.792082286408956,51.39921073211288],[18.782564442385713,51.409918306638275],[18.783754172888628,51.4218156116676],[18.809928243952495,51.45393833524666],[18.834912584513447,51.49557890284905],[18.837292045519277,51.54792704497687],[18.84918935054905,51.57648057704595],[18.876553152115743,51.57648057704595],[18.89796830116795,51.58599842106927],[18.945557521284822,51.58718815157316],[18.982439166874837,51.5931368040865],[19.003854315927843,51.58004976855594],[19.008613237939414,51.62169033615646],[19.001474854922012,51.655002790239415],[18.963403478828372,51.67403847828517],[18.993146741401695,51.69426389683579],[19.021700273471392,51.6966433578418],[19.024079734477134,51.67641793929127],[19.06572030207952,51.67403847828517],[19.057392188558403,51.68712551381848],[19.095463564652043,51.69545362733791],[19.08118679861724,51.71924823739577],[19.055012727552572,51.722817428905756],[19.024079734477134,51.78706287606202],[18.986008358383494,51.803719103102566],[18.9738466687986,51.82050752242229]]]]}}]}
