{"type":"FeatureCollection","features":[{"type":"Feature","properties":{"kind":"province","id":"gubernia-1897-78","name":"Томская губерния"},"geometry":{"type":"MultiPolygon","coordinates":[[[[89.52102874676132,49.87986577075024],[89.44250653356892,49.922696068855636],[89.42585030652833,49.989320977018],[89.44012707256371,50.02501289210616],[89.50675198072685,50.065463729204566],[89.50675198072685,50.089258339264205],[89.46868060463356,50.11067348831605],[89.34732809333588,50.11067348831605],[89.30925671724276,50.12257079334538],[89.29735941221344,50.1701600134611],[89.3544664763532,50.24630276564767],[89.44012707256371,50.289133063753056],[89.51864928575611,50.296271446770284],[89.58527419391925,50.26533845369431],[89.61858664800036,50.27485629771852],[89.637622336047,50.34148120588088],[89.70900616622208,50.37955258197417],[89.70424724421088,50.42714180209077],[89.640001797053,50.46521317818406],[89.62810449202385,50.52707916433707],[89.59707059299683,50.52973279926566],[89.5185483798038,50.503558728201],[89.47333862069354,50.5130765722252],[89.45430293264656,50.5535274093245],[89.34960664839002,50.65108531056292],[89.28298174022723,50.72484860174339],[89.26156659117402,50.8152681199645],[89.20683898804066,50.83668326901724],[89.17366857367578,50.879609687607314],[89.16638815094143,50.88903141114595],[89.13751603491559,50.98897335123307],[89.13545515786512,50.996107156407604],[89.04741510064991,51.04131691551909],[89.042656178638,51.06035260356613],[89.03789725662608,51.07938829161317],[89.052174022661,51.091285596641704],[89.06645078869593,51.10318290167024],[89.06883024970239,51.124598050723776],[89.0343560601901,51.14108570657727],[89.014102646568,51.150772121787725],[89.03075887360859,51.20074080290945],[89.04979456165549,51.2245354129682],[89.06883024970239,51.24833002302695],[89.06407132769039,51.36254415130681],[89.00238932048238,51.42566062379801],[88.9617545044394,51.467240435562445],[88.92804583682246,51.486502531344094],[88.87847336923613,51.51482965567995],[88.86944028592646,51.53004806589573],[88.86294322456396,51.54099393472279],[88.94146543775607,51.54575285673401],[88.95336274278549,51.60999830389214],[89.01522872893716,51.61475722590326],[89.16989369431596,51.54337339572791],[89.28410782259554,51.53385555170459],[89.34359434774166,51.493404714607074],[89.47684416406807,51.488645792594085],[89.56726368228962,51.47674848756466],[89.68385727157558,51.51244040265283],[89.74810271873281,51.52195824667704],[89.77189732879076,51.58144477182218],[89.82186600991382,51.5838242328273],[89.88135253505922,51.562409083774554],[89.92418283316398,51.588583154840286],[90.00508450736257,51.70041782211413],[90.05029426647299,51.726591893177115],[90.11929863564207,51.7289713541841],[90.25016899096292,51.707556205131354],[90.25492791297485,51.81701141139911],[90.25730737398041,51.92408715666076],[90.28110198403844,51.97643529878947],[90.32155282113764,52.00022990884831],[90.3590265805698,52.01088770808204],[90.30905789944674,52.039441240152],[90.33761143151733,52.08940992127559],[90.29478113341176,52.146516985414536],[90.26265840983358,52.27500787972982],[90.1448750900448,52.360668475940685],[90.08419883439595,52.41777554008061],[90.01995338723871,52.46417502969324],[90.01638419572961,52.514032173581654],[89.95615408902006,52.54013188648882],[89.87986262052037,52.62043869543595],[89.80357115202138,52.638507727448086],[89.7373180346402,52.6907071532642],[89.68511860882471,52.78305998355334],[89.66102656614041,52.899504856526605],[89.60235798071541,52.92816992583086],[89.52383576752327,52.9353083088472],[89.41676002226038,52.9353083088472],[89.36322214962972,52.988846181479886],[89.41319083075199,53.10662950126698],[89.55238929959314,53.11733707579428],[89.59878878920702,53.17444413993421],[89.68444938541673,53.256535544635],[89.74869483257397,53.310073417266715],[89.74869483257397,53.36004209838844],[89.8165094712404,53.49924056723013],[89.8058018967138,53.57776278042182],[89.86290896085356,53.677700142666254],[89.87718572688846,53.70982286624532],[89.86290896085356,53.73123801529797],[89.77724836464384,53.71339205775442],[89.78438674766133,53.695546100209896],[89.73441806653908,53.677700142666254],[89.67374181089014,53.70982286624532],[89.63448070429448,53.720530440772535],[89.56666606562804,53.684838525684455],[89.52383576752327,53.670561759649914],[89.48457466092671,53.64557741908905],[89.43103678829536,53.63843903607085],[89.3882064901905,53.63843903607085],[89.34537619208564,53.63130065305363],[89.2775615534193,53.64200822757995],[89.25971559587602,53.695546100209896],[89.22045448927955,53.71339205775442],[89.20974691475367,53.73837639831528],[89.24186963833193,53.788345079437896],[89.2022119549017,53.81967464934861],[89.16652003981433,53.81253626633131],[89.11298216718288,53.830382223874054],[89.08442863511301,53.87678171348766],[89.08085944360462,53.919612011593046],[89.12368974170947,53.96601150120656],[89.20935033791919,53.955303926681125],[89.23790386998907,54.01598018232838],[89.25574982753315,54.080225629486414],[89.20578114641,54.12305592759091],[89.17008923132263,54.165886225696305],[89.07372106058722,54.165886225696305],[89.04159833700815,54.148040268151775],[89.01304480493836,54.14447107664454],[88.93095340023696,54.237270055870766],[88.8774155276055,54.25511601341441],[88.80603169743077,54.19443975776724],[88.71323271820374,54.151609459660875],[88.70252514367706,54.10877916155638],[88.6668332285897,54.10877916155638],[88.62757212199324,54.12662511910001],[88.62400293048493,54.16231703418818],[88.58117263238007,54.18373218323994],[88.49908122767876,54.18016299173084],[88.4455433550473,54.19087056625814],[88.4455433550473,54.222993289837206],[88.50265041918786,54.230131672854434],[88.58831101539757,54.26225439643163],[88.63114131350243,54.35505337565972],[88.62400293048493,54.41572963130787],[88.64898727104642,54.43714478036149],[88.65612565406391,54.5263745680804],[88.64687306499876,54.554132335276364],[88.63471050501153,54.59062001523675],[88.65255646255481,54.64058869635936],[88.69895595216876,54.694126568990185],[88.7703397823435,54.754802824639214],[88.7881857398875,54.79763312274461],[88.77747816536099,54.86901695291907],[88.71323271820374,54.922554825549895],[88.64184888802893,55.01535380477711],[88.59544939841497,55.1545522736196],[88.5419115257836,55.22593610379406],[88.56332667483599,55.26876640189856],[88.60615697294085,55.27590478491588],[88.6668332285897,55.35442699810845],[88.6704024200989,55.400826487722945],[88.73464786725613,55.45436436035288],[88.83458522950073,55.51504061600191],[88.98806046437679,55.58642444617638],[89.12012055020037,55.614977978246344],[89.0915670181305,55.69706938294891],[89.25574982753315,55.75417644708884],[89.33070284921618,55.797006745193336],[89.35568718977775,55.8255602772633],[89.3164260831812,55.87195976687602],[89.39137910486512,55.8683905753678],[89.44491697749656,55.88980572441956],[89.49488565861883,55.925497639507725],[89.55556191426777,55.93263602252593],[89.68048361707386,55.943343597052255],[89.75186744724859,55.98260470364765],[89.79826693686175,56.004019852699415],[89.88392753307225,55.996881469682194],[89.99814166135175,56.03971176778758],[90.0588179170007,56.04328095929668],[90.04811034247402,56.09681883192751],[90.08023306605308,56.12894155550657],[90.19801638584177,56.161064279085636],[90.30509213110386,56.20746376869924],[90.12306336415794,56.389492535644465],[89.958880554756,56.54296777052149],[89.98743408682597,56.58579806862599],[90.03026438493082,56.59650564315143],[90.0516795339832,56.632197558238616],[90.07666387454398,56.71785815444949],[90.09450983208806,56.79994955915028],[90.04097195945661,56.83207228272934],[90.01598761889583,56.88561015536017],[89.9624497462644,56.89988692139471],[89.92675783117703,56.942717219500985],[89.81968208591493,56.939148027991884],[89.71617553216122,56.95342479402731],[89.5341467652153,57.156868710025265],[89.39851748788251,57.310343944900524],[89.31999527469038,57.399573732619515],[89.35568718977775,57.55304896749655],[89.44134778598738,57.59587926560105],[89.54485433974108,57.63870956370555],[89.63530188409561,57.688524393245224],[89.69954733125347,57.7384930743674],[89.704741677238,57.75303724312412],[89.71739328879747,57.788461755490985],[89.62816350107829,57.81701528756006],[89.6103175435343,57.863414777173574],[89.56748724542989,57.89196830924452],[89.50324179827193,57.95621375640078],[89.19629132852036,57.93479860734804],[89.12133830683652,57.98119809696253],[89.05709285967946,58.031166778085236],[88.97857064648706,58.07042788468063],[88.80724945406692,58.06328950166332],[88.56811362298097,58.06685869317153],[88.15408740796624,58.11682737429423],[87.89353642782844,58.141811714855095],[87.87212127877588,58.28814856671491],[87.84713693821458,58.31670209878398],[87.95064349196828,58.42734703555563],[88.25759396171995,58.65934448362444],[88.45033030319273,58.82709648453422],[88.72515804936577,58.89134193169325],[88.71088128333044,58.91989546376223],[88.45746868621005,59.06623231562026],[88.53599089940245,59.23041512502371],[87.92565915140698,59.20186159295285],[87.74363038446096,59.44813580705612],[87.62584706467182,59.60874942495046],[87.17969812607934,59.644441340036764],[86.79065625162592,59.6729948721077],[86.40518356868105,59.78007061737024],[85.98044977914034,59.887146362632876],[85.64137658580944,59.8978539371592],[85.2880266264439,59.91213070319374],[85.25590390286537,59.9335458522455],[85.20236603023419,60.101297853157156],[85.20593522174293,60.25477308803241],[85.02390645479673,60.41538670592676],[84.82403173030663,60.47963215308391],[84.36003683417017,60.62953819645104],[83.78182780975331,60.79729019736172],[83.27500261551164,60.947196240730634],[82.78602337881307,61.08282551806225],[82.67106403796538,61.13891280383438],[82.60551136648425,61.116221494475255],[82.30569927974909,61.040078742288685],[81.94402120686297,60.94014138004426],[81.5347539138607,60.80689156371679],[81.27301320321882,60.71647204549666],[81.00175464855408,60.59274007319348],[80.83043345613439,60.48804378893695],[80.74477285992485,60.430936724796126],[80.69718363980789,60.283410142435095],[80.62104088762132,60.05022296386328],[80.49017053230084,59.81763065054381],[80.43306346816091,59.753385203385776],[80.3795255955299,59.65344784114134],[80.2974341908285,59.510680180790544],[80.17608167953088,59.35006656289718],[80.10112865784731,59.25726758367095],[79.94765342297126,59.23585243461733],[79.85128525223513,59.25369839216087],[79.7120867833946,59.28939030724993],[79.47652014381721,59.33578979686353],[79.40513631364249,59.32865141384533],[79.31233733441528,59.3143746478099],[79.20526158915247,59.367912520440726],[79.06963231182006,59.38932766949436],[78.89831111940036,59.435727159107074],[78.83049648073447,59.56421805342324],[78.67702124585841,59.57135643644055],[78.54853035154304,59.528526138335074],[78.34865562705373,59.57849481945689],[78.2130263497214,59.54994128738693],[78.02742839126691,59.62132511756228],[77.92392183751294,59.64274026661493],[77.85967639035525,59.60704835152774],[77.49561885646321,59.62132511756228],[77.16725323765854,59.61418673454594],[77.03162396032693,59.71769328829939],[76.79605732074945,59.70698571377217],[76.48910685099735,59.70698571377217],[76.13218770012236,59.71769328829939],[76.09292659352607,59.65344784114134],[76.03581952938615,59.59990996851052],[75.93945135865081,59.632032692089496],[75.87877510300197,59.582064010966874],[75.83237561338801,59.528526138335074],[75.78954531528288,59.47855745721246],[75.82523723037025,59.44286554212518],[75.80025288980957,59.34649737138896],[75.67890037851195,59.285821115739935],[75.7110231020904,59.23942162612731],[75.74314582566964,59.210868094057346],[75.72529986812592,59.09665396577749],[75.72886905963404,58.993147412023966],[75.69317714454675,58.95388630542679],[75.47188727100489,58.85394894318236],[75.37551910026876,58.78613430451602],[75.29342769556736,58.739734814902505],[75.4183493983738,58.657643410200734],[75.5397019096707,58.586259580027246],[75.48259484553077,58.56127523946452],[75.32911961065471,58.52201413286912],[75.27915092953263,58.49346060079915],[75.32198122763768,58.443491919676454],[75.41121101535605,58.39709243006294],[75.42191858988193,58.354262131958436],[75.40050344083016,58.32213940837849],[75.34401871399946,58.24605132830675],[75.26311703980106,58.24843078931285],[75.23218404672552,58.153252349080525],[75.23218404672552,58.12945773902267],[75.20125105364929,58.11518097298724],[75.14414398950936,58.12945773902267],[75.110831535428,58.11280151198115],[75.13462614548648,58.0461766038179],[75.12986722347465,57.98669007867285],[75.15604129453905,57.927203553525935],[75.09893423039831,57.87485541139722],[75.03468878324144,57.80823050323487],[75.02279147821174,57.71543152400686],[75.03230932223542,57.66070392087383],[75.08703692536943,57.62977092779786],[75.26549650080698,57.57266386365704],[75.3487776360105,57.56314601963372],[75.43681769322676,57.56790494164582],[75.5486523605006,57.56552548063973],[75.73662977996102,57.57266386365704],[75.78183953907215,57.49176218945925],[75.84370552522391,57.384686444196625],[75.81277253214759,57.31330261402216],[75.83180822019423,57.27999015994098],[75.9341250434452,57.239539322841686],[76.06975432077762,57.239539322841686],[76.1863479100633,57.239539322841686],[76.11496407988786,57.17291441467755],[76.04358024971313,57.10866896752031],[76.02930348367842,57.056320825391595],[76.10068731385306,56.90165586001423],[76.11496407988786,56.7993390367637],[76.17207114402859,56.689883830494175],[76.22441928615659,56.62563838333702],[76.26249066224987,56.59470539026185],[76.28152635029652,56.52094209908138],[76.28390581130243,56.449558268905136],[76.24821389621506,56.43290204186539],[76.23869605219139,56.373415516718566],[76.16493276101083,56.35200036766672],[76.01026779563178,56.313928991573434],[75.90557151137479,56.197335402287564],[75.91270989439263,56.161643487200294],[75.83180822019423,56.1188131890949],[75.75090654599582,56.071223968978295],[75.72235301392621,56.02601420986868],[75.74614762398478,55.983183911763284],[75.63193349570493,55.87610816650154],[75.51296044541324,55.854693017448],[75.42967931020891,55.74999673319236],[75.50731044952707,55.614876640929694],[75.61914511680101,55.40310461141142],[75.71908247904605,55.36027431330603],[75.75477439413342,55.319823476206736],[75.58821212372467,55.29602886614887],[75.43592661935162,55.234162879996845],[75.40023470426426,55.20322988692256],[75.40975254828803,55.14612282278175],[75.30743572503705,55.081877375623705],[75.37644009420657,54.92721241024624],[75.45734176840419,54.879623190128754],[75.54300236461444,54.89389995616329],[75.6048683507662,54.73923499078414],[75.60248888976028,54.57743164238857],[75.61200673378325,54.4608380531035],[75.59772996774844,54.32758823677612],[75.59772996774848,54.13961081731621],[75.8354858504315,54.178010379203414],[76.13529793716611,54.238686634850666],[76.3030499380771,54.163733613167096],[76.51720142860205,54.03881191036181],[76.88125896249392,53.83179880285386],[77.18464024073762,53.67832356797861],[77.4808831359631,53.52127914159425],[77.69860381799634,53.403495821804405],[77.92703207455628,53.271435735981],[78.20449526567859,53.01770897738608],[78.67086962282133,52.56323192527365],[78.85646758127643,52.365736661788134],[79.15464393961076,52.05313241514715],[79.29904732836047,51.9017417656514],[79.56078803900215,51.57575560785336],[79.83586548170075,51.21055240755061],[80.09760619234186,50.872668944723145],[80.25967392529469,50.66010376153564],[80.35009344351624,50.52923340621426],[80.42861565670847,50.438813887993064],[80.46906649380776,50.34839436977116],[80.48810218185446,50.34125598675473],[80.52379409694186,50.37694790184112],[80.5666243950468,50.41977819994749],[80.66894121829768,50.40788089491798],[80.68559744533815,50.34363544775985],[80.71890989941994,50.34363544775985],[80.75936073651843,50.39598358988847],[80.85215971574644,50.403121972906675],[80.88547216982812,50.37694790184112],[81.0020657591133,50.38646574586444],[81.11152096538177,50.37456844083671],[81.21145832762625,50.45547011503379],[81.31139568987169,50.47212634207433],[81.41847143513388,50.4530906540284],[81.48509634329736,50.47450580308123],[81.53982394643077,50.46974688106921],[81.61358723761197,50.44833173201745],[81.69210945080397,50.39598358988847],[81.78966735204301,50.36743005781851],[81.80632357908439,50.28176946160862],[81.86818956523604,50.262733773561266],[81.87770740925913,50.20562670942134],[81.96927044176293,50.207178625226355],[82.018095608603,50.20800617042748],[82.1180329708476,50.22466239746802],[82.1180329708476,50.26749269557439],[82.21559087208664,50.31270245468481],[82.25128278717472,50.27225161758534],[82.33694338338461,50.30318461066069],[82.3916709865187,50.26987215657951],[82.4249834405997,50.243698085515376],[82.35835853243691,50.200867787410075],[82.30363092930281,50.16993479433499],[82.33932284438998,50.13186341824171],[82.39642990852974,50.14138126226503],[82.4797110437338,50.1818320993645],[82.54157702988556,50.25083646853358],[82.62961708710174,50.22942131948004],[82.57488948396747,50.14138126226503],[82.51302349781571,50.112827730195065],[82.48446996574592,50.072376893095594],[82.4797110437338,50.015269828954956],[82.54871541290305,49.96768060883835],[82.58916625000245,49.960542225821925],[82.62485816508962,50.04382336102492],[82.65817061917153,50.10330988617174],[82.73669283236364,50.112827730195065],[82.72241606632866,50.03430551700231],[82.79617935750986,49.993854679903194],[82.80331774052735,49.960542225821925],[82.79142043549803,49.88915839564737],[82.85328642164961,49.915332466711504],[82.91039348578937,49.94864492079242],[83.0198486920579,49.927229771740656],[83.10075036625551,49.93198869375196],[83.16023689140172,49.95578330381062],[83.19116988447706,49.95578330381062],[83.21020557252388,49.90581462268818],[83.26493317565826,49.87012270760002],[83.25779479264077,49.82253348748341],[83.22448233855886,49.77256480636062],[83.1340628203373,49.71545774222069],[83.05316114613953,49.703560437191456],[83.06743791217451,49.66786852210515],[83.11740659329695,49.66310960009207],[83.15071904737857,49.66548906109817],[83.24351802660578,49.65359175606875],[83.30300455175109,49.66548906109817],[83.39104460896709,49.66310960009207],[83.49098197121168,49.765426423344195],[83.52667388629976,49.79873887742467],[83.5504684963579,49.83443079251185],[83.59567825546821,49.83918971452387],[83.61233448250965,49.80349779943748],[83.6646826246373,49.765426423344195],[83.74558429883598,49.71307828121557],[83.75272268185347,49.67500690512149],[83.80982974599311,49.658350678080765],[83.8383832780629,49.62265876299438],[83.89786980320929,49.608381996958244],[83.95973578936088,49.57506954287706],[84.02398123651813,49.5536543938253],[83.96925363338403,49.463234875603035],[83.92166441326714,49.44419918755568],[83.90262872522095,49.418025116492615],[83.94307956231944,49.377574279393144],[83.99780716545371,49.35615913034138],[84.10012398870487,49.44181972655127],[84.19054350692642,49.35853859134579],[84.25478895408366,49.32522613726452],[84.23099434402553,49.18721739892601],[84.24051218804868,49.153904944845806],[84.30237817420027,49.18245847691577],[84.34520847230522,49.17769955490269],[84.44990475656175,49.18959685993211],[84.4736993666196,49.27763691714898],[84.5070118207014,49.38233320140445],[84.63550271501668,49.396609967439076],[84.75923468731924,49.40136888945216],[84.79730606341298,49.23718608004951],[84.95672995080378,49.24908338507902],[85.03049324198389,49.21339146999085],[85.1494662922754,49.232427158038206],[85.19229659038098,49.21339146999085],[85.54445681924352,49.25146284608414],[85.70388070663432,49.275257456142],[85.75622884876276,49.24908338507902],[85.81333591290269,49.25384230708997],[85.86330459402495,49.268119073124595],[85.95848303425834,49.27049853413078],[86.02510794242124,49.30381098821276],[86.19642913484137,49.313328832235285],[86.2749513480336,49.33712344229403],[86.35585302223137,49.41088673347441],[86.42485739140045,49.42754296051514],[86.49386176056953,49.420404577497735],[86.57000451275627,49.384712662411346],[86.63424995991352,49.310949371229896],[86.67945971902475,49.24432446306594],[86.78415600328128,49.227668236025394],[86.9031290535728,49.225288775020005],[87.1053832390682,49.24670392407204],[87.17438760823745,49.232427158038206],[87.33381149562808,49.149146022832724],[87.43424144464893,49.08988471681565],[87.48183066476525,49.07560795077916],[87.55321449494028,49.042295496697974],[87.60556263706809,49.039916035692855],[87.70074107730181,49.056572262732516],[87.77688382948821,49.11367932687244],[87.82447304960482,49.12795609290876],[87.86254442569793,49.15650962497783],[87.92916933386101,49.21123722811264],[87.93392825587313,49.23979076018163],[87.9244104118498,49.30879512935097],[87.89585687977984,49.35876381047554],[87.88633903575658,49.40159410857809],[87.88633903575658,49.432527101654145],[87.9244104118498,49.461080633725004],[87.9767585539775,49.458701172718015],[88.07431645521655,49.44442440668357],[88.11238783130977,49.46346009473021],[88.17901273947365,49.458701172718015],[88.25753495266605,49.480116321771646],[88.30036525077054,49.456321711712896],[88.38364638597506,49.47535739975954],[88.44075345011487,49.46583955573533],[88.52403458531847,49.47535739975954],[88.63111033058078,49.47059847774743],[88.7167709267913,49.45156278970079],[88.77625745193711,49.432527101654145],[88.81670828903555,49.44918332869567],[88.83336451607698,49.49201362679919],[88.86429750915283,49.511049314845835],[88.90712780725727,49.48249578277685],[88.94044026133923,49.43966548467137],[88.9737527154204,49.43966548467137],[89.01182409151363,49.461080633725004],[89.06655169464824,49.503910931828614],[89.15935067387511,49.54912069093912],[89.1569712128699,49.58957152803939],[89.16886851789843,49.61574559910335],[89.2045604329864,49.61574559910335],[89.28784156819012,49.58005368401518],[89.37350216439984,49.599089372061826],[89.51626982475017,49.64905805318444],[89.50199305871473,49.696647273301046],[89.47343952664488,49.748995415428865],[89.4853368316742,49.79420517454125],[89.52340820776737,49.83227655063453],[89.52102874676132,49.87986577075024]]]]}},{"type":"Feature","properties":{"kind":"district","id":"uyezd-1897-501","name":"Мариинский","provinceId":"gubernia-1897-78"},"geometry":{"type":"MultiPolygon","coordinates":[[[[89.704741677238,57.75303724312412],[89.51527155750576,57.75063888717792],[89.30112006698086,57.764915653214324],[89.1547832151223,57.79703837679339],[89.06198423589517,57.847007057915114],[88.97275444817636,57.86485301545875],[88.94063172459809,57.907683313563254],[88.8192792133003,57.918390888089576],[88.77287972368714,57.93980603714223],[88.6122661057936,57.95408280317774],[88.55872823316216,57.9683595692122],[88.46592925393503,57.95408280317774],[88.3945454237596,57.9719287607204],[88.18396312474378,57.957651994686756],[88.01621112383275,57.95408280317774],[87.75209095218558,57.914821696580475],[87.68427631351916,57.88269897300328],[87.63430763239681,57.88269897300328],[87.50581673808233,57.850576249424215],[87.36304907773216,57.87556058998419],[87.00969911836688,57.77919241924886],[86.781270861807,57.67925505700443],[86.64564158447423,57.56504092872369],[86.59924209486107,57.41156569384843],[86.53499664770384,57.31876671462034],[86.65277996749172,57.225967735394114],[86.60281128636937,57.11889199013059],[86.74200975521053,57.13316875616602],[86.73130218068465,57.079630883535195],[86.61708805240436,57.04750815995613],[86.61708805240436,57.02252381939527],[86.67419511654491,57.00110867034253],[86.68490269107079,56.89046373357178],[86.63136481843934,56.861910201501814],[86.49216634959826,56.904740499605424],[86.3565370722662,56.85477181848361],[86.26373809303918,56.76911122227372],[86.38509060433617,56.761972839255606],[86.31370677416143,56.65132790248574],[86.44219766847591,56.66203547701117],[86.4529052430025,56.604928412871246],[86.39579817886276,56.48000671006596],[86.29586081661735,56.455022369505095],[86.22447698644262,56.23730168747082],[86.11383204967142,56.0909648356119],[85.94251085725209,55.90179768564848],[85.79617400539352,55.759030025298664],[85.86769002784618,55.725232866197985],[85.90695113444264,55.66812580205806],[86.04614960328381,55.63243388696989],[86.07827232686198,55.564619248304524],[86.15322534854582,55.49680460963739],[86.24959351928212,55.49680460963739],[86.35310007303582,55.421851587954706],[86.47088339282452,55.325483417217605],[86.56368237205163,55.332621800235714],[86.59223590412151,55.35760614079667],[86.6993116493836,55.35046775777847],[86.75641871352416,55.39686724739384],[86.84564850124217,55.407574821918395],[86.84921769275127,55.35046775777847],[86.80281820313739,55.29336069363854],[86.83851011822468,55.27194554458678],[86.93487828896097,55.275514736094905],[86.97770858706575,55.25409958704314],[87.05266160874967,55.243392012516814],[87.12047624741601,55.196992522903216],[87.23469037569559,55.182715756868674],[87.25253633323959,55.15416222479871],[87.29893582285284,55.16130060781505],[87.35961207850168,55.08277839462336],[87.33462773794092,55.06493243707972],[87.3560428869934,55.025671330484315],[87.4595494407463,54.98641022388803],[87.55234841997421,54.96856426634439],[87.6629933567454,55.00782537293979],[87.67370093127128,55.032809713500654],[87.75579233597253,55.01853294746523],[87.79505344256908,55.036378905009755],[87.93068271990106,55.00425618143069],[87.95566706046253,54.92573396823811],[88.00563574158488,54.88647286164182],[88.05203523119805,54.882903670134496],[88.11271148684698,54.85078094655543],[88.06274280572464,54.786535499397395],[88.11271148684698,54.747274392802],[88.23049480663558,54.718720860732034],[88.26618672172303,54.67589056262567],[88.34827812642428,54.62592188150394],[88.33043216888028,54.51884613624131],[88.37326246698585,54.504569370205886],[88.50175336130033,54.54383047680315],[88.64687306499876,54.554132335276364],[88.63471050501153,54.59062001523675],[88.65255646255481,54.64058869635936],[88.69895595216876,54.694126568990185],[88.7703397823435,54.754802824639214],[88.7881857398875,54.79763312274461],[88.77747816536099,54.86901695291907],[88.71323271820374,54.922554825549895],[88.64184888802893,55.01535380477711],[88.59544939841497,55.1545522736196],[88.5419115257836,55.22593610379406],[88.56332667483599,55.26876640189856],[88.60615697294085,55.27590478491588],[88.6668332285897,55.35442699810845],[88.6704024200989,55.400826487722945],[88.73464786725613,55.45436436035288],[88.83458522950073,55.51504061600191],[88.98806046437679,55.58642444617638],[89.12012055020037,55.614977978246344],[89.0915670181305,55.69706938294891],[89.25574982753315,55.75417644708884],[89.33070284921618,55.797006745193336],[89.35568718977775,55.8255602772633],[89.3164260831812,55.87195976687602],[89.39137910486512,55.8683905753678],[89.44491697749656,55.88980572441956],[89.49488565861883,55.925497639507725],[89.55556191426777,55.93263602252593],[89.68048361707386,55.943343597052255],[89.75186744724859,55.98260470364765],[89.79826693686175,56.004019852699415],[89.88392753307225,55.996881469682194],[89.99814166135175,56.03971176778758],[90.0588179170007,56.04328095929668],[90.04811034247402,56.09681883192751],[90.08023306605308,56.12894155550657],[90.19801638584177,56.161064279085636],[90.30509213110386,56.20746376869924],[90.12306336415794,56.389492535644465],[89.958880554756,56.54296777052149],[89.98743408682597,56.58579806862599],[90.03026438493082,56.59650564315143],[90.0516795339832,56.632197558238616],[90.07666387454398,56.71785815444949],[90.09450983208806,56.79994955915028],[90.04097195945661,56.83207228272934],[90.01598761889583,56.88561015536017],[89.9624497462644,56.89988692139471],[89.92675783117703,56.942717219500985],[89.81968208591493,56.939148027991884],[89.71617553216122,56.95342479402731],[89.5341467652153,57.156868710025265],[89.39851748788251,57.310343944900524],[89.31999527469038,57.399573732619515],[89.35568718977775,57.55304896749655],[89.44134778598738,57.59587926560105],[89.54485433974108,57.63870956370555],[89.63530188409551,57.688524393244776],[89.69954733125347,57.7384930743674],[89.704741677238,57.75303724312412]]]]}},{"type":"Feature","properties":{"kind":"district","id":"uyezd-1897-502","name":"Томский","provinceId":"gubernia-1897-78"},"geometry":{"type":"MultiPolygon","coordinates":[[[[85.79617400539352,55.759030025298664],[85.94251085725209,55.90179768564848],[86.11383204967142,56.0909648356119],[86.22447698644262,56.23730168747082],[86.29586081661735,56.455022369505095],[86.39579817886276,56.48000671006596],[86.4529052430025,56.604928412871246],[86.44219766847591,56.66203547701117],[86.31370677416143,56.65132790248574],[86.38509060433617,56.761972839255606],[86.26373809303918,56.76911122227372],[86.3565370722662,56.85477181848361],[86.49216634959826,56.904740499605424],[86.63136481843934,56.861910201501814],[86.68490269107079,56.89046373357178],[86.67419511654491,57.00110867034253],[86.61708805240436,57.02252381939527],[86.61708805240436,57.04750815995613],[86.73130218068465,57.079630883535195],[86.74200975521053,57.13316875616602],[86.60281128636937,57.11889199013059],[86.65277996749172,57.225967735394114],[86.53499664770384,57.31876671462034],[86.59924209486107,57.41156569384843],[86.64564158447423,57.56504092872369],[86.781270861807,57.67925505700443],[87.00969911836688,57.77919241924886],[87.36304907773216,57.87556058998419],[87.50581673808233,57.850576249424215],[87.63430763239681,57.88269897300328],[87.68427631351916,57.88269897300328],[87.75209095218558,57.914821696580475],[88.01621112383275,57.95408280317774],[88.18396312474378,57.957651994686756],[88.3945454237596,57.9719287607204],[88.46592925393503,57.95408280317774],[88.55872823316216,57.9683595692122],[88.6122661057936,57.95408280317774],[88.77287972368714,57.93980603714223],[88.8192792133003,57.918390888089576],[88.94063172459809,57.907683313563254],[88.97275444817636,57.86485301545875],[89.06198423589517,57.847007057915114],[89.1547832151223,57.79703837679339],[89.30112006698086,57.764915653214324],[89.51527155750576,57.75063888717792],[89.704741677238,57.75303724312412],[89.71739328879747,57.788461755490985],[89.62816350107829,57.81701528756006],[89.6103175435343,57.863414777173574],[89.56748724542989,57.89196830924452],[89.50324179827193,57.95621375640078],[89.19629132852036,57.93479860734804],[89.12133830683652,57.98119809696253],[89.05709285967946,58.031166778085236],[88.97857064648706,58.07042788468063],[88.80724945406692,58.06328950166332],[88.56811362298097,58.06685869317153],[88.15408740796624,58.11682737429423],[87.89353642782844,58.141811714855095],[87.87212127877588,58.28814856671491],[87.84713693821458,58.31670209878398],[87.95064349196828,58.42734703555563],[88.25759396171995,58.65934448362444],[88.45033030319273,58.82709648453422],[88.72515804936577,58.89134193169325],[88.71088128333044,58.91989546376223],[88.45746868621005,59.06623231562026],[88.53599089940245,59.23041512502371],[87.92565915140698,59.20186159295285],[87.74363038446096,59.44813580705612],[87.62584706467182,59.60874942495046],[87.17969812607934,59.644441340036764],[86.79065625162592,59.6729948721077],[86.40518356868105,59.78007061737024],[85.98044977914034,59.887146362632876],[85.64137658580944,59.8978539371592],[85.2880266264439,59.91213070319374],[85.25590390286537,59.9335458522455],[85.20236603023419,60.101297853157156],[85.20593522174293,60.25477308803241],[85.02390645479673,60.41538670592676],[84.82403173030663,60.47963215308391],[84.36003683417017,60.62953819645104],[83.78182780975331,60.79729019736172],[83.27500261551164,60.947196240730634],[82.78602337881307,61.08282551806225],[82.67106403796538,61.13891280383438],[82.60551136648425,61.116221494475255],[82.30569927974909,61.040078742288685],[81.94402120686297,60.94014138004426],[81.5347539138607,60.80689156371679],[81.27301320321882,60.71647204549666],[81.00175464855408,60.59274007319348],[80.83043345613439,60.48804378893695],[80.74477285992485,60.430936724796126],[80.69718363980789,60.283410142435095],[80.62104088762132,60.05022296386328],[80.49017053230084,59.81763065054381],[80.43306346816091,59.753385203385776],[80.3795255955299,59.65344784114134],[80.2974341908285,59.510680180790544],[80.17608167953088,59.35006656289718],[80.10112865784731,59.25726758367095],[79.94765342297126,59.23585243461733],[79.85128525223513,59.25369839216087],[79.7120867833946,59.28939030724993],[79.47652014381721,59.33578979686353],[79.40513631364249,59.32865141384533],[79.31233733441528,59.3143746478099],[79.20526158915247,59.367912520440726],[79.06963231182006,59.38932766949436],[78.89831111940036,59.435727159107074],[78.83049648073447,59.56421805342324],[78.67702124585841,59.57135643644055],[78.54853035154304,59.528526138335074],[78.34865562705373,59.57849481945689],[78.2130263497214,59.54994128738693],[78.02742839126691,59.62132511756228],[77.92392183751294,59.64274026661493],[77.85967639035525,59.60704835152774],[77.49561885646321,59.62132511756228],[77.16725323765854,59.61418673454594],[77.03162396032693,59.71769328829939],[76.79605732074945,59.70698571377217],[76.48910685099735,59.70698571377217],[76.13218770012236,59.71769328829939],[76.09292659352607,59.65344784114134],[76.03581952938615,59.59990996851052],[75.93945135865081,59.632032692089496],[75.87877510300197,59.582064010966874],[75.83237561338801,59.528526138335074],[75.78954531528288,59.47855745721246],[75.82523723037025,59.44286554212518],[75.80025288980957,59.34649737138896],[75.67890037851195,59.285821115739935],[75.7110231020904,59.23942162612731],[75.74314582566964,59.210868094057346],[75.72529986812592,59.09665396577749],[75.72886905963404,58.993147412023966],[75.69317714454675,58.95388630542679],[75.47188727100489,58.85394894318236],[75.37551910026876,58.78613430451602],[75.29342769556736,58.739734814902505],[75.4183493983738,58.657643410200734],[75.5397019096707,58.586259580027246],[75.48259484553077,58.56127523946452],[75.32911961065471,58.52201413286912],[75.27915092953263,58.49346060079915],[75.32198122763768,58.443491919676454],[75.41121101535605,58.39709243006294],[75.42191858988193,58.354262131958436],[75.40050344083016,58.32213940837849],[75.34401871399946,58.24605132830675],[75.26311703980106,58.24843078931285],[75.23218404672552,58.153252349080525],[75.23218404672552,58.12945773902267],[75.20125105364929,58.11518097298724],[75.14414398950936,58.12945773902267],[75.110831535428,58.11280151198115],[75.13462614548648,58.0461766038179],[75.12986722347465,57.98669007867285],[75.15604129453905,57.927203553525935],[75.09893423039831,57.87485541139722],[75.03468878324144,57.80823050323487],[75.02279147821174,57.71543152400686],[75.03230932223542,57.66070392087383],[75.08703692536943,57.62977092779786],[75.26549650080698,57.57266386365704],[75.3487776360105,57.56314601963372],[75.43681769322676,57.56790494164582],[75.5486523605006,57.56552548063973],[75.73662977996102,57.57266386365704],[75.78183953907215,57.49176218945925],[75.84370552522391,57.384686444196625],[75.81277253214759,57.31330261402216],[75.83180822019423,57.27999015994098],[75.9341250434452,57.239539322841686],[76.06975432077762,57.239539322841686],[76.1863479100633,57.239539322841686],[76.37443376825176,57.240376693705954],[76.84199785589742,57.229669119180514],[77.27387002845562,57.21896154465411],[77.58438968971674,57.28320699181037],[77.8378022868374,57.322468098406745],[77.97343156417018,57.20825397012689],[78.21613658676505,57.019086820163466],[78.58019412065691,57.01194843714713],[79.3332935290021,56.9905332880935],[79.93648689397965,56.97982571356807],[80.22202221467928,56.77638179756922],[80.72170902590392,56.458723753291494],[81.01795192113015,56.44444698725696],[81.41413217860027,56.415893455186996],[81.63899124365177,56.176757624099984],[81.87455788322835,55.91263745245308],[82.16723158694548,55.569995067612545],[82.27073814069927,55.45221174782546],[82.28535316344623,55.42785337658097],[82.31978147587535,55.455648747056365],[82.64814709467984,55.601985598913416],[83.00863543706332,55.74475325926413],[83.03718896913328,55.7269073017196],[83.1228495653429,55.73404568473691],[83.14069552288699,55.78401436585953],[83.25134045965738,55.841121429999454],[83.37626216246348,55.89109011112305],[83.44407680112991,55.93392040922755],[83.44050760962152,56.04099615449017],[83.39767731151595,56.0552729205256],[83.42266165207744,56.11951836768186],[83.5547217379011,56.14093351673452],[83.5654293124269,56.10524160164644],[83.61896718505834,56.0981032186301],[83.65822829165481,56.03742696298107],[83.73318131333865,56.01958100543744],[83.82598029256584,56.012442622419236],[83.95447118688033,56.126656750700064],[83.94733280386284,56.16591785729547],[84.0829620811956,56.19447138936543],[84.39705093396512,56.258716836523476],[84.78252361690936,56.322962283679736],[84.9502756178204,56.37650015631243],[85.11802761873135,56.30154713462886],[85.1822730658886,56.2729936025589],[85.21796498097676,56.19447138936543],[85.21439578946766,56.158779474279044],[85.2750720451165,56.16234866578637],[85.33931749227375,56.17662543182179],[85.43568566301005,56.18376381483999],[85.43568566301005,56.15521028277003],[85.39285536490519,56.13022594220908],[85.47851596111482,56.0909648356119],[85.57845332335943,56.0445653459983],[85.58202251486861,55.994596664876575],[85.68552906862232,55.93748960073665],[85.63199119599088,55.87681334508762],[85.57131494034202,55.776875982843194],[85.68195987711321,55.759030025298664],[85.75093729814036,55.75903002529911],[85.79617400539352,55.759030025298664]]]]}},{"type":"Feature","properties":{"kind":"district","id":"uyezd-1897-503","name":"Кузнецкий","provinceId":"gubernia-1897-78"},"geometry":{"type":"MultiPolygon","coordinates":[[[[85.75093729814036,55.75903002529911],[85.75093729814036,55.726353441452346],[85.73190161009371,55.67876422133486],[85.70096861701784,55.61213931317161],[85.53440634660971,55.6597285332891],[85.46778143844655,55.65259015027188],[85.47729928246987,55.61689823518371],[85.46778143844655,55.58120632009563],[85.41781275732403,55.55027332702135],[85.33691108312642,55.54551440500924],[85.24411210389859,55.53599656098504],[85.19652288378208,55.559791171043784],[85.12513905360699,55.547893866014455],[85.06565252846114,55.53123763897471],[85.09420606053102,55.42416189371217],[84.9252643291176,55.405126205665525],[84.89433133604172,55.36705482957224],[84.94192055615824,55.29329153839079],[84.94667947816944,55.250461240286285],[84.89909025805302,55.2028720201688],[84.80153235681398,55.169559566087614],[84.69921553356372,55.15052387804097],[84.66590307948174,55.11721142395979],[84.60403709332988,55.10055519691836],[84.54455056818483,55.031550827749015],[84.45413104996311,54.981582146626394],[84.37560883677062,54.98396160763241],[84.31374285061885,54.96254645858065],[84.24949740346179,54.93161346550458],[84.22332333239703,54.869747479352554],[84.28010132733449,54.83892688880404],[84.35386461851559,54.82702958377472],[84.37052084555604,54.75564575360025],[84.34434677449254,54.667605696383376],[84.3205521644337,54.60811917123833],[84.23013264621216,54.55339156810352],[84.30389593739325,54.53197641905078],[84.43952521472512,54.589083483190706],[84.49187335685384,54.57242725615016],[84.51090904489995,54.52721749703956],[84.58943125809289,54.5438737240802],[84.63464101720321,54.49152558195326],[84.7084043083843,54.44869528384787],[84.88210496181001,54.46773097189451],[84.93921202594984,54.39872660272526],[84.87258711778615,54.30592762349717],[84.83927466370515,54.26309732539355],[84.86068981275763,54.21550810527606],[84.93207364293235,54.18219565119399],[84.93445310393783,54.15126265811793],[84.89162280583307,54.113191282024644],[84.93207364293235,54.06560206190902],[85.00583693411345,54.053704756880485],[85.0772207642881,54.044186912857164],[85.17477866552714,54.04894583486838],[85.22236788564392,54.00135661475089],[85.33658201392342,54.01801284179241],[85.3579971629758,53.94424955061096],[85.47221129125539,53.90617817451856],[85.58880488054135,53.87524518144161],[85.6792243987629,53.82289703931477],[85.74109038491457,53.801481890261144],[85.84102774715917,53.71582129405125],[85.93144726538073,53.67061153494163],[85.8862375062703,53.65395530790099],[85.89575535029337,53.6135044708017],[85.80295637106624,53.55639740666177],[85.75536715094947,53.499290342521846],[85.75060822893762,53.46121896642856],[85.6720860157454,53.40411190228863],[85.61259949060009,53.38269675323501],[85.62449679562862,53.31131292306054],[85.57690757551192,53.26372370294482],[85.56263080947694,53.23041124886187],[85.5316978164015,53.201857716791906],[85.45555506421485,53.23041124886187],[85.36989446800523,53.189960411762485],[85.30089009883605,53.14950957466497],[85.31516686487103,53.11143819857168],[85.26043926173676,53.09478197152927],[85.18667597055655,53.104299815552594],[85.13908675043977,53.182822028746145],[85.0700823812707,53.17330418472194],[85.02011370014834,53.20899609980913],[84.97014501902528,53.17330418472194],[84.95348879198474,53.15426849667618],[84.97490394103713,53.13523280862866],[85.05104669322378,53.13523280862866],[85.0629439982532,53.106679276558694],[84.99393962908404,53.07098736147239],[84.91065849387988,53.101920354547474],[84.80358274861787,53.08526412750693],[84.78930598258289,53.04957221241877],[84.75361406749472,53.01625975833758],[84.77978813855904,53.00674191431426],[84.91065849387988,53.035295446384225],[84.98680124606655,53.04719275141365],[85.0772207642881,53.028157063366024],[85.16526082150337,53.05195167342477],[85.22236788564392,53.05671059543697],[85.28185441078924,53.037674907389345],[85.26281872274241,53.01150083632548],[85.28185441078924,52.9781883822443],[85.32706416990037,52.966291077214876],[85.51028266734912,52.98056784324942],[85.66256817172236,52.92346077910949],[85.7053984698272,52.93535808413891],[85.71967523586218,52.954393772185554],[85.82437152011863,52.961532155203756],[85.96951864147447,52.956773233192536],[86.01710786159116,52.89490724704051],[86.14559875590564,52.797349345801194],[86.35261186341314,52.816385033848725],[86.37640647347109,52.885389403016205],[86.41209838855845,52.90442509106383],[86.47158491370456,52.91156347408194],[86.52155359482691,52.91156347408194],[86.56438389293177,52.880630481004985],[86.65480341115332,52.880630481004985],[86.67859802121207,52.792590423789974],[86.69287478724696,52.74262174266639],[86.716669397305,52.69741198355676],[86.80946837653211,52.70217090556887],[86.8570575966489,52.6688584514868],[86.91178519978308,52.6688584514868],[86.95461549788794,52.642684380421954],[87.01410202303406,52.63316653639863],[87.03551717208644,52.59747462131145],[87.08548585320878,52.59747462131145],[87.15924914438988,52.55702378421206],[87.19732052048272,52.511814025102446],[87.26632488965188,52.488019415043695],[87.45906123112441,52.507055103089456],[87.66369487762555,52.43329181190889],[87.894502595191,52.502296181078236],[87.95874804234825,52.50467564208434],[88.08010055364603,52.47850157101949],[88.1348281567803,52.43091235090377],[88.13244869577395,52.3952204358156],[88.26807797310663,52.36666690374564],[88.3228055762401,52.416635584868345],[88.37039479635679,52.404738279838924],[88.37039479635679,52.37380528676384],[88.32994395925839,52.352390137710216],[88.31566719322261,52.30242145658938],[88.30614934919956,52.261970619490086],[88.31804665422898,52.176310023280195],[88.28473420014717,52.13585918618081],[88.20145306494302,52.07875212204088],[88.12055139074452,52.07875212204088],[88.07296217062854,52.06685481701156],[87.98254265240699,52.05733697298824],[87.98016319140062,52.00498883085943],[87.89688205619656,51.902672007609],[87.90402043921397,51.84794440447517],[88.0610648655992,51.74800704223074],[88.03013187252297,51.638551835962105],[87.98016319140062,51.62665453093268],[87.96350696436016,51.564788544781536],[87.91115882223146,51.54337339572791],[87.98730157441811,51.46485118253711],[88.1157924687334,51.42677980644294],[88.08010055364603,51.37919058632722],[88.16100222784372,51.329221905204605],[88.303769888194,51.341119210233934],[88.35849749132818,51.30066837313464],[88.51316245670706,51.31018621715796],[88.5440954497825,51.35301651526149],[88.63927389001597,51.37443166431423],[88.65117119504531,51.410123579401414],[88.63451496800405,51.43153872845416],[88.62975604599292,51.46961010454832],[88.6773452661089,51.50292255862951],[88.77252370634238,51.53861447371767],[88.86294322456394,51.54099393472279],[88.94146543775607,51.54575285673401],[88.95336274278549,51.60999830389214],[89.01522872893716,51.61475722590326],[89.16989369431596,51.54337339572791],[89.28410782259554,51.53385555170459],[89.34359434774166,51.493404714607074],[89.47684416406807,51.488645792594085],[89.56726368228962,51.47674848756466],[89.68385727157558,51.51244040265283],[89.74810271873281,51.52195824667704],[89.77189732879076,51.58144477182218],[89.82186600991382,51.5838242328273],[89.88135253505922,51.562409083774554],[89.92418283316398,51.588583154840286],[90.00508450736257,51.70041782211413],[90.05029426647299,51.726591893177115],[90.11929863564207,51.7289713541841],[90.25016899096292,51.707556205131354],[90.25492791297485,51.81701141139911],[90.25730737398041,51.92408715666076],[90.28110198403844,51.97643529878947],[90.32155282113764,52.00022990884831],[90.3590265805698,52.01088770808204],[90.30905789944674,52.039441240152],[90.33761143151733,52.08940992127559],[90.29478113341176,52.146516985414536],[90.26265840983358,52.27500787972982],[90.1448750900448,52.360668475940685],[90.08419883439595,52.41777554008061],[90.01995338723871,52.46417502969324],[90.01638419572961,52.514032173581654],[89.95615408902006,52.54013188648882],[89.87986262052037,52.62043869543595],[89.80357115202138,52.638507727448086],[89.7373180346402,52.6907071532642],[89.68511860882471,52.78305998355334],[89.66102656614041,52.899504856526605],[89.60235798071541,52.92816992583086],[89.52383576752327,52.9353083088472],[89.41676002226038,52.9353083088472],[89.36322214962972,52.988846181479886],[89.41319083075199,53.10662950126698],[89.55238929959314,53.11733707579428],[89.59878878920702,53.17444413993421],[89.68444938541673,53.256535544635],[89.74869483257397,53.310073417266715],[89.74869483257397,53.36004209838844],[89.8165094712404,53.49924056723013],[89.8058018967138,53.57776278042182],[89.86290896085356,53.677700142666254],[89.87718572688846,53.70982286624532],[89.86290896085356,53.73123801529797],[89.77724836464384,53.71339205775442],[89.78438674766133,53.695546100209896],[89.73441806653908,53.677700142666254],[89.67374181089014,53.70982286624532],[89.63448070429448,53.720530440772535],[89.56666606562804,53.684838525684455],[89.52383576752327,53.670561759649914],[89.48457466092671,53.64557741908905],[89.43103678829536,53.63843903607085],[89.3882064901905,53.63843903607085],[89.34537619208564,53.63130065305363],[89.2775615534193,53.64200822757995],[89.25971559587602,53.695546100209896],[89.22045448927955,53.71339205775442],[89.20974691475367,53.73837639831528],[89.24186963833193,53.788345079437896],[89.2022119549017,53.81967464934861],[89.16652003981433,53.81253626633131],[89.11298216718288,53.830382223874054],[89.08442863511301,53.87678171348766],[89.08085944360462,53.919612011593046],[89.12368974170947,53.96601150120656],[89.20935033791919,53.955303926681125],[89.23790386998907,54.01598018232838],[89.25574982753315,54.080225629486414],[89.20578114641,54.12305592759091],[89.17008923132263,54.165886225696305],[89.07372106058722,54.165886225696305],[89.04159833700815,54.148040268151775],[89.01304480493836,54.14447107664454],[88.93095340023696,54.237270055870766],[88.8774155276055,54.25511601341441],[88.80603169743077,54.19443975776724],[88.71323271820374,54.151609459660875],[88.70252514367706,54.10877916155638],[88.6668332285897,54.10877916155638],[88.62757212199324,54.12662511910001],[88.62400293048493,54.16231703418818],[88.58117263238007,54.18373218323994],[88.49908122767876,54.18016299173084],[88.4455433550473,54.19087056625814],[88.4455433550473,54.222993289837206],[88.50265041918786,54.230131672854434],[88.58831101539757,54.26225439643163],[88.63114131350243,54.35505337565972],[88.62400293048493,54.41572963130787],[88.64898727104642,54.43714478036149],[88.65612565406391,54.5263745680804],[88.64687306499876,54.554132335276364],[88.50175336130033,54.54383047680315],[88.37326246698585,54.504569370205886],[88.33043216888028,54.51884613624131],[88.34827812642428,54.62592188150394],[88.26618672172303,54.67589056262567],[88.23049480663558,54.718720860732034],[88.11271148684698,54.747274392802],[88.06274280572464,54.786535499397395],[88.11271148684698,54.85078094655543],[88.05203523119805,54.882903670134496],[88.00563574158488,54.88647286164182],[87.95566706046253,54.92573396823811],[87.93068271990106,55.00425618143069],[87.79505344256908,55.036378905009755],[87.75579233597253,55.01853294746523],[87.67370093127128,55.032809713500654],[87.6629933567454,55.00782537293979],[87.55234841997421,54.96856426634439],[87.4595494407463,54.98641022388803],[87.3560428869934,55.025671330484315],[87.33462773794092,55.06493243707972],[87.35961207850168,55.08277839462336],[87.29893582285284,55.16130060781505],[87.25253633323959,55.15416222479871],[87.23469037569559,55.182715756868674],[87.12047624741601,55.196992522903216],[87.05266160874967,55.243392012516814],[86.97770858706575,55.25409958704314],[86.93487828896097,55.275514736094905],[86.83851011822468,55.27194554458678],[86.80281820313739,55.29336069363854],[86.84921769275127,55.35046775777847],[86.84564850124217,55.407574821918395],[86.75641871352416,55.39686724739384],[86.6993116493836,55.35046775777847],[86.59223590412151,55.35760614079667],[86.56368237205163,55.332621800235714],[86.47088339282452,55.325483417217605],[86.35310007303582,55.421851587954706],[86.24959351928212,55.49680460963739],[86.15322534854582,55.49680460963739],[86.07827232686198,55.564619248304524],[86.04614960328381,55.63243388696989],[85.90695113444264,55.66812580205806],[85.86769002784618,55.725232866197985],[85.79617400539352,55.759030025298664],[85.75093729814036,55.75903002529911]]]]}},{"type":"Feature","properties":{"kind":"district","id":"uyezd-1897-586","name":"Каинский","provinceId":"gubernia-1897-78"},"geometry":{"type":"MultiPolygon","coordinates":[[[[76.1863479100633,57.239539322841686],[76.11496407988786,57.17291441467755],[76.04358024971313,57.10866896752031],[76.02930348367842,57.056320825391595],[76.10068731385306,56.90165586001423],[76.11496407988786,56.7993390367637],[76.17207114402859,56.689883830494175],[76.22441928615659,56.62563838333702],[76.26249066224987,56.59470539026185],[76.28152635029652,56.52094209908138],[76.28390581130243,56.449558268905136],[76.24821389621506,56.43290204186539],[76.23869605219139,56.373415516718566],[76.16493276101083,56.35200036766672],[76.01026779563178,56.313928991573434],[75.90557151137479,56.197335402287564],[75.91270989439263,56.161643487200294],[75.83180822019423,56.1188131890949],[75.75090654599582,56.071223968978295],[75.72235301392621,56.02601420986868],[75.74614762398478,55.983183911763284],[75.63193349570493,55.87610816650154],[75.51296044541324,55.854693017448],[75.42967931020891,55.74999673319236],[75.50731044952707,55.614876640929694],[75.61914511680101,55.40310461141142],[75.71908247904605,55.36027431330603],[75.75477439413342,55.319823476206736],[75.58821212372467,55.29602886614887],[75.43592661935162,55.234162879996845],[75.40023470426426,55.20322988692256],[75.40975254828803,55.14612282278175],[75.30743572503705,55.081877375623705],[75.37644009420657,54.92721241024624],[75.45734176840419,54.879623190128754],[75.54300236461444,54.89389995616329],[75.6048683507662,54.73923499078414],[75.60248888976028,54.57743164238857],[75.61200673378325,54.4608380531035],[75.59772996774844,54.32758823677612],[75.59772996774844,54.13961081731579],[75.83548585043147,54.178010379203414],[76.13529793716609,54.238686634850666],[76.30304993807704,54.163733613167096],[76.51720142860204,54.03881191036181],[76.88125896249389,53.83179880285386],[77.18464024073761,53.67832356797861],[77.48088313596304,53.52127914159425],[77.69860381799633,53.403495821804405],[77.92703207455622,53.271435735981],[77.88063258494226,53.41063420482261],[77.79497198873256,53.949582122642816],[77.74500330761029,54.24582501786878],[77.67361947743557,54.6634204243928],[77.70217300950553,54.7954805102154],[77.94130884059112,54.73837344607547],[78.16616790564198,54.684835573444644],[78.40530373672838,54.78834212719809],[78.65157795083155,54.881141106426185],[78.74080773855036,54.85615676586443],[78.88357539889982,54.841879999829004],[78.90855973946131,54.85615676586443],[78.95139003756617,54.85615676586443],[78.97280518661856,54.877571914917084],[78.93711327153127,54.891848680952506],[78.96209761209276,54.92040221302247],[79.08701931489814,54.941817362073344],[79.05846578282826,54.99178604319694],[79.1369879960212,55.048893107336866],[79.23692535826581,55.07744663940683],[79.27261727335318,55.08458502242316],[79.28332484787977,55.109569362985894],[79.38326221012437,55.12741532052953],[79.54387582801792,55.109569362985894],[79.72590459496385,55.0738774478987],[79.84011872324423,55.04175472431964],[79.90436417040148,55.0667390648805],[80.00073234113769,55.098861788459566],[80.0899621288557,55.04175472431964],[80.34337472597717,55.0203395752669],[80.66460196176408,55.00606280923147],[80.66817115327247,54.97394008565241],[80.71813983439561,54.923971404529794],[80.69672468534235,54.88827948944349],[80.7538317494829,54.85615676586443],[80.81807719664013,54.881141106426185],[80.86447668625418,54.877571914917084],[81.03936707018254,54.959663319617874],[81.15001200695302,54.959663319617874],[81.26065694372421,54.959663319617874],[81.36773268898712,54.95252493659976],[81.46767005123164,54.95609412810886],[81.55689983895044,55.00606280923147],[81.8103124360711,55.05246229884597],[81.91752468565207,55.09478292367932],[81.94594171340388,55.1060001714759],[81.99947958603452,55.159538044108594],[82.09584775677074,55.227352682773954],[82.3492603538922,55.28089055540478],[82.32427601333063,55.36298196010557],[82.28535316344623,55.42785337658097],[82.27073814069927,55.45221174782546],[82.16723158694548,55.569995067612545],[81.87455788322835,55.91263745245308],[81.63899124365177,56.176757624099984],[81.41413217860027,56.415893455186996],[81.01795192113015,56.44444698725696],[80.72170902590392,56.458723753291494],[80.22202221467928,56.77638179756922],[79.93648689397965,56.97982571356807],[79.3332935290021,56.9905332880935],[78.58019412065691,57.01194843714713],[78.21613658676505,57.019086820163466],[77.97343156417018,57.20825397012689],[77.8378022868374,57.322468098406745],[77.58438968971674,57.28320699181037],[77.27387002845562,57.21896154465411],[76.84199785589742,57.229669119180514],[76.37443376825176,57.240376693705954],[76.1863479100633,57.239539322841686]]]]}},{"type":"Feature","properties":{"kind":"district","id":"uyezd-1897-587","name":"Ново-Николаевский","provinceId":"gubernia-1897-78"},"geometry":{"type":"MultiPolygon","coordinates":[[[[82.28535316344623,55.42785337658097],[82.32427601333063,55.36298196010557],[82.3492603538922,55.28089055540478],[82.09584775677074,55.227352682773954],[81.99947958603452,55.159538044108594],[81.94594171340388,55.1060001714759],[81.91752468565207,55.09478292367932],[81.93428184478908,55.029171366743896],[81.92238453975975,54.97206430260307],[82.15319225732493,54.92685454349248],[82.18412525040091,54.860229635330114],[82.23885285353465,54.838814486276576],[82.27692422962865,54.762671734090006],[82.29595991767529,54.71270305296908],[82.33403129376839,54.71270305296908],[82.38162051388491,54.66749329385679],[82.42445081198942,54.65797544983437],[82.47917841512395,54.66035491083949],[82.52438817423446,54.686528981903436],[82.54104440127581,54.715082513974295],[82.52914709624648,54.762671734090006],[82.5814952383743,54.767430656102114],[82.64098176352006,54.784086883143544],[82.68857098363658,54.717461974979415],[82.75519589180044,54.69842628693277],[82.78136996286432,54.655595988829155],[82.80992349493428,54.646078144804946],[82.88130732510936,54.67701113788101],[82.92413762321387,54.68177005989311],[83.03359282948223,54.717461974979415],[83.06928474456933,54.72460035799672],[83.0573874395408,54.791225266160865],[83.09069989362199,54.83405556426625],[83.17160156782049,54.838814486276576],[83.2548827030249,54.85309125231289],[83.29057461811209,54.874506401364656],[83.35006114325793,54.88164478438197],[83.47379311556084,54.914957238463145],[83.54041802372392,54.938751848521896],[83.59276616585245,54.919716160475254],[83.67366784005085,54.92923400449946],[83.66890891803892,54.95778753656854],[83.75456951424856,54.97682322461607],[83.79026142933654,54.96254645858065],[83.87592202554626,54.950649153551225],[83.84023011045906,54.874506401364656],[83.8901987915816,54.867368018347435],[83.88543986956958,54.84833233030079],[83.99251561483185,54.82453772024204],[84.06389944500702,54.85071179130591],[84.14956004121674,54.869747479352554],[84.22332333239703,54.869747479352554],[84.24949740346179,54.93161346550458],[84.31374285061885,54.96254645858065],[84.37560883677062,54.98396160763241],[84.45413104996311,54.981582146626394],[84.54455056818483,55.031550827749015],[84.60403709332988,55.10055519691836],[84.66590307948174,55.11721142395979],[84.69921553356372,55.15052387804097],[84.80153235681398,55.169559566087614],[84.89909025805302,55.2028720201688],[84.94667947816944,55.250461240286285],[84.94192055615824,55.29329153839079],[84.89433133604172,55.36705482957224],[84.9252643291176,55.405126205665525],[85.09420606053102,55.42416189371217],[85.06565252846114,55.53123763897471],[85.12513905360699,55.547893866014455],[85.19652288378208,55.559791171043784],[85.24411210389859,55.53599656098504],[85.33691108312642,55.54551440500924],[85.41781275732403,55.55027332702135],[85.46778143844655,55.58120632009563],[85.47729928246987,55.61689823518371],[85.46778143844655,55.65259015027188],[85.53440634660971,55.6597285332891],[85.70096861701784,55.61213931317161],[85.73190161009371,55.67876422133486],[85.75093729814036,55.726353441452346],[85.75093729814036,55.75903002529911],[85.68195987711321,55.759030025298664],[85.57131494034202,55.776875982843194],[85.63199119599088,55.87681334508762],[85.68552906862232,55.93748960073665],[85.58202251486861,55.994596664876575],[85.57845332335943,56.0445653459983],[85.47851596111482,56.0909648356119],[85.39285536490519,56.13022594220908],[85.43568566301005,56.15521028277003],[85.43568566301005,56.18376381483999],[85.33931749227375,56.17662543182179],[85.2750720451165,56.16234866578637],[85.21439578946766,56.158779474279044],[85.21796498097676,56.19447138936543],[85.1822730658886,56.2729936025589],[85.11802761873135,56.30154713462886],[84.9502756178204,56.37650015631243],[84.78252361690936,56.322962283679736],[84.39705093396512,56.258716836523476],[84.0829620811956,56.19447138936543],[83.94733280386284,56.16591785729547],[83.95447118688033,56.126656750700064],[83.82598029256584,56.012442622419236],[83.73318131333865,56.01958100543744],[83.65822829165481,56.03742696298107],[83.61896718505834,56.0981032186301],[83.5654293124269,56.10524160164644],[83.5547217379011,56.14093351673452],[83.42266165207744,56.11951836768186],[83.39767731151595,56.0552729205256],[83.44050760962152,56.04099615449017],[83.44407680112991,55.93392040922755],[83.37626216246348,55.89109011112305],[83.25134045965738,55.841121429999454],[83.14069552288699,55.78401436585953],[83.1228495653429,55.73404568473691],[83.03718896913328,55.7269073017196],[83.00863543706332,55.74475325926413],[82.64814709467984,55.601985598913416],[82.31978147587535,55.455648747056365],[82.28535316344623,55.42785337658097]]]]}},{"type":"Feature","properties":{"kind":"district","id":"uyezd-1897-588","name":"Бийский","provinceId":"gubernia-1897-78"},"geometry":{"type":"MultiPolygon","coordinates":[[[[89.52102874676132,49.87986577075024],[89.44250653356892,49.922696068855636],[89.42585030652833,49.989320977018],[89.44012707256371,50.02501289210616],[89.50675198072685,50.065463729204566],[89.50675198072685,50.089258339264205],[89.46868060463356,50.11067348831605],[89.34732809333588,50.11067348831605],[89.30925671724276,50.12257079334538],[89.29735941221344,50.1701600134611],[89.3544664763532,50.24630276564767],[89.44012707256371,50.289133063753056],[89.51864928575611,50.296271446770284],[89.58527419391925,50.26533845369431],[89.61858664800036,50.27485629771852],[89.637622336047,50.34148120588088],[89.70900616622208,50.37955258197417],[89.70424724421088,50.42714180209077],[89.640001797053,50.46521317818406],[89.62810449202385,50.52707916433707],[89.59707059299683,50.52973279926566],[89.5185483798038,50.503558728201],[89.47333862069354,50.5130765722252],[89.45430293264656,50.5535274093245],[89.34960664839002,50.65108531056292],[89.28298174022723,50.72484860174339],[89.26156659117402,50.8152681199645],[89.20683898804066,50.83668326901724],[89.16638815094143,50.88903141114595],[89.13545515786512,50.996107156407604],[89.04741510064991,51.04131691551909],[89.03789725662608,51.07938829161317],[89.06645078869593,51.10318290167024],[89.06883024970239,51.124598050723776],[89.014102646568,51.150772121787725],[89.03075887360859,51.20074080290945],[89.06883024970239,51.24833002302695],[89.06407132769039,51.36254415130681],[88.9617545044394,51.467240435562445],[88.87847336923613,51.51482965567995],[88.86294322456394,51.54099393472279],[88.77252370634238,51.53861447371767],[88.6773452661089,51.50292255862951],[88.62975604599292,51.46961010454832],[88.63451496800405,51.43153872845416],[88.65117119504531,51.410123579401414],[88.63927389001597,51.37443166431423],[88.5440954497825,51.35301651526149],[88.51316245670706,51.31018621715796],[88.35849749132818,51.30066837313464],[88.303769888194,51.341119210233934],[88.16100222784372,51.329221905204605],[88.08010055364603,51.37919058632722],[88.1157924687334,51.42677980644294],[87.98730157441811,51.46485118253711],[87.91115882223146,51.54337339572791],[87.96350696436016,51.564788544781536],[87.98016319140062,51.62665453093268],[88.03013187252297,51.638551835962105],[88.0610648655992,51.74800704223074],[87.90402043921397,51.84794440447517],[87.89688205619656,51.902672007609],[87.98016319140062,52.00498883085943],[87.98254265240699,52.05733697298824],[88.07296217062854,52.06685481701156],[88.12055139074452,52.07875212204088],[88.20145306494302,52.07875212204088],[88.28473420014717,52.13585918618081],[88.31804665422898,52.176310023280195],[88.30614934919956,52.261970619490086],[88.31566719322261,52.30242145658938],[88.32994395925839,52.352390137710216],[88.37039479635679,52.37380528676384],[88.37039479635679,52.404738279838924],[88.3228055762401,52.416635584868345],[88.26807797310663,52.36666690374564],[88.13244869577395,52.3952204358156],[88.1348281567803,52.43091235090377],[88.08010055364603,52.47850157101949],[87.95874804234825,52.50467564208434],[87.894502595191,52.502296181078236],[87.66369487762555,52.43329181190889],[87.45906123112441,52.507055103089456],[87.26632488965188,52.488019415043695],[87.19732052048272,52.511814025102446],[87.15924914438988,52.55702378421206],[87.08548585320878,52.59747462131145],[87.03551717208644,52.59747462131145],[87.01410202303406,52.63316653639863],[86.95461549788794,52.642684380421954],[86.91178519978308,52.6688584514868],[86.8570575966489,52.6688584514868],[86.80946837653211,52.70217090556887],[86.716669397305,52.69741198355676],[86.69287478724696,52.74262174266639],[86.67859802121207,52.792590423789974],[86.65480341115332,52.880630481004985],[86.56438389293177,52.880630481004985],[86.52155359482691,52.91156347408194],[86.47158491370456,52.91156347408194],[86.41209838855845,52.90442509106383],[86.37640647347109,52.885389403016205],[86.35261186341314,52.816385033848725],[86.14559875590564,52.797349345801194],[86.01710786159116,52.89490724704051],[85.96951864147447,52.956773233192536],[85.82437152011863,52.961532155203756],[85.71967523586218,52.954393772185554],[85.7053984698272,52.93535808413891],[85.66256817172236,52.92346077910949],[85.51028266734912,52.98056784324942],[85.32706416990037,52.966291077214876],[85.28185441078924,52.9781883822443],[85.26281872274241,53.01150083632548],[85.28185441078924,53.037674907389345],[85.22236788564392,53.05671059543697],[85.16526082150337,53.05195167342477],[85.0772207642881,53.028157063366024],[84.98680124606655,53.04719275141365],[84.91065849387988,53.035295446384225],[84.77978813855904,53.00674191431426],[84.7120371480272,52.9710597912472],[84.48598835247287,52.91633218811417],[84.2171092588145,52.84256889693272],[84.04816752739993,52.81163590385684],[83.92205609409109,52.82829213089738],[83.83639549788126,52.80687698184474],[83.81735980983456,52.76642614474535],[83.84829280291069,52.73073422965905],[83.92205609409109,52.68076554853546],[83.89826148403313,52.59748441333167],[83.83877495888686,52.50706489511056],[83.81260088782335,52.430922142924786],[83.59606993629285,52.40712753286613],[83.55323963818722,52.36429723476154],[83.44854335393069,52.34764100771922],[83.4128514388434,52.28577502156807],[83.2534275514526,52.209632269382396],[83.28198108352325,52.159663588258894],[83.28911946654074,52.126351134178506],[83.27008377849393,52.03593161595572],[83.17728479926603,52.03831107696172],[83.12731611814377,51.91695856566544],[83.18680264328987,51.9026817996301],[83.32719084263368,51.86698988454194],[83.39381575079727,51.84795419649619],[83.36050329671548,51.738498990227455],[83.30101677156938,51.66235623804009],[83.27008377849393,51.629043783958906],[83.20821779234234,51.60762863490626],[83.18680264328987,51.5790751028363],[83.27008377849393,51.52910642171439],[83.30577569358138,51.48865558461519],[83.26532485648198,51.47437881858065],[83.23439186340659,51.48865558461519],[83.21059725334783,51.48865558461519],[83.22249455837715,51.45534313053312],[83.25818647346449,51.44106636449938],[83.33432922565117,51.42441013745706],[83.35098545269165,51.381579839352554],[83.34384706967433,51.31971385320132],[83.44854335393069,51.2673657110727],[83.479476347007,51.18646403687403],[83.55086017718162,51.150772121787725],[83.63652077339145,51.10318290167024],[83.69362783753189,51.003245539425805],[83.76025274569469,50.91044656019771],[83.87208741296865,50.89616979416317],[83.94823016515528,50.843821652034464],[83.96250693119026,50.781955665883316],[84.16238165568029,50.66060315458704],[84.24328332987801,50.6344290835214],[84.32180554307104,50.59397824642379],[84.37653314620519,50.57256309737025],[84.39556883425132,50.59635770742891],[84.428881288333,50.59397824642379],[84.44077859336244,50.53449172127786],[84.47647050844989,50.503558728201],[84.54309541661263,50.5083176502139],[84.59306409773569,50.45121058607397],[84.68110415495096,50.45121058607397],[84.8643226524004,50.391724060927146],[84.9238091775457,50.34175537980542],[84.97853678067992,50.35603214584076],[85.04992061085466,50.344134840811435],[85.09513036996589,50.379826755897824],[85.22600072528593,50.3726883728814],[85.2926256334494,50.32985807477591],[85.3021434774725,50.29892508170083],[85.36638892463054,50.28226885465851],[85.39018353468845,50.25371532258855],[85.46394682586958,50.244197478565226],[85.57816095414915,50.258474244601544],[85.63288855728342,50.2418180175609],[85.65192424533024,50.21564394649526],[85.74710268556294,50.175193109397654],[85.89224980691864,50.13236281129235],[86.02549962324508,50.13236281129235],[86.03025854525708,50.09191197419209],[86.09688345341982,50.072876286145444],[86.1492315955486,50.09429143519907],[86.18968243264771,50.072876286145444],[86.30627602193289,50.084773591174866],[86.3253117099797,50.106188740228404],[86.36100362506716,50.106188740228404],[86.38717769613135,50.08239413016956],[86.48711505837599,50.084773591174866],[86.56325781056273,50.106188740228404],[86.67033355582555,50.14663957732769],[86.72268169795336,50.151398499338995],[86.7607530740471,50.10380927922151],[86.79644498913444,50.11332712324483],[86.83927528723922,50.09429143519907],[86.83689582623367,50.03480491005216],[86.90352073439647,49.97531838490791],[86.90590019540213,49.915831859761084],[86.93921264948392,49.87062210065058],[87.05104731675794,49.81351503651145],[87.11291330290953,49.81351503651145],[87.17002036704929,49.768305277399165],[87.24616311923603,49.71357767426534],[87.34134155946941,49.65647061012541],[87.407966467633,49.63505546107346],[87.46031460976081,49.63505546107346],[87.5102832908832,49.625537617049346],[87.57214927703484,49.63981438308477],[87.664948256262,49.55415378687488],[87.81485429962964,49.4375601975899],[87.89585687977984,49.35876381047554],[87.88633903575658,49.40159410857809],[87.88633903575658,49.432527101654145],[87.9244104118498,49.461080633725004],[87.9767585539775,49.458701172718015],[88.07431645521655,49.44442440668357],[88.11238783130977,49.46346009473021],[88.17901273947365,49.458701172718015],[88.25753495266605,49.480116321771646],[88.30036525077054,49.456321711712896],[88.38364638597506,49.47535739975954],[88.44075345011487,49.46583955573533],[88.52403458531847,49.47535739975954],[88.63111033058078,49.47059847774743],[88.7167709267913,49.45156278970079],[88.77625745193711,49.432527101654145],[88.81670828903555,49.44918332869567],[88.83336451607698,49.49201362679919],[88.86429750915283,49.511049314845835],[88.90712780725727,49.48249578277685],[88.94044026133923,49.43966548467137],[88.9737527154204,49.43966548467137],[89.01182409151363,49.461080633725004],[89.06655169464824,49.503910931828614],[89.15935067387511,49.54912069093912],[89.1569712128699,49.58957152803939],[89.16886851789843,49.61574559910335],[89.2045604329864,49.61574559910335],[89.28784156819012,49.58005368401518],[89.37350216439984,49.599089372061826],[89.51626982475017,49.64905805318444],[89.50199305871473,49.696647273301046],[89.47343952664488,49.748995415428865],[89.4853368316742,49.79420517454125],[89.52340820776737,49.83227655063453],[89.52102874676132,49.87986577075024]]]]}},{"type":"Feature","properties":{"kind":"district","id":"uyezd-1897-604","name":"Барнаульский","provinceId":"gubernia-1897-78"},"geometry":{"type":"MultiPolygon","coordinates":[[[[79.15464393961076,52.05313241514715],[79.29904732836042,51.9017417656514],[79.5607880390021,51.57575560785336],[79.83586548170075,51.210552407550566],[79.95245907098587,51.30811030878978],[80.08332942630682,51.28907462074412],[80.0928472703298,51.312869230801],[80.03098128417884,51.33190491884844],[80.00480721311459,51.369976294940926],[80.03574020618993,51.41042713204031],[80.00956613512642,51.46039581316292],[80.2046819376045,51.52702072132715],[80.24989169671494,51.56985101943147],[80.37838259102944,51.64123484960602],[80.47831995327482,51.79352035398014],[80.4283512721525,51.80065873699648],[80.4259718111461,51.843489035102664],[80.49021725830346,51.843489035102664],[80.61394923060669,51.83397119107855],[80.77337311799761,51.92439070929966],[80.83761856515474,51.9410469363402],[81.03749328964477,52.08857351870212],[81.19215825502357,52.18375195893631],[81.2968545392801,52.18851088094655],[81.422965972589,52.15757788787147],[81.5443184838868,52.17185465390689],[81.56811309394493,52.2622741721288],[81.6728093782013,52.2622741721288],[81.72277805932362,52.30034554822129],[81.72039859831807,52.33365800230335],[81.82271542156906,52.32889908029205],[81.9845187699654,52.40504183247782],[82.07731774919245,52.438354286559004],[82.31288438876982,52.55256841483886],[82.48896450320098,52.46928727963497],[82.6412500075744,52.42883644253568],[82.79591497295308,52.37648830040865],[82.91250856223905,52.371729378395756],[82.99341023643757,52.30748393123949],[83.15283412382746,52.2622741721288],[83.2534275514526,52.209632269382396],[83.4128514388434,52.28577502156807],[83.44854335393069,52.34764100771922],[83.55323963818722,52.36429723476154],[83.59606993629285,52.40712753286613],[83.81260088782335,52.430922142924786],[83.83877495888686,52.50706489511056],[83.89826148403313,52.59748441333167],[83.92205609409109,52.68076554853546],[83.84829280291069,52.73073422965905],[83.81735980983456,52.76642614474535],[83.83639549788126,52.80687698184474],[83.92205609409109,52.82829213089738],[84.04816752739993,52.81163590385684],[84.2171092588145,52.84256889693272],[84.48598835247287,52.91633218811417],[84.7120371480272,52.9710597912472],[84.77978813855904,53.00674191431426],[84.75361406749472,53.01625975833758],[84.78930598258289,53.04957221241877],[84.80358274861787,53.08526412750693],[84.91065849387988,53.101920354547474],[84.99393962908404,53.07098736147239],[85.0629439982532,53.106679276558694],[85.05104669322378,53.13523280862866],[84.97490394103713,53.13523280862866],[84.95348879198474,53.15426849667618],[84.97014501902528,53.17330418472194],[85.02011370014834,53.20899609980913],[85.0700823812707,53.17330418472194],[85.13908675043977,53.182822028746145],[85.18667597055655,53.104299815552594],[85.26043926173676,53.09478197152927],[85.31516686487103,53.11143819857168],[85.30089009883605,53.14950957466497],[85.36989446800523,53.189960411762485],[85.45555506421485,53.23041124886187],[85.5316978164015,53.201857716791906],[85.56263080947694,53.23041124886187],[85.57690757551192,53.26372370294482],[85.62449679562862,53.31131292306054],[85.61259949060009,53.38269675323501],[85.6720860157454,53.40411190228863],[85.75060822893762,53.46121896642856],[85.75536715094947,53.499290342521846],[85.80295637106624,53.55639740666177],[85.89575535029337,53.6135044708017],[85.8862375062703,53.65395530790099],[85.93144726538073,53.67061153494163],[85.84102774715917,53.71582129405125],[85.74109038491457,53.801481890261144],[85.6792243987629,53.82289703931477],[85.58880488054135,53.87524518144161],[85.47221129125539,53.90617817451856],[85.3579971629758,53.94424955061096],[85.33658201392342,54.01801284179241],[85.22236788564392,54.00135661475089],[85.17477866552714,54.04894583486838],[85.0772207642881,54.044186912857164],[85.00583693411345,54.053704756880485],[84.93207364293235,54.06560206190902],[84.89162280583307,54.113191282024644],[84.93445310393783,54.15126265811793],[84.93207364293235,54.18219565119399],[84.86068981275763,54.21550810527606],[84.83927466370515,54.26309732539355],[84.87258711778615,54.30592762349717],[84.93921202594984,54.39872660272526],[84.88210496181001,54.46773097189451],[84.7084043083843,54.44869528384787],[84.63464101720321,54.49152558195326],[84.58943125809289,54.5438737240802],[84.51090904489995,54.52721749703956],[84.49187335685384,54.57242725615016],[84.43952521472512,54.589083483190706],[84.30389593739325,54.53197641905078],[84.23013264621216,54.55339156810352],[84.3205521644337,54.60811917123833],[84.34434677449254,54.667605696383376],[84.37052084555604,54.75564575360025],[84.35386461851559,54.82702958377472],[84.28010132733449,54.83892688880404],[84.22332333239703,54.869747479352554],[84.14956004121674,54.869747479352554],[84.06389944500702,54.85071179130591],[83.99251561483185,54.82453772024204],[83.88543986956958,54.84833233030079],[83.8901987915816,54.867368018347435],[83.84023011045906,54.874506401364656],[83.87592202554626,54.950649153551225],[83.79026142933654,54.96254645858065],[83.75456951424856,54.97682322461607],[83.66890891803892,54.95778753656854],[83.67366784005085,54.92923400449946],[83.59276616585245,54.919716160475254],[83.54041802372392,54.938751848521896],[83.47379311556084,54.914957238463145],[83.35006114325793,54.88164478438197],[83.29057461811209,54.874506401364656],[83.2548827030249,54.85309125231289],[83.17160156782049,54.838814486276576],[83.09069989362199,54.83405556426625],[83.0573874395408,54.791225266160865],[83.06928474456933,54.72460035799672],[83.03359282948223,54.717461974979415],[82.92413762321387,54.68177005989311],[82.88130732510936,54.67701113788101],[82.80992349493428,54.646078144804946],[82.78136996286432,54.655595988829155],[82.75519589180044,54.69842628693277],[82.68857098363658,54.717461974979415],[82.64098176352006,54.784086883143544],[82.5814952383743,54.767430656102114],[82.52914709624648,54.762671734090006],[82.54104440127581,54.715082513974295],[82.52438817423446,54.686528981903436],[82.47917841512395,54.66035491083949],[82.42445081198942,54.65797544983437],[82.38162051388491,54.66749329385679],[82.33403129376839,54.71270305296908],[82.29595991767529,54.71270305296908],[82.27692422962865,54.762671734090006],[82.23885285353465,54.838814486276576],[82.18412525040091,54.860229635330114],[82.15319225732493,54.92685454349248],[81.92238453975975,54.97206430260307],[81.93428184478908,55.029171366743896],[81.91752468565207,55.09478292367932],[81.8103124360711,55.05246229884597],[81.55689983895044,55.00606280923147],[81.46767005123164,54.95609412810886],[81.36773268898712,54.95252493659976],[81.26065694372421,54.959663319617874],[81.15001200695302,54.959663319617874],[81.03936707018254,54.959663319617874],[80.86447668625418,54.877571914917084],[80.81807719664013,54.881141106426185],[80.7538317494829,54.85615676586443],[80.69672468534235,54.88827948944349],[80.71813983439561,54.923971404529794],[80.66817115327247,54.97394008565241],[80.66460196176408,55.00606280923147],[80.34337472597717,55.0203395752669],[80.0899621288557,55.04175472431964],[80.00073234113769,55.098861788459566],[79.90436417040148,55.0667390648805],[79.84011872324423,55.04175472431964],[79.72590459496385,55.0738774478987],[79.54387582801792,55.109569362985894],[79.38326221012437,55.12741532052953],[79.28332484787977,55.109569362985894],[79.27261727335318,55.08458502242316],[79.23692535826581,55.07744663940683],[79.1369879960212,55.048893107336866],[79.05846578282826,54.99178604319694],[79.08701931489814,54.941817362073344],[78.96209761209276,54.92040221302247],[78.93711327153127,54.891848680952506],[78.97280518661856,54.877571914917084],[78.95139003756617,54.85615676586443],[78.90855973946131,54.85615676586443],[78.88357539889982,54.841879999829004],[78.74080773855036,54.85615676586443],[78.65157795083155,54.881141106426185],[78.40530373672838,54.78834212719809],[78.16616790564198,54.684835573444644],[77.94130884059112,54.73837344607547],[77.70217300950553,54.7954805102154],[77.67361947743557,54.6634204243928],[77.74500330761029,54.24582501786878],[77.79497198873256,53.949582122642816],[77.88063258494226,53.41063420482261],[77.92703207455622,53.271435735981],[78.20449526567856,53.01770897738608],[78.6708696228213,52.56323192527365],[78.85646758127642,52.365736661788134],[79.15464393961076,52.05313241514715]]]]}},{"type":"Feature","properties":{"kind":"district","id":"uyezd-1897-829","name":"Змеиногорский","provinceId":"gubernia-1897-78"},"geometry":{"type":"MultiPolygon","coordinates":[[[[83.2534275514526,52.209632269382396],[83.15283412382746,52.2622741721288],[82.99341023643757,52.30748393123949],[82.91250856223905,52.371729378395756],[82.79591497295308,52.37648830040865],[82.6412500075744,52.42883644253568],[82.48896450320098,52.46928727963497],[82.31288438876982,52.55256841483886],[82.07731774919245,52.438354286559004],[81.9845187699654,52.40504183247782],[81.82271542156906,52.32889908029205],[81.72039859831807,52.33365800230335],[81.72277805932362,52.30034554822129],[81.6728093782013,52.2622741721288],[81.56811309394493,52.2622741721288],[81.5443184838868,52.17185465390689],[81.422965972589,52.15757788787147],[81.2968545392801,52.18851088094655],[81.19215825502357,52.18375195893631],[81.03749328964477,52.08857351870212],[80.83761856515474,51.9410469363402],[80.77337311799761,51.92439070929966],[80.61394923060669,51.83397119107855],[80.49021725830346,51.843489035102664],[80.4259718111461,51.843489035102664],[80.4283512721525,51.80065873699648],[80.47831995327482,51.79352035398014],[80.37838259102944,51.64123484960602],[80.24989169671494,51.56985101943147],[80.2046819376045,51.52702072132715],[80.00956613512642,51.46039581316292],[80.03574020618993,51.41042713204031],[80.00480721311459,51.369976294940926],[80.03098128417884,51.33190491884844],[80.0928472703298,51.312869230801],[80.08332942630682,51.28907462074412],[79.95245907098587,51.30811030878978],[79.83586548170075,51.210552407550566],[80.0976061923418,50.8726689447231],[80.25967392529463,50.660103761535595],[80.35009344351619,50.52923340621422],[80.42861565670842,50.438813887993106],[80.4690664938077,50.348394369771114],[80.48810218185446,50.341255986754774],[80.5237940969418,50.37694790184108],[80.56662439504674,50.419778199947444],[80.66894121829762,50.40788089491802],[80.68559744533809,50.343635447759894],[80.71890989941988,50.343635447759894],[80.75936073651837,50.395983589888516],[80.85215971574638,50.40312197290672],[80.88547216982812,50.37694790184108],[81.00206575911324,50.3864657458644],[81.11152096538171,50.374568440836754],[81.21145832762625,50.45547011503375],[81.31139568987163,50.47212634207429],[81.41847143513382,50.45309065402844],[81.48509634329736,50.47450580308127],[81.53982394643072,50.46974688106917],[81.61358723761191,50.44833173201741],[81.69210945080397,50.395983589888516],[81.78966735204301,50.36743005781855],[81.80632357908434,50.28176946160866],[81.86818956523604,50.26273377356122],[81.87770740925907,50.205626709421296],[81.9692704417634,50.20717862522636],[82.01809560860289,50.208006170427396],[82.1180329708476,50.22466239746794],[82.1180329708476,50.267492695574305],[82.21559087208664,50.31270245468481],[82.25128278717472,50.27225161758534],[82.3369433833845,50.30318461066061],[82.39167098651859,50.269872156579424],[82.42498344059959,50.243698085515376],[82.3583585324368,50.200867787410075],[82.3036309293027,50.16993479433499],[82.33932284438987,50.13186341824171],[82.39642990852974,50.14138126226503],[82.4797110437338,50.181832099364414],[82.54157702988545,50.25083646853358],[82.62961708710162,50.22942131948004],[82.57488948396735,50.14138126226503],[82.5130234978156,50.112827730195065],[82.4844699657458,50.072376893095594],[82.4797110437338,50.01526982895487],[82.54871541290294,49.967680608838265],[82.58916625000234,49.960542225821925],[82.6248581650895,50.043823361024835],[82.65817061917141,50.10330988617174],[82.73669283236353,50.112827730195065],[82.72241606632855,50.03430551700231],[82.79617935750974,49.99385467990311],[82.80331774052723,49.960542225821925],[82.79142043549791,49.88915839564737],[82.8532864216495,49.91533246671142],[82.91039348578926,49.94864492079242],[83.01984869205779,49.927229771740656],[83.1007503662554,49.93198869375196],[83.16023689140161,49.95578330381062],[83.19116988447706,49.95578330381062],[83.21020557252376,49.9058146226881],[83.26493317565814,49.87012270759993],[83.25779479264065,49.82253348748333],[83.22448233855874,49.77256480636062],[83.13406282033719,49.71545774222069],[83.05316114613953,49.70356043719137],[83.0674379121744,49.66786852210507],[83.11740659329683,49.663109600091985],[83.15071904737857,49.665489061098086],[83.24351802660567,49.653591756068664],[83.30300455175097,49.665489061098086],[83.39104460896698,49.663109600091985],[83.49098197121157,49.765426423344195],[83.52667388629976,49.79873887742458],[83.55046849635778,49.83443079251177],[83.5956782554681,49.83918971452387],[83.61233448250954,49.80349779943748],[83.6646826246373,49.765426423344195],[83.74558429883587,49.71307828121557],[83.75272268185336,49.67500690512141],[83.809829745993,49.658350678080765],[83.8383832780629,49.62265876299438],[83.89786980320918,49.60838199695816],[83.95973578936076,49.575069542876975],[84.02398123651801,49.55365439382521],[83.96925363338391,49.463234875603035],[83.92166441326702,49.4441991875556],[83.90262872522095,49.418025116492615],[83.94307956231944,49.377574279393144],[83.9978071654536,49.35615913034138],[84.10012398870475,49.44181972655127],[84.1905435069263,49.358538591345706],[84.25478895408355,49.32522613726452],[84.23099434402553,49.187217398925924],[84.24051218804857,49.15390494484572],[84.30237817420016,49.182458476915684],[84.3452084723051,49.1776995549026],[84.44990475656164,49.189596859932024],[84.47369936661948,49.2776369171489],[84.50701182070128,49.38233320140445],[84.63550271501657,49.39660996743899],[84.75923468731924,49.40136888945207],[84.79730606341286,49.23718608004951],[84.95672995080366,49.24908338507893],[85.03049324198389,49.21339146999077],[85.1494662922754,49.232427158038206],[85.19229659038098,49.21339146999077],[85.54445681924341,49.25146284608405],[85.70388070663421,49.275257456141915],[85.75622884876276,49.24908338507893],[85.81333591290257,49.25384230708997],[85.86330459402484,49.268119073124595],[85.95848303425834,49.270498534130695],[86.02510794242113,49.30381098821276],[86.19642913484125,49.3133288322352],[86.27495134803348,49.337123442293944],[86.35585302223126,49.41088673347441],[86.42485739140034,49.427542960515055],[86.49386176056953,49.420404577497735],[86.57000451275616,49.384712662411346],[86.6342499599134,49.310949371229896],[86.67945971902463,49.24432446306585],[86.78415600328117,49.22766823602531],[86.90312905357268,49.225288775020005],[87.10538323906809,49.24670392407195],[87.17438760823734,49.232427158038206],[87.33381149562797,49.14914602283264],[87.43424144464893,49.08988471681556],[87.48183066476525,49.07560795077916],[87.55321449494028,49.042295496697974],[87.60556263706809,49.039916035692855],[87.70074107730181,49.056572262732516],[87.77688382948821,49.11367932687244],[87.82447304960482,49.12795609290876],[87.86254442569793,49.15650962497783],[87.92916933386101,49.21123722811264],[87.93392825587313,49.23979076018163],[87.9244104118498,49.30879512935097],[87.89585687977984,49.35876381047554],[87.81485429962964,49.4375601975899],[87.664948256262,49.55415378687488],[87.57214927703484,49.63981438308477],[87.5102832908832,49.625537617049346],[87.46031460976081,49.63505546107346],[87.407966467633,49.63505546107346],[87.34134155946941,49.65647061012541],[87.24616311923603,49.71357767426534],[87.17002036704929,49.768305277399165],[87.11291330290953,49.81351503651145],[87.05104731675794,49.81351503651145],[86.93921264948392,49.87062210065058],[86.90590019540213,49.915831859761084],[86.90352073439647,49.97531838490791],[86.83689582623367,50.03480491005216],[86.83927528723922,50.09429143519907],[86.79644498913444,50.11332712324483],[86.7607530740471,50.10380927922151],[86.72268169795336,50.151398499338995],[86.67033355582555,50.14663957732769],[86.56325781056273,50.106188740228404],[86.48711505837599,50.084773591174866],[86.38717769613135,50.08239413016956],[86.36100362506716,50.106188740228404],[86.3253117099797,50.106188740228404],[86.30627602193289,50.084773591174866],[86.18968243264771,50.072876286145444],[86.1492315955486,50.09429143519907],[86.09688345341982,50.072876286145444],[86.03025854525708,50.09191197419209],[86.02549962324508,50.13236281129235],[85.89224980691864,50.13236281129235],[85.74710268556294,50.175193109397654],[85.65192424533024,50.21564394649526],[85.63288855728342,50.2418180175609],[85.57816095414915,50.258474244601544],[85.46394682586958,50.244197478565226],[85.39018353468845,50.25371532258855],[85.36638892463054,50.28226885465851],[85.3021434774725,50.29892508170083],[85.2926256334494,50.32985807477591],[85.22600072528593,50.3726883728814],[85.09513036996589,50.379826755897824],[85.04992061085466,50.344134840811435],[84.97853678067992,50.35603214584076],[84.9238091775457,50.34175537980542],[84.8643226524004,50.391724060927146],[84.68110415495096,50.45121058607397],[84.59306409773569,50.45121058607397],[84.54309541661263,50.5083176502139],[84.47647050844989,50.503558728201],[84.44077859336244,50.53449172127786],[84.428881288333,50.59397824642379],[84.39556883425132,50.59635770742891],[84.37653314620519,50.57256309737025],[84.32180554307104,50.59397824642379],[84.24328332987801,50.6344290835214],[84.16238165568029,50.66060315458704],[83.96250693119026,50.781955665883316],[83.94823016515528,50.843821652034464],[83.87208741296865,50.89616979416317],[83.76025274569469,50.91044656019771],[83.69362783753189,51.003245539425805],[83.63652077339145,51.10318290167024],[83.55086017718162,51.150772121787725],[83.479476347007,51.18646403687403],[83.44854335393069,51.2673657110727],[83.34384706967433,51.31971385320132],[83.35098545269165,51.381579839352554],[83.33432922565117,51.42441013745706],[83.25818647346449,51.44106636449938],[83.22249455837715,51.45534313053312],[83.21059725334783,51.48865558461519],[83.23439186340659,51.48865558461519],[83.26532485648198,51.47437881858065],[83.30577569358138,51.48865558461519],[83.27008377849393,51.52910642171439],[83.18680264328987,51.5790751028363],[83.20821779234234,51.60762863490626],[83.27008377849393,51.629043783958906],[83.30101677156938,51.66235623804009],[83.36050329671548,51.738498990227455],[83.39381575079727,51.84795419649619],[83.32719084263368,51.86698988454194],[83.18680264328987,51.9026817996301],[83.12731611814377,51.91695856566544],[83.17728479926603,52.03831107696172],[83.27008377849393,52.03593161595572],[83.28911946654074,52.126351134178506],[83.28198108352325,52.159663588258894],[83.2534275514526,52.209632269382396]]]]}}]}
