{"type":"FeatureCollection","features":[{"type":"Feature","properties":{"kind":"province","id":"gubernia-1897-18","name":"Саратовская губерния"},"geometry":{"type":"MultiPolygon","coordinates":[[[[48.36956845189534,52.729014702652435],[48.344584111334385,52.75399904321241],[48.3243586927851,52.77541419226604],[48.312461387755235,52.801588263329904],[48.239887827077496,52.813485568359326],[48.17088345790842,52.84322883093229],[48.04834121610869,52.87059263249827],[47.97933684693961,52.88724885953891],[47.922229782799505,52.89795643406612],[47.891296789723356,52.92175104412398],[47.84846649161886,52.92175104412398],[47.83299999508114,52.91699212211188],[47.78897996647301,52.93364834915428],[47.75566751239094,52.93364834915428],[47.73901128535031,52.94078673217151],[47.709268022777785,52.938407271164614],[47.67833502970154,52.952684037200925],[47.64145338411153,52.951494306696944],[47.59505389449766,52.964581342228485],[47.4986857237618,52.99908352681453],[47.46299380867399,53.00384244882477],[47.38685105648742,53.027637058884494],[47.37495375145845,53.05500086045048],[47.39160997849908,53.0764160095041],[47.40231755302514,53.08593385352742],[47.37257429045262,53.116866846602505],[47.376143481961364,53.12638469062583],[47.39160997849908,53.14185118716435],[47.392799709002,53.1537484921919],[47.34164129737718,53.14898957018069],[47.2797753112255,53.14779983967857],[47.214340133565166,53.14185118716435],[47.16080226093372,53.131143612637935],[47.11440277131985,53.13233334314005],[47.11083357981111,53.14423064816858],[47.09060816126173,53.172784180238544],[47.04063948013911,53.17754310225153],[47.00256810404627,53.19181986828519],[46.953789153426484,53.17873283275365],[46.90619993330961,53.176353371747645],[46.86217990470228,53.182302024261865],[46.841954486152105,53.197768520800295],[46.79793445754478,53.190630137783074],[46.75272469843373,53.194199329292175],[46.713463591837886,53.216804208847826],[46.68134086825882,53.23821935790056],[46.68134086825882,53.269152350975645],[46.65992571920653,53.2869983085184],[46.66944356322976,53.31079291857803],[46.681616865132355,53.329825930308],[46.663948896585595,53.33434564319213],[46.633015903509175,53.32601752967279],[46.606841832445575,53.317689416152476],[46.58304722238674,53.31649968564947],[46.547355307299284,53.31649968564947],[46.547355307299284,53.30222291961404],[46.51642231422367,53.310551033134274],[46.486679051650526,53.30817157212826],[46.47359201611872,53.32601752967279],[46.44622821455185,53.34505321771943],[46.40815683845884,53.33315591268912],[46.36532654035389,53.30936130263127],[46.3260654337576,53.31649968564947],[46.312978398225,53.31293049413948],[46.25349187307942,53.27842830955521],[46.23088699352377,53.2808077705613],[46.178538851395764,53.29508453659673],[46.15117504982889,53.28199750106431],[46.11548313474144,53.27247965704099],[46.07265283663649,53.26296181301855],[46.06908364512775,53.25106450798833],[46.07503229764197,53.22726989792959],[46.044099304566444,53.208234209883834],[46.06432472311573,53.19752663535653],[46.03101226903464,53.18087040831688],[45.98104358791212,53.167783372784456],[45.9298851762865,53.155886067756015],[45.885865147679084,53.14636822373269],[45.87396784264966,53.16540391177844],[45.85731161560912,53.1903882523402],[45.8192402395153,53.21299313189594],[45.807342934486684,53.18919852183719],[45.77878940241663,53.155886067756015],[45.75618452286098,53.11662496115875],[45.744287217831555,53.09639954260999],[45.72763099079101,53.09996873411909],[45.69907745872096,53.09520981210699],[45.66576500463907,53.09639954260999],[45.63364228106116,53.10234819512429],[45.5848633304411,53.09996873411909],[45.5848633304411,53.08331250707668],[45.55274060686231,53.08926115959187],[45.5337049188162,53.07974331556855],[45.49325408171681,53.082122776574565],[45.500392464734304,53.11186603914664],[45.45280324461734,53.114245500152734],[45.42424971254738,53.09996873411909],[45.3909372584662,53.076174124060344],[45.349296690864435,53.038102747966164],[45.380229683939966,53.02620544293675],[45.345727499355604,53.02858490394284],[45.32193288929685,53.03334382595584],[45.293379357226804,53.02739517343984],[45.25649771163697,53.04643086148737],[45.21366741353193,53.05951789701882],[45.201802743471106,53.06714518491556],[45.18524607373971,53.048678130215194],[45.18286661273388,53.03321163367676],[45.18762553474554,53.01179648462402],[45.15193361965844,53.014175945630114],[45.14360550613813,53.00108891009769],[45.11624170457063,52.99514025758347],[45.09958547753,52.973725108531625],[45.07460113696905,52.970155917021636],[45.03296056936675,52.978484030542845],[45.01273515081737,52.976104569537725],[45.01273515081737,52.94517157646166],[44.98775081025562,52.94398184595866],[44.94967943416278,52.94636130696378],[44.922315632595286,52.93565373243745],[44.89138263951985,52.9189975053969],[44.867588029461814,52.891633703830834],[44.83427557537974,52.85594178874178],[44.79977339079556,52.827388256672705],[44.77003012822224,52.830957448181806],[44.7034052200589,52.84404448371423],[44.642728964410225,52.85475205823967],[44.61060624083187,52.80835256862606],[44.559447829206256,52.811921760135164],[44.517807261604666,52.80478337711794],[44.499961304060406,52.826198526170586],[44.47497696349946,52.84047529220513],[44.42976720438841,52.84999313622845],[44.40597259433038,52.835716370193026],[44.37979852326651,52.832147178683925],[44.34648606918453,52.79169634158552],[44.3084146930916,52.78336822806431],[44.27867143051828,52.76671200102376],[44.25725628146607,52.759573618006456],[44.22513355788692,52.80835256862606],[44.15018053620335,52.7881271500773],[44.1287653871512,52.77662642188272],[44.09069401105822,52.76591884735622],[44.025258833397885,52.76710857785834],[43.9907566488129,52.76591884735622],[43.951495542217145,52.77186749986956],[43.91699335763216,52.757590733835016],[43.887250095059635,52.754021542326896],[43.851558179971825,52.754021542326896],[43.851558179971825,52.73974477629058],[43.82895330041671,52.73974477629058],[43.8146765343819,52.750452350817795],[43.74448243470991,52.7492626203139],[43.72782620766847,52.73498585427936],[43.68142671805523,52.732606393273265],[43.65882183849939,52.742124237296586],[43.62907857592687,52.72546801025604],[43.60766342687457,52.69453501717998],[43.60766342687457,52.66836094611611],[43.58624827782157,52.6636020241049],[43.56126393726062,52.67430959863033],[43.53271040519101,52.72546801025604],[43.508915795132175,52.73974477629058],[43.47798280205674,52.73974477629058],[43.44586007847758,52.72903720176505],[43.37447624830267,52.714760435730604],[43.33164595019817,52.706432322209395],[43.37447624830267,52.675499329134226],[43.3768557093085,52.660032832596684],[43.32807675868951,52.65646364108758],[43.32212810617503,52.63742795304094],[43.29119511309879,52.65527391058369],[43.263275449379876,52.65072827546196],[43.259706257870604,52.60670824685534],[43.23829110881822,52.58291363679571],[43.20973757674843,52.58291363679571],[43.176425122666544,52.56982660126417],[43.137164016070514,52.56506767925207],[43.10742075349773,52.58410336729871],[43.04793422835152,52.555549835229634],[43.06340072488969,52.52937576416576],[43.077677490925026,52.52223738114756],[43.09671317897167,52.52461684215268],[43.12169751953226,52.51152980662213],[43.11217967550903,52.50677088460914],[43.0812466824335,52.49963250159182],[43.021760157288014,52.49844277108971],[43.04079584533466,52.44847408996611],[43.078867221427856,52.41040271387283],[43.0598315333813,52.38541837331286],[43.0384163843282,52.360434032751996],[43.00391419974429,52.355675110739],[42.97179147616514,52.355675110739],[42.93253036956911,52.36281349375622],[42.94204821359243,52.33069077017814],[42.93728929158033,52.29856804659907],[42.89683845448148,52.242650712962146],[42.8635260004003,52.21171771988618],[42.82783408531276,52.19982041485765],[42.795711361733694,52.18554364882222],[42.78381405670471,52.16174903876436],[42.78262432620189,52.12724685418018],[42.77548594318422,52.11178035764175],[42.77429621268139,52.0903652085899],[42.796901092236425,52.07608844255447],[42.794521631230865,52.05110410199361],[42.832593007324064,52.02255056992276],[42.77429621268139,52.02017110891764],[42.73741456709102,52.009463534390335],[42.73378662345867,51.99728715677526],[42.732596892955755,51.961595241687974],[42.732596892955755,51.91757521308047],[42.70999201340001,51.86998599296298],[42.6838179423365,51.814068659326054],[42.67073090680399,51.79622270178241],[42.63741845272281,51.79622270178241],[42.56603462254763,51.7414950986477],[42.52796324645443,51.70461345305742],[42.52558378544879,51.67130099897535],[42.53034270746,51.62133231785451],[42.542240012488975,51.584450672264225],[42.55463082058152,51.57862014187418],[42.59151246617189,51.55601526231932],[42.63553249477921,51.53935903527692],[42.70334713344592,51.51913361672727],[42.74855689255678,51.49890819817939],[42.775920694123826,51.47630331862277],[42.7878179991528,51.452508708564906],[42.811612609210655,51.439421673032484],[42.82826883625165,51.41681679347772],[42.84135587178416,51.4001605664362],[42.872288864859684,51.42038598498584],[42.892514283409156,51.407298949453505],[42.86871967335129,51.375176225875336],[42.86158129033354,51.345432963302365],[42.862771020836455,51.32401781424963],[42.921067815479034,51.289515629665445],[42.94843161704617,51.277618324637004],[42.998400298169045,51.26572101960758],[43.06502520633221,51.25620317558337],[43.06264574532575,51.24549560105794],[43.035281943759415,51.22408045200431],[43.013866794706416,51.209803685970655],[43.007918142192366,51.19195772842708],[43.045001252743006,51.17349833787647],[43.09496993386527,51.160411302345025],[43.16516403353753,51.13066803977286],[43.2258402891862,51.10687342971322],[43.3043625023786,51.05809447909361],[43.36860794953557,51.01764364199521],[43.39597175110298,50.99741822344636],[43.43880204920792,50.964105769364295],[43.492339921839196,50.92603439327101],[43.5161345318975,50.89748086120015],[43.55182644698433,50.87130679013629],[43.57919024855173,50.859409485106866],[43.60298485861013,50.8296662225339],[43.62915892967399,50.803492151469946],[43.66723030576701,50.76542077537666],[43.693404376831765,50.7404364348158],[43.73702738211128,50.71458825799801],[43.84767231888221,50.68365526492106],[43.951178872635744,50.657481193857194],[43.9975783622497,50.64558388882777],[44.020183241805356,50.63487631430145],[44.08190786158713,50.6314471687585],[44.08442868896224,50.63130712279324],[44.105843838015154,50.62654820078113],[44.145104944610914,50.60989197374059],[44.218868235791476,50.61584062625481],[44.254560150879016,50.603943321227256],[44.2950109879784,50.57420005865331],[44.33427209457504,50.56111302312089],[44.3842407756973,50.53969787406824],[44.434209456819474,50.5325594910519],[44.47703975492433,50.54088760457124],[44.52938789705295,50.56825140613909],[44.547233854596676,50.5718205976473],[44.56270035113413,50.56825140613909],[44.55675169861956,50.55635410110976],[44.57221819515781,50.55040544859456],[44.588874422198884,50.52304164702858],[44.61504849326266,50.49686757596463],[44.63527391181196,50.48378054043221],[44.65193013885303,50.48021134892408],[44.67334528790586,50.48021134892408],[44.710226933496145,50.458796199871344],[44.725693430033594,50.45403727785835],[44.750677770594635,50.450468086350135],[44.754246962103736,50.40763778824474],[44.763764806126616,50.37313560366145],[44.72450369953086,50.354099915613915],[44.69357070645506,50.33506422756817],[44.680483670923174,50.31959773102973],[44.67810420991681,50.30056204298221],[44.68643232343775,50.26487012789582],[44.70308855047803,50.21728090777921],[44.720934508021756,50.194676028223554],[44.74829830958916,50.1756403401778],[44.77447238065303,50.155414921628065],[44.78161076367043,50.133999772575415],[44.75781615361204,50.14113815559175],[44.73402154355453,50.124481928551205],[44.71260639450162,50.09949758799034],[44.69476043695789,50.0721337864225],[44.68545013767996,50.05351318786782],[44.679293940420436,50.04120079334732],[44.644791755835634,50.01026780027224],[44.61266903225719,49.975765615687166],[44.557941429122295,49.956729927640524],[44.516300861520975,49.93293531758169],[44.481798676936165,49.90557151601482],[44.46038352788334,49.87820771444875],[44.43064026531046,49.86393094841243],[44.399707272234664,49.84251579936067],[44.36639481815349,49.831808224834255],[44.36639481815349,49.821100650307926],[44.36163589614165,49.80920334527851],[44.334668671408814,49.776419660309294],[44.30968433084742,49.756194241759644],[44.271612954754225,49.75143531974843],[44.250197805702015,49.74429693673032],[44.23830050067304,49.691948794603384],[44.220454543129314,49.6431698439828],[44.20855723810034,49.611047120403825],[44.21212642960873,49.56821682229932],[44.22997238715255,49.5539400562639],[44.23830050067304,49.534904368217255],[44.266854032743005,49.5206276021836],[44.291838373303605,49.50278164463997],[44.290648642800775,49.45162323301426],[44.28351025978391,49.41712104842918],[44.307304869841765,49.374290750323794],[44.344186515432135,49.32551179970507],[44.40605250158408,49.224384706957636],[44.49409255879936,49.1077911176708],[44.52026662986367,49.079237585601724],[44.49528228930218,49.067340280572395],[44.47743633175837,49.07209920258352],[44.40962169309247,49.05306351453688],[44.3727400475021,49.03521755699333],[44.3513248984498,49.006664024924255],[44.340617323923745,48.984059145367624],[44.320391905374365,48.95907480480676],[44.30254594783055,48.94122884726312],[44.303735678333375,48.925762350724696],[44.24305942268435,48.89363962714741],[44.207367507596715,48.87103474759077],[44.17524478401836,48.838912024012686],[44.15858855697737,48.784184420878766],[44.14550152144566,48.73778493126427],[44.124086372392654,48.69138544165165],[44.14907071295405,48.65688325706649],[44.15858855697737,48.624760533487425],[44.15620909597172,48.59501727091535],[44.17061401827594,48.57749390482245],[44.171803748778856,48.554889025266704],[44.18608051481366,48.53585333722006],[44.205116202860836,48.52395603218976],[44.2170135078899,48.51086899665822],[44.243187578953766,48.50254088313888],[44.297915182087955,48.494212769617675],[44.3502633242164,48.48112573408525],[44.38000658678901,48.47517708157103],[44.41688823237894,48.47279762056591],[44.48470287104519,48.46090031553649],[44.50135909808653,48.482315464589234],[44.613193765360116,48.46446950704471],[44.62152187888043,48.48112573408525],[44.62747053139492,48.51324845766432],[44.62390133988626,48.53466360671608],[44.61438349586303,48.55369929476272],[44.625091070389175,48.569165791301245],[44.62747053139492,48.59296040135901],[44.59891699932531,48.61556528091573],[44.571553197758526,48.62984204695018],[44.533481821664886,48.636980429967494],[44.520394786133,48.641739351979595],[44.50968721160685,48.6762415365629],[44.53943047417946,48.70241560762774],[44.571553197758526,48.73691779221281],[44.60129646033105,48.7726097073],[44.635798644916036,48.805922161381176],[44.67981867352345,48.84637299848145],[44.68814678704368,48.890393027088066],[44.7036132835822,48.93798224720556],[44.72145924112575,48.962966587765536],[44.753581964704104,48.98676119782526],[44.78451495778034,49.01293526888912],[44.80593010683255,49.028401765426665],[44.847570674434934,49.04386826196519],[44.87493447600171,49.05695529749575],[44.897539355556745,49.09621640409203],[44.92847234863299,49.15451319873496],[44.937990192656216,49.1759283477877],[44.964164263720086,49.20329214935555],[44.976061568749145,49.28657328455846],[44.98557941277309,49.329403582664824],[45.00580483132247,49.36985441976323],[45.04625566842114,49.43528959742348],[45.0641016259654,49.46622259049856],[45.10812165457273,49.51619127162215],[45.15928006619835,49.5840059102884],[45.20330009480647,49.6232670168838],[45.23780227939066,49.658958931971966],[45.28777096051327,49.66490758448619],[45.30323745705099,49.67323569800651],[45.309186109565566,49.69465084705915],[45.32108341459454,49.737481145163656],[45.33298071962432,49.752947641702086],[45.365367827758604,49.76682783090196],[45.389162437817355,49.78705324945258],[45.37012674977089,49.84297058308951],[45.36179863624986,49.89531872521734],[45.38202405479995,49.91792360477299],[45.41057758686965,49.95004632835116],[45.42961327491602,49.98335878243235],[45.43675165793343,50.01786096701839],[45.4557873459806,50.040465846573156],[45.49266899157062,50.06782964814012],[45.5200327931382,50.09400371920398],[45.53906848118457,50.110659946244624],[45.53906848118457,50.14159293932059],[45.57238093526584,50.17133620189365],[45.62353934689137,50.18204377642086],[45.67469775851699,50.21059730848994],[45.683025872037305,50.24509949307501],[45.73061509215418,50.28436059967041],[45.77225565975568,50.32124224526069],[45.80794757484349,50.347416316324555],[45.85315733395382,50.354554699341875],[45.8793314050184,50.37596984839452],[45.92097197261998,50.38310823141184],[45.922161703122896,50.40452338046546],[45.90365752816322,50.433436153840304],[45.88409032703006,50.46400990561051],[45.86386490848068,50.48542505466325],[45.86148544747485,50.51516831723622],[45.8448292204335,50.53777319679196],[45.81508595786098,50.56275753735371],[45.77463512076151,50.581793225400354],[45.73656374466858,50.60677756596033],[45.749650780200554,50.64009002004151],[45.74370212768607,50.679351126638686],[45.71514859561566,50.69957654518842],[45.69492317706628,50.71147385021775],[45.700871829580855,50.737647921281706],[45.73061509215418,50.76977064486077],[45.77939404277308,50.79237552441465],[45.8448292204335,50.80665229045096],[45.91145412859684,50.819739325982496],[45.95428442670205,50.795944715924634],[45.98997634178906,50.77928848888409],[46.03042717888853,50.77809875838011],[46.05779098045522,50.79118579391253],[46.0637396329698,50.814980403970395],[46.070878015988,50.8601901630809],[46.07444720749666,50.89707180867207],[46.055411519449486,50.93633291526836],[46.02566825687696,50.96845563884742],[46.013770951847896,50.9958194404135],[46.01020176033924,51.035080547009784],[45.98759688078323,51.06482380958275],[45.93762819966142,51.08980815014361],[45.89122871004746,51.112413029699354],[45.85315733395382,51.14810494478664],[45.82817299339287,51.189745512389024],[45.82143118721004,51.22598088461932],[45.82143118721004,51.25453441668928],[45.82975930073027,51.29736471479556],[45.87377932933768,51.29736471479556],[45.88448690386454,51.32353878585943],[45.90471232241392,51.33900528239608],[45.93564531548936,51.36636908396393],[45.97847561359466,51.36993827547303],[45.999890762646864,51.3973020770391],[46.005839415161354,51.44608102765871],[46.01416752868167,51.485342134255],[46.05461836578114,51.515085396828944],[46.09863839438927,51.521034049342276],[46.16645303305543,51.5305518933656],[46.19619629562804,51.54720812040614],[46.24021632423617,51.60193572354095],[46.25568282077389,51.64238656064025],[46.281856891837755,51.65547359617267],[46.30089257988493,51.673319553715416],[46.31397961541691,51.7090114688026],[46.341343416983605,51.72209850433502],[46.36156883553289,51.74351365338768],[46.36275856603581,51.753031497411975],[46.397260750620795,51.76611853294342],[46.42581428269049,51.758980149926195],[46.46983431129862,51.762549341435296],[46.53764894996478,51.77801583797195],[46.57334086505179,51.77682610746886],[46.59118682259614,51.76849799394952],[46.617360893660006,51.758980149926195],[46.628068468186065,51.73875473137557],[46.65424253925073,51.731616348358344],[46.69112418484066,51.73280607886224],[46.72324690841981,51.73518553986834],[46.78035397255912,51.744703383890766],[46.83627130619631,51.774446646464625],[46.91836271089728,51.79586179551639],[47.002833576604075,51.8422612851291],[47.07183794577395,51.8946094272587],[47.11704770488419,51.919593767818675],[47.16939584701273,51.94576783888352],[47.21460560612377,51.94457810838051],[47.239589946684724,51.95766514391285],[47.25267698221661,51.98145975397071],[47.29074835831025,51.99454678950224],[47.37759868502288,52.02072086056708],[47.443033862683215,52.039756548613724],[47.49776146581749,52.06474088917548],[47.552489068951054,52.079017655210016],[47.575093948506975,52.0766381942049],[47.61078586359398,52.05998196716426],[47.65718535320794,52.02904897408732],[47.69287726829504,52.019531130063996],[47.72588508173595,52.02520342999739],[47.76157699682385,52.053756962068334],[47.787751067887626,52.08587968564642],[47.8139251389515,52.1227613312367],[47.85318624554805,52.152504593808786],[47.88887816063506,52.16083270732999],[47.930518728237445,52.17510947336453],[47.95312360779257,52.206042466441474],[47.984056600868804,52.239354920522565],[48.01498959394424,52.284564679633164],[48.04473285651757,52.291703062650384],[48.09708099864521,52.32263605572556],[48.13515237473885,52.35713824031063],[48.172034020328866,52.37260473684906],[48.19106970837604,52.39996853841514],[48.177982672843356,52.41543503495356],[48.15537779328823,52.426142609479],[48.14704967976792,52.46302425507017],[48.15061887127657,52.48800859563201],[48.1815518643529,52.48562913462591],[48.1958286303877,52.48919832613501],[48.19939782189645,52.51418266669499],[48.189879977873126,52.54630539027494],[48.19463889988479,52.58318703586522],[48.23508973698346,52.62720706447184],[48.24239762647825,52.63423388129376],[48.266022730059696,52.65695032704481],[48.31361195017577,52.66765790157202],[48.35168332626941,52.6985908946472],[48.36956845189534,52.729014702652435]]]]}},{"type":"Feature","properties":{"kind":"district","id":"uyezd-1897-472","name":"Вольский","provinceId":"gubernia-1897-18"},"geometry":{"type":"MultiPolygon","coordinates":[[[[46.2854260833465,52.606068268001785],[46.3270666509488,52.596550423978464],[46.333015303463284,52.588222310457255],[46.356809913521325,52.58584284945116],[46.37822506257433,52.59536069347448],[46.418675899673,52.588222310457255],[46.4543678147609,52.57632500542784],[46.46983431129862,52.58108392743995],[46.49243919085374,52.5644277003994],[46.48054188582476,52.56085850889119],[46.50076730437406,52.53944335983765],[46.51504407040966,52.54539201235276],[46.52932083644446,52.53944335983765],[46.54478733298218,52.53944335983765],[46.54954625499384,52.518028210784905],[46.574530595554705,52.50494117525435],[46.5388386804677,52.48709521770982],[46.55787436851407,52.44902384161654],[46.48530080783634,52.43355734507802],[46.47459323331019,52.409762735020166],[46.50195703487688,52.40619354351115],[46.55787436851407,52.41571138753536],[46.56739221253731,52.40262435200294],[46.53407975845604,52.399055160494726],[46.51147487890091,52.38715785546451],[46.53526948895895,52.368122167417866],[46.54359760247927,52.35741459289234],[46.574530595554705,52.32648159981726],[46.59118682259614,52.309825372774846],[46.597135475110626,52.29554860674031],[46.6018943971222,52.280082110201874],[46.60903278013969,52.26699507467035],[46.58999709209323,52.25271830863581],[46.56977167354314,52.23725181209738],[46.556684638011156,52.2467696561207],[46.5459770634851,52.238441542600384],[46.5531154465025,52.23011342908015],[46.54002841097061,52.22059558505683],[46.51623380091249,52.2122674715374],[46.5174235314154,52.19085232248475],[46.522182453427064,52.17657555644835],[46.51980299242123,52.161109059911695],[46.52099272292415,52.136124719349944],[46.52932083644446,52.12898633633263],[46.52694137543863,52.10995064828599],[46.53289002795312,52.10281226526877],[46.53526948895895,52.09448415174756],[46.5459770634851,52.08496630772424],[46.54954625499384,52.0706895416897],[46.56382302102865,52.062361428168494],[46.576910056560536,52.03737708760763],[46.60308412762512,52.02904897408732],[46.630447929191895,52.005254364028566],[46.66732957478262,51.983839214976804],[46.67565768830294,51.97194190994739],[46.66138092226814,51.96242406592407],[46.656622000256476,51.95171649139774],[46.632827390197725,51.94219864737442],[46.6233095461745,51.927921881339884],[46.60308412762512,51.91602457631055],[46.60427385812803,51.905317001785114],[46.58642790058448,51.89104023574871],[46.57572032605762,51.87081481719906],[46.59237655309906,51.8458304766382],[46.57809978706345,51.81846667507124],[46.57334086505179,51.77682610746886],[46.59118682259614,51.76849799394952],[46.617360893660006,51.758980149926195],[46.628068468186065,51.73875473137557],[46.65424253925073,51.731616348358344],[46.69112418484066,51.73280607886224],[46.72324690841981,51.73518553986834],[46.78035397255912,51.744703383890766],[46.83627130619631,51.774446646464625],[46.91836271089728,51.79586179551639],[47.002833576604075,51.8422612851291],[47.07183794577395,51.8946094272587],[47.11704770488419,51.919593767818675],[47.16939584701273,51.94576783888352],[47.21460560612377,51.94457810838051],[47.239589946684724,51.95766514391285],[47.25267698221661,51.98145975397071],[47.29074835831025,51.99454678950224],[47.37759868502288,52.02072086056708],[47.443033862683215,52.039756548613724],[47.49776146581749,52.06474088917548],[47.552489068951054,52.079017655210016],[47.575093948506975,52.0766381942049],[47.61078586359398,52.05998196716426],[47.65718535320794,52.02904897408732],[47.69287726829504,52.019531130063996],[47.72588508173595,52.02520342999739],[47.712798046204064,52.070413189108876],[47.694952088660514,52.09658726017275],[47.69019316664894,52.1203818702306],[47.68424451413365,52.137038097271244],[47.66758828709302,52.15488405481577],[47.67115747860168,52.203663005435374],[47.66401909558427,52.221508962978035],[47.67353693960751,52.247683034042],[47.654501251561044,52.27980575762106],[47.617619605971115,52.296461984661605],[47.58430715188905,52.32382578622945],[47.58906607390071,52.367845814837935],[47.57122011635716,52.374984197855156],[47.52006170473154,52.371415006345174],[47.51173359121131,52.382122580872384],[47.4891287116561,52.367845814837935],[47.4748519456205,52.374984197855156],[47.43797030003057,52.41662476545568],[47.42012434248702,52.41067611294235],[47.401088654439846,52.39877880791302],[47.37253512237024,52.39758907740904],[47.343981590300544,52.40710692143236],[47.29758210068658,52.46778317708139],[47.26189018559877,52.51656212770099],[47.205972851962386,52.547495120777945],[47.19883446894498,52.522510780215306],[47.165522014862916,52.523700510718314],[47.15124524882811,52.51537239719888],[47.125071177763445,52.532028624239516],[47.106035489717065,52.529649163233415],[47.08224087965903,52.537977276753736],[47.07748195764746,52.55106431228616],[47.083430610161855,52.57842811385214],[47.06915384412705,52.58675622737334],[47.06439492211548,52.599843262905765],[47.04892842557696,52.599843262905765],[47.04654896457113,52.589135688378555],[47.02037489350735,52.589135688378555],[47.00966731898121,52.603412454413984],[47.00014947495797,52.6081713764252],[46.98944190043191,52.64624275251848],[46.97754459540205,52.64743248302237],[46.98468297841946,52.65932978805081],[46.99658028344932,52.66289897956089],[46.994861783833905,52.689073050623875],[46.97106717377507,52.691452511629876],[46.965118521260585,52.7009703556532],[46.949652024722866,52.699780625151085],[46.91990876215034,52.674796284589334],[46.883027116559525,52.672416823583234],[46.84852493197543,52.670037362578114],[46.869940081027636,52.7033498166593],[46.84971466247835,52.71048819967652],[46.82235086091077,52.673606554087215],[46.79498705934407,52.67598601509145],[46.76643352727358,52.687883320120775],[46.73312107319239,52.709298469174406],[46.70099834961404,52.683124398108674],[46.6772037395552,52.696211433641984],[46.62604532792959,52.687883320120775],[46.61890694491218,52.73190334872837],[46.61057883139187,52.73666227074048],[46.59749179585998,52.73190334872837],[46.590353412842575,52.71048819967652],[46.572507455299025,52.6974011641441],[46.54633338423436,52.70453954716142],[46.51777985216475,52.69264224213386],[46.49160578110097,52.689073050623875],[46.478518745568195,52.691452511629876],[46.45829332701891,52.7033498166593],[46.43092952545212,52.687883320120775],[46.407134915393286,52.690262781127764],[46.391668418855566,52.684314128612655],[46.37858138332368,52.690262781127764],[46.35835596477439,52.687883320120775],[46.34169973773295,52.690262781127764],[46.31195647516043,52.680744937103555],[46.28340294309082,52.66884763207413],[46.28304662234067,52.65008829660929],[46.2913747358609,52.62510395604754],[46.2854260833465,52.606068268001785]]]]}},{"type":"Feature","properties":{"kind":"district","id":"uyezd-1897-473","name":"Петровский","provinceId":"gubernia-1897-18"},"geometry":{"type":"MultiPolygon","coordinates":[[[[46.28340294309082,52.66884763207413],[46.26793644655221,52.68669358961866],[46.295300248119794,52.764026072308326],[46.28697213459948,52.78306176035399],[46.27745429057545,52.7913898738752],[46.25246995001449,52.78782068236619],[46.223916417944885,52.78782068236619],[46.181086119839584,52.79733852638951],[46.154912048775806,52.80447690940673],[46.13111743871697,52.79733852638951],[46.10018444564153,52.79257960437731],[46.05973360854206,52.77711310784075],[46.03118007647245,52.78425149085797],[46.00143681389993,52.78425149085797],[45.97288328182943,52.80328717890461],[45.93957082774816,52.80566663991071],[45.909827565174844,52.82470232795637],[45.893171338134295,52.81399475343005],[45.88484322461389,52.79971798739463],[45.83963346550285,52.78544122136009],[45.81821831645064,52.755697958787124],[45.745644755772815,52.754508228285005],[45.771818826836686,52.7913898738752],[45.765870174322195,52.822322866951254],[45.76468044381928,52.836599632985795],[45.77062909633377,52.852066129524225],[45.75635233029897,52.85563532103244],[45.72422960672061,52.835409902481814],[45.705193918673345,52.82589205845849],[45.69091715263854,52.81042556192184],[45.67188146459217,52.822322866951254],[45.64927658503704,52.827081788962474],[45.633810088498436,52.85920451254154],[45.62191278346946,52.85682505153456],[45.61358466994915,52.835409902481814],[45.59335925139985,52.82946124996848],[45.56480571932936,52.83303044147758],[45.53625218725975,52.841358554997015],[45.519595960219114,52.84968666851822],[45.492232158651625,52.85801478203756],[45.48866296714288,52.87110181757087],[45.47795539261682,52.87229154807298],[45.46724781809067,52.86039424304366],[45.45178132155295,52.86396343455178],[45.457729974067526,52.87824020058818],[45.443453208032636,52.89013750561662],[45.417279136968055,52.8913272361206],[45.38753587439553,52.88894777511362],[45.36255153383449,52.904414271652044],[45.35065422880472,52.918691037686585],[45.36850018634907,52.93891645623721],[45.397053718418675,52.94486510875045],[45.42441751998537,52.94962403076167],[45.412520214956395,53.00197217289136],[45.381587221880956,53.0103002864107],[45.380229683939966,53.02620544293675],[45.345727499355604,53.02858490394284],[45.32193288929685,53.03334382595584],[45.293379357226804,53.02739517343984],[45.25649771163697,53.04643086148737],[45.21366741353193,53.05951789701882],[45.201802743471106,53.06714518491556],[45.18524607373971,53.048678130215194],[45.18286661273388,53.03321163367676],[45.18762553474554,53.01179648462402],[45.15193361965844,53.014175945630114],[45.14360550613813,53.00108891009769],[45.11624170457063,52.99514025758347],[45.09958547753,52.973725108531625],[45.07460113696905,52.970155917021636],[45.03296056936675,52.978484030542845],[45.01273515081737,52.976104569537725],[45.01273515081737,52.94517157646166],[44.98775081025562,52.94398184595866],[44.94967943416278,52.94636130696378],[44.922315632595286,52.93565373243745],[44.89138263951985,52.9189975053969],[44.867588029461814,52.891633703830834],[44.83427557537974,52.85594178874178],[44.79977339079556,52.827388256672705],[44.77003012822224,52.830957448181806],[44.788745110679415,52.80951218399966],[44.78755538017659,52.776199729918474],[44.81372945124037,52.75121538935672],[44.86369813236307,52.6952980557198],[44.89701058644514,52.68221102018747],[44.921994927006004,52.64651910510019],[44.93270250153215,52.59536069347448],[44.89225166443268,52.56918662241061],[44.864887862865984,52.55847904788518],[44.85893921035141,52.532304976820335],[44.862508401860154,52.52278713279701],[44.87440570688913,52.51326928877369],[44.84585217481952,52.49423360072705],[44.8303856782818,52.483526026201616],[44.81848837325194,52.46449033815408],[44.864887862865984,52.444264919605324],[44.868457054374645,52.42879842306681],[44.8660775933689,52.401434621500826],[44.86964678487756,52.383588663956296],[44.850611096831095,52.380019472447195],[44.8303856782818,52.36931189792176],[44.839903522305036,52.33837890484481],[44.829195947778885,52.307445911770614],[44.82562675626943,52.28722049322097],[44.82681648677315,52.26223615265913],[44.78993484118233,52.26580534416823],[44.745914812574206,52.26937453567644],[44.72687912452783,52.25985669165312],[44.70070505346396,52.23249289008527],[44.679289904410865,52.2075085495253],[44.65311583334709,52.18014474795745],[44.70189478396688,52.17657555644835],[44.791124571685245,52.17300636494022],[44.84347271381369,52.1634885209169],[44.89463112543851,52.155160407397474],[44.97434306913445,52.149211754882366],[44.975532799637364,52.164678251420796],[45.02907067226792,52.15872959890569],[45.03382959427958,52.16943717343112],[45.05405501282967,52.16824744292901],[45.06000366534416,52.15278094639049],[45.083798275402195,52.157539868401706],[45.162320488594595,52.170626903935016],[45.198012403682405,52.1634885209169],[45.201581595191065,52.136124719349944],[45.20990970871138,52.10757118727998],[45.21228916971721,52.083776577222125],[45.23846324078108,52.05522304515216],[45.267016772851484,52.0231003215731],[45.31222653196173,52.011203016544655],[45.37052332660475,52.00644409453255],[45.387179553646185,52.0231003215731],[45.38836928414901,52.03499762660251],[45.35148763855828,52.04094627911762],[45.35386709956411,52.04808466213493],[45.3943179366635,52.04808466213493],[45.39550766716641,52.06355115867159],[45.35862602157577,52.071879272191815],[45.33483141151765,52.083776577222125],[45.32769302850025,52.09686361275455],[45.34196979453505,52.10162253476487],[45.37647197911924,52.10043280426267],[45.39193847565775,52.10876091778209],[45.42406119923611,52.10162253476487],[45.454994192311545,52.10281226526877],[45.46689149734132,52.090914960239346],[45.48473745488487,52.08853549923334],[45.48354772438196,52.07306900269491],[45.46689149734132,52.06831008068369],[45.450235270299885,52.05522304515216],[45.50734233443999,52.06355115867159],[45.53232667500174,52.0706895416897],[45.552552093551036,52.08020738571213],[45.54303424952789,52.10519172627389],[45.537085597013316,52.130176066834835],[45.54779317153946,52.14207337186505],[45.577536434111984,52.151591215888374],[45.595382391655534,52.13493498884783],[45.615607810205624,52.136124719349944],[45.60965915769114,52.162298790413814],[45.638212689760834,52.15040148538448],[45.654868916801384,52.162298790413814],[45.671525143842814,52.15278094639049],[45.70245813691825,52.164678251420796],[45.75242681804096,52.157539868401706],[45.81786199570129,52.155160407397474],[45.78930846363088,52.171816634437135],[45.78930846363088,52.18728313097565],[45.83094903123318,52.19442151399288],[45.8963842088936,52.2039393580162],[45.915419896940065,52.211077741033506],[45.943973429009674,52.20869828002741],[45.96538857806268,52.231303159583156],[45.96062965605111,52.26580534416823],[45.951111812027875,52.29673833724429],[45.951111812027875,52.32172267780426],[45.96538857806268,52.33243025233059],[45.977285883091746,52.35027620987512],[45.982044805103314,52.37882974194508],[46.002270223652694,52.39310650797962],[45.982044805103314,52.42522923155868],[46.033203216728936,52.45497249413076],[46.04985944376957,52.44307518910134],[46.06056701829563,52.44664438061133],[46.07008486231886,52.44069572809711],[46.08674108935949,52.44188545859923],[46.08555135885658,52.453782763628645],[46.12124327394439,52.45497249413076],[46.14265842299668,52.47162872117131],[46.14979680601409,52.48590548720771],[46.18310926009607,52.48947467871584],[46.210473061662846,52.48471575670373],[46.23664713272743,52.50018225324216],[46.25330335976806,52.51564874978068],[46.24497524624774,52.54658174285487],[46.25925201228264,52.552530395369985],[46.266390395300036,52.541822820844544],[46.28066716133484,52.54658174285487],[46.2913747358609,52.55609958687819],[46.279477430831925,52.582273657943034],[46.279477430831925,52.59536069347448],[46.2854260833465,52.606068268001785],[46.2913747358609,52.62510395604754],[46.28304662234067,52.65008829660929],[46.28340294309082,52.66884763207413]]]]}},{"type":"Feature","properties":{"kind":"district","id":"uyezd-1897-475","name":"Царицынский","provinceId":"gubernia-1897-18"},"geometry":{"type":"MultiPolygon","coordinates":[[[[44.36163589614165,49.80920334527851],[44.334668671408814,49.776419660309294],[44.30968433084742,49.756194241759644],[44.271612954754225,49.75143531974843],[44.250197805702015,49.74429693673032],[44.23830050067304,49.691948794603384],[44.220454543129314,49.6431698439828],[44.20855723810034,49.611047120403825],[44.21212642960873,49.56821682229932],[44.22997238715255,49.5539400562639],[44.23830050067304,49.534904368217255],[44.266854032743005,49.5206276021836],[44.291838373303605,49.50278164463997],[44.290648642800775,49.45162323301426],[44.28351025978391,49.41712104842918],[44.307304869841765,49.374290750323794],[44.344186515432135,49.32551179970507],[44.40605250158408,49.224384706957636],[44.49409255879936,49.1077911176708],[44.52026662986367,49.079237585601724],[44.49528228930218,49.067340280572395],[44.47743633175837,49.07209920258352],[44.40962169309247,49.05306351453688],[44.3727400475021,49.03521755699333],[44.3513248984498,49.006664024924255],[44.340617323923745,48.984059145367624],[44.320391905374365,48.95907480480676],[44.30254594783055,48.94122884726312],[44.303735678333375,48.925762350724696],[44.24305942268435,48.89363962714741],[44.207367507596715,48.87103474759077],[44.17524478401836,48.838912024012686],[44.15858855697737,48.784184420878766],[44.14550152144566,48.73778493126427],[44.124086372392654,48.69138544165165],[44.14907071295405,48.65688325706649],[44.15858855697737,48.624760533487425],[44.15620909597172,48.59501727091535],[44.17061401827594,48.57749390482245],[44.171803748778856,48.554889025266704],[44.18608051481366,48.53585333722006],[44.205116202860836,48.52395603218976],[44.2170135078899,48.51086899665822],[44.243187578953766,48.50254088313888],[44.297915182087955,48.494212769617675],[44.3502633242164,48.48112573408525],[44.38000658678901,48.47517708157103],[44.41688823237894,48.47279762056591],[44.48470287104519,48.46090031553649],[44.50135909808653,48.482315464589234],[44.613193765360116,48.46446950704471],[44.62152187888043,48.48112573408525],[44.62747053139492,48.51324845766432],[44.62390133988626,48.53466360671608],[44.61438349586303,48.55369929476272],[44.625091070389175,48.569165791301245],[44.62747053139492,48.59296040135901],[44.59891699932531,48.61556528091573],[44.571553197758526,48.62984204695018],[44.533481821664886,48.636980429967494],[44.520394786133,48.641739351979595],[44.50968721160685,48.6762415365629],[44.53943047417946,48.70241560762774],[44.571553197758526,48.73691779221281],[44.60129646033105,48.7726097073],[44.635798644916036,48.805922161381176],[44.67981867352345,48.84637299848145],[44.68814678704368,48.890393027088066],[44.7036132835822,48.93798224720556],[44.72145924112575,48.962966587765536],[44.753581964704104,48.98676119782526],[44.78451495778034,49.01293526888912],[44.80593010683255,49.028401765426665],[44.847570674434934,49.04386826196519],[44.87493447600171,49.05695529749575],[44.897539355556745,49.09621640409203],[44.92847234863299,49.15451319873496],[44.937990192656216,49.1759283477877],[44.964164263720086,49.20329214935555],[44.976061568749145,49.28657328455846],[44.98557941277309,49.329403582664824],[45.00580483132247,49.36985441976323],[45.04625566842114,49.43528959742348],[45.0641016259654,49.46622259049856],[45.10812165457273,49.51619127162215],[45.15928006619835,49.5840059102884],[45.20330009480647,49.6232670168838],[45.23780227939066,49.658958931971966],[45.28777096051327,49.66490758448619],[45.30323745705099,49.67323569800651],[45.309186109565566,49.69465084705915],[45.32108341459454,49.737481145163656],[45.33298071962432,49.752947641702086],[45.312755301074226,49.76603467723362],[45.26278661995232,49.78150117377205],[45.20924874732096,49.78626009578326],[45.21281793882971,49.811244436345106],[45.21519739983554,49.83028012439175],[45.198541172794904,49.84336715992417],[45.14619303066637,49.85645419545561],[45.145003300163545,49.877869344507374],[45.15333141368386,49.90642287657734],[45.16879791022158,49.93973533066038],[45.17355683223315,49.961150479712146],[45.10931138507564,49.99089374228423],[45.05934270395383,50.01230889133785],[45.00580483132247,50.033724040389615],[44.9796307602586,50.01349862183997],[44.9510772281882,49.99327320329121],[44.942749114667876,49.974237515243686],[44.94155938416496,49.94211479166462],[44.91776477410693,49.9337866781443],[44.897539355556745,49.92307910361798],[44.87731393700746,49.9444942526716],[44.81544795085578,49.968288862729466],[44.76428953923025,49.98851428128],[44.72859762414315,50.00992943033176],[44.698854361570625,50.043241884412936],[44.68545013767996,50.05351318786782],[44.679293940420436,50.04120079334732],[44.644791755835634,50.01026780027224],[44.61266903225719,49.975765615687166],[44.557941429122295,49.956729927640524],[44.516300861520975,49.93293531758169],[44.481798676936165,49.90557151601482],[44.46038352788334,49.87820771444875],[44.43064026531046,49.86393094841243],[44.399707272234664,49.84251579936067],[44.36639481815349,49.831808224834255],[44.36639481815349,49.821100650307926],[44.36163589614165,49.80920334527851]]]]}},{"type":"Feature","properties":{"kind":"district","id":"uyezd-1897-477","name":"Сердобский","provinceId":"gubernia-1897-18"},"geometry":{"type":"MultiPolygon","coordinates":[[[[43.238291108818395,52.58291363679567],[43.258883876208365,52.560226923562354],[43.279109294758456,52.543570696521805],[43.27554010324971,52.51263770344575],[43.31361147934264,52.49122255439212],[43.363580160465254,52.46980740534124],[43.40760018907267,52.46147929182004],[43.4302050686285,52.45909983081492],[43.43377426013725,52.448392256287704],[43.42544614661693,52.42697710723586],[43.43139479913142,52.40675168868532],[43.45043048717788,52.38057761762136],[43.408789919576385,52.385336539634444],[43.39451315354078,52.36868031259203],[43.3885645010262,52.347265163540186],[43.43258452963433,52.35083435504839],[43.44924075667505,52.32466028398453],[43.46827644472143,52.303245134931785],[43.49564024628892,52.27469160286272],[43.512296473329556,52.28064025537791],[43.536091083387596,52.27826079437182],[43.550367849423196,52.27112241135459],[43.57416245948124,52.23662022676943],[43.588439225516126,52.22829211324822],[43.609854374568336,52.22353319123701],[43.64911548116489,52.229481843752204],[43.675289552228755,52.2259126522431],[43.688376587760644,52.20925642520158],[43.68123820474315,52.18784127614982],[43.67409982172584,52.15214936106254],[43.66220251669678,52.11526771547235],[43.693135509773015,52.12597528999868],[43.74072472988909,52.147390439051414],[43.78474475849722,52.156908283074735],[43.83114424811117,52.149769900055645],[43.860887510683696,52.135493134022],[43.86802589370119,52.098611488431715],[43.92037403582963,52.06172984284055],[43.96677352544279,52.030796849765466],[44.008414093045175,51.99391520417429],[44.03458816410895,51.96298221109921],[44.047675199641645,51.929669757016164],[44.06671088768811,51.922531373998936],[44.10954118579261,51.91896218249073],[44.130956334845614,51.934428679029246],[44.14285363987459,51.934428679029246],[44.18092501596752,51.9118237994735],[44.20234016502044,51.921341643496824],[44.23208342759305,51.93799787053737],[44.242791002119105,51.90944433846741],[44.28681103072732,51.915392990981715],[44.31060564078536,51.924910835005925],[44.30227752726504,51.94394652305257],[44.283241839218576,51.96655140260831],[44.25111911563951,51.99272547367218],[44.23684234960462,52.00938170071272],[44.25706776815471,52.06648876485265],[44.285621300224406,52.07005795636175],[44.29989806625921,52.05697092082933],[44.32488240682096,52.06054011233843],[44.3558153998964,52.04864280730821],[44.378420279451525,52.03555577177668],[44.418871116550996,52.04626334630211],[44.474788450188186,52.06291957334266],[44.474788450188186,52.08076553088719],[44.503341982257794,52.10574987144903],[44.54736201086592,52.0879039139045],[44.58900257846751,52.09742175792782],[44.63183287657281,52.10574987144903],[44.64016099009312,52.14501097804532],[44.65311583334709,52.18014474795745],[44.679289904410865,52.2075085495253],[44.70070505346396,52.23249289008527],[44.72687912452783,52.25985669165312],[44.745914812574206,52.26937453567644],[44.78993484118233,52.26580534416823],[44.82681648677315,52.26223615265913],[44.82562675626943,52.28722049322097],[44.829195947778885,52.307445911770614],[44.839903522305036,52.33837890484481],[44.8303856782818,52.36931189792176],[44.850611096831095,52.380019472447195],[44.86964678487756,52.383588663956296],[44.8660775933689,52.401434621500826],[44.868457054374645,52.42879842306681],[44.864887862865984,52.444264919605324],[44.81848837325194,52.46449033815408],[44.8303856782818,52.483526026201616],[44.84585217481952,52.49423360072705],[44.87440570688913,52.51326928877369],[44.862508401860154,52.52278713279701],[44.85893921035141,52.532304976820335],[44.864887862865984,52.55847904788518],[44.89225166443268,52.56918662241061],[44.93270250153215,52.59536069347448],[44.921994927006004,52.64651910510019],[44.89701058644514,52.68221102018747],[44.86369813236307,52.6952980557198],[44.81372945124037,52.75121538935672],[44.78755538017659,52.776199729918474],[44.788745110679415,52.80951218399966],[44.77003012822224,52.830957448181806],[44.7034052200589,52.84404448371423],[44.642728964410225,52.85475205823967],[44.61060624083187,52.80835256862606],[44.559447829206256,52.811921760135164],[44.517807261604666,52.80478337711794],[44.499961304060406,52.826198526170586],[44.47497696349946,52.84047529220513],[44.42976720438841,52.84999313622845],[44.40597259433038,52.835716370193026],[44.37979852326651,52.832147178683925],[44.34648606918453,52.79169634158552],[44.3084146930916,52.78336822806431],[44.27867143051828,52.76671200102376],[44.25725628146607,52.759573618006456],[44.22513355788692,52.80835256862606],[44.15018053620335,52.7881271500773],[44.128765387151056,52.77662642188166],[44.09069401105822,52.76591884735622],[44.025258833397885,52.76710857785834],[43.9907566488129,52.76591884735622],[43.951495542217145,52.77186749986956],[43.91699335763216,52.757590733835016],[43.887250095059635,52.754021542326896],[43.851558179971825,52.754021542326896],[43.851558179971825,52.73974477629058],[43.82895330041671,52.73974477629058],[43.8146765343819,52.750452350817795],[43.74448243470991,52.7492626203139],[43.72782620766847,52.73498585427936],[43.68142671805523,52.732606393273265],[43.65882183849939,52.742124237296586],[43.62907857592687,52.72546801025604],[43.60766342687457,52.69453501717998],[43.60766342687457,52.66836094611611],[43.58624827782157,52.6636020241049],[43.56126393726062,52.67430959863033],[43.53271040519101,52.72546801025604],[43.508915795132175,52.73974477629058],[43.47798280205674,52.73974477629058],[43.44586007847758,52.72903720176505],[43.37447624830267,52.714760435730604],[43.33164595019817,52.706432322209395],[43.37447624830267,52.675499329134226],[43.3768557093085,52.660032832596684],[43.32807675868951,52.65646364108758],[43.32212810617503,52.63742795304094],[43.29119511309879,52.65527391058369],[43.26327544937979,52.65072827546193],[43.259706257870604,52.606708246855305],[43.238291108818395,52.58291363679567]]]]}},{"type":"Feature","properties":{"kind":"district","id":"uyezd-1897-480","name":"Балашовский","provinceId":"gubernia-1897-18"},"geometry":{"type":"MultiPolygon","coordinates":[[[[43.39597175110298,50.99741822344636],[43.440516066320164,51.013180692937546],[43.50476151347758,51.03697530299727],[43.5202280100153,51.05125206903083],[43.56424803862352,51.07028775707836],[43.61540645024905,51.066718565569346],[43.69511839394428,51.065528835067234],[43.707015698973336,51.08218506210778],[43.70582596847042,51.095272097638336],[43.69392866344136,51.12739482121829],[43.7320000395342,51.12620509071439],[43.789107103674304,51.12501536021228],[43.84383470680858,51.13096401272739],[43.87000877787236,51.11073859417775],[43.91164934547474,51.12620509071439],[43.91521853698349,51.173794310831894],[43.97232560112351,51.17141484982588],[44.00206886369612,51.18450188535733],[44.02705320425778,51.19639919038764],[44.06036565833905,51.173794310831894],[44.03776077878384,51.147620239768024],[44.08297053789417,51.16308673630468],[44.119852183484895,51.139292126246815],[44.10200622594144,51.108359133171646],[44.124611105496555,51.101220750154425],[44.157923559577824,51.101220750154425],[44.16030302058357,51.114572170241445],[44.159113290080654,51.125279744767774],[44.146026254548765,51.1455051633184],[44.16506194259594,51.19547384444012],[44.17814897812783,51.24306306455762],[44.18052843913366,51.281134440650014],[44.186477091648236,51.31206743372607],[44.146026254548765,51.31682635573729],[44.115093261473326,51.308498242217865],[44.09605757342686,51.33824150478994],[44.09605757342686,51.360846384345685],[44.09843703443269,51.38226153339745],[44.0853499989,51.39415883842686],[44.091298651415286,51.40248695194807],[44.112713800467496,51.40724587395831],[44.14483652404585,51.41200479597139],[44.13888787153136,51.42152263999471],[44.10200622594144,51.41914317898862],[44.068693771859365,51.40367668245018],[44.04489916180133,51.38464099440354],[44.02586347375487,51.38345126390143],[44.012776438222176,51.377502611386234],[43.99849967218737,51.38939991641565],[43.97589479263225,51.40248695194807],[44.00325859419895,51.413194526473504],[44.01158670771926,51.42866102301194],[44.035381317778096,51.42390210099983],[44.050847814315816,51.4060561434562],[44.091298651415286,51.436989136531366],[44.090108920911575,51.46673239910433],[44.10557541745009,51.47387078212253],[44.122231644490725,51.467922129608226],[44.17220032561343,51.47387078212253],[44.20670251019752,51.46673239910433],[44.235256042267935,51.448886441560695],[44.2757068793666,51.46435293809921],[44.29950148942464,51.46911186011043],[44.33043448250088,51.47625024312765],[44.26618903534346,51.504803775197615],[44.201943588185955,51.50599350570151],[44.18528736114532,51.538116229280575],[44.140077602034275,51.57023895285786],[44.10200622594144,51.610689789958045],[44.053227275321646,51.60831032895115],[44.02348401274904,51.62377682548958],[44.0008791331932,51.61782817297536],[43.96875640961476,51.62853574750079],[43.94615153005893,51.60712059844903],[43.922356920000894,51.60593086794692],[43.89380338793119,51.6261562864947],[43.85335255083172,51.65233035756043],[43.8236092882592,51.68445308113772],[43.79267629518305,51.70705796069435],[43.795055756188795,51.732042301254324],[43.84026551529983,51.722524457231],[43.87000877787236,51.72490391823701],[43.93187476402412,51.740370414775526],[43.97113587062059,51.75583691131396],[44.00920724671343,51.7665444858394],[44.04608889230425,51.79390828740635],[44.05441700582456,51.85220508204929],[44.050847814315816,51.878379153113244],[44.047675199641645,51.929669757016164],[44.03458816410895,51.96298221109921],[44.008414093045175,51.99391520417429],[43.96677352544279,52.030796849765466],[43.92037403582963,52.06172984284055],[43.86802589370119,52.098611488431715],[43.860887510683696,52.135493134022],[43.83114424811117,52.149769900055645],[43.78474475849722,52.156908283074735],[43.74072472988909,52.147390439051414],[43.693135509773015,52.12597528999868],[43.66220251669678,52.11526771547235],[43.67409982172584,52.15214936106254],[43.68123820474315,52.18784127614982],[43.688376587760644,52.20925642520158],[43.675289552228755,52.2259126522431],[43.64911548116489,52.229481843752204],[43.609854374568336,52.22353319123701],[43.588439225516126,52.22829211324822],[43.57416245948124,52.23662022676943],[43.550367849423196,52.27112241135459],[43.536091083387596,52.27826079437182],[43.512296473329556,52.28064025537791],[43.49564024628892,52.27469160286272],[43.46827644472143,52.303245134931785],[43.44924075667505,52.32466028398453],[43.43258452963433,52.35083435504839],[43.3885645010262,52.347265163540186],[43.39451315354078,52.36868031259203],[43.408789919576385,52.385336539634444],[43.45043048717788,52.38057761762136],[43.43139479913142,52.40675168868532],[43.42544614661693,52.42697710723586],[43.43377426013725,52.448392256287704],[43.4302050686285,52.45909983081492],[43.40760018907267,52.46147929182004],[43.363580160465254,52.46980740534124],[43.31361147934264,52.49122255439212],[43.27554010324971,52.51263770344575],[43.279109294758456,52.543570696521805],[43.258883876208365,52.560226923562354],[43.238291108818395,52.58291363679567],[43.20973757674843,52.58291363679567],[43.176425122666544,52.56982660126414],[43.137164016070514,52.56506767925204],[43.10742075349773,52.58410336729868],[43.04793422835152,52.5555498352296],[43.06340072488969,52.529375764165735],[43.077677490925026,52.522237381147534],[43.09671317897167,52.52461684215265],[43.12169751953226,52.51152980662209],[43.11217967550903,52.506770884609104],[43.0812466824335,52.49963250159179],[43.021760157288014,52.49844277108967],[43.04079584533466,52.44847408996608],[43.078867221427856,52.4104027138728],[43.0598315333813,52.385418373312824],[43.0384163843282,52.36043403275196],[43.00391419974429,52.35567511073897],[42.97179147616514,52.35567511073897],[42.93253036956911,52.36281349375619],[42.94204821359243,52.33069077017811],[42.93728929158033,52.298568046599044],[42.89683845448148,52.24265071296212],[42.8635260004003,52.211717719886146],[42.82783408531276,52.19982041485761],[42.795711361733694,52.18554364882219],[42.78381405670471,52.16174903876433],[42.78262432620189,52.12724685418014],[42.77548594318422,52.11178035764172],[42.77429621268139,52.090365208589866],[42.796901092236425,52.076088442554436],[42.794521631230865,52.05110410199357],[42.832593007324064,52.02255056992273],[42.77429621268139,52.02017110891761],[42.73741456709102,52.00946353439031],[42.73378662345867,51.99728715677522],[42.732596892955755,51.961595241687945],[42.732596892955755,51.91757521308044],[42.70999201340001,51.869985992962945],[42.6838179423365,51.814068659326026],[42.67073090680399,51.79622270178238],[42.63741845272281,51.79622270178238],[42.56603462254763,51.74149509864766],[42.52796324645443,51.704613453057384],[42.52558378544879,51.67130099897531],[42.53034270746,51.62133231785448],[42.542240012488975,51.5844506722642],[42.55463082058152,51.57862014187415],[42.59151246617189,51.55601526231929],[42.63553249477921,51.53935903527688],[42.70334713344592,51.51913361672723],[42.74855689255678,51.498908198179365],[42.775920694123826,51.47630331862273],[42.7878179991528,51.45250870856488],[42.811612609210655,51.439421673032456],[42.82826883625165,51.416816793477686],[42.84135587178416,51.40016056643616],[42.872288864859684,51.42038598498581],[42.892514283409156,51.40729894945348],[42.86871967335129,51.3751762258753],[42.86158129033354,51.34543296330233],[42.862771020836455,51.32401781424959],[42.921067815479034,51.28951562966541],[42.94843161704617,51.27761832463697],[42.998400298169045,51.265721019607554],[43.06502520633221,51.25620317558334],[43.06264574532575,51.245495601057904],[43.035281943759415,51.22408045200427],[43.013866794706416,51.20980368597063],[43.007918142192366,51.191957728426104],[43.045001252743006,51.17349833787647],[43.09496993386527,51.160411302345025],[43.16516403353753,51.13066803977286],[43.2258402891862,51.10687342971322],[43.3043625023786,51.05809447909361],[43.36860794953557,51.01764364199521],[43.39597175110298,50.99741822344636]]]]}},{"type":"Feature","properties":{"kind":"district","id":"uyezd-1897-481","name":"Еланский","provinceId":"gubernia-1897-18"},"geometry":{"type":"MultiPolygon","coordinates":[[[[44.157923559577824,51.101220750154425],[44.124611105496555,51.101220750154425],[44.10200622594144,51.108359133171646],[44.119852183484895,51.139292126246815],[44.08297053789417,51.16308673630468],[44.03776077878384,51.147620239768024],[44.06036565833905,51.173794310831894],[44.02705320425778,51.19639919038764],[44.00206886369612,51.18450188535733],[43.97232560112351,51.17141484982588],[43.91521853698349,51.173794310831894],[43.91164934547474,51.12620509071439],[43.87000877787236,51.11073859417775],[43.84383470680858,51.13096401272739],[43.789107103674304,51.12501536021228],[43.7320000395342,51.12620509071439],[43.69392866344136,51.12739482121829],[43.70582596847042,51.095272097638336],[43.707015698973336,51.08218506210778],[43.69511839394428,51.065528835067234],[43.61540645024905,51.066718565569346],[43.56424803862352,51.07028775707836],[43.5202280100153,51.05125206903083],[43.50476151347758,51.03697530299727],[43.440516066320164,51.013180692937546],[43.39597175110298,50.99741822344636],[43.43880204920792,50.964105769364295],[43.492339921839196,50.92603439327101],[43.5161345318975,50.89748086120015],[43.55182644698433,50.87130679013629],[43.57919024855173,50.859409485106866],[43.60298485861013,50.8296662225339],[43.62915892967399,50.803492151469946],[43.66723030576701,50.76542077537666],[43.693404376831765,50.7404364348158],[43.73702738211128,50.71458825799801],[43.84767231888221,50.68365526492106],[43.951178872635744,50.657481193857194],[43.9975783622497,50.64558388882777],[44.020183241805356,50.63487631430145],[44.08190786158713,50.6314471687585],[44.085217806622076,50.663884630101144],[44.08402807611916,50.6948176231772],[44.12923783523021,50.70671492820564],[44.14589406227084,50.71623277222896],[44.189914090878965,50.731699268767485],[44.22203681445732,50.732888999269605],[44.25059034652773,50.743596573796815],[44.287471992117744,50.743596573796815],[44.36123528329839,50.76144253133957],[44.38265043235149,50.76858091435679],[44.375512049333196,50.805462559947074],[44.38740935436306,50.84234420553824],[44.36837366631588,50.86375935459],[44.36837366631588,50.899451269677186],[44.36004555279548,50.93157399325625],[44.312456332679496,50.94347129828567],[44.30412821915838,50.952989142308994],[44.285092531111914,50.960127525326214],[44.261297921053874,51.01009620644981],[44.25059034652773,51.044598391033105],[44.25068711979135,51.04827577505165],[44.2185998152265,51.04649314702059],[44.18290790013949,51.05244179953392],[44.159113290080654,51.061959643557245],[44.15673382907491,51.083374792609895],[44.157923559577824,51.101220750154425]]]]}},{"type":"Feature","properties":{"kind":"district","id":"uyezd-1897-482","name":"Аткарский","provinceId":"gubernia-1897-18"},"geometry":{"type":"MultiPolygon","coordinates":[[[[44.25068711979135,51.04827577505165],[44.251780077030645,51.08980815014361],[44.272005495580025,51.114792490705454],[44.3053179496612,51.16238171082295],[44.317215254691064,51.188555781886905],[44.317215254691064,51.221868235967996],[44.41358342542693,51.201642817417465],[44.46236237604663,51.194504434400145],[44.492105638619236,51.1778482073596],[44.520659170688845,51.16833036333628],[44.55516135527374,51.16952009384026],[44.55040243326217,51.15643305830784],[44.574197043320204,51.15524332780386],[44.63130410746031,51.143346022776306],[44.61464788041959,51.11003356869335],[44.5599202772854,51.119551412716675],[44.51946944018593,51.124310334729664],[44.5099515961627,51.08504922813337],[44.51946944018593,51.07434165360607],[44.52184890119176,51.039839469021885],[44.56586892979989,51.043408660530986],[44.59085327036084,51.044598391033105],[44.62892464645448,51.050547043548214],[44.663426831039466,51.04102919952489],[44.71934416467585,51.037460008015884],[44.75146688825492,51.01366539795802],[44.76812311529555,51.01366539795802],[44.782399881330356,51.00652701493982],[44.81095341340077,51.00890647594592],[44.80976368289785,51.01961405047313],[44.79667664736516,51.03151135550068],[44.81214314390368,51.049357313044325],[44.86568101653424,51.035080547009784],[44.88709616558734,50.9958194404135],[44.89304481810182,50.96845563884742],[44.94182376872081,50.977973482870745],[44.95729026525933,50.98630159639018],[44.976325953305704,50.98868105739618],[44.996551371855084,50.99462970991138],[45.027484364931325,51.01961405047313],[45.054848166498104,51.02080378097524],[45.07864277655605,51.02437297248434],[45.06198654951542,51.035080547009784],[45.035812478451554,51.03151135550068],[45.017966520907294,51.042218930027005],[45.0465200529777,51.06125461807365],[45.05722762750385,51.09099788064671],[45.08459142907063,51.09813626366482],[45.11671415264969,51.10646437718425],[45.15240606773679,51.118361682214555],[45.18214933031012,51.121930873722675],[45.18333906081303,51.15286386679963],[45.16430337276657,51.17070982434238],[45.20356447936232,51.1742790158505],[45.15954445075499,51.194504434400145],[45.14407795421648,51.221868235967996],[45.16125468835293,51.23729755342723],[45.17330070969477,51.22993609594053],[45.18467750762872,51.22993609594053],[45.20990970871138,51.23549872864264],[45.22775566625493,51.228360345625326],[45.24203243228973,51.23787818964865],[45.237273510278165,51.25929333870228],[45.251550276313765,51.27832902674892],[45.31103680145881,51.27951875725103],[45.33483141151765,51.283087948759245],[45.366954135096,51.302123636806776],[45.37409251811349,51.34376420440916],[45.40621524169256,51.36636908396393],[45.40740497219547,51.41276857357753],[45.39788712817224,51.43180426162417],[45.43833796527091,51.43061453112206],[45.47165041935298,51.425855609109064],[45.46332230583266,51.466306446209245],[45.450235270299885,51.50794701381163],[45.452614731305715,51.553156772921255],[45.40621524169256,51.553156772921255],[45.37766170962215,51.553156772921255],[45.3455389860438,51.56743353895668],[45.34315952503797,51.58646922700243],[45.31103680145881,51.605504915049075],[45.32174437598576,51.622161142091485],[45.34078006403214,51.61978168108548],[45.36933359610183,51.63167898611481],[45.39550766716641,51.63643790812603],[45.43119958225351,51.63167898611481],[45.441907156779656,51.62810979460482],[45.44547634828832,51.64238656064025],[45.45380446180863,51.66023251818388],[45.47046068885007,51.68045793673264],[45.46927095834715,51.685216858744745],[45.46094284482683,51.691165511259854],[45.46213257532975,51.704252546792276],[45.50258341242842,51.70782173830049],[45.559690476568434,51.71733958232381],[45.566828859585925,51.73756500087346],[45.537085597013316,51.767308263445535],[45.50020395142259,51.770877454954636],[45.495445029411016,51.80181044803069],[45.490686107399355,51.81846667507124],[45.45975311432392,51.82203586658034],[45.475219610861636,51.847020207142094],[45.497824490416846,51.86129697317574],[45.53946505801915,51.88390185273148],[45.53827532751623,51.8946094272587],[45.521619100474794,51.893419696754805],[45.478788802370296,51.86843535619484],[45.452614731305715,51.88390185273148],[45.48116826337613,51.89579915776179],[45.48235799387904,51.92078349832177],[45.55374182405395,51.902937540778126],[45.564449398580095,51.905317001785114],[45.559690476568434,51.91840403731656],[45.493065568405186,51.93743972536231],[45.46451203633549,51.94457810838051],[45.44904553979706,51.95409595240473],[45.46332230583266,51.97432137095348],[45.48116826337613,51.97432137095348],[45.514480717457396,51.96956244894227],[45.513290986954566,51.98145975397071],[45.49663475991393,51.99216732849801],[45.47165041935298,51.99811598101134],[45.45975311432392,52.00763382503466],[45.42763039074485,52.0231003215731],[45.387179553646185,52.0231003215731],[45.37052332660475,52.00644409453255],[45.31222653196173,52.011203016544655],[45.267016772851484,52.0231003215731],[45.23846324078108,52.05522304515216],[45.21228916971721,52.083776577222125],[45.20990970871138,52.10757118727998],[45.201581595191065,52.136124719349944],[45.198012403682405,52.1634885209169],[45.162320488594595,52.170626903935016],[45.083798275402195,52.157539868401706],[45.06000366534416,52.15278094639049],[45.05405501282967,52.16824744292901],[45.03382959427958,52.16943717343112],[45.02907067226792,52.15872959890569],[44.975532799637364,52.164678251420796],[44.97434306913445,52.149211754882366],[44.89463112543851,52.155160407397474],[44.84347271381369,52.1634885209169],[44.791124571685245,52.17300636494022],[44.70189478396688,52.17657555644835],[44.65311583334709,52.18014474795745],[44.64016099009312,52.14501097804532],[44.63183287657281,52.10574987144903],[44.58900257846751,52.09742175792782],[44.54736201086592,52.0879039139045],[44.503341982257794,52.10574987144903],[44.474788450188186,52.08076553088719],[44.474788450188186,52.06291957334266],[44.418871116550996,52.04626334630211],[44.378420279451525,52.03555577177668],[44.3558153998964,52.04864280730821],[44.32488240682096,52.06054011233843],[44.29989806625921,52.05697092082933],[44.285621300224406,52.07005795636175],[44.25706776815471,52.06648876485265],[44.23684234960462,52.00938170071272],[44.25111911563951,51.99272547367218],[44.283241839218576,51.96655140260831],[44.30227752726504,51.94394652305257],[44.31060564078536,51.924910835005925],[44.28681103072732,51.915392990981715],[44.242791002119105,51.90944433846741],[44.23208342759305,51.93799787053737],[44.20234016502044,51.921341643496824],[44.18092501596752,51.9118237994735],[44.14285363987459,51.934428679029246],[44.130956334845614,51.934428679029246],[44.10954118579261,51.91896218249073],[44.06671088768811,51.922531373998936],[44.047675199641645,51.929669757016164],[44.050847814315816,51.878379153113244],[44.05441700582456,51.85220508204929],[44.04608889230425,51.79390828740635],[44.00920724671343,51.7665444858394],[43.97113587062059,51.75583691131396],[43.93187476402412,51.740370414775526],[43.87000877787236,51.72490391823701],[43.84026551529983,51.722524457231],[43.795055756188795,51.732042301254324],[43.79267629518305,51.70705796069435],[43.8236092882592,51.68445308113772],[43.85335255083172,51.65233035756043],[43.89380338793119,51.6261562864947],[43.922356920000894,51.60593086794692],[43.94615153005893,51.60712059844903],[43.96875640961476,51.62853574750079],[44.0008791331932,51.61782817297536],[44.02348401274904,51.62377682548958],[44.053227275321646,51.60831032895115],[44.10200622594144,51.610689789958045],[44.140077602034275,51.57023895285786],[44.18528736114532,51.538116229280575],[44.201943588185955,51.50599350570151],[44.26618903534346,51.504803775197615],[44.33043448250088,51.47625024312765],[44.29950148942464,51.46911186011043],[44.2757068793666,51.46435293809921],[44.235256042267935,51.448886441560695],[44.20670251019752,51.46673239910433],[44.17220032561343,51.47387078212253],[44.122231644490725,51.467922129608226],[44.10557541745009,51.47387078212253],[44.090108920911575,51.46673239910433],[44.091298651415286,51.436989136531366],[44.050847814315816,51.4060561434562],[44.035381317778096,51.42390210099983],[44.01158670771926,51.42866102301194],[44.00325859419895,51.413194526473504],[43.97589479263225,51.40248695194807],[43.99849967218737,51.38939991641565],[44.012776438222176,51.377502611386234],[44.02586347375487,51.38345126390143],[44.04489916180133,51.38464099440354],[44.068693771859365,51.40367668245018],[44.10200622594144,51.41914317898862],[44.13888787153136,51.42152263999471],[44.14483652404585,51.41200479597139],[44.112713800467496,51.40724587395831],[44.091298651415286,51.40248695194807],[44.0853499989,51.39415883842686],[44.09843703443269,51.38226153339745],[44.09605757342686,51.360846384345685],[44.09605757342686,51.33824150478994],[44.115093261473326,51.308498242217865],[44.146026254548765,51.31682635573729],[44.186477091648236,51.31206743372607],[44.18052843913366,51.281134440650014],[44.17814897812783,51.24306306455762],[44.16506194259594,51.19547384444012],[44.146026254548765,51.1455051633184],[44.159113290080654,51.125279744767774],[44.16030302058357,51.114572170241445],[44.157923559577824,51.101220750154425],[44.15673382907491,51.083374792609895],[44.159113290080654,51.061959643557245],[44.18290790013949,51.05244179953392],[44.2185998152265,51.04649314702059],[44.25068711979135,51.04827577505165]]]]}},{"type":"Feature","properties":{"kind":"district","id":"uyezd-1897-483","name":"Хвалынский","provinceId":"gubernia-1897-18"},"geometry":{"type":"MultiPolygon","coordinates":[[[[48.36956845189534,52.729014702652435],[48.344584111334385,52.75399904321241],[48.3243586927851,52.77541419226604],[48.312461387755235,52.801588263329904],[48.239887827077496,52.813485568359326],[48.17088345790842,52.84322883093229],[48.04834121610869,52.87059263249827],[47.97933684693961,52.88724885953891],[47.922229782799505,52.89795643406612],[47.891296789723356,52.92175104412398],[47.84846649161886,52.92175104412398],[47.83299999508114,52.91699212211188],[47.78897996647301,52.93364834915428],[47.75566751239094,52.93364834915428],[47.73901128535031,52.94078673217151],[47.709268022777785,52.938407271164614],[47.67833502970154,52.952684037200925],[47.64145338411153,52.951494306696944],[47.59505389449766,52.964581342228485],[47.4986857237618,52.99908352681453],[47.46299380867399,53.00384244882477],[47.38685105648742,53.027637058884494],[47.37495375145845,53.05500086045048],[47.39160997849908,53.0764160095041],[47.40231755302514,53.08593385352742],[47.37257429045262,53.116866846602505],[47.376143481961364,53.12638469062583],[47.39160997849908,53.14185118716435],[47.392799709002,53.1537484921919],[47.34164129737718,53.14898957018069],[47.2797753112255,53.14779983967857],[47.214340133565166,53.14185118716435],[47.16080226093372,53.131143612637935],[47.11440277131985,53.13233334314005],[47.08290184104945,53.13284252821087],[47.0579175004885,53.13165279770875],[47.02579477690934,53.12094522318145],[47.000810436348395,53.11975549267933],[46.99367205333099,53.1090479181539],[46.972256904277984,53.10309926563879],[46.949652024722866,53.076925194574834],[46.96630825176341,53.072166272563706],[46.984154209307846,53.07930465558093],[47.00437962785714,53.06740735055151],[47.010328280371624,53.05075112351096],[47.04483046495581,53.03885381848066],[47.07576345803196,53.03885381848066],[47.08885049356394,53.013869477920686],[47.03293315992675,52.999592711884375],[46.99129259232516,53.02219759144012],[46.981774748302016,53.01743866942801],[46.981774748302016,53.000782442387376],[46.96630825176341,52.982936484843734],[46.94608283321412,52.97460837132351],[46.9377547196938,52.95795214428287],[46.925857414664826,52.94605483925443],[46.898493613097244,52.95081376126565],[46.865181159015975,52.95914187478499],[46.85685304549575,52.917501307184466],[46.87707846404504,52.904414271652044],[46.8889757690741,52.89013750561662],[46.893734691085676,52.87229154807298],[46.90920118762419,52.85801478203756],[46.9377547196938,52.848496938015124],[46.949652024722866,52.822322866951254],[46.928236875670656,52.79852825689162],[46.94608283321412,52.78663095186407],[46.9805850177991,52.77354391633067],[46.981774748302016,52.72000604369984],[46.98891313131942,52.705729277665306],[46.994861783833905,52.689073050623875],[46.99658028344932,52.66289897956089],[46.98468297841946,52.65932978805081],[46.97754459540205,52.64743248302237],[46.98944190043191,52.64624275251848],[47.00014947495797,52.6081713764252],[47.00966731898121,52.603412454413984],[47.02037489350735,52.589135688378555],[47.04654896457113,52.589135688378555],[47.04892842557696,52.599843262905765],[47.06439492211548,52.599843262905765],[47.06915384412705,52.58675622737334],[47.083430610161855,52.57842811385214],[47.07748195764746,52.55106431228616],[47.08224087965903,52.537977276753736],[47.106035489717065,52.529649163233415],[47.125071177763445,52.532028624239516],[47.15124524882811,52.51537239719888],[47.165522014862916,52.523700510718314],[47.19883446894498,52.522510780215306],[47.205972851962386,52.547495120777945],[47.26189018559877,52.51656212770099],[47.29758210068658,52.46778317708139],[47.343981590300544,52.40710692143236],[47.37253512237024,52.39758907740904],[47.401088654439846,52.39877880791302],[47.42012434248702,52.41067611294235],[47.43797030003057,52.41662476545568],[47.4748519456205,52.374984197855156],[47.4891287116561,52.367845814837935],[47.51173359121131,52.382122580872384],[47.52006170473154,52.371415006345174],[47.57122011635716,52.374984197855156],[47.58906607390071,52.367845814837935],[47.58430715188905,52.32382578622945],[47.617619605971115,52.296461984661605],[47.654501251561044,52.27980575762106],[47.67353693960751,52.247683034042],[47.66401909558427,52.221508962978035],[47.67115747860168,52.203663005435374],[47.66758828709302,52.15488405481577],[47.68424451413365,52.137038097271244],[47.69019316664894,52.1203818702306],[47.694952088660514,52.09658726017275],[47.712798046204064,52.070413189108876],[47.72588508173595,52.02520342999739],[47.76157699682385,52.053756962068334],[47.787751067887626,52.08587968564642],[47.8139251389515,52.1227613312367],[47.85318624554805,52.152504593808786],[47.88887816063506,52.16083270732999],[47.930518728237445,52.17510947336453],[47.95312360779257,52.206042466441474],[47.984056600868804,52.239354920522565],[48.01498959394424,52.284564679633164],[48.04473285651757,52.291703062650384],[48.09708099864521,52.32263605572556],[48.13515237473885,52.35713824031063],[48.172034020328866,52.37260473684906],[48.19106970837604,52.39996853841514],[48.177982672843356,52.41543503495356],[48.15537779328823,52.426142609479],[48.14704967976792,52.46302425507017],[48.15061887127657,52.48800859563201],[48.1815518643529,52.48562913462591],[48.1958286303877,52.48919832613501],[48.19939782189645,52.51418266669499],[48.189879977873126,52.54630539027494],[48.19463889988479,52.58318703586522],[48.23508973698346,52.62720706447184],[48.24239762647825,52.63423388129376],[48.266022730059696,52.65695032704481],[48.31361195017577,52.66765790157202],[48.35168332626941,52.6985908946472],[48.36956845189534,52.729014702652435]]]]}},{"type":"Feature","properties":{"kind":"district","id":"uyezd-1897-786","name":"Кузнецкий","provinceId":"gubernia-1897-18"},"geometry":{"type":"MultiPolygon","coordinates":[[[[45.380229683939966,53.02620544293675],[45.381587221880956,53.0103002864107],[45.412520214956395,53.00197217289136],[45.42441751998537,52.94962403076167],[45.397053718418675,52.94486510875045],[45.36850018634907,52.93891645623721],[45.35065422880472,52.918691037686585],[45.36255153383449,52.904414271652044],[45.38753587439553,52.88894777511362],[45.417279136968055,52.8913272361206],[45.443453208032636,52.89013750561662],[45.457729974067526,52.87824020058818],[45.45178132155295,52.86396343455178],[45.46724781809067,52.86039424304366],[45.47795539261682,52.87229154807298],[45.48866296714288,52.87110181757087],[45.492232158651625,52.85801478203756],[45.519595960219114,52.84968666851822],[45.53625218725975,52.841358554997015],[45.56480571932936,52.83303044147758],[45.59335925139985,52.82946124996848],[45.61358466994915,52.835409902481814],[45.62191278346946,52.85682505153456],[45.633810088498436,52.85920451254154],[45.64927658503704,52.827081788962474],[45.67188146459217,52.822322866951254],[45.69091715263854,52.81042556192184],[45.705193918673345,52.82589205845849],[45.72422960672061,52.835409902481814],[45.75635233029897,52.85563532103244],[45.77062909633377,52.852066129524225],[45.76468044381928,52.836599632985795],[45.765870174322195,52.822322866951254],[45.771818826836686,52.7913898738752],[45.745644755772815,52.754508228285005],[45.81821831645064,52.755697958787124],[45.83963346550285,52.78544122136009],[45.88484322461389,52.79971798739463],[45.893171338134295,52.81399475343005],[45.909827565174844,52.82470232795637],[45.93957082774816,52.80566663991071],[45.97288328182943,52.80328717890461],[46.00143681389993,52.78425149085797],[46.03118007647245,52.78425149085797],[46.05973360854206,52.77711310784075],[46.10018444564153,52.79257960437731],[46.13111743871697,52.79733852638951],[46.154912048775806,52.80447690940673],[46.181086119839584,52.79733852638951],[46.223916417944885,52.78782068236619],[46.25246995001449,52.78782068236619],[46.27745429057545,52.7913898738752],[46.28697213459948,52.78306176035399],[46.295300248119794,52.764026072308326],[46.26793644655221,52.68669358961866],[46.28340294309082,52.66884763207413],[46.31195647516043,52.680744937103555],[46.34169973773295,52.690262781127764],[46.35835596477439,52.687883320120775],[46.37858138332368,52.690262781127764],[46.391668418855566,52.684314128612655],[46.407134915393286,52.690262781127764],[46.43092952545212,52.687883320120775],[46.45829332701891,52.7033498166593],[46.478518745568195,52.691452511629876],[46.49160578110097,52.689073050623875],[46.51777985216475,52.69264224213386],[46.54633338423436,52.70453954716142],[46.572507455299025,52.6974011641441],[46.590353412842575,52.71048819967652],[46.59749179585998,52.73190334872837],[46.61057883139187,52.73666227074048],[46.61890694491218,52.73190334872837],[46.62604532792959,52.687883320120775],[46.6772037395552,52.696211433641984],[46.70099834961404,52.683124398108674],[46.73312107319239,52.709298469174406],[46.76643352727358,52.687883320120775],[46.79498705934407,52.67598601509145],[46.82235086091077,52.673606554087215],[46.84971466247835,52.71048819967652],[46.869940081027636,52.7033498166593],[46.84852493197543,52.670037362578114],[46.883027116559525,52.672416823583234],[46.91990876215034,52.674796284589334],[46.949652024722866,52.699780625151085],[46.965118521260585,52.7009703556532],[46.97106717377507,52.691452511629876],[46.994861783833905,52.689073050623875],[46.98891313131942,52.705729277665306],[46.981774748302016,52.72000604369984],[46.9805850177991,52.77354391633067],[46.94608283321412,52.78663095186407],[46.928236875670656,52.79852825689162],[46.949652024722866,52.822322866951254],[46.9377547196938,52.848496938015124],[46.90920118762419,52.85801478203756],[46.893734691085676,52.87229154807298],[46.8889757690741,52.89013750561662],[46.87707846404504,52.904414271652044],[46.85685304549575,52.917501307184466],[46.865181159015975,52.95914187478499],[46.898493613097244,52.95081376126565],[46.925857414664826,52.94605483925443],[46.9377547196938,52.95795214428287],[46.94608283321412,52.97460837132351],[46.96630825176341,52.982936484843734],[46.981774748302016,53.000782442387376],[46.981774748302016,53.01743866942801],[46.99129259232516,53.02219759144012],[47.03293315992675,52.999592711884375],[47.08885049356394,53.013869477920686],[47.07576345803196,53.03885381848066],[47.04483046495581,53.03885381848066],[47.010328280371624,53.05075112351096],[47.00437962785714,53.06740735055151],[46.984154209307846,53.07930465558093],[46.96630825176341,53.072166272563706],[46.949652024722866,53.076925194574834],[46.972256904277984,53.10309926563879],[46.99367205333099,53.1090479181539],[47.000810436348395,53.11975549267933],[47.02579477690934,53.12094522318145],[47.0579175004885,53.13165279770875],[47.08290184104945,53.13284252821087],[47.11440277131985,53.13233334314005],[47.11083357981111,53.14423064816858],[47.09060816126173,53.172784180238544],[47.04063948013911,53.17754310225153],[47.00256810404627,53.19181986828519],[46.953789153426484,53.17873283275365],[46.90619993330961,53.176353371747645],[46.86217990470228,53.182302024261865],[46.841954486152105,53.197768520800295],[46.79793445754478,53.190630137783074],[46.75272469843373,53.194199329292175],[46.713463591837886,53.216804208847826],[46.68134086825882,53.23821935790056],[46.68134086825882,53.269152350975645],[46.65992571920653,53.2869983085184],[46.66944356322976,53.31079291857803],[46.681616865132355,53.329825930308],[46.663948896585595,53.33434564319213],[46.633015903509175,53.32601752967279],[46.606841832445575,53.317689416152476],[46.58304722238674,53.31649968564947],[46.547355307299284,53.31649968564947],[46.547355307299284,53.30222291961404],[46.51642231422367,53.310551033134274],[46.486679051650526,53.30817157212826],[46.47359201611872,53.32601752967279],[46.44622821455185,53.34505321771943],[46.40815683845884,53.33315591268912],[46.36532654035389,53.30936130263127],[46.3260654337576,53.31649968564947],[46.312978398225,53.31293049413948],[46.25349187307942,53.27842830955521],[46.23088699352377,53.2808077705613],[46.178538851395764,53.29508453659673],[46.15117504982889,53.28199750106431],[46.11548313474144,53.27247965704099],[46.07265283663649,53.26296181301855],[46.06908364512775,53.25106450798833],[46.07503229764197,53.22726989792959],[46.044099304566444,53.208234209883834],[46.06432472311573,53.19752663535653],[46.03101226903464,53.18087040831688],[45.98104358791212,53.167783372784456],[45.9298851762865,53.155886067756015],[45.885865147679084,53.14636822373269],[45.87396784264966,53.16540391177844],[45.85731161560912,53.1903882523402],[45.8192402395153,53.21299313189594],[45.807342934486684,53.18919852183719],[45.77878940241663,53.155886067756015],[45.75618452286098,53.11662496115875],[45.744287217831555,53.09639954260999],[45.72763099079101,53.09996873411909],[45.69907745872096,53.09520981210699],[45.66576500463907,53.09639954260999],[45.63364228106116,53.10234819512429],[45.5848633304411,53.09996873411909],[45.5848633304411,53.08331250707668],[45.55274060686231,53.08926115959187],[45.5337049188162,53.07974331556855],[45.49325408171681,53.082122776574565],[45.500392464734304,53.11186603914664],[45.45280324461734,53.114245500152734],[45.42424971254738,53.09996873411909],[45.3909372584662,53.076174124060344],[45.349296690864435,53.038102747966164],[45.380229683939966,53.02620544293675]]]]}},{"type":"Feature","properties":{"kind":"district","id":"uyezd-1897-797","name":"Саратовский","provinceId":"gubernia-1897-18"},"geometry":{"type":"MultiPolygon","coordinates":[[[[46.2854260833465,52.606068268001785],[46.279477430831925,52.59536069347448],[46.279477430831925,52.582273657943034],[46.2913747358609,52.55609958687819],[46.28066716133484,52.54658174285487],[46.266390395300036,52.541822820844544],[46.25925201228264,52.552530395369985],[46.24497524624774,52.54658174285487],[46.25330335976806,52.51564874978068],[46.23664713272743,52.50018225324216],[46.210473061662846,52.48471575670373],[46.18310926009607,52.48947467871584],[46.14979680601409,52.48590548720771],[46.14265842299668,52.47162872117131],[46.12124327394439,52.45497249413076],[46.08555135885658,52.453782763628645],[46.08674108935949,52.44188545859923],[46.07008486231886,52.44069572809711],[46.06056701829563,52.44664438061133],[46.04985944376957,52.44307518910134],[46.033203216728936,52.45497249413076],[45.982044805103314,52.42522923155868],[46.002270223652694,52.39310650797962],[45.982044805103314,52.37882974194508],[45.977285883091746,52.35027620987512],[45.96538857806268,52.33243025233059],[45.951111812027875,52.32172267780426],[45.951111812027875,52.29673833724429],[45.96062965605111,52.26580534416823],[45.96538857806268,52.231303159583156],[45.943973429009674,52.20869828002741],[45.915419896940065,52.211077741033506],[45.8963842088936,52.2039393580162],[45.83094903123318,52.19442151399288],[45.78930846363088,52.18728313097565],[45.78930846363088,52.171816634437135],[45.81786199570129,52.155160407397474],[45.75242681804096,52.157539868401706],[45.70245813691825,52.164678251420796],[45.671525143842814,52.15278094639049],[45.654868916801384,52.162298790413814],[45.638212689760834,52.15040148538448],[45.60965915769114,52.162298790413814],[45.615607810205624,52.136124719349944],[45.595382391655534,52.13493498884783],[45.577536434111984,52.151591215888374],[45.54779317153946,52.14207337186505],[45.537085597013316,52.130176066834835],[45.54303424952789,52.10519172627389],[45.552552093551036,52.08020738571213],[45.53232667500174,52.0706895416897],[45.50734233443999,52.06355115867159],[45.450235270299885,52.05522304515216],[45.46689149734132,52.06831008068369],[45.48354772438196,52.07306900269491],[45.48473745488487,52.08853549923334],[45.46689149734132,52.090914960239346],[45.454994192311545,52.10281226526877],[45.42406119923611,52.10162253476487],[45.39193847565775,52.10876091778209],[45.37647197911924,52.10043280426267],[45.34196979453505,52.10162253476487],[45.32769302850025,52.09686361275455],[45.33483141151765,52.083776577222125],[45.35862602157577,52.071879272191815],[45.39550766716641,52.06355115867159],[45.3943179366635,52.04808466213493],[45.35386709956411,52.04808466213493],[45.35148763855828,52.04094627911762],[45.38836928414901,52.03499762660251],[45.387179553646185,52.0231003215731],[45.42763039074485,52.0231003215731],[45.45975311432392,52.00763382503466],[45.47165041935298,51.99811598101134],[45.49663475991393,51.99216732849801],[45.513290986954566,51.98145975397071],[45.514480717457396,51.96956244894227],[45.48116826337613,51.97432137095348],[45.46332230583266,51.97432137095348],[45.44904553979706,51.95409595240473],[45.46451203633549,51.94457810838051],[45.493065568405186,51.93743972536231],[45.559690476568434,51.91840403731656],[45.564449398580095,51.905317001785114],[45.55374182405395,51.902937540778126],[45.48235799387904,51.92078349832177],[45.48116826337613,51.89579915776179],[45.452614731305715,51.88390185273148],[45.478788802370296,51.86843535619484],[45.521619100474794,51.893419696754805],[45.53827532751623,51.8946094272587],[45.53946505801915,51.88390185273148],[45.497824490416846,51.86129697317574],[45.475219610861636,51.847020207142094],[45.45975311432392,51.82203586658034],[45.490686107399355,51.81846667507124],[45.495445029411016,51.80181044803069],[45.50020395142259,51.770877454954636],[45.537085597013316,51.767308263445535],[45.566828859585925,51.73756500087346],[45.559690476568434,51.71733958232381],[45.50258341242842,51.70782173830049],[45.46213257532975,51.704252546792276],[45.46094284482683,51.691165511259854],[45.46927095834715,51.685216858744745],[45.47046068885007,51.68045793673264],[45.45380446180863,51.66023251818388],[45.44547634828832,51.64238656064025],[45.441907156779656,51.62810979460482],[45.43119958225351,51.63167898611481],[45.39550766716641,51.63643790812603],[45.36933359610183,51.63167898611481],[45.34078006403214,51.61978168108548],[45.32174437598576,51.622161142091485],[45.31103680145881,51.605504915049075],[45.34315952503797,51.58646922700243],[45.3455389860438,51.56743353895668],[45.37766170962215,51.553156772921255],[45.40621524169256,51.553156772921255],[45.452614731305715,51.553156772921255],[45.450235270299885,51.50794701381163],[45.46332230583266,51.466306446209245],[45.47165041935298,51.425855609109064],[45.43833796527091,51.43061453112206],[45.39788712817224,51.43180426162417],[45.40740497219547,51.41276857357753],[45.40621524169256,51.36636908396393],[45.37409251811349,51.34376420440916],[45.366954135096,51.302123636806776],[45.33483141151765,51.283087948759245],[45.31103680145881,51.27951875725103],[45.251550276313765,51.27832902674892],[45.237273510278165,51.25929333870228],[45.24203243228973,51.23787818964865],[45.22775566625493,51.228360345625326],[45.20990970871138,51.23549872864264],[45.219427552734615,51.218842501602005],[45.233704318769504,51.21170411858478],[45.25630919832534,51.210514388082665],[45.28010380838337,51.216463040596],[45.31817518447701,51.22955007612931],[45.34315952503797,51.22955007612931],[45.36576440459309,51.23906792015263],[45.387179553646185,51.19147870003602],[45.45380446180863,51.20337600506535],[45.48235799387904,51.206945196573564],[45.534706136007486,51.209324657578684],[45.521619100474794,51.23549872864264],[45.56801859008884,51.234308998140435],[45.59419266115262,51.228360345625326],[45.63464349825209,51.22598088461932],[45.653679186298554,51.208134927075676],[45.71435544194732,51.206945196573564],[45.77741115860191,51.222411693111994],[45.82143118721004,51.22598088461932],[45.82143118721004,51.25453441668928],[45.82975930073027,51.29736471479556],[45.87377932933768,51.29736471479556],[45.88448690386454,51.32353878585943],[45.90471232241392,51.33900528239608],[45.93564531548936,51.36636908396393],[45.97847561359466,51.36993827547303],[45.999890762646864,51.3973020770391],[46.005839415161354,51.44608102765871],[46.01416752868167,51.485342134255],[46.05461836578114,51.515085396828944],[46.09863839438927,51.521034049342276],[46.16645303305543,51.5305518933656],[46.19619629562804,51.54720812040614],[46.24021632423617,51.60193572354095],[46.25568282077389,51.64238656064025],[46.281856891837755,51.65547359617267],[46.30089257988493,51.673319553715416],[46.31397961541691,51.7090114688026],[46.341343416983605,51.72209850433502],[46.36156883553289,51.74351365338768],[46.36275856603581,51.753031497411975],[46.397260750620795,51.76611853294342],[46.42581428269049,51.758980149926195],[46.46983431129862,51.762549341435296],[46.53764894996478,51.77801583797195],[46.57334086505179,51.77682610746886],[46.57809978706345,51.81846667507124],[46.59237655309906,51.8458304766382],[46.57572032605762,51.87081481719906],[46.58642790058448,51.89104023574871],[46.60427385812803,51.905317001785114],[46.60308412762512,51.91602457631055],[46.6233095461745,51.927921881339884],[46.632827390197725,51.94219864737442],[46.656622000256476,51.95171649139774],[46.66138092226814,51.96242406592407],[46.67565768830294,51.97194190994739],[46.66732957478262,51.983839214976804],[46.630447929191895,52.005254364028566],[46.60308412762512,52.02904897408732],[46.576910056560536,52.03737708760763],[46.56382302102865,52.062361428168494],[46.54954625499384,52.0706895416897],[46.5459770634851,52.08496630772424],[46.53526948895895,52.09448415174756],[46.53289002795312,52.10281226526877],[46.52694137543863,52.10995064828599],[46.52932083644446,52.12898633633263],[46.52099272292415,52.136124719349944],[46.51980299242123,52.161109059911695],[46.522182453427064,52.17657555644835],[46.5174235314154,52.19085232248475],[46.51623380091249,52.2122674715374],[46.54002841097061,52.22059558505683],[46.5531154465025,52.23011342908015],[46.5459770634851,52.238441542600384],[46.556684638011156,52.2467696561207],[46.56977167354314,52.23725181209738],[46.58999709209323,52.25271830863581],[46.60903278013969,52.26699507467035],[46.6018943971222,52.280082110201874],[46.597135475110626,52.29554860674031],[46.59118682259614,52.309825372774846],[46.574530595554705,52.32648159981726],[46.54359760247927,52.35741459289234],[46.53526948895895,52.368122167417866],[46.51147487890091,52.38715785546451],[46.53407975845604,52.399055160494726],[46.56739221253731,52.40262435200294],[46.55787436851407,52.41571138753536],[46.50195703487688,52.40619354351115],[46.47459323331019,52.409762735020166],[46.48530080783634,52.43355734507802],[46.55787436851407,52.44902384161654],[46.5388386804677,52.48709521770982],[46.574530595554705,52.50494117525435],[46.54954625499384,52.518028210784905],[46.54478733298218,52.53944335983765],[46.52932083644446,52.53944335983765],[46.51504407040966,52.54539201235276],[46.50076730437406,52.53944335983765],[46.48054188582476,52.56085850889119],[46.49243919085374,52.5644277003994],[46.46983431129862,52.58108392743995],[46.4543678147609,52.57632500542784],[46.418675899673,52.588222310457255],[46.37822506257433,52.59536069347448],[46.356809913521325,52.58584284945116],[46.333015303463284,52.588222310457255],[46.3270666509488,52.596550423978464],[46.2854260833465,52.606068268001785]]]]}},{"type":"Feature","properties":{"kind":"district","id":"uyezd-1897-798","name":"Камышинский","provinceId":"gubernia-1897-18"},"geometry":{"type":"MultiPolygon","coordinates":[[[[45.20990970871138,51.23549872864264],[45.18467750762872,51.22993609594053],[45.17330070969477,51.22993609594053],[45.16125468835293,51.23729755342723],[45.14407795421648,51.221868235967996],[45.15954445075499,51.194504434400145],[45.20356447936232,51.1742790158505],[45.16430337276657,51.17070982434238],[45.18333906081303,51.15286386679963],[45.18214933031012,51.121930873722675],[45.15240606773679,51.118361682214555],[45.11671415264969,51.10646437718425],[45.08459142907063,51.09813626366482],[45.05722762750385,51.09099788064671],[45.0465200529777,51.06125461807365],[45.017966520907294,51.042218930027005],[45.035812478451554,51.03151135550068],[45.06198654951542,51.035080547009784],[45.07864277655605,51.02437297248434],[45.054848166498104,51.02080378097524],[45.027484364931325,51.01961405047313],[44.996551371855084,50.99462970991138],[44.976325953305704,50.98868105739618],[44.95729026525933,50.98630159639018],[44.94182376872081,50.977973482870745],[44.89304481810182,50.96845563884742],[44.88709616558734,50.9958194404135],[44.86568101653424,51.035080547009784],[44.81214314390368,51.049357313044325],[44.79667664736516,51.03151135550068],[44.80976368289785,51.01961405047313],[44.81095341340077,51.00890647594592],[44.782399881330356,51.00652701493982],[44.76812311529555,51.01366539795802],[44.75146688825492,51.01366539795802],[44.71934416467585,51.037460008015884],[44.663426831039466,51.04102919952489],[44.62892464645448,51.050547043548214],[44.59085327036084,51.044598391033105],[44.56586892979989,51.043408660530986],[44.52184890119176,51.039839469021885],[44.51946944018593,51.07434165360607],[44.5099515961627,51.08504922813337],[44.51946944018593,51.124310334729664],[44.5599202772854,51.119551412716675],[44.61464788041959,51.11003356869335],[44.63130410746031,51.143346022776306],[44.574197043320204,51.15524332780386],[44.55040243326217,51.15643305830784],[44.55516135527374,51.16952009384026],[44.520659170688845,51.16833036333628],[44.492105638619236,51.1778482073596],[44.46236237604663,51.194504434400145],[44.41358342542693,51.201642817417465],[44.317215254691064,51.221868235967996],[44.317215254691064,51.188555781886905],[44.3053179496612,51.16238171082295],[44.272005495580025,51.114792490705454],[44.251780077030645,51.08980815014361],[44.25068711979135,51.04827577505165],[44.25059034652773,51.044598391033105],[44.261297921053874,51.01009620644981],[44.285092531111914,50.960127525326214],[44.30412821915838,50.952989142308994],[44.312456332679496,50.94347129828567],[44.36004555279548,50.93157399325625],[44.36837366631588,50.899451269677186],[44.36837366631588,50.86375935459],[44.38740935436306,50.84234420553824],[44.375512049333196,50.805462559947074],[44.38265043235149,50.76858091435679],[44.36123528329839,50.76144253133957],[44.287471992117744,50.743596573796815],[44.25059034652773,50.743596573796815],[44.22203681445732,50.732888999269605],[44.189914090878965,50.731699268767485],[44.14589406227084,50.71623277222896],[44.12923783523021,50.70671492820564],[44.08402807611916,50.6948176231772],[44.085217806622076,50.663884630101144],[44.08190786158713,50.6314471687585],[44.08442868896224,50.63130712279324],[44.105843838015154,50.62654820078113],[44.145104944610914,50.60989197374059],[44.218868235791476,50.61584062625481],[44.254560150879016,50.603943321227256],[44.2950109879784,50.57420005865331],[44.33427209457504,50.56111302312089],[44.3842407756973,50.53969787406824],[44.434209456819474,50.5325594910519],[44.47703975492433,50.54088760457124],[44.52938789705295,50.56825140613909],[44.547233854596676,50.5718205976473],[44.56270035113413,50.56825140613909],[44.55675169861956,50.55635410110976],[44.57221819515781,50.55040544859456],[44.588874422198884,50.52304164702858],[44.61504849326266,50.49686757596463],[44.63527391181196,50.48378054043221],[44.65193013885303,50.48021134892408],[44.67334528790586,50.48021134892408],[44.710226933496145,50.458796199871344],[44.725693430033594,50.45403727785835],[44.750677770594635,50.450468086350135],[44.754246962103736,50.40763778824474],[44.763764806126616,50.37313560366145],[44.72450369953086,50.354099915613915],[44.69357070645506,50.33506422756817],[44.680483670923174,50.31959773102973],[44.67810420991681,50.30056204298221],[44.68643232343775,50.26487012789582],[44.70308855047803,50.21728090777921],[44.720934508021756,50.194676028223554],[44.74829830958916,50.1756403401778],[44.77447238065303,50.155414921628065],[44.78161076367043,50.133999772575415],[44.75781615361204,50.14113815559175],[44.73402154355453,50.124481928551205],[44.71260639450162,50.09949758799034],[44.69476043695789,50.0721337864225],[44.68545013767996,50.05351318786782],[44.698854361570625,50.043241884412936],[44.72859762414315,50.00992943033176],[44.76428953923025,49.98851428128],[44.81544795085578,49.968288862729466],[44.87731393700746,49.9444942526716],[44.897539355556745,49.92307910361798],[44.91776477410693,49.9337866781443],[44.94155938416496,49.94211479166462],[44.942749114667876,49.974237515243686],[44.9510772281882,49.99327320329121],[44.9796307602586,50.01349862183997],[45.00580483132247,50.033724040389615],[45.05934270395383,50.01230889133785],[45.10931138507564,49.99089374228423],[45.17355683223315,49.961150479712146],[45.16879791022158,49.93973533066038],[45.15333141368386,49.90642287657734],[45.145003300163545,49.877869344507374],[45.14619303066637,49.85645419545561],[45.198541172794904,49.84336715992417],[45.21519739983554,49.83028012439175],[45.21281793882971,49.811244436345106],[45.20924874732096,49.78626009578326],[45.26278661995232,49.78150117377205],[45.312755301074226,49.76603467723362],[45.33298071962432,49.752947641702086],[45.365367827758604,49.76682783090196],[45.389162437817355,49.78705324945258],[45.37012674977089,49.84297058308951],[45.36179863624986,49.89531872521734],[45.38202405479995,49.91792360477299],[45.41057758686965,49.95004632835116],[45.42961327491602,49.98335878243235],[45.43675165793343,50.01786096701839],[45.4557873459806,50.040465846573156],[45.49266899157062,50.06782964814012],[45.5200327931382,50.09400371920398],[45.53906848118457,50.110659946244624],[45.53906848118457,50.14159293932059],[45.57238093526584,50.17133620189365],[45.62353934689137,50.18204377642086],[45.67469775851699,50.21059730848994],[45.683025872037305,50.24509949307501],[45.73061509215418,50.28436059967041],[45.77225565975568,50.32124224526069],[45.80794757484349,50.347416316324555],[45.85315733395382,50.354554699341875],[45.8793314050184,50.37596984839452],[45.92097197261998,50.38310823141184],[45.922161703122896,50.40452338046546],[45.90365752816313,50.43343615384022],[45.88409032703006,50.46400990561051],[45.86386490848068,50.48542505466325],[45.86148544747485,50.51516831723622],[45.8448292204335,50.53777319679196],[45.81508595786098,50.56275753735371],[45.77463512076151,50.581793225400354],[45.73656374466858,50.60677756596033],[45.749650780200554,50.64009002004151],[45.74370212768607,50.679351126638686],[45.71514859561566,50.69957654518842],[45.69492317706628,50.71147385021775],[45.700871829580855,50.737647921281706],[45.73061509215418,50.76977064486077],[45.77939404277308,50.79237552441465],[45.8448292204335,50.80665229045096],[45.91145412859684,50.819739325982496],[45.95428442670205,50.795944715924634],[45.98997634178906,50.77928848888409],[46.03042717888853,50.77809875838011],[46.05779098045522,50.79118579391253],[46.0637396329698,50.814980403970395],[46.070878015988,50.8601901630809],[46.07444720749666,50.89707180867207],[46.055411519449486,50.93633291526836],[46.02566825687696,50.96845563884742],[46.013770951847896,50.9958194404135],[46.01020176033924,51.035080547009784],[45.98759688078323,51.06482380958275],[45.93762819966142,51.08980815014361],[45.89122871004746,51.112413029699354],[45.85315733395382,51.14810494478664],[45.82817299339287,51.189745512389024],[45.82143118721004,51.22598088461932],[45.77741115860191,51.222411693111994],[45.71435544194732,51.206945196573564],[45.653679186298554,51.208134927075676],[45.63464349825209,51.22598088461932],[45.59419266115262,51.228360345625326],[45.56801859008884,51.234308998140435],[45.521619100474794,51.23549872864264],[45.534706136007486,51.209324657578684],[45.48235799387904,51.206945196573564],[45.45380446180863,51.20337600506535],[45.387179553646185,51.19147870003602],[45.36576440459309,51.23906792015263],[45.34315952503797,51.22955007612931],[45.31817518447701,51.22955007612931],[45.28010380838337,51.216463040596],[45.25630919832534,51.210514388082665],[45.233704318769504,51.21170411858478],[45.219427552734615,51.218842501602005],[45.20990970871138,51.23549872864264]]]]}}]}
