{"type":"FeatureCollection","features":[{"type":"Feature","properties":{"kind":"province","id":"gubernia-1897-81","name":"Ревельская губерния"},"geometry":{"type":"MultiPolygon","coordinates":[[[[25.803726530844365,59.5828411651788],[25.790898406543242,59.58497918589545],[25.787329215034674,59.60401487394209],[25.781380562520187,59.637327328024156],[25.75401676095305,59.66707059059712],[25.729032420391654,59.68015762612954],[25.696909696812945,59.67539870411655],[25.68977131379563,59.66707059059712],[25.701668618825227,59.6575527465738],[25.696909696812945,59.628999214502954],[25.720704306871426,59.612342987462405],[25.720704306871426,59.59330729941665],[25.677874008766747,59.58616891639934],[25.640992363176466,59.58616891639934],[25.612438831106413,59.60282514343997],[25.574367455013306,59.623050561989615],[25.54938311445191,59.61710190947451],[25.52796796539917,59.627809484000835],[25.5172603908732,59.6551732855678],[25.508932277352972,59.65636301606991],[25.497034972323377,59.637327328024156],[25.49346578081463,59.61710190947451],[25.50179389433486,59.59449702991877],[25.54700365344608,59.56951268935879],[25.574367455013306,59.546907809803045],[25.574367455013306,59.53620023527672],[25.548193383948995,59.532631043766735],[25.47205063176198,59.52906185225941],[25.45896359623018,59.51002616421277],[25.420892220137073,59.49574939817646],[25.404235993095817,59.49455966767434],[25.38757976605545,59.50288778119554],[25.349508389962253,59.50645697270376],[25.313816474874887,59.51359535572098],[25.27812455978681,59.5207337387382],[25.276934829283896,59.53738996577884],[25.26503752425501,59.53738996577884],[25.24362237520227,59.5243029302473],[25.21506884313222,59.51716454723008],[25.20198180760042,59.51716454723008],[25.192463963577364,59.53620023527672],[25.178187197541938,59.54095915728794],[25.16153097050157,59.554046192820365],[25.156772048489998,59.544528348796064],[25.17461800603328,59.51954400823609],[25.162720701004396,59.49574939817646],[25.14844393496906,59.49218020666922],[25.13535689943726,59.50645697270376],[25.125839055414115,59.50645697270376],[25.098475253846978,59.52192346924308],[25.056834686245214,59.5183542777322],[25.01281465763691,59.5183542777322],[24.983071395063853,59.50050832018856],[24.936671905450517,59.50407751169766],[24.90930810388338,59.53382077427062],[24.918825947906434,59.550477001311265],[24.91168756488912,59.558805114833355],[24.897410798854494,59.55166673181338],[24.89027241583647,59.56594349784969],[24.84506265672596,59.56713322835181],[24.811750202644426,59.58497918589545],[24.789145323088682,59.56594349784969],[24.798663167112625,59.539769426785824],[24.80818101113568,59.5243029302473],[24.830785890691335,59.51121589471488],[24.83197562119425,59.49099047616524],[24.80580155012994,59.468385596609494],[24.76297125202446,59.46124721359227],[24.724899875931264,59.46124721359227],[24.703484726879324,59.471954788118595],[24.660654428773846,59.4826623626459],[24.658274967768104,59.47552397962681],[24.67255173380353,59.46243694409616],[24.6832593083295,59.45053963906683],[24.655895506762363,59.45053963906683],[24.608306286646112,59.46243694409616],[24.574993832564488,59.477903440632815],[24.572614371558746,59.467195866107375],[24.54525056999152,59.45529856107893],[24.496471619371643,59.46243694409616],[24.458400243278536,59.483852093148016],[24.40129317913843,59.49336993717222],[24.358462881033752,59.48742128465712],[24.34894503701061,59.470765057615594],[24.359652611536667,59.45172936956895],[24.335858001478098,59.43745260353441],[24.29064824236759,59.41484772397867],[24.23948983074197,59.40889907146356],[24.221643873198598,59.41127853246957],[24.20498764615752,59.41841691548688],[24.19428007163146,59.41603745448265],[24.19190061062572,59.401760688446245],[24.22402333420443,59.39581203593291],[24.235920639233314,59.3815352698966],[24.256146057783138,59.37558661738238],[24.24186929174771,59.35536119883273],[24.18952114961989,59.36368931235394],[24.147880582017326,59.3815352698966],[24.089583787375194,59.398191496938125],[24.051512411281198,59.405329879955346],[24.036045914743745,59.401760688446245],[24.049132950275457,59.382725000401464],[24.050322680778372,59.36725850386206],[24.078876212848336,59.35536119883273],[24.113378397432875,59.34465362430632],[24.139552468497186,59.326807666763656],[24.12527570246247,59.311341170225134],[24.11694758894153,59.298254134692804],[24.096722170392418,59.27326979413283],[24.086014595866448,59.27802871614307],[24.078876212848336,59.28754656016639],[24.032476723235,59.30063359569881],[24.01344103518809,59.294684943183704],[23.99559507764472,59.29111575167549],[23.95276477953933,59.27326979413283],[23.913503672943307,59.27921844664705],[23.887329601878996,59.27445952463495],[23.837360920757003,59.28992602117337],[23.824273885224493,59.294684943183704],[23.81713550220718,59.28873629066948],[23.789771700639953,59.28397736865827],[23.74813113303819,59.27326979413283],[23.746941402535274,59.25542383658919],[23.738613289015046,59.231629226529556],[23.706490565436336,59.232818957033444],[23.680316494372114,59.23519841804043],[23.67079865034897,59.253044375583094],[23.651762962301973,59.251854645079206],[23.642245118278918,59.236388148542545],[23.618450508220437,59.22568057401622],[23.606646453791594,59.22195297788002],[23.595845628664783,59.218542190997134],[23.55896398307459,59.218542190997134],[23.54111802553122,59.218542190997134],[23.533979642513195,59.22687030451834],[23.517323415472738,59.231629226529556],[23.518513145975653,59.21140380797982],[23.49828772742574,59.2102140774777],[23.49590826642,59.170952970881416],[23.50661584094677,59.170952970881416],[23.533979642513195,59.14358916931445],[23.537548834022562,59.12217402026269],[23.56491263558899,59.088861566181514],[23.560153713577417,59.082912913666405],[23.536359103519647,59.09837941020306],[23.52446179849005,59.097189679700946],[23.525651528992967,59.08529237467064],[23.547066678045706,59.0710156086361],[23.53278991201028,59.06506695612276],[23.51375422396408,59.079343722157304],[23.499477457928656,59.079343722157304],[23.497097996922825,59.07220533913999],[23.459026620829718,59.079343722157304],[23.447129315800833,59.07220533913999],[23.448319046303748,59.05554911209944],[23.443560124292265,59.05079019008645],[23.459026620829718,59.03770315455403],[23.447129315800833,59.0246161190225],[23.43999093278352,59.0269955800286],[23.422144975239526,59.03175450203981],[23.419765514233696,59.0269955800286],[23.434042280268322,59.012718813994056],[23.449508776806663,59.007959891981955],[23.46854446485286,58.99130366494043],[23.49828772742574,58.98178582091711],[23.51970287647857,58.98892420393619],[23.54111802553122,58.98059609041499],[23.576809940618585,58.97702689890589],[23.5779996711215,58.99249339544441],[23.5779996711215,59.013908544496175],[23.5910867066533,59.01628800550316],[23.61488131671178,59.010339352987955],[23.62082996922618,59.017477736005276],[23.5970353591677,59.0293750410346],[23.58037913212724,59.04008261556102],[23.568481827097646,59.04365180706914],[23.57562021011567,59.05792857310368],[23.589896976150385,59.051979920591236],[23.608932664197294,59.05435938159546],[23.618450508220437,59.0329442325437],[23.64938350129623,59.02580584952648],[23.656521884313545,59.010339352987955],[23.67079865034897,58.99606258695342],[23.674367841857627,58.98178582091711],[23.6600910758222,58.97345770739777],[23.63629646576452,58.97464743789988],[23.616071047214696,58.97821662941076],[23.61488131671178,58.96037067186535],[23.5720510186071,58.94966309733991],[23.533979642513195,58.94252471432082],[23.49590826642,58.940145253315606],[23.45307796831532,58.95085282784203],[23.43999093278352,58.925868487281164],[23.436421741274152,58.91516091275386],[23.469734195355688,58.91278145174962],[23.467354734349946,58.90088414671932],[23.46616500384703,58.890176572193],[23.497097996922825,58.864002501129036],[23.51137476295825,58.846156543585494],[23.528030989998708,58.844966813083374],[23.536359103519647,58.82593112503673],[23.536359103519647,58.80332624548099],[23.510185032455425,58.80689543698911],[23.486390422396944,58.80094678447401],[23.469734195355688,58.78904947944645],[23.467354734349946,58.76763433039282],[23.493528805414257,58.772393252404925],[23.54111802553122,58.78072136592436],[23.56491263558899,58.773582982907044],[23.58275859313307,58.777152174416145],[23.595845628664783,58.781911096427365],[23.611312125203124,58.79023920994857],[23.645814309787575,58.79261867095467],[23.677937033366284,58.78429055743346],[23.717198139962306,58.78548028793735],[23.75645924655833,58.79380840145678],[23.799289544663807,58.79737759296579],[23.84093011226566,58.79737759296579],[23.823084154721577,58.79261867095467],[23.799289544663807,58.78072136592436],[23.779064126113983,58.766444599890704],[23.78739223963421,58.75097810335228],[23.809997119189866,58.75097810335228],[23.83022253773969,58.75097810335228],[23.818325232710006,58.74146025932984],[23.818325232710006,58.728373223798314],[23.794530622651525,58.72123484077922],[23.768356551588013,58.7188553797741],[23.745751672032448,58.73670133731685],[23.723146792476793,58.74027052882586],[23.685075416383597,58.74740891184318],[23.667229458840314,58.74264998983196],[23.6791267638692,58.73194241530652],[23.65533215381072,58.72956295430043],[23.64462457928466,58.73551160681474],[23.592276437156126,58.72956295430043],[23.560153713577417,58.74383972033408],[23.526841259495882,58.75097810335228],[23.526841259495882,58.74146025932984],[23.55420506106302,58.728373223798314],[23.576809940618585,58.7164759187681],[23.598225089670613,58.712906727258996],[23.592276437156126,58.702199152733556],[23.55896398307459,58.703388883235675],[23.529220720501623,58.70457861373779],[23.50899530195251,58.692681308710235],[23.514943954466997,58.66293804613718],[23.52208233748431,58.62843586155122],[23.537548834022562,58.59869259898002],[23.58275859313307,58.59512340747092],[23.573240749109928,58.57846718043038],[23.57562021011567,58.557052031376756],[23.583948323635987,58.543964995844334],[23.611312125203124,58.540395804336114],[23.63153754375215,58.52017038578647],[23.656521884313545,58.51422173327136],[23.687454877389428,58.51303200276925],[23.67079865034897,58.49994496723683],[23.671988380851886,58.466632513155645],[23.676747302863458,58.448786555612],[23.70530083493342,58.41785356253692],[23.730285175494817,58.395248682981176],[23.736233828009304,58.36431568990423],[23.75289005504976,58.34646973236068],[23.762407899073526,58.34528000185857],[23.75289005504976,58.36550542040821],[23.76359762957644,58.378592455940634],[23.76954628209084,58.37383353392755],[23.7802538566169,58.36074649839611],[23.799289544663807,58.35955676789301],[23.824273885224493,58.35241838487579],[23.83022253773969,58.37621299493365],[23.848068495282973,58.36788488141519],[23.862919532883456,58.35041307247219],[23.88940599811457,58.37310502749282],[23.938184948734268,58.38976125453337],[23.969117941809884,58.41950451710633],[23.960789828289123,58.433781283142736],[23.969117941809884,58.44448885766728],[23.961979558792393,58.46709373722392],[23.94651306225423,58.47661158124724],[23.9441336012484,58.496836999795995],[23.928667104710946,58.50635484381932],[23.94651306225423,58.52301107086075],[23.961979558792393,58.56108244695315],[23.984584438347337,58.60629220606464],[24.017896892429583,58.600343553549436],[24.014327700920393,58.56346190796013],[24.029794197458646,58.55275433343381],[24.058347729528432,58.55632352494193],[24.10712668014813,58.55989271645014],[24.139249403726307,58.61818951109308],[24.079762878580816,58.669347922719666],[24.134490481714646,58.69790145478963],[24.178510510322685,58.672917114227886],[24.21182296440413,58.670537653222674],[24.21182296440413,58.658640348192456],[24.227289460942384,58.65626088718636],[24.237997035468975,58.662209539701465],[24.455717717501738,58.676486305736006],[24.536619391700413,58.747870135912336],[24.57825995930262,58.74430094440235],[24.530670739185393,58.70741929881295],[24.608003221874966,58.70979875981905],[24.636556753945552,58.72407552585261],[24.6999209192489,58.7530696988497],[24.709438763272132,58.744741585330274],[24.733233373330346,58.74236212432338],[24.785581515458347,58.73641347181004],[24.814135047528133,58.73879293281516],[24.84982696261621,58.7530696988497],[24.881949686194385,58.77924376991356],[24.893846991223537,58.782812961422664],[24.91407240977336,58.77924376991356],[24.936677289329015,58.791141074942985],[24.925969714802424,58.800658918966306],[24.942625941843147,58.82564325952806],[24.981887048439614,58.84705840858079],[25.02352761604182,58.86371463562134],[25.078255219175563,58.874422210147756],[25.098480637725476,58.876801671152876],[25.140121205326885,58.873232479643775],[25.15915689337344,58.872042749140775],[25.184141233934923,58.881560593164096],[25.21150503550224,58.88394005417108],[25.227985006172418,58.880767439495656],[25.24345150270987,58.85459336843179],[25.212518509634165,58.8177117228424],[25.224415814663317,58.792727382280646],[25.18158551655855,58.73681004864284],[25.19229309108434,58.71658463009319],[25.24702069421897,58.709446247076855],[25.29817910584441,58.705877055567754],[25.28271260930616,58.67256460148657],[25.258917999248034,58.641631608410506],[25.325542907411016,58.67494406249169],[25.39216781557471,58.697548942046545],[25.436187844181948,58.704687325064654],[25.483777064299087,58.705877055567754],[25.523038170894754,58.702307864059534],[25.567058199502792,58.709446247076855],[25.65390852621551,58.74156897065583],[25.625354994145724,58.790347921274545],[25.620596072134063,58.80938360932217],[25.647959873701378,58.81890145334549],[25.719343703875932,58.8177117228424],[25.735999930916655,58.79748630429275],[25.832368101652694,58.80462468730909],[25.839506484670185,58.784399268759444],[25.86924974724324,58.7713122332279],[25.897803279313116,58.77607115523912],[25.928736272388733,58.783209538257324],[25.953720612950217,58.792727382280646],[25.946582229932815,58.80938360932217],[25.96680764848264,58.82128091435061],[25.994171450049155,58.8177117228424],[26.007258485581488,58.82841929736881],[26.02272498211974,58.82603983636271],[26.047709322680515,58.83436794988214],[26.07745258525357,58.83793714139213],[26.116713691850038,58.83555768038515],[26.12742126637583,58.84626525491236],[26.110765039335018,58.859352290443894],[26.133369918890672,58.866490673462096],[26.17025156448051,58.880767439495656],[26.204195603891048,58.891166565374114],[26.22442102244095,58.87332060783048],[26.263682129037328,58.86975141632049],[26.307702157644567,58.87926926034381],[26.31484054066197,58.89592548738524],[26.307702157644567,58.90544333140856],[26.336255689715152,58.90544333140856],[26.389793562345623,58.89235629587712],[26.442141704474512,58.8745103383326],[26.458797931515235,58.848336267269616],[26.48140281107009,58.86142330280106],[26.4742644280526,58.89592548738524],[26.495679577105783,58.90544333140856],[26.506387151631575,58.922099558450086],[26.58847855633272,58.94232497699885],[26.667000769525565,58.96611958705671],[26.718159181150206,58.95898120404037],[26.765748401267345,58.97682716158303],[26.802630046857182,58.98277581409823],[26.810958160377943,59.02798557320963],[26.85378845848271,59.04345206974628],[26.884721451558327,59.069626140811124],[26.90018794809658,59.072005601816244],[26.94896689871628,59.05772883578268],[26.972761508774404,59.03036503421484],[27.00369450185002,59.02679584270662],[27.05128372196645,59.02798557320963],[27.089355098060267,59.02203692069452],[27.140513509685796,58.974447700577024],[27.226174105895243,58.841197884251415],[27.28893599230165,58.73306817393588],[27.71485951234554,59.00670618960609],[27.719618434357113,59.03406999117394],[27.748171966426987,59.04239810469426],[27.745792505421157,59.07095163676334],[27.76601792397098,59.08046948078666],[27.76720765447354,59.095935977325084],[27.774346037490943,59.118540856879946],[27.779104959502604,59.13757654492659],[27.80408930006409,59.15185331096112],[27.81241741358405,59.14828411945291],[27.836212023642265,59.16850953800255],[27.87428339973617,59.194683609066516],[27.876662860741913,59.21490902761616],[27.86833474722115,59.2363241766689],[27.907595853817618,59.260118786727645],[27.945667229910725,59.27082636125397],[27.983738606003744,59.27796474427031],[28.02180998209765,59.28867231879761],[28.049173783664255,59.29224151030573],[28.07177866321982,59.29224151030573],[28.101521925792966,59.29224151030573],[28.115798691827948,59.30175935432905],[28.146731684903564,59.30889773734725],[28.161140643216545,59.316432697198245],[28.12901791963843,59.32357108021643],[28.148053607684272,59.33903757675486],[28.168279026234096,59.358073264801504],[28.156381721204944,59.38067814435636],[28.13853576366095,59.39019598837968],[28.12782818913516,59.40090356290601],[28.13258711114682,59.415180328940544],[28.109982231591076,59.42945709497597],[28.08261843002456,59.444923591513515],[28.048116245439843,59.463959279559354],[28.021068931350708,59.4815816840273],[27.992200809986226,59.45351545492119],[27.955319164396034,59.42853111436121],[27.91962724930787,59.41544407882879],[27.877986681706016,59.40235704329637],[27.822069348068826,59.40354677379946],[27.780428780466973,59.39759812128426],[27.74711632638535,59.40830569581156],[27.7257011773327,59.40711596530758],[27.698337375766272,59.416633809330904],[27.631712467603112,59.416633809330904],[27.591261630503375,59.422582461846105],[27.54962106290161,59.422582461846105],[27.51273941731133,59.43091057536731],[27.45682208367405,59.42853111436121],[27.405663672049233,59.44399761089787],[27.348556607909128,59.44280788039575],[27.300967387792078,59.449946263412976],[27.154630535933958,59.440428419389654],[27.038036946647917,59.433290036371545],[26.999110451755573,59.437416914053706],[26.955945541947216,59.441618149893635],[26.90716659132725,59.43923868888665],[26.860767101713915,59.46422302944751],[26.79860014251229,59.49336993717222],[26.760528766419093,59.51002616421277],[26.754580113904694,59.5183542777322],[26.73435469535478,59.52311319974519],[26.715319007308672,59.53382077427062],[26.64988382964834,59.546907809803045],[26.608243262046575,59.556425653826366],[26.602294609531377,59.53382077427062],[26.563033502935355,59.52549266074942],[26.5273415878479,59.52549266074942],[26.509495630303817,59.52311319974519],[26.480942098234564,59.53501050477274],[26.441680991637742,59.546907809803045],[26.376245813977498,59.557615384328486],[26.33103605486699,59.561184575837586],[26.262031685698,59.58854837740455],[26.162094323453214,59.59092783841055],[26.108556450821766,59.59687649092575],[26.091900223781398,59.61115325695931],[26.063346691711256,59.625430022994735],[26.034793159641204,59.633758136515944],[25.97411690399253,59.66112193808202],[25.95865040745419,59.66112193808202],[25.986014209021327,59.612342987462405],[25.981255287009844,59.59806622142787],[25.92652768387548,59.59449702991877],[25.92176876186391,59.634947867018056],[25.882507655267887,59.63970678903026],[25.87298981124483,59.58854837740455],[25.83372870464881,59.57784080287813],[25.803726530844365,59.5828411651788]]]]}},{"type":"Feature","properties":{"kind":"district","id":"uyezd-1897-76","name":"Везенбергский","provinceId":"gubernia-1897-81"},"geometry":{"type":"MultiPolygon","coordinates":[[[[25.75447747378893,59.41345825615369],[25.766374778818083,59.390853376598926],[25.80801534642029,59.36467930553408],[25.827051034466756,59.36467930553408],[25.830620225975945,59.35278200050466],[25.8532251055316,59.35278200050466],[25.86155321905156,59.33374631245802],[25.886537559613046,59.32660792943991],[25.930557588221085,59.301623588879934],[25.946024084758537,59.298054397369945],[25.974577616828412,59.28139817032931],[26.020977106442192,59.268311134796974],[26.054289560523728,59.25284463826033],[26.086412284102614,59.24689598574513],[26.137570695728144,59.225480836693364],[26.148278270253847,59.21358353166394],[26.18040099383291,59.20049649613152],[26.097119858629206,59.14219970148859],[26.094740397623376,59.12673320495105],[26.11734527717823,59.10888724740741],[26.12448366019572,59.080333715337446],[26.143519348242275,59.05653910527959],[26.17564207182125,59.02917530371174],[26.191108568359503,59.02917530371174],[26.200626412382736,59.0172779986833],[26.200626412382736,58.998242310636655],[26.204195603891037,58.98515527510335],[26.211333986908528,58.96968877856669],[26.22799021394925,58.95303255152517],[26.21490317841763,58.94589416850706],[26.204195603891037,58.932807132975526],[26.211333986908528,58.91615090593409],[26.204195603891037,58.89116656537412],[26.22442102244095,58.87332060783048],[26.263682129037328,58.86975141632049],[26.307702157644567,58.87926926034381],[26.31484054066197,58.89592548738524],[26.307702157644567,58.90544333140856],[26.336255689715152,58.90544333140856],[26.389793562345623,58.89235629587712],[26.442141704474512,58.8745103383326],[26.458797931515235,58.848336267269616],[26.48140281107009,58.86142330280106],[26.4742644280526,58.89592548738524],[26.495679577105783,58.90544333140856],[26.506387151631575,58.922099558450086],[26.58847855633272,58.94232497699885],[26.667000769525565,58.96611958705671],[26.718159181150206,58.95898120404037],[26.765748401267345,58.97682716158303],[26.802630046857182,58.98277581409823],[26.810958160377943,59.02798557320963],[26.85378845848271,59.04345206974628],[26.884721451558327,59.069626140811124],[26.90018794809658,59.072005601816244],[26.94896689871628,59.05772883578268],[26.972761508774404,59.03036503421484],[27.00369450185002,59.02679584270662],[27.05128372196645,59.02798557320963],[27.089355098060267,59.02203692069452],[27.140513509685796,58.974447700577024],[27.226174105895243,58.841197884251415],[27.28893599230165,58.73306817393588],[27.71485951234554,59.00670618960609],[27.719618434357113,59.03406999117394],[27.748171966426987,59.04239810469426],[27.745792505421157,59.07095163676334],[27.76601792397098,59.08046948078666],[27.76720765447354,59.095935977325084],[27.774346037490943,59.118540856879946],[27.779104959502604,59.13757654492659],[27.80408930006409,59.15185331096112],[27.81241741358405,59.14828411945291],[27.836212023642265,59.16850953800255],[27.87428339973617,59.194683609066516],[27.876662860741913,59.21490902761616],[27.86833474722115,59.2363241766689],[27.907595853817618,59.260118786727645],[27.945667229910725,59.27082636125397],[27.983738606003744,59.27796474427031],[28.02180998209765,59.28867231879761],[28.049173783664255,59.29224151030573],[28.07177866321982,59.29224151030573],[28.101521925792966,59.29224151030573],[28.115798691827948,59.30175935432905],[28.146731684903564,59.30889773734725],[28.16114064321656,59.31643269719825],[28.129017919638436,59.32357108021644],[28.14805360768428,59.33903757675487],[28.168279026234103,59.35807326480151],[28.15638172120495,59.38067814435637],[28.138535763660958,59.39019598837969],[28.127828189135165,59.40090356290601],[28.132587111146826,59.41518032894055],[28.109982231591083,59.42945709497597],[28.082618430024567,59.444923591513515],[28.04811624543985,59.46395927955936],[28.021068931350715,59.481581684027304],[27.992200809986226,59.45351545492119],[27.955319164396034,59.42853111436121],[27.91962724930787,59.41544407882879],[27.877986681706016,59.40235704329637],[27.822069348068826,59.40354677379946],[27.780428780466973,59.39759812128426],[27.74711632638535,59.40830569581156],[27.7257011773327,59.40711596530758],[27.698337375766272,59.416633809330904],[27.631712467603112,59.416633809330904],[27.591261630503375,59.422582461846105],[27.54962106290161,59.422582461846105],[27.51273941731133,59.43091057536731],[27.45682208367405,59.42853111436121],[27.405663672049233,59.44399761089787],[27.348556607909128,59.44280788039575],[27.300967387792078,59.449946263412976],[27.154630535933958,59.440428419389654],[27.038036946647917,59.433290036371545],[26.999110451755573,59.437416914053706],[26.955945541947216,59.441618149893635],[26.90716659132725,59.43923868888665],[26.860767101713915,59.46422302944751],[26.79860014251229,59.49336993717222],[26.760528766419093,59.51002616421277],[26.754580113904694,59.5183542777322],[26.73435469535478,59.52311319974519],[26.715319007308672,59.53382077427062],[26.64988382964834,59.546907809803045],[26.608243262046575,59.556425653826366],[26.602294609531377,59.53382077427062],[26.563033502935355,59.52549266074942],[26.5273415878479,59.52549266074942],[26.509495630303817,59.52311319974519],[26.480942098234564,59.53501050477274],[26.441680991637742,59.546907809803045],[26.376245813977498,59.557615384328486],[26.33103605486699,59.561184575837586],[26.262031685698,59.58854837740455],[26.162094323453214,59.59092783841055],[26.108556450821766,59.59687649092575],[26.091900223781398,59.61115325695931],[26.063346691711256,59.625430022994735],[26.034793159641204,59.633758136515944],[26.02289585461161,59.626619753498716],[26.00386016656541,59.63256840601383],[25.97411690399253,59.66112193808202],[25.95865040745419,59.66112193808202],[25.986014209021327,59.612342987462405],[25.981255287009844,59.59806622142787],[25.92652768387548,59.59449702991877],[25.92176876186391,59.634947867018056],[25.882507655267887,59.63970678903026],[25.87298981124483,59.58854837740455],[25.83372870464881,59.57784080287813],[25.803726530844454,59.58284116517889],[25.787789927871266,59.56336429951993],[25.8008769634028,59.550277263988406],[25.79611804139114,59.52053400141632],[25.79968723290033,59.50030858286668],[25.81158453792939,59.49435993035148],[25.792548849882838,59.47889343381394],[25.773513161836284,59.474134511801836],[25.768754239823913,59.45509882375519],[25.772323431333014,59.439632327216756],[25.760426126303862,59.43130421369733],[25.75447747378893,59.41345825615369]]]]}},{"type":"Feature","properties":{"kind":"district","id":"uyezd-1897-77","name":"Ревельский","provinceId":"gubernia-1897-81"},"geometry":{"type":"MultiPolygon","coordinates":[[[[25.803726530844454,59.58284116517889],[25.790898406543242,59.58497918589545],[25.787329215034674,59.60401487394209],[25.781380562520187,59.637327328024156],[25.75401676095305,59.66707059059712],[25.729032420391654,59.68015762612954],[25.696909696812945,59.67539870411655],[25.68977131379563,59.66707059059712],[25.701668618825227,59.6575527465738],[25.696909696812945,59.628999214502954],[25.720704306871426,59.612342987462405],[25.720704306871426,59.59330729941665],[25.677874008766747,59.58616891639934],[25.640992363176466,59.58616891639934],[25.612438831106413,59.60282514343997],[25.574367455013306,59.623050561989615],[25.54938311445191,59.61710190947451],[25.52796796539917,59.627809484000835],[25.5172603908732,59.6551732855678],[25.508932277352972,59.65636301606991],[25.497034972323377,59.637327328024156],[25.49346578081463,59.61710190947451],[25.50179389433486,59.59449702991877],[25.54700365344608,59.56951268935879],[25.574367455013306,59.546907809803045],[25.574367455013306,59.53620023527672],[25.548193383948995,59.532631043766735],[25.47205063176198,59.52906185225941],[25.45896359623018,59.51002616421277],[25.420892220137073,59.49574939817646],[25.404235993095817,59.49455966767434],[25.38757976605545,59.50288778119554],[25.349508389962253,59.50645697270376],[25.313816474874887,59.51359535572098],[25.27812455978681,59.5207337387382],[25.276934829283896,59.53738996577884],[25.26503752425501,59.53738996577884],[25.24362237520227,59.5243029302473],[25.21506884313222,59.51716454723008],[25.20198180760042,59.51716454723008],[25.192463963577364,59.53620023527672],[25.178187197541938,59.54095915728794],[25.16153097050157,59.554046192820365],[25.156772048489998,59.544528348796064],[25.17461800603328,59.51954400823609],[25.162720701004396,59.49574939817646],[25.14844393496906,59.49218020666922],[25.13535689943726,59.50645697270376],[25.125839055414115,59.50645697270376],[25.098475253846978,59.52192346924308],[25.056834686245214,59.5183542777322],[25.01281465763691,59.5183542777322],[24.983071395063853,59.50050832018856],[24.936671905450517,59.50407751169766],[24.90930810388338,59.53382077427062],[24.918825947906434,59.550477001311265],[24.91168756488912,59.558805114833355],[24.897410798854494,59.55166673181338],[24.89027241583647,59.56594349784969],[24.84506265672596,59.56713322835181],[24.811750202644426,59.58497918589545],[24.789145323088682,59.56594349784969],[24.798663167112625,59.539769426785824],[24.80818101113568,59.5243029302473],[24.830785890691335,59.51121589471488],[24.83197562119425,59.49099047616524],[24.80580155012994,59.468385596609494],[24.76297125202446,59.46124721359227],[24.724899875931264,59.46124721359227],[24.703484726879324,59.471954788118595],[24.660654428773846,59.4826623626459],[24.658274967768104,59.47552397962681],[24.67255173380353,59.46243694409616],[24.6832593083295,59.45053963906683],[24.655895506762363,59.45053963906683],[24.608306286646112,59.46243694409616],[24.574993832564488,59.477903440632815],[24.572614371558746,59.467195866107375],[24.54525056999152,59.45529856107893],[24.496471619371643,59.46243694409616],[24.458400243278536,59.483852093148016],[24.40129317913843,59.49336993717222],[24.358462881033752,59.48742128465712],[24.34894503701061,59.470765057615594],[24.359652611536667,59.45172936956895],[24.335858001478098,59.43745260353441],[24.29064824236759,59.41484772397867],[24.23948983074197,59.40889907146356],[24.221643873198598,59.41127853246957],[24.20498764615752,59.41841691548688],[24.19428007163146,59.41603745448265],[24.19190061062572,59.401760688446245],[24.22402333420443,59.39581203593291],[24.235920639233314,59.3815352698966],[24.256146057783138,59.37558661738238],[24.24186929174771,59.35536119883273],[24.18952114961989,59.36368931235394],[24.147880582017326,59.3815352698966],[24.089583787375194,59.398191496938125],[24.051512411281198,59.405329879955346],[24.036045914743745,59.401760688446245],[24.049132950275457,59.382725000401464],[24.050322680778372,59.36725850386206],[24.078876212848336,59.35536119883273],[24.113378397432875,59.34465362430632],[24.139552468497186,59.326807666763656],[24.12527570246247,59.311341170225134],[24.11694758894153,59.298254134692804],[24.096722170392418,59.27326979413283],[24.086014595866448,59.27802871614307],[24.078876212848336,59.28754656016639],[24.032476723235,59.30063359569881],[24.01344103518809,59.294684943183704],[23.99559507764472,59.29111575167549],[23.95276477953933,59.27326979413283],[23.913503672943307,59.27921844664705],[23.887329601878996,59.27445952463495],[23.837360920757003,59.28992602117337],[23.824273885224493,59.294684943183704],[23.81713550220718,59.28873629066948],[23.789771700639953,59.28397736865827],[23.74813113303819,59.27326979413283],[23.746941402535274,59.25542383658919],[23.738613289015046,59.231629226529556],[23.706490565436336,59.232818957033444],[23.680316494372114,59.23519841804043],[23.67079865034897,59.253044375583094],[23.651762962301973,59.251854645079206],[23.642245118278918,59.236388148542545],[23.618450508220437,59.22568057401622],[23.606646453791594,59.22195297788002],[23.6148867005901,59.20516728995702],[23.622025083607504,59.184941871409144],[23.65295807668321,59.176613757887054],[23.666045112215542,59.16709591386373],[23.66247592070644,59.15162941732619],[23.64938888517482,59.13616292078953],[23.65295807668321,59.11593750223891],[23.691029452776228,59.104040197209585],[23.74694678641333,59.100471005701365],[23.779069509992393,59.105229927712585],[23.82308953860043,59.08381477865984],[23.854022531676048,59.07548666513962],[23.879006872237532,59.07548666513962],[23.888524716260765,59.08143531765472],[23.87186848921933,59.09214289218105],[23.87424795022587,59.102850466707466],[23.902801482295747,59.120696424251015],[23.948011241406256,59.14687049531586],[23.97180585146447,59.1551986088352],[24.032482107113232,59.13973211229766],[24.087209710247063,59.13259372927955],[24.140747582878333,59.11593750223891],[24.164542192936548,59.0790558566496],[24.13241946935837,59.049312594076554],[24.12647081684344,59.025517984016915],[24.18595734198893,59.024328253514796],[24.208562221544586,59.029087175526904],[24.216890335065347,59.04098448055632],[24.237115753614372,59.04812286357266],[24.254961711158455,59.04812286357266],[24.263289824678417,59.027897445023015],[24.28589470423407,59.017189870496594],[24.307309853286455,59.017189870496594],[24.33824284636207,59.00529256546815],[24.38107314446764,59.031466636533],[24.43342128659564,59.0659688211163],[24.48933862023274,59.016000139993594],[24.521461343810916,59.00053364345694],[24.558342989401464,58.98506714691851],[24.579758138453847,58.96127253686065],[24.563101911413124,58.949375231830345],[24.533358648840778,58.952944423340334],[24.516702421799256,58.94580604032213],[24.516702421799256,58.932719004790684],[24.529789457331677,58.92558062177248],[24.54763541487576,58.92677035227549],[24.571430024933886,58.932719004790684],[24.59046571298044,58.92558062177248],[24.60117328750623,58.889888706686186],[24.610691131530263,58.85776598310623],[24.660659812652522,58.85062760008892],[24.70824903276886,58.83754056455747],[24.720146337797924,58.82802272053327],[24.716577146289623,58.788761613937865],[24.6999209192489,58.7530696988497],[24.709438763272132,58.744741585330274],[24.733233373330346,58.74236212432338],[24.785581515458347,58.73641347181004],[24.814135047528133,58.73879293281516],[24.84982696261621,58.7530696988497],[24.881949686194385,58.77924376991356],[24.893846991223537,58.782812961422664],[24.91407240977336,58.77924376991356],[24.936677289329015,58.791141074942985],[24.925969714802424,58.800658918966306],[24.942625941843147,58.82564325952806],[24.981887048439614,58.84705840858079],[25.02352761604182,58.86371463562134],[25.078255219175563,58.874422210147756],[25.098480637725476,58.876801671152876],[25.140121205326885,58.873232479643775],[25.15915689337344,58.872042749140775],[25.184141233934923,58.881560593164096],[25.21150503550224,58.88394005417108],[25.227985006172418,58.880767439495656],[25.23631311969238,58.89147501402207],[25.23155419768072,58.9152696240817],[25.204190396114203,58.940253964641684],[25.17920605555272,58.97951507123797],[25.19229309108434,58.99974048978761],[25.212518509634165,59.015206986326135],[25.23750285019565,58.99736102878161],[25.260107729750594,58.98546372375317],[25.28628180081535,58.99141237626827],[25.302938027856072,59.002119950792824],[25.34695805646331,58.99617129827949],[25.364804014007305,59.002119950792824],[25.367183475013135,59.018776177834255],[25.39573700708301,59.016396716829135],[25.40168565959794,59.022345369342474],[25.40406512060377,59.0378118658809],[25.40525485110633,59.06398593694574],[25.38978835456888,59.078262702979394],[25.39335754607718,59.098488121529044],[25.410013773117903,59.097298391026925],[25.425480269656155,59.097298391026925],[25.45284407122347,59.07588324197418],[25.49329490832232,59.109195696055366],[25.44570568820598,59.112764887565355],[25.413582964627004,59.11752380957569],[25.406444581609602,59.13418003661721],[25.414772695129564,59.14607734164565],[25.467120837258364,59.15083626365864],[25.49091544731649,59.172251412711375],[25.519468979386364,59.172251412711375],[25.519468979386364,59.1793897957286],[25.530176553912156,59.21865090232498],[25.518279248883093,59.25315308690828],[25.49329490832232,59.27456823596093],[25.464741376252533,59.29955257652277],[25.471879759270024,59.31026015104909],[25.521848440392194,59.331675300100855],[25.588473348555087,59.34476233563239],[25.60512957559581,59.35665964066172],[25.618216611128233,59.37093640669714],[25.671754483759592,59.37926452021835],[25.694359363314447,59.392351555748995],[25.7169642428701,59.41138724379564],[25.75447747378893,59.41345825615369],[25.760426126303862,59.43130421369733],[25.772323431333014,59.439632327216756],[25.768754239823913,59.45509882375519],[25.773513161836284,59.474134511801836],[25.792548849882838,59.47889343381394],[25.81158453792939,59.49435993035148],[25.79968723290033,59.50030858286668],[25.79611804139114,59.52053400141632],[25.8008769634028,59.550277263988406],[25.787789927871266,59.56336429951993],[25.803726530844454,59.58284116517889]]]]}},{"type":"Feature","properties":{"kind":"district","id":"uyezd-1897-80","name":"Вейсенштейнский","provinceId":"gubernia-1897-81"},"geometry":{"type":"MultiPolygon","coordinates":[[[[26.204195603891037,58.89116656537412],[26.211333986908528,58.91615090593409],[26.204195603891037,58.932807132975526],[26.21490317841763,58.94589416850706],[26.22799021394925,58.95303255152517],[26.211333986908528,58.96968877856669],[26.204195603891037,58.98515527510335],[26.200626412382736,58.998242310636655],[26.200626412382736,59.0172779986833],[26.191108568359503,59.02917530371174],[26.17564207182125,59.02917530371174],[26.143519348242275,59.05653910527959],[26.12448366019572,59.080333715337446],[26.11734527717823,59.10888724740741],[26.094740397623376,59.12673320495105],[26.097119858629206,59.14219970148859],[26.18040099383291,59.20049649613152],[26.148278270253847,59.21358353166394],[26.137570695728144,59.225480836693364],[26.086412284102614,59.24689598574513],[26.054289560523728,59.25284463826033],[26.020977106442192,59.268311134796974],[25.974577616828412,59.28139817032931],[25.946024084758537,59.298054397369945],[25.930557588221085,59.301623588879934],[25.886537559613046,59.32660792943991],[25.86155321905156,59.33374631245802],[25.8532251055316,59.35278200050466],[25.830620225975945,59.35278200050466],[25.827051034466756,59.36467930553408],[25.80801534642029,59.36467930553408],[25.766374778818083,59.390853376598926],[25.75447747378893,59.41345825615369],[25.7169642428701,59.41138724379564],[25.694359363314447,59.392351555748995],[25.671754483759592,59.37926452021835],[25.618216611128233,59.37093640669714],[25.60512957559581,59.35665964066172],[25.588473348555087,59.34476233563239],[25.521848440392194,59.331675300100855],[25.471879759270024,59.31026015104909],[25.464741376252533,59.29955257652277],[25.49329490832232,59.27456823596093],[25.518279248883093,59.25315308690828],[25.530176553912156,59.21865090232498],[25.519468979386364,59.1793897957286],[25.519468979386364,59.172251412711375],[25.49091544731649,59.172251412711375],[25.467120837258364,59.15083626365864],[25.414772695129564,59.14607734164565],[25.406444581609602,59.13418003661721],[25.413582964627004,59.11752380957569],[25.44570568820598,59.112764887565355],[25.49329490832232,59.109195696055366],[25.45284407122347,59.07588324197418],[25.425480269656155,59.097298391026925],[25.410013773117903,59.097298391026925],[25.39335754607718,59.098488121529044],[25.38978835456888,59.078262702979394],[25.40525485110633,59.06398593694574],[25.40406512060377,59.0378118658809],[25.40168565959794,59.022345369342474],[25.39573700708301,59.016396716829135],[25.367183475013135,59.018776177834255],[25.364804014007305,59.002119950792824],[25.34695805646331,58.99617129827949],[25.302938027856072,59.002119950792824],[25.28628180081535,58.99141237626827],[25.260107729750594,58.98546372375317],[25.23750285019565,58.99736102878161],[25.212518509634165,59.015206986326135],[25.19229309108434,58.99974048978761],[25.17920605555272,58.97951507123797],[25.204190396114203,58.940253964641684],[25.23155419768072,58.9152696240817],[25.23631311969238,58.89147501402207],[25.227985006172418,58.880767439495656],[25.24345150270987,58.85459336843179],[25.212518509634165,58.8177117228424],[25.224415814663317,58.792727382280646],[25.18158551655855,58.73681004864284],[25.19229309108434,58.71658463009319],[25.24702069421897,58.709446247076855],[25.29817910584441,58.705877055567754],[25.28271260930616,58.67256460148657],[25.258917999248034,58.641631608410506],[25.325542907411016,58.67494406249169],[25.39216781557471,58.697548942046545],[25.436187844181948,58.704687325064654],[25.483777064299087,58.705877055567754],[25.523038170894754,58.702307864059534],[25.567058199502792,58.709446247076855],[25.65390852621551,58.74156897065583],[25.625354994145724,58.790347921274545],[25.620596072134063,58.80938360932217],[25.647959873701378,58.81890145334549],[25.719343703875932,58.8177117228424],[25.735999930916655,58.79748630429275],[25.832368101652694,58.80462468730909],[25.839506484670185,58.784399268759444],[25.86924974724324,58.7713122332279],[25.897803279313116,58.77607115523912],[25.928736272388733,58.783209538257324],[25.953720612950217,58.792727382280646],[25.946582229932815,58.80938360932217],[25.96680764848264,58.82128091435061],[25.994171450049155,58.8177117228424],[26.007258485581488,58.82841929736881],[26.02272498211974,58.82603983636271],[26.047709322680515,58.83436794988214],[26.07745258525357,58.83793714139213],[26.116713691850038,58.83555768038515],[26.12742126637583,58.84626525491236],[26.110765039335018,58.859352290443894],[26.133369918890672,58.866490673462096],[26.17025156448051,58.880767439495656],[26.204195603891037,58.89116656537412]]]]}},{"type":"Feature","properties":{"kind":"district","id":"uyezd-1897-570","name":"Гапсальский","provinceId":"gubernia-1897-81"},"geometry":{"type":"MultiPolygon","coordinates":[[[[23.862919532883456,58.35041307247219],[23.88940599811457,58.37310502749282],[23.938184948734268,58.38976125453337],[23.969117941809884,58.41950451710633],[23.960789828289123,58.433781283142736],[23.969117941809884,58.44448885766728],[23.961979558792393,58.46709373722392],[23.94651306225423,58.47661158124724],[23.9441336012484,58.496836999795995],[23.928667104710946,58.50635484381932],[23.94651306225423,58.52301107086075],[23.961979558792393,58.56108244695315],[23.984584438347337,58.60629220606464],[24.017896892429583,58.600343553549436],[24.014327700920393,58.56346190796013],[24.029794197458646,58.55275433343381],[24.058347729528432,58.55632352494193],[24.10712668014813,58.55989271645014],[24.139249403726307,58.61818951109308],[24.079762878580816,58.669347922719666],[24.134490481714646,58.69790145478963],[24.178510510322685,58.672917114227886],[24.21182296440413,58.670537653222674],[24.21182296440413,58.658640348192456],[24.227289460942384,58.65626088718636],[24.237997035468975,58.662209539701465],[24.455717717501738,58.676486305736006],[24.536619391700413,58.747870135912336],[24.57825995930262,58.74430094440235],[24.530670739185393,58.70741929881295],[24.608003221874966,58.70979875981905],[24.636556753945552,58.72407552585261],[24.6999209192489,58.7530696988497],[24.716577146289623,58.788761613937865],[24.720146337797924,58.82802272053327],[24.70824903276886,58.83754056455747],[24.660659812652522,58.85062760008892],[24.610691131530263,58.85776598310623],[24.60117328750623,58.889888706686186],[24.59046571298044,58.92558062177248],[24.571430024933886,58.932719004790684],[24.54763541487576,58.92677035227549],[24.529789457331677,58.92558062177248],[24.516702421799256,58.932719004790684],[24.516702421799256,58.94580604032213],[24.533358648840778,58.952944423340334],[24.563101911413124,58.949375231830345],[24.579758138453847,58.96127253686065],[24.558342989401464,58.98506714691851],[24.521461343810916,59.00053364345694],[24.48933862023274,59.016000139993594],[24.43342128659564,59.0659688211163],[24.38107314446764,59.031466636533],[24.33824284636207,59.00529256546815],[24.307309853286455,59.017189870496594],[24.28589470423407,59.017189870496594],[24.263289824678417,59.027897445023015],[24.254961711158455,59.04812286357266],[24.237115753614372,59.04812286357266],[24.216890335065347,59.04098448055632],[24.208562221544586,59.029087175526904],[24.18595734198893,59.024328253514796],[24.12647081684344,59.025517984016915],[24.13241946935837,59.049312594076554],[24.164542192936548,59.0790558566496],[24.140747582878333,59.11593750223891],[24.087209710247063,59.13259372927955],[24.032482107113232,59.13973211229766],[23.97180585146447,59.1551986088352],[23.948011241406256,59.14687049531586],[23.902801482295747,59.120696424251015],[23.87424795022587,59.102850466707466],[23.87186848921933,59.09214289218105],[23.888524716260765,59.08143531765472],[23.879006872237532,59.07548666513962],[23.854022531676048,59.07548666513962],[23.82308953860043,59.08381477865984],[23.779069509992393,59.105229927712585],[23.74694678641333,59.100471005701365],[23.691029452776228,59.104040197209585],[23.65295807668321,59.11593750223891],[23.64938888517482,59.13616292078953],[23.66247592070644,59.15162941732619],[23.666045112215542,59.16709591386373],[23.65295807668321,59.176613757887054],[23.622025083607504,59.184941871409144],[23.6148867005901,59.20516728995702],[23.606646453791594,59.22195297788002],[23.595845628664783,59.218542190997134],[23.55896398307459,59.218542190997134],[23.54111802553122,59.218542190997134],[23.533979642513195,59.22687030451834],[23.517323415472738,59.231629226529556],[23.518513145975653,59.21140380797982],[23.49828772742574,59.2102140774777],[23.49590826642,59.170952970881416],[23.50661584094677,59.170952970881416],[23.533979642513195,59.14358916931445],[23.537548834022562,59.12217402026269],[23.56491263558899,59.088861566181514],[23.560153713577417,59.082912913666405],[23.536359103519647,59.09837941020306],[23.52446179849005,59.097189679700946],[23.525651528992967,59.08529237467064],[23.547066678045706,59.0710156086361],[23.53278991201028,59.06506695612276],[23.51375422396408,59.079343722157304],[23.499477457928656,59.079343722157304],[23.497097996922825,59.07220533913999],[23.459026620829718,59.079343722157304],[23.447129315800833,59.07220533913999],[23.448319046303748,59.05554911209944],[23.443560124292265,59.05079019008645],[23.459026620829718,59.03770315455403],[23.447129315800833,59.0246161190225],[23.43999093278352,59.0269955800286],[23.422144975239526,59.03175450203981],[23.419765514233696,59.0269955800286],[23.434042280268322,59.012718813994056],[23.449508776806663,59.007959891981955],[23.46854446485286,58.99130366494043],[23.49828772742574,58.98178582091711],[23.51970287647857,58.98892420393619],[23.54111802553122,58.98059609041499],[23.576809940618585,58.97702689890589],[23.5779996711215,58.99249339544441],[23.5779996711215,59.013908544496175],[23.5910867066533,59.01628800550316],[23.61488131671178,59.010339352987955],[23.62082996922618,59.017477736005276],[23.5970353591677,59.0293750410346],[23.58037913212724,59.04008261556102],[23.568481827097646,59.04365180706914],[23.57562021011567,59.05792857310368],[23.589896976150385,59.051979920591236],[23.608932664197294,59.05435938159546],[23.618450508220437,59.0329442325437],[23.64938350129623,59.02580584952648],[23.656521884313545,59.010339352987955],[23.67079865034897,58.99606258695342],[23.674367841857627,58.98178582091711],[23.6600910758222,58.97345770739777],[23.63629646576452,58.97464743789988],[23.616071047214696,58.97821662941076],[23.61488131671178,58.96037067186535],[23.5720510186071,58.94966309733991],[23.533979642513195,58.94252471432082],[23.49590826642,58.940145253315606],[23.45307796831532,58.95085282784203],[23.43999093278352,58.925868487281164],[23.436421741274152,58.91516091275386],[23.469734195355688,58.91278145174962],[23.467354734349946,58.90088414671932],[23.46616500384703,58.890176572193],[23.497097996922825,58.864002501129036],[23.51137476295825,58.846156543585494],[23.528030989998708,58.844966813083374],[23.536359103519647,58.82593112503673],[23.536359103519647,58.80332624548099],[23.510185032455425,58.80689543698911],[23.486390422396944,58.80094678447401],[23.469734195355688,58.78904947944645],[23.467354734349946,58.76763433039282],[23.493528805414257,58.772393252404925],[23.54111802553122,58.78072136592436],[23.56491263558899,58.773582982907044],[23.58275859313307,58.777152174416145],[23.595845628664783,58.781911096427365],[23.611312125203124,58.79023920994857],[23.645814309787575,58.79261867095467],[23.677937033366284,58.78429055743346],[23.717198139962306,58.78548028793735],[23.75645924655833,58.79380840145678],[23.799289544663807,58.79737759296579],[23.84093011226566,58.79737759296579],[23.823084154721577,58.79261867095467],[23.799289544663807,58.78072136592436],[23.779064126113983,58.766444599890704],[23.78739223963421,58.75097810335228],[23.809997119189866,58.75097810335228],[23.83022253773969,58.75097810335228],[23.818325232710006,58.74146025932984],[23.818325232710006,58.728373223798314],[23.794530622651525,58.72123484077922],[23.768356551588013,58.7188553797741],[23.745751672032448,58.73670133731685],[23.723146792476793,58.74027052882586],[23.685075416383597,58.74740891184318],[23.667229458840314,58.74264998983196],[23.6791267638692,58.73194241530652],[23.65533215381072,58.72956295430043],[23.64462457928466,58.73551160681474],[23.592276437156126,58.72956295430043],[23.560153713577417,58.74383972033408],[23.526841259495882,58.75097810335228],[23.526841259495882,58.74146025932984],[23.55420506106302,58.728373223798314],[23.576809940618585,58.7164759187681],[23.598225089670613,58.712906727258996],[23.592276437156126,58.702199152733556],[23.55896398307459,58.703388883235675],[23.529220720501623,58.70457861373779],[23.50899530195251,58.692681308710235],[23.514943954466997,58.66293804613718],[23.52208233748431,58.62843586155122],[23.537548834022562,58.59869259898002],[23.58275859313307,58.59512340747092],[23.573240749109928,58.57846718043038],[23.57562021011567,58.557052031376756],[23.583948323635987,58.543964995844334],[23.611312125203124,58.540395804336114],[23.63153754375215,58.52017038578647],[23.656521884313545,58.51422173327136],[23.687454877389428,58.51303200276925],[23.67079865034897,58.49994496723683],[23.671988380851886,58.466632513155645],[23.676747302863458,58.448786555612],[23.70530083493342,58.41785356253692],[23.730285175494817,58.395248682981176],[23.736233828009304,58.36431568990423],[23.75289005504976,58.34646973236068],[23.762407899073526,58.34528000185857],[23.75289005504976,58.36550542040821],[23.76359762957644,58.378592455940634],[23.76954628209084,58.37383353392755],[23.7802538566169,58.36074649839611],[23.799289544663807,58.35955676789301],[23.824273885224493,58.35241838487579],[23.83022253773969,58.37621299493365],[23.848068495282973,58.36788488141519],[23.862919532883456,58.35041307247219]]]]}}]}
