{"type":"FeatureCollection","features":[{"type":"Feature","properties":{"kind":"province","id":"gubernia-1897-71","name":"Минская губерния"},"geometry":{"type":"MultiPolygon","coordinates":[[[[29.383398859248267,51.40298621990044],[29.465490263949324,51.39703756738524],[29.496423257024762,51.47199058906881],[29.52973571110683,51.45890355353727],[29.65941633592467,51.517200348179315],[29.722472052578464,51.51839007868241],[29.698677442520427,51.46961112806271],[29.74388720163147,51.438678134987626],[29.796235343759204,51.44224732649673],[29.83311698934993,51.45652409253037],[29.849773216390563,51.47199058906881],[29.874757556952225,51.48388789409725],[29.91401866354798,51.4743700500749],[29.971125727688086,51.486267355103344],[29.99016141573455,51.50292358214389],[30.027043061325276,51.50292358214389],[30.09723716099727,51.49459546862455],[30.134118806587196,51.507682504155994],[30.157913416646032,51.512441426167214],[30.193605331733043,51.49102627711545],[30.232866438329598,51.47318031957092],[30.25785077889064,51.46247274504549],[30.29830161599002,51.44224732649673],[30.326855148059717,51.441057595993726],[30.326855148059717,51.40774514191068],[30.323285956550972,51.36253538280017],[30.34113191409452,51.343499694753525],[30.36254706314744,51.33636131173621],[30.419654127286744,51.31137697117446],[30.452966581368813,51.28401316960848],[30.493417418467484,51.28877209162059],[30.531488794561124,51.2828234391045],[30.55528340461916,51.2828234391045],[30.562421787636563,51.29472074413391],[30.55528340461916,51.32089481519778],[30.57312936216342,51.3304126592211],[30.613580199262092,51.347068886263514],[30.633805617811472,51.360155921794075],[30.630236426302726,51.364914843806176],[30.607631546747694,51.3780018793386],[30.612390468759266,51.39346837587712],[30.623098043285413,51.41012460291766],[30.61120073825635,51.431539751970405],[30.574319092666336,51.439867865489745],[30.574319092666336,51.46842139756059],[30.596923972221546,51.48031870259001],[30.589785589204144,51.501733851641774],[30.567180709648223,51.521959270190536],[30.551714213110504,51.57668687332534],[30.516022298023405,51.594532830869866],[30.51483256752049,51.60643013589742],[30.53029906405821,51.61832744092773],[30.541006638584356,51.64569124249371],[30.51483256752049,51.652829625512794],[30.506504454000172,51.669485852553436],[30.51483256752049,51.68138315758276],[30.54814502160176,51.669485852553436],[30.563611518139478,51.677813966072776],[30.5639278344639,51.6860381904998],[30.564801248642393,51.70874695914883],[30.5933547807128,51.72302372518337],[30.62666723479407,51.75752590976845],[30.615959660267922,51.78369998083231],[30.640944000829673,51.78369998083231],[30.648082383847076,51.79678701636473],[30.648082383847076,51.80868432139415],[30.65997968887614,51.8336686619559],[30.679015376922514,51.85270435000166],[30.684964029437,51.87530922955651],[30.71827648351907,51.88125788207162],[30.732553249553963,51.90862168363947],[30.78133220017366,51.90505249212948],[30.81464465425493,51.92051898866791],[30.788470583191064,51.93360602419944],[30.79203977469981,51.95145198174397],[30.802747349225957,51.971677400293615],[30.79679869671138,51.98714389683027],[30.777763008664206,51.98000551381304],[30.755158129108995,52.00617958487691],[30.74920947659451,52.02283581191932],[30.711138100501667,52.03116392543866],[30.711138100501667,52.04068176946198],[30.731363519051047,52.0478201524793],[30.73612244106262,52.06090718801261],[30.724225136033557,52.06566611002383],[30.70756890899221,52.056148266000505],[30.699240795471805,52.06090718801261],[30.70043052597472,52.07994287605836],[30.699240795471805,52.09421964209379],[30.657600227870308,52.123962904666755],[30.66235914988197,52.13110128768407],[30.683774298934086,52.13229101818618],[30.674256454910942,52.14061913170739],[30.620718582279583,52.14537805371852],[30.5933547807128,52.17512131629246],[30.5862163976954,52.19296727383512],[30.55290394361342,52.204864578865426],[30.564801248642393,52.22271053640818],[30.54219636908727,52.24055649395271],[30.51721202852632,52.23460784143751],[30.516022298023405,52.25364352948415],[30.531488794561124,52.26554083451268],[30.52197095053798,52.28219706155323],[30.52197095053798,52.290525175074436],[30.49698660997623,52.30004301909776],[30.506504454000172,52.31075059362319],[30.53981690808144,52.31788897664228],[30.531488794561124,52.32383762915561],[30.48984822695874,52.33216574267682],[30.464863886397875,52.32978628166983],[30.429171971310776,52.339304125693154],[30.431551432316606,52.359529544242804],[30.353029219123496,52.40117011184519],[30.348270297111924,52.42734418290914],[30.350649758117665,52.44756960145879],[30.297111885487105,52.47850259453476],[30.287594041463162,52.509435587611705],[30.23524589933543,52.53560965867567],[30.24000482134709,52.54750696370411],[30.256661048387723,52.5498864247102],[30.253091856878978,52.55940426873352],[30.20193344525345,52.56773238225286],[30.193605331733043,52.586768070299506],[30.176949104692497,52.584388609295274],[30.155533955640202,52.580819417786174],[30.13054961507854,52.59033726180861],[30.086529586471123,52.63792648192521],[30.105565274517588,52.66410055298908],[30.088909047476953,52.668859475002165],[30.02585333082236,52.667669744498184],[29.963987344670684,52.677187588521505],[29.937813273606817,52.70931031210057],[29.94257219561839,52.750950879702955],[29.918777585559642,52.76046872372628],[29.892603514495775,52.76046872372628],[29.877137017958056,52.74857141869597],[29.85810132991079,52.70455139008935],[29.82478887582961,52.68908489355092],[29.81527103180638,52.660531361480956],[29.787092044524577,52.65307351379212],[29.759728242957085,52.65307351379212],[29.741882285413535,52.6804373153582],[29.721656866864155,52.69947300340484],[29.766866625974487,52.70423192541605],[29.815645576594275,52.71493949994327],[29.848958030675455,52.743493032012346],[29.833491534137735,52.77918494709954],[29.844199108663883,52.8113076706786],[29.823973690114503,52.86722500431641],[29.825163420617418,52.90529638040881],[29.79185096653615,52.93147045147268],[29.775194739494804,52.969541827566935],[29.76329743446574,52.98024940209237],[29.77162554798606,52.992146707121705],[29.7180876753555,53.08375595584582],[29.66454980272414,53.0825662253437],[29.65146276719216,53.094463530372224],[29.65622168920382,53.11111975741464],[29.706190370325725,53.1289657149573],[29.675257377250286,53.148001403003946],[29.659790880712567,53.17774466557691],[29.602683816572462,53.19083170110844],[29.566991901484563,53.19321116211445],[29.550335674444018,53.226523616195635],[29.558663787964335,53.24317984323804],[29.5907865115434,53.24317984323804],[29.637186001156557,53.2241441551914],[29.625288696127583,53.27530256681533],[29.622909235121753,53.31575340391551],[29.602683816572462,53.34311720548158],[29.62052977411601,53.362152893528226],[29.625288696127583,53.38832696459307],[29.61101193009269,53.42044968817116],[29.574130284502054,53.445434028733],[29.543197291426527,53.451382681248106],[29.507505376339516,53.452572411750225],[29.52416160338015,53.48707459633529],[29.561043248970165,53.51443839790225],[29.574130284502054,53.532284355445],[29.558663787964335,53.54656112148043],[29.5739540281314,53.554654226506486],[29.59893836869315,53.54751584348926],[29.6524762413238,53.55703368751258],[29.661994085346944,53.57131045354711],[29.684598964902865,53.57844883656434],[29.692927078423182,53.58677695008555],[29.684598964902865,53.60224344662397],[29.661994085346944,53.62008940416673],[29.678650312388378,53.622468865172735],[29.682219503897123,53.63079697869394],[29.682219503897123,53.64388401422458],[29.709583305463816,53.660540241267],[29.694116808926097,53.68433485132388],[29.682219503897123,53.71645757490295],[29.626302170259933,53.71645757490295],[29.588230794166293,53.73787272395657],[29.559677262096596,53.75452895099711],[29.54540049606179,53.774754369545875],[29.539451843547305,53.79854897960374],[29.554918340085024,53.80568736262104],[29.58347187215472,53.81163601513616],[29.639389205791822,53.783082483067076],[29.657235163335372,53.7866516745744],[29.669132468365145,53.79497978809561],[29.642958397300568,53.81401547614225],[29.613215134727955,53.824723050667686],[29.628681631265675,53.842569008212216],[29.641768666797653,53.860414965755766],[29.628681631265675,53.86993280977909],[29.610835673722214,53.86517388776796],[29.58109241114889,53.86517388776796],[29.55134914857628,53.859225235252765],[29.513277772482727,53.87112254028307],[29.48472424041303,53.88301984531062],[29.440704211804903,53.87945065380241],[29.438324750799072,53.905624724866364],[29.441893942307818,53.924660412913006],[29.453614990966226,53.94466551099865],[29.49882475007727,53.96132173804106],[29.532137204158538,53.95775254653196],[29.558311275223204,53.97797796508169],[29.535706395667283,53.99225473111525],[29.555931814217374,54.005341766647675],[29.571398310755093,54.03746449022674],[29.584485346286982,54.079105057829125],[29.540465317678855,54.088622901852446],[29.497635019574354,54.10765858989909],[29.48097879253372,54.13859158297417],[29.46789175700103,54.14454023548839],[29.46551229599529,54.157627271020814],[29.48335825353955,54.170714306553236],[29.476219870522147,54.18974999459988],[29.44528687744591,54.1968883776171],[29.43219984191402,54.22068298767496],[29.444097146942994,54.23733921471737],[29.390559274311634,54.25994409427223],[29.341780323692646,54.236149484213485],[29.32036517463964,54.240908406225586],[29.294191103575862,54.26232355527735],[29.276345146032313,54.26946193829555],[29.25136080547056,54.25399544175801],[29.22875592591544,54.24804678924281],[29.182356436301482,54.26113382477435],[29.14428506020864,54.243287867231594],[29.10383422310917,54.251615980751026],[29.057434733496013,54.238528945219485],[29.069332038525076,54.26113382477435],[29.08360880455988,54.27422086030677],[29.06576284701633,54.308723044891835],[29.046727158969066,54.3289484634406],[28.98248171181156,54.36464037852876],[28.930133569683914,54.36464037852876],[28.89563138509893,54.40271175462205],[28.89801084610476,54.41579879015447],[28.89087246308736,54.43483447820111],[28.917046534152025,54.450300974737765],[28.947979527227464,54.459818818761086],[28.98049882764039,54.4790527952255],[29.00310370719551,54.50740803887858],[28.990016671663533,54.538341031953664],[29.00072424618968,54.546669145473984],[28.993585863172278,54.56213564201241],[29.006672898704167,54.57641240804695],[28.99596532417811,54.58711998257425],[28.98763721065779,54.60496594011691],[28.945996643056205,54.613294053638114],[28.935289068529258,54.62162216715755],[28.94718637355912,54.6466065077193],[28.916253380482882,54.691816266830784],[28.91387391947705,54.704903302362226],[28.941237721044633,54.74059521745039],[28.887699848413185,54.75844117499305],[28.871150312154004,54.788290193173495],[28.829509744552595,54.791859384680734],[28.79619729047035,54.79423884568594],[28.767643758400563,54.791859384680734],[28.759315644880513,54.80375668970926],[28.766454027898003,54.81327453373258],[28.74384914834235,54.81684372524257],[28.706967502751713,54.81446426423558],[28.678413970681927,54.81089507272738],[28.64748097760622,54.81089507272738],[28.655809091126983,54.8227923777559],[28.63796313358299,54.82636156926589],[28.609409601513203,54.81922318624769],[28.579666338940058,54.81208480323046],[28.558251189887674,54.80970534222437],[28.553492267876013,54.81922318624769],[28.555871728881844,54.82993076077402],[28.530887388320448,54.84658698781554],[28.501144125748013,54.840638335300426],[28.507092778262233,54.8204129167507],[28.44641652261347,54.81327453373258],[28.415483529537767,54.82160264725378],[28.413104068531936,54.84658698781554],[28.390499188976282,54.876330250388506],[28.400017032999603,54.89060701642215],[28.417862990543597,54.90369405195547],[28.398827302497043,54.925109201008205],[28.397637571993773,54.94057569754477],[28.42619110406436,54.9643703076045],[28.44641652261347,54.99649303118258],[28.465452210659937,55.01552871922922],[28.515420891782995,55.034564407275866],[28.53683604083529,55.05835901733373],[28.507092778262233,55.06906659186103],[28.47972897669492,55.0892920104089],[28.451175444625132,55.10237904594221],[28.407155416017805,55.11665581197577],[28.38455053646215,55.13212230851518],[28.345289429865772,55.12022500348487],[28.302459131760916,55.12022500348532],[28.247429052225826,55.12308698429659],[28.180804144062577,55.11951779278927],[28.12964573243696,55.09572318272963],[28.08919489533749,55.10167183524483],[27.970221845046595,55.13260482831991],[27.95832454001682,55.14331240284712],[27.94404777398193,55.148071324858336],[27.94404777398193,55.13022536731479],[27.925012085935464,55.12308698429659],[27.904786667386173,55.08501560820419],[27.84173095073158,55.065979920157545],[27.817936340672833,55.079066955689086],[27.787003347597306,55.09215399122151],[27.7655881985451,55.06122099814633],[27.751311432510295,55.02671881356126],[27.76320873753927,55.02433935255516],[27.776295773071247,55.000544742497304],[27.777485503574162,54.97080147992433],[27.771536851059587,54.93035064282505],[27.776295773071247,54.90893549377319],[27.73227574446312,54.88871007522266],[27.75250116301312,54.847069507620276],[27.74774224100155,54.81494678404299],[27.746552510498724,54.80185974851065],[27.717998978428227,54.80304947901277],[27.701342751387593,54.79472136549334],[27.67159948881427,54.775685677446695],[27.652563800767894,54.775685677446695],[27.638287034733,54.78044459945791],[27.619251346686625,54.78758298247523],[27.5466777860088,54.73523484034642],[27.550246977517546,54.72214780481498],[27.534780480979826,54.70906076928256],[27.538349672488483,54.69478400324802],[27.522883175949964,54.670989393189274],[27.538349672488483,54.655522896650844],[27.543108594500055,54.62934882558689],[27.553816169026202,54.63767693910809],[27.571662126569752,54.64005640011419],[27.628769190709768,54.62458990357567],[27.638287034733,54.611502868043246],[27.65375353127072,54.605554215529025],[27.65851245328238,54.57819041396304],[27.672789219317185,54.56391364792664],[27.65613299227655,54.53179092434767],[27.596646467130704,54.50085793127249],[27.550246977517546,54.50085793127249],[27.53359075047691,54.49490927875827],[27.56214428254652,54.47587359071075],[27.591887545119132,54.459217363670106],[27.581179970592984,54.447320058640784],[27.53597021148274,54.441371406127445],[27.51336533192673,54.415197335063496],[27.500278296394843,54.372367036957215],[27.49076045237161,54.33905458287603],[27.51098587092099,54.315259972818176],[27.514555062429647,54.274809135717994],[27.500278296394843,54.27005021370766],[27.494329643880356,54.24268641213982],[27.515744792932562,54.23911722063072],[27.530021558967366,54.220081532584075],[27.537159941985678,54.1784409649844],[27.489570721868695,54.162974468445036],[27.415807430688044,54.1486977024105],[27.388443629120463,54.133231205872065],[27.38130524610315,54.10943659581332],[27.337285217495733,54.101108482293895],[27.339664678501563,54.11776470933452],[27.275419231344056,54.11181605681942],[27.268280848326654,54.09040090776757],[27.234968394244586,54.08802144676156],[27.234968394244586,54.09515982977878],[27.214742975695295,54.09397009927489],[27.21593270619821,54.10824686531032],[27.12432345747392,54.10348794329821],[27.133841301497153,54.12966201436386],[27.149307798034872,54.13917985838718],[27.148118067531957,54.15464635492383],[27.130272109988496,54.149887432912706],[27.11361588294786,54.132041475368176],[27.026765556234434,54.132041475368176],[27.01248879019954,54.11062632631722],[26.970848222597244,54.10348794329821],[26.975607144609704,54.08921117726368],[26.94110496002472,54.04757060966129],[26.92325900248117,54.01306842507799],[26.917310349966684,53.984514893008026],[26.836408675768542,53.984514893008026],[26.766214576096548,53.978566240492924],[26.767404306599463,54.00355058105467],[26.810234604703965,54.00593004206068],[26.837598406271457,53.99879165904168],[26.866151938341154,54.00355058105467],[26.810234604703965,54.02615546061041],[26.825701101241684,54.03805276563797],[26.853064902809177,54.04757060966129],[26.841167597780114,54.065416567205816],[26.817372987721367,54.059467914691595],[26.77335295911395,54.065416567205816],[26.799527030177817,54.07731387223426],[26.810234604703965,54.0963495602809],[26.78643999464584,54.1046776738021],[26.76502484559372,54.09753929078488],[26.73528158302031,54.122523631344855],[26.718625355979675,54.101108482293895],[26.675795057874463,54.09159063826968],[26.66151829183957,54.11062632631722],[26.640103142787453,54.1046776738021],[26.647241525804766,54.08326252474946],[26.606790688705384,54.07612414173214],[26.616308532728617,54.054708992680375],[26.656759369828,54.053519262176394],[26.6638977528454,54.02020680809522],[26.636533951278707,54.015447886084004],[26.61035988021413,54.00949923356801],[26.665087483348316,53.976186779486824],[26.64605179530185,53.94168459490175],[26.616308532728617,53.92502836786112],[26.599652305687982,53.85602399869186],[26.62344691574682,53.86435211221307],[26.6638977528454,53.838178041149106],[26.685312901897696,53.817952622598575],[26.638913412284538,53.81081423958126],[26.64367233429611,53.7810709770083],[26.616308532728617,53.75965582795742],[26.65081071731351,53.7441893314189],[26.662708022342485,53.73110229588657],[26.65913883083383,53.681133614763866],[26.67698478837738,53.66209792671811],[26.665087483348316,53.62997520313905],[26.65913883083383,53.600231940565195],[26.673415596868633,53.57881679151343],[26.647241525804766,53.589524366038866],[26.64367233429611,53.595473018553974],[26.61868799373436,53.606180593080296],[26.61035988021413,53.596662749056975],[26.573478234624115,53.60142167106908],[26.55444254657774,53.593093557547874],[26.535406858530475,53.584765444028534],[26.522319822998586,53.56335029497589],[26.472351141875883,53.56454002547791],[26.44498734030919,53.57405786950123],[26.403346772706804,53.57881679151343],[26.392639198180657,53.56929894749011],[26.372413779631366,53.56216056447279],[26.35099863057907,53.57167840849611],[26.35099863057907,53.580006522015545],[26.31292725448543,53.606180593080296],[26.271286686883933,53.624026550624826],[26.234405041293208,53.6478211606818],[26.195143934696652,53.66090819621422],[26.186815821176335,53.678754153758746],[26.191574743187907,53.689461728284186],[26.182056899164674,53.710876877337725],[26.1630212111183,53.73586121789769],[26.133277948545775,53.7441893314189],[26.123760104521743,53.757276366951324],[26.083309267423072,53.746568792424995],[26.029771394791712,53.76917367198074],[26.025012472780052,53.77869151600406],[25.994079479704702,53.7822607075113],[25.98218217467484,53.80129639555794],[25.932213493552936,53.821521814108564],[25.919126458020248,53.81081423958126],[25.909608613997104,53.81676289209646],[25.915557266511502,53.8274704666219],[25.865588585389688,53.84769588517243],[25.85012208885197,53.84412669366422],[25.860829663378027,53.83698831064522],[25.85488101086354,53.829849927627905],[25.820378826278557,53.838178041149106],[25.8168096347699,53.84888561567455],[25.800153407729265,53.85483426818975],[25.79420475521478,53.84769588517243],[25.74304634358925,53.85007534617755],[25.724010655542784,53.86197265120697],[25.73828742157759,53.88457753076271],[25.672852243917255,53.904802949311474],[25.64310898134473,53.90004402730114],[25.644298711847558,53.87862887824751],[25.66928305240851,53.85959319020087],[25.644298711847558,53.84650615466854],[25.620504101788722,53.84412669366422],[25.632401406817785,53.835798580143106],[25.619314371285896,53.82509100561758],[25.589571108713283,53.831039658131886],[25.58243272569588,53.82033208360458],[25.58481218670171,53.81438343109125],[25.608606796759748,53.808434778575254],[25.619314371285896,53.80248612606192],[25.646678172853388,53.79415801254072],[25.630021945811954,53.77036340248286],[25.6335911373207,53.746568792424995],[25.622883562794552,53.72753310437835],[25.60027868323943,53.701359033314404],[25.54198188859641,53.66328765722022],[25.514618087029717,53.61926762861184],[25.520566739544204,53.60261140157129],[25.55382003484422,53.59573018856557],[25.588322219429116,53.582643153033146],[25.572855722891397,53.55289989046018],[25.555009765347048,53.53029501090533],[25.590701680434947,53.49222363481293],[25.6228244040133,53.46604956374907],[25.608547637978496,53.41727061312936],[25.596650332949434,53.38752735055551],[25.609737368481323,53.35778408798254],[25.645429283569133,53.3363689389298],[25.69182877318238,53.33279974742257],[25.728710418773105,53.31852298138617],[25.78819694391895,53.300677023843505],[25.822699128503135,53.284020796802864],[25.80128397945093,53.23881103769058],[25.778679099895008,53.22453427165604],[25.756074220339798,53.204308853107285],[25.722761766258618,53.192411548076976],[25.7072952697201,53.17218612952822],[25.72990014927602,53.15315044148158],[25.728710418773105,53.13768394494306],[25.772730447380432,53.09961256885075],[25.697777425696867,53.02109035565719],[25.75012556782531,52.984208710066916],[25.867908887614178,52.912824879892455],[25.891703497672214,52.902117305367014],[25.90835972471285,52.85333835474741],[25.907169994209934,52.823595092174436],[25.92025702974191,52.730796112946344],[25.921446760245626,52.715329616408354],[25.863149965602606,52.68677608433795],[25.804853170959586,52.64870470824555],[25.756074220339798,52.63918686422223],[25.710864461229555,52.6260998286907],[25.681121198656232,52.6284792896968],[25.654947127592365,52.634427942210124],[25.609737368481323,52.62728955919282],[25.593081141440777,52.61896144567348],[25.612116829487153,52.596356566117734],[25.555009765347048,52.56661330354379],[25.522887041768783,52.57137222555589],[25.505041084225144,52.56423384253867],[25.47529782165182,52.54519815449203],[25.481246474166397,52.51664462242206],[25.477677282657652,52.49879866487753],[25.502661623219403,52.48690135984909],[25.535974077300672,52.436932678727274],[25.568096800879026,52.39648184162709],[25.579861913630076,52.388021535828585],[25.684558197887053,52.3915907273376],[25.736906340015498,52.37493450029616],[25.760700950073534,52.36303719526862],[25.76189068057645,52.347570698730095],[25.74166526202707,52.30474040062559],[25.734526879009668,52.29522255660227],[25.709542538448005,52.252392258495995],[25.67028143185216,52.25001279749176],[25.658384126823186,52.24168468397056],[25.66552250984059,52.222648995923024],[25.68574792838988,52.205992768882396],[25.715491190962492,52.197664655363056],[25.70359388593343,52.188146811339735],[25.6595738573261,52.19409546385306],[25.59413867966568,52.22145926542091],[25.557257034074954,52.20480303838028],[25.588190027151192,52.19290573335095],[25.58343110513882,52.17624950631031],[25.631020325255605,52.15483435725855],[25.570344069606843,52.12390136418249],[25.55606730357204,52.07869160507109],[25.534652154519833,52.083450527082306],[25.529893232508172,52.07750187456898],[25.553687842566298,52.05608672551535],[25.57629272212133,52.038240767972596],[25.58105164413299,52.02039481042807],[25.551308381560467,51.98827208684909],[25.557257034074954,51.97637478181968],[25.566774878098187,51.971615859808466],[25.557257034074954,51.95495963276792],[25.533462424016918,51.935923944721274],[25.506098622449336,51.91688825667463],[25.48468347339722,51.8990422991301],[25.454940210824606,51.891903916112796],[25.385935841655527,51.890714185610676],[25.32406985550385,51.885955263599456],[25.28361901840438,51.880006611084355],[25.24453698030945,51.874144305369526],[25.24258590794445,51.78800724589382],[25.233068063921127,51.7761099408644],[25.217601567383408,51.771351018853274],[25.212842645371836,51.74517694778932],[25.19618641833129,51.72019260722757],[25.19380695732546,51.70829530219815],[25.218791297886323,51.68688015314639],[25.225929680903814,51.651188238059106],[25.288985397558317,51.59289144341618],[25.375835724270946,51.55125087581379],[25.444840093440025,51.54054330128835],[25.48410120003658,51.55125087581379],[25.509085540597532,51.57861467738164],[25.54001853367297,51.559578989334995],[25.60307425032765,51.569096833358316],[25.607833172339223,51.59646063492439],[25.58879748429276,51.60954767045681],[25.614971555356625,51.61668605347404],[25.614971555356625,51.630962819508575],[25.65185320094735,51.62501416699524],[25.712529456596112,51.63810120252678],[25.72085757011643,51.62263470598914],[25.712529456596112,51.6059784789486],[25.697062960058393,51.5976503654274],[25.7184781091106,51.56790710285443],[25.841020350911126,51.58337359939286],[25.912404181086035,51.59289144341618],[25.956424209693363,51.59527090442228],[25.92430148611501,51.584563329894976],[25.912404181086035,51.563148180843214],[25.907645259074375,51.54173303179047],[25.936198791143983,51.54054330128835],[25.965942053716596,51.52983572676114],[26.014721004336295,51.61430659246794],[26.057551302441595,51.66189581258455],[26.113468636078785,51.66546500409365],[26.18366273575078,51.66189581258455],[26.2062676153059,51.67260338711096],[26.243149260895827,51.67379311761485],[26.283600097995297,51.652377968561225],[26.341901355993503,51.66889665832758],[26.354983928170117,51.67260338711096],[26.360932580684693,51.69401853616361],[26.401383417784164,51.735659103766],[26.42279856683637,51.74636667829144],[26.45611102091764,51.7844380543856],[26.548910000145554,51.77967913237448],[26.622673291326205,51.77967913237448],[26.64170897937267,51.75826398332174],[26.739266880611446,51.75945371382386],[26.85586046989731,51.7416077562812],[26.88798319347646,51.72495152923878],[26.917726456048985,51.69401853616361],[26.90820861202584,51.66546500409365],[26.893931845991037,51.636911472024664],[26.90820861202584,51.62382443649126],[26.92129564755773,51.62382443649126],[26.924864839066476,51.636911472024664],[26.972454059183526,51.646429316047005],[26.96295824720635,51.62586240077961],[26.999839892796274,51.59849859921265],[27.014116658831256,51.58660129418243],[27.028393424866238,51.55447857060514],[27.072413453474365,51.53901207406672],[27.133089709123126,51.517596925013976],[27.159263780187526,51.498561236966445],[27.165212432701836,51.46286932187925],[27.18662758175431,51.43431578980929],[27.230647610361725,51.416469832265655],[27.275857369473123,51.40933144924834],[27.27979187895685,51.40878498959821],[27.318687667578068,51.40338279673412],[27.348430930150503,51.412900640756554],[27.36627688769423,51.436695250815305],[27.422194221331775,51.425987676289864],[27.507854817540956,51.45930013037105],[27.492388321003503,51.48428447093279],[27.48406020748292,51.50926881149375],[27.45669640591605,51.53782234356371],[27.461455327927265,51.55566830110637],[27.459075866921612,51.56875533663968],[27.57685918671039,51.57708345015911],[27.624448406827263,51.56994506714268],[27.644673825376554,51.55923749261547],[27.64348409487346,51.53901207406672],[27.660140321914717,51.516407194510975],[27.699401428511006,51.49380231495523],[27.724385769072224,51.47119743539949],[27.744611187621516,51.47595635741257],[27.750559840135825,51.514027733504875],[27.762457145165243,51.53901207406672],[27.795769599246423,51.54496072658094],[27.80766690427584,51.55923749261547],[27.78744148572655,51.57589371965602],[27.804097712767096,51.590170485692425],[27.814805287293332,51.60801644323509],[27.842169088860114,51.62110347876839],[27.856445854895185,51.61515482625239],[27.869532890427784,51.60801644323509],[27.902845344508876,51.60920617373809],[27.91831184104704,51.56756560613668],[28.101530338495618,51.57708345015911],[28.119376296039345,51.61158563474507],[28.16220659414438,51.62824186178473],[28.180052551688107,51.65084674134047],[28.21455473627318,51.657985124357786],[28.23478015482256,51.67583108190232],[28.258574764880596,51.673451620896216],[28.244297998845614,51.634190514299036],[28.25619530387503,51.61991374826539],[28.291887218962486,51.61991374826539],[28.350184013604885,51.56875533663968],[28.354942935616812,51.53782234356371],[28.382306737183594,51.55328884010125],[28.4334651488093,51.56756560613668],[28.48581329093739,51.597308868709646],[28.50484897898421,51.592549946698426],[28.57742253966239,51.60087806021786],[28.5833711921767,51.61991374826539],[28.614304185252315,51.61753428725929],[28.620252837766625,51.60325752122387],[28.661893405369188,51.585411563679344],[28.71662100850284,51.58660129418243],[28.708292894982968,51.54971964859215],[28.682118823918568,51.504509889482534],[28.71067235598853,51.48190500992679],[28.70948262548535,51.46405905238226],[28.71543127800046,51.44740282534261],[28.739225888058495,51.44740282534261],[28.765399959122895,51.46167959137714],[28.778486994654696,51.41409037125956],[28.79633295219851,51.425987676289864],[28.811799448736586,51.45097201684984],[28.792763760689677,51.47833581841857],[28.80823025722784,51.52473530803129],[28.823696753765294,51.5330634215525],[28.837973519800276,51.55685803160938],[28.870096243378985,51.56161695362246],[28.91887519399833,51.584221833176336],[28.993828215682072,51.58779102468544],[28.993828215682072,51.5747039891539],[29.0247612087584,51.5747039891539],[29.030709861272708,51.591360216195426],[29.041417435798945,51.588980755189326],[29.07829908138958,51.61515482625239],[29.108042343962016,51.61753428725929],[29.1032834219508,51.63181105329383],[29.113990996477124,51.660364585363794],[29.13778560653516,51.66750296838111],[29.173477521622704,51.68534892592466],[29.182334404255517,51.664726930540354],[29.203749553307812,51.64926043400369],[29.21921604984553,51.64926043400369],[29.2096982058223,51.62903501545316],[29.193041978781665,51.6076198664014],[29.215646858336786,51.592153369862885],[29.220405780348447,51.5624101072908],[29.28584095800878,51.5540819937696],[29.289410149517526,51.53623603622694],[29.302497185049415,51.511251695665095],[29.277512844488463,51.48864681610935],[29.322722603599505,51.443437056998846],[29.33699936963431,51.38157107084681],[29.383398859248267,51.40298621990044]]]]}},{"type":"Feature","properties":{"kind":"district","id":"uyezd-1897-193","name":"Новогрудский","provinceId":"gubernia-1897-71"},"geometry":{"type":"MultiPolygon","coordinates":[[[[26.212175916031544,52.839630965597266],[26.15030992988049,52.84676934861547],[26.134843433342503,52.86342557565601],[26.13603316384542,52.89078937722297],[26.128894780827927,52.92053263979594],[26.128894780827927,52.93242994482536],[26.153879121389235,52.95741428538622],[26.13603316384542,52.974070512427744],[26.088443943728635,52.982398625947965],[26.081305560711055,52.99905485298861],[26.105100170769536,53.03950569008789],[26.126515319822097,53.04188515109399],[26.156258582395065,53.052592725620315],[26.17886346195054,53.04426461210009],[26.202658072008134,53.04426461210009],[26.23240133458119,53.08233598819338],[26.320441391797267,53.08471544919938],[26.34661546286149,53.10256140674302],[26.403722527000884,53.10375113724602],[26.444173364100177,53.11445871177235],[26.469157704661484,53.139443052333306],[26.50603935025203,53.16204793188896],[26.526264768801678,53.16442739289319],[26.532213421316253,53.19060146395892],[26.521505846790017,53.20011930798224],[26.519126385784187,53.21320634351289],[26.536972343328003,53.225103648542216],[26.55719776187685,53.21677553502199],[26.62501240054328,53.220344726530115],[26.66903242915132,53.25246745010918],[26.660704315630912,53.25841610262428],[26.649996741104587,53.28934909569946],[26.62977132255494,53.303625861734886],[26.628581592052026,53.32266154978153],[26.651186471607502,53.34526642933727],[26.63690970557243,53.34764589034327],[26.63690970557243,53.365491847886915],[26.66665296814549,53.370250769898135],[26.646427549595842,53.38809672744266],[26.66903242915132,53.4047529544832],[26.660704315630912,53.441634600073485],[26.677360542671725,53.47970597616588],[26.647617280098757,53.50588004722975],[26.60121779048489,53.51539789125307],[26.563146414391426,53.54395142332304],[26.539351804333833,53.54633088432913],[26.522319822998455,53.56335029497494],[26.47235114187584,53.564540025477946],[26.444987340309147,53.57405786950127],[26.40334677270676,53.57881679151346],[26.392639198180614,53.56929894749014],[26.372413779631323,53.562160564472826],[26.350998630579028,53.57167840849615],[26.350998630579028,53.58000652201558],[26.312927254485388,53.60618059308033],[26.27128668688389,53.62402655062486],[26.234405041293165,53.64782116068183],[26.19514393469661,53.66090819621425],[26.186815821176292,53.678754153758774],[26.191574743187864,53.689461728284215],[26.182056899164632,53.71087687733775],[26.163021211118256,53.73586121789773],[26.133277948545732,53.74418933141894],[26.1237601045217,53.75727636695136],[26.08330926742303,53.74656879242503],[26.02977139479167,53.769173671980774],[26.02501247278001,53.778691516004095],[25.99407947970466,53.78226070751133],[25.982182174674797,53.80129639555797],[25.932213493552894,53.82152181410859],[25.919126458020205,53.81081423958129],[25.90960861399706,53.81676289209649],[25.91555726651146,53.82747046662193],[25.865588585389645,53.84769588517246],[25.850122088851926,53.84412669366425],[25.860829663377984,53.83698831064525],[25.854881010863497,53.82984992762793],[25.820378826278514,53.83817804114914],[25.816809634769857,53.848885615674575],[25.800153407729223,53.85483426818978],[25.794204755214736,53.84769588517246],[25.743046343589207,53.85007534617758],[25.72401065554274,53.861972651207],[25.738287421577546,53.88457753076274],[25.672852243917212,53.9048029493115],[25.64310898134469,53.90004402730118],[25.644298711847515,53.87862887824755],[25.669283052408467,53.859593190200904],[25.644298711847515,53.846506154668575],[25.62050410178868,53.84412669366425],[25.632401406817742,53.835798580143134],[25.619314371285853,53.82509100561761],[25.58957110871324,53.831039658131914],[25.58243272569584,53.82033208360461],[25.58481218670167,53.81438343109129],[25.608606796759705,53.80843477857529],[25.619314371285853,53.80248612606195],[25.646678172853346,53.79415801254075],[25.63002194581191,53.770363402482886],[25.633591137320657,53.74656879242503],[25.62288356279451,53.72753310437839],[25.600278683239388,53.70135903331443],[25.541981888596368,53.66328765722026],[25.514618087029675,53.619267628611865],[25.52056673954416,53.60261140157123],[25.55382003484422,53.59573018856557],[25.588322219429116,53.582643153033146],[25.572855722891397,53.55289989046018],[25.555009765347048,53.53029501090533],[25.590701680434947,53.49222363481293],[25.6228244040133,53.46604956374907],[25.608547637978496,53.41727061312936],[25.596650332949434,53.38752735055551],[25.609737368481323,53.35778408798254],[25.645429283569133,53.3363689389298],[25.69182877318238,53.33279974742257],[25.728710418773105,53.31852298138617],[25.78819694391895,53.300677023843505],[25.822699128503135,53.284020796802864],[25.80128397945093,53.23881103769058],[25.778679099895008,53.22453427165604],[25.756074220339798,53.204308853107285],[25.722761766258618,53.192411548076976],[25.7072952697201,53.17218612952822],[25.72990014927602,53.15315044148158],[25.728710418773105,53.13768394494306],[25.772730447380432,53.09961256885075],[25.697777425696867,53.02109035565719],[25.75012556782531,52.984208710066916],[25.867908887614178,52.912824879892455],[25.891703497672214,52.902117305367014],[25.90835972471285,52.85333835474741],[25.907169994209934,52.823595092174436],[25.92025702974191,52.730796112946344],[25.921446760245537,52.715329616407914],[25.930209786841008,52.73017575933049],[25.93496870885267,52.75278063888614],[25.950435205390654,52.77538551844011],[25.983747659472456,52.78847255397342],[26.01230119154171,52.79680066749276],[26.07535690819648,52.8122671640303],[26.16458669591547,52.830113121573945],[26.212175916031544,52.839630965597266]]]]}},{"type":"Feature","properties":{"kind":"district","id":"uyezd-1897-194","name":"Пинский","provinceId":"gubernia-1897-71"},"geometry":{"type":"MultiPolygon","coordinates":[[[[25.921446760245537,52.715329616407914],[25.863149965602606,52.68677608433795],[25.804853170959586,52.64870470824555],[25.756074220339798,52.63918686422223],[25.710864461229555,52.6260998286907],[25.681121198656232,52.6284792896968],[25.654947127592365,52.634427942210124],[25.609737368481323,52.62728955919282],[25.593081141440777,52.61896144567348],[25.612116829487153,52.596356566117734],[25.555009765347048,52.56661330354379],[25.522887041768783,52.57137222555589],[25.505041084225144,52.56423384253867],[25.47529782165182,52.54519815449203],[25.481246474166397,52.51664462242206],[25.477677282657652,52.49879866487753],[25.502661623219403,52.48690135984909],[25.535974077300672,52.436932678727274],[25.568096800879026,52.39648184162709],[25.579861913630076,52.388021535828585],[25.684558197887053,52.3915907273376],[25.736906340015498,52.37493450029616],[25.760700950073534,52.36303719526862],[25.76189068057645,52.347570698730095],[25.74166526202707,52.30474040062559],[25.734526879009668,52.29522255660227],[25.709542538448005,52.252392258495995],[25.67028143185216,52.25001279749176],[25.658384126823186,52.24168468397056],[25.66552250984059,52.222648995923024],[25.68574792838988,52.205992768882396],[25.715491190962492,52.197664655363056],[25.70359388593343,52.188146811339735],[25.6595738573261,52.19409546385306],[25.59413867966568,52.22145926542091],[25.557257034074954,52.20480303838028],[25.588190027151192,52.19290573335095],[25.58343110513882,52.17624950631031],[25.631020325255605,52.15483435725855],[25.570344069606843,52.12390136418249],[25.55606730357204,52.07869160507109],[25.534652154519833,52.083450527082306],[25.529893232508172,52.07750187456898],[25.553687842566298,52.05608672551535],[25.57629272212133,52.038240767972596],[25.58105164413299,52.02039481042807],[25.551308381560467,51.98827208684909],[25.557257034074954,51.97637478181968],[25.566774878098187,51.971615859808466],[25.557257034074954,51.95495963276792],[25.533462424016918,51.935923944721274],[25.506098622449336,51.91688825667463],[25.48468347339722,51.8990422991301],[25.454940210824606,51.891903916112796],[25.385935841655527,51.890714185610676],[25.32406985550385,51.885955263599456],[25.28361901840438,51.880006611084355],[25.24453698030945,51.874144305369526],[25.24258590794445,51.78800724589382],[25.233068063921127,51.7761099408644],[25.217601567383408,51.771351018853274],[25.212842645371836,51.74517694778932],[25.19618641833129,51.72019260722757],[25.19380695732546,51.70829530219815],[25.218791297886323,51.68688015314639],[25.225929680903814,51.651188238059106],[25.288985397558317,51.59289144341618],[25.375835724270946,51.55125087581379],[25.444840093440025,51.54054330128835],[25.48410120003658,51.55125087581379],[25.509085540597532,51.57861467738164],[25.54001853367297,51.559578989334995],[25.60307425032765,51.569096833358316],[25.607833172339223,51.59646063492439],[25.58879748429276,51.60954767045681],[25.614971555356625,51.61668605347404],[25.614971555356625,51.630962819508575],[25.65185320094735,51.62501416699524],[25.712529456596112,51.63810120252678],[25.72085757011643,51.62263470598914],[25.712529456596112,51.6059784789486],[25.697062960058393,51.5976503654274],[25.7184781091106,51.56790710285443],[25.841020350911126,51.58337359939286],[25.912404181086035,51.59289144341618],[25.956424209693363,51.59527090442228],[25.92430148611501,51.584563329894976],[25.912404181086035,51.563148180843214],[25.907645259074375,51.54173303179047],[25.936198791143983,51.54054330128835],[25.965942053716596,51.52983572676114],[26.014721004336295,51.61430659246794],[26.057551302441595,51.66189581258455],[26.113468636078785,51.66546500409365],[26.18366273575078,51.66189581258455],[26.2062676153059,51.67260338711096],[26.243149260895827,51.67379311761485],[26.283600097995297,51.652377968561225],[26.341901355993514,51.66889665832758],[26.354983928170117,51.67260338711096],[26.360932580684693,51.69401853616361],[26.401383417784164,51.735659103766],[26.42279856683637,51.74636667829144],[26.45611102091764,51.7844380543856],[26.548910000145554,51.77967913237448],[26.622673291326205,51.77967913237448],[26.64170897937267,51.75826398332174],[26.739266880611446,51.75945371382386],[26.85586046989731,51.7416077562812],[26.88798319347646,51.72495152923878],[26.917726456048985,51.69401853616361],[26.90820861202584,51.66546500409365],[26.893931845991037,51.636911472024664],[26.90820861202584,51.62382443649126],[26.92129564755773,51.62382443649126],[26.924864839066476,51.636911472024664],[26.97245405918326,51.646429316047005],[26.991489747229725,51.67855203962518],[26.999817860750042,51.714243954713346],[26.998628130247127,51.74755640879444],[27.01766381829359,51.77373047985839],[27.040268697849513,51.7761099408644],[27.049786541872745,51.795145628911044],[27.09975522299536,51.808232664443466],[27.116411450035994,51.83916565751953],[27.11998064154474,51.879616494617935],[27.06168384690172,51.92601598423153],[27.065253038410464,51.9545695163015],[27.058114655392973,51.97003601283993],[27.075960612936612,51.97717439585724],[27.060494116398804,51.99621008390388],[27.060494116398804,52.018814963459626],[27.080719534948184,52.05450687854682],[27.10451414500702,52.094957715647084],[27.128308755064968,52.12113178671095],[27.112842258527248,52.16634154582057],[27.062873577404634,52.2317767234817],[27.003387052258788,52.29245297912985],[27.01052543527619,52.31029893667437],[27.002197321755872,52.31981678069769],[27.016474087790677,52.34242166025255],[26.98792055572098,52.35550869578488],[26.948659449124513,52.36621627031032],[26.98554109471515,52.44354875300087],[27.003387052258788,52.485189320602366],[26.99907383467951,52.52472714841207],[26.852232526265396,52.542208256557366],[26.807022767154265,52.5636234056101],[26.758243816534566,52.57552071063854],[26.71898270993881,52.58027963265065],[26.71422378792724,52.596935859691285],[26.695188099879974,52.596935859691285],[26.69161890837123,52.60764343421761],[26.60476858165869,52.63857642729367],[26.578594510594822,52.66594022886054],[26.532195020980865,52.65761211533933],[26.498882566899596,52.6885451084154],[26.470329034829188,52.6885451084154],[26.43939604175375,52.67783753388996],[26.392996552139792,52.673078611876875],[26.364443020070183,52.680216994894195],[26.38823763012813,52.72780621501168],[26.339458679508432,52.74565217255621],[26.328751104982285,52.74565217255621],[26.297818111906846,52.756359747081646],[26.24309050877257,52.77777489613341],[26.23595212575517,52.79086193166583],[26.277592693356755,52.79681058418005],[26.306146225427163,52.822984655244014],[26.290679728889444,52.84439980429764],[26.27164404084218,52.83845115178244],[26.26093646631612,52.820605194239775],[26.237141856258084,52.833692229770335],[26.212175916031544,52.839630965597266],[26.16458669591547,52.830113121573945],[26.07535690819648,52.8122671640303],[26.01230119154171,52.79680066749276],[25.983747659472456,52.78847255397342],[25.950435205390654,52.77538551844011],[25.93496870885267,52.75278063888614],[25.930209786841008,52.73017575933049],[25.921446760245537,52.715329616407914]]]]}},{"type":"Feature","properties":{"kind":"district","id":"uyezd-1897-197","name":"Мозырский","provinceId":"gubernia-1897-71"},"geometry":{"type":"MultiPolygon","coordinates":[[[[27.27979187895685,51.40878498959821],[27.318687667578068,51.40338279673412],[27.348430930150503,51.412900640756554],[27.36627688769423,51.436695250815305],[27.422194221331775,51.425987676289864],[27.507854817540956,51.45930013037105],[27.492388321003503,51.48428447093279],[27.48406020748292,51.50926881149375],[27.45669640591605,51.53782234356371],[27.461455327927265,51.55566830110637],[27.459075866921612,51.56875533663968],[27.57685918671039,51.57708345015911],[27.624448406827263,51.56994506714268],[27.644673825376554,51.55923749261547],[27.64348409487346,51.53901207406672],[27.660140321914717,51.516407194510975],[27.699401428511006,51.49380231495523],[27.724385769072224,51.47119743539949],[27.744611187621516,51.47595635741257],[27.750559840135825,51.514027733504875],[27.762457145165243,51.53901207406672],[27.795769599246423,51.54496072658094],[27.80766690427584,51.55923749261547],[27.78744148572655,51.57589371965602],[27.804097712767096,51.590170485692425],[27.814805287293332,51.60801644323509],[27.842169088860114,51.62110347876839],[27.856445854895185,51.61515482625239],[27.869532890427784,51.60801644323509],[27.902845344508876,51.60920617373809],[27.91831184104704,51.56756560613668],[28.101530338495618,51.57708345015911],[28.119376296039345,51.61158563474507],[28.16220659414438,51.62824186178473],[28.180052551688107,51.65084674134047],[28.21455473627318,51.657985124357786],[28.23478015482256,51.67583108190232],[28.258574764880596,51.673451620896216],[28.244297998845614,51.634190514299036],[28.25619530387503,51.61991374826539],[28.291887218962486,51.61991374826539],[28.350184013604885,51.56875533663968],[28.354942935616812,51.53782234356371],[28.382306737183594,51.55328884010125],[28.4334651488093,51.56756560613668],[28.48581329093739,51.597308868709646],[28.50484897898421,51.592549946698426],[28.57742253966239,51.60087806021786],[28.5833711921767,51.61991374826539],[28.614304185252315,51.61753428725929],[28.620252837766625,51.60325752122387],[28.661893405369188,51.585411563679344],[28.71662100850284,51.58660129418243],[28.708292894982968,51.54971964859215],[28.682118823918568,51.504509889482534],[28.71067235598853,51.48190500992679],[28.70948262548535,51.46405905238226],[28.71543127800046,51.44740282534261],[28.739225888058495,51.44740282534261],[28.765399959122895,51.46167959137714],[28.778486994654696,51.41409037125956],[28.79633295219851,51.425987676289864],[28.811799448736586,51.45097201684984],[28.792763760689677,51.47833581841857],[28.80823025722784,51.52473530803129],[28.823696753765294,51.5330634215525],[28.837973519800276,51.55685803160938],[28.870096243378985,51.56161695362246],[28.91887519399833,51.584221833176336],[28.993828215682072,51.58779102468544],[28.993828215682072,51.5747039891539],[29.0247612087584,51.5747039891539],[29.030709861272708,51.591360216195426],[29.041417435798945,51.588980755189326],[29.07829908138958,51.61515482625239],[29.108042343962016,51.61753428725929],[29.1032834219508,51.63181105329383],[29.113990996477124,51.660364585363794],[29.13778560653516,51.66750296838111],[29.173477521622615,51.68534892592466],[29.19013374866325,51.7115229969895],[29.198461862183834,51.76030194760911],[29.22939485525945,51.79361440169029],[29.22820512475627,51.800752784707605],[29.19013374866325,51.818598742252135],[29.204410514698232,51.830496047280576],[29.24248189079125,51.80908089822783],[29.26270730934134,51.81383982023905],[29.287691649902648,51.845962543819],[29.30791706845194,51.862618770858745],[29.338850061527555,51.85785984884753],[29.37335224611254,51.8483420048251],[29.360265210580028,51.87332634538596],[29.353126827562537,51.899500416448944],[29.357885749574375,51.93995125354832],[29.37573170711819,51.970884246624294],[29.366213863095048,51.99229939567704],[29.350747366556885,52.005386431208564],[29.325763025995666,52.041078346295755],[29.37335224611254,52.0636832258515],[29.241292160288868,52.124359481501415],[29.15087264206696,52.141015708541076],[29.10566288295645,52.16600004910194],[29.02595093926078,52.16243085759381],[28.989069293670944,52.18860492865856],[28.96527468361202,52.196933042177996],[28.956946570092146,52.24214280128948],[28.948618456571474,52.25760929782791],[28.864147590864675,52.26355795034213],[28.872475704384637,52.292111482412096],[28.832024867285966,52.352787738061124],[28.81536864024533,52.37777207862199],[28.82012756225655,52.39204884465653],[28.839163250303457,52.40513588018895],[28.870096243378985,52.433689412258914],[28.874855165390912,52.45748402231766],[28.894794167337945,52.46628582483392],[28.892414706332204,52.51268531444654],[28.905501741864093,52.5471874990317],[28.863861174261796,52.535290194002286],[28.83768710319793,52.56027453456412],[28.83768710319793,52.58287941411889],[28.809133571128232,52.56384372607225],[28.77106219503459,52.55789507355803],[28.74845731547956,52.54242857701959],[28.6520891447429,52.53766965500838],[28.520029058919228,52.50078800941898],[28.487906335340874,52.510305853442304],[28.45340415075598,52.522203158471726],[28.429609540697854,52.53766965500838],[28.426040349189197,52.57336157009557],[28.38202032058107,52.595966449651314],[28.34632840549397,52.58168968361677],[28.29041107185678,52.604294563172516],[28.222596433190617,52.604294563172516],[28.208319667155813,52.57812049210865],[28.191663440115178,52.55789507355803],[28.14764341150705,52.55313615154681],[28.12741799295767,52.56503345657623],[28.113141226922867,52.56741291758135],[28.063172545800253,52.53291073299627],[27.938250842993984,52.54956696003869],[27.88114377885388,52.591207527639206],[27.824036714714573,52.603104832668535],[27.806190757170313,52.61619186820096],[27.780016686106446,52.62214052071518],[27.755237977978087,52.62073046974915],[27.698130913837982,52.61954073924703],[27.658869807241427,52.60645370371461],[27.63745465818922,52.592176937679184],[27.557742714493994,52.57908990214676],[27.351919337489583,52.5100855329783],[27.16394191802881,52.56005421410012],[27.041399676228373,52.511275263480414],[27.0366407542168,52.524362299012836],[27.00213856963253,52.524362299012836],[26.99907383467951,52.52472714841207],[27.003387052258788,52.485189320602366],[26.98554109471515,52.44354875300087],[26.948659449124513,52.36621627031032],[26.98792055572098,52.35550869578488],[27.016474087790677,52.34242166025255],[27.002197321755872,52.31981678069769],[27.01052543527619,52.31029893667437],[27.003387052258788,52.29245297912985],[27.062873577404634,52.2317767234817],[27.112842258527248,52.16634154582057],[27.128308755064968,52.12113178671095],[27.10451414500702,52.094957715647084],[27.080719534948184,52.05450687854682],[27.060494116398804,52.018814963459626],[27.060494116398804,51.99621008390388],[27.075960612936612,51.97717439585724],[27.058114655392973,51.97003601283993],[27.065253038410464,51.9545695163015],[27.06168384690172,51.92601598423153],[27.11998064154474,51.879616494617935],[27.116411450035994,51.83916565751953],[27.09975522299536,51.808232664443466],[27.049786541872745,51.795145628911044],[27.040268697849513,51.7761099408644],[27.01766381829359,51.77373047985839],[26.998628130247127,51.74755640879444],[26.999817860750042,51.714243954713346],[26.991489747229725,51.67855203962518],[26.97245405918326,51.646429316047005],[26.96295824720635,51.62586240077961],[26.999839892796274,51.59849859921265],[27.014116658831256,51.58660129418243],[27.028393424866238,51.55447857060514],[27.072413453474365,51.53901207406672],[27.133089709123126,51.517596925013976],[27.159263780187526,51.498561236966445],[27.165212432701836,51.46286932187925],[27.18662758175431,51.43431578980929],[27.230647610361725,51.416469832265655],[27.275857369473123,51.40933144924834],[27.27979187895685,51.40878498959821]]]]}},{"type":"Feature","properties":{"kind":"district","id":"uyezd-1897-240","name":"Речицкий","provinceId":"gubernia-1897-71"},"geometry":{"type":"MultiPolygon","coordinates":[[[[30.613580199262092,51.347068886263514],[30.633805617811472,51.360155921794075],[30.630236426302726,51.364914843806176],[30.607631546747694,51.3780018793386],[30.612390468759266,51.39346837587712],[30.623098043285413,51.41012460291766],[30.61120073825635,51.431539751970405],[30.574319092666336,51.439867865489745],[30.574319092666336,51.46842139756059],[30.596923972221546,51.48031870259001],[30.589785589204144,51.501733851641774],[30.567180709648223,51.521959270190536],[30.551714213110504,51.57668687332534],[30.516022298023405,51.594532830869866],[30.51483256752049,51.60643013589742],[30.53029906405821,51.61832744092773],[30.541006638584356,51.64569124249371],[30.51483256752049,51.652829625512794],[30.506504454000172,51.669485852553436],[30.51483256752049,51.68138315758276],[30.54814502160176,51.669485852553436],[30.563611518139478,51.677813966072776],[30.5639278344639,51.686038190499836],[30.564801248642393,51.70874695914883],[30.5933547807128,51.72302372518337],[30.62666723479407,51.75752590976845],[30.615959660267922,51.78369998083231],[30.640944000829673,51.78369998083231],[30.648082383847076,51.79678701636473],[30.648082383847076,51.80868432139415],[30.65997968887614,51.8336686619559],[30.679015376922514,51.85270435000166],[30.684964029437,51.87530922955651],[30.71827648351907,51.88125788207162],[30.732553249553963,51.90862168363947],[30.78133220017366,51.90505249212948],[30.81464465425493,51.92051898866791],[30.788470583191064,51.93360602419944],[30.79203977469981,51.95145198174397],[30.802747349225957,51.971677400293615],[30.79679869671138,51.98714389683027],[30.777763008664206,51.98000551381304],[30.755158129108995,52.00617958487691],[30.74920947659451,52.02283581191932],[30.711138100501667,52.03116392543866],[30.711138100501667,52.04068176946198],[30.731363519051047,52.0478201524793],[30.73612244106262,52.06090718801261],[30.724225136033557,52.06566611002383],[30.70756890899221,52.056148266000505],[30.699240795471805,52.06090718801261],[30.70043052597472,52.07994287605836],[30.699240795471805,52.09421964209379],[30.657600227870308,52.123962904666755],[30.66235914988197,52.13110128768407],[30.683774298934086,52.13229101818618],[30.674256454910942,52.14061913170739],[30.620718582279583,52.14537805371852],[30.5933547807128,52.17512131629246],[30.5862163976954,52.19296727383512],[30.55290394361342,52.204864578865426],[30.564801248642393,52.22271053640818],[30.54219636908727,52.24055649395271],[30.51721202852632,52.23460784143751],[30.516022298023405,52.25364352948415],[30.531488794561124,52.26554083451268],[30.52197095053798,52.28219706155323],[30.52197095053798,52.290525175074436],[30.49698660997623,52.30004301909776],[30.506504454000172,52.31075059362319],[30.53981690808144,52.31788897664228],[30.531488794561124,52.32383762915561],[30.48984822695874,52.33216574267682],[30.464863886397875,52.32978628166983],[30.429171971310776,52.339304125693154],[30.431551432316606,52.359529544242804],[30.353029219123496,52.40117011184519],[30.348270297111924,52.42734418290914],[30.350649758117665,52.44756960145879],[30.297111885487105,52.47850259453476],[30.287594041463162,52.509435587611705],[30.23524589933543,52.53560965867567],[30.24000482134709,52.54750696370411],[30.256661048387723,52.5498864247102],[30.253091856878978,52.55940426873352],[30.20193344525345,52.56773238225286],[30.193605331733043,52.586768070299506],[30.176949104692497,52.584388609295274],[30.155533955640202,52.580819417786174],[30.13054961507854,52.59033726180861],[30.086529586471123,52.63792648192521],[30.105565274517588,52.66410055298908],[30.088909047476953,52.668859475002165],[30.02585333082236,52.667669744498184],[29.963987344670684,52.677187588521505],[29.937813273606817,52.70931031210057],[29.94257219561839,52.750950879702955],[29.918777585559642,52.76046872372628],[29.892603514495775,52.76046872372628],[29.877137017958056,52.74857141869597],[29.85810132991079,52.70455139008935],[29.82478887582961,52.68908489355092],[29.81527103180638,52.660531361480956],[29.787092044524577,52.65307351379212],[29.813266115588444,52.63046863423638],[29.810886654582614,52.61381240719584],[29.79185096653615,52.61024321568585],[29.77876393100346,52.601915102166416],[29.747830937928022,52.59953564115952],[29.721656866864155,52.61024321568585],[29.697862256805408,52.63641728675158],[29.66930872473571,52.64117620876182],[29.614581121601436,52.62927890373249],[29.57056109299331,52.6268994427264],[29.58007893701734,52.606674024178616],[29.533679447403383,52.601915102166416],[29.493228610303913,52.61738159870494],[29.42303451063192,52.606674024178616],[29.393291248059395,52.60786375468073],[29.393291248059395,52.57693076160467],[29.37663502101876,52.55313615154681],[29.375445290515845,52.530531271991066],[29.367117176995528,52.516254505955644],[29.368306907498443,52.47580366885724],[29.325476609393142,52.43416310125485],[29.31357930436417,52.40085064717367],[29.28502577229376,52.40679929968887],[29.255282509721148,52.43178364024875],[29.223159786142084,52.47937286036536],[29.176760296528837,52.51268531444654],[29.144637572949772,52.55670534305502],[29.0970483528337,52.56741291758135],[29.069684551266207,52.587638336131974],[29.047079671710996,52.561464265066235],[29.069684551266207,52.5471874990317],[29.078012664786435,52.523392888973845],[29.06373589875163,52.505546931429315],[29.01019802612027,52.48413178237844],[28.942383387454107,52.47342420785114],[28.894794167337945,52.46628582483392],[28.874855165390912,52.45748402231766],[28.870096243378985,52.433689412258914],[28.839163250303457,52.40513588018895],[28.82012756225655,52.39204884465653],[28.81536864024533,52.37777207862199],[28.832024867285966,52.352787738061124],[28.872475704384637,52.292111482412096],[28.864147590864675,52.26355795034213],[28.948618456571474,52.25760929782791],[28.956946570092146,52.24214280128948],[28.96527468361202,52.196933042177996],[28.989069293670944,52.18860492865856],[29.02595093926078,52.16243085759381],[29.10566288295645,52.16600004910194],[29.15087264206696,52.141015708541076],[29.241292160288868,52.124359481501415],[29.37335224611254,52.0636832258515],[29.325763025995666,52.041078346295755],[29.350747366556885,52.005386431208564],[29.366213863095048,51.99229939567704],[29.37573170711819,51.970884246624294],[29.357885749574375,51.93995125354832],[29.353126827562537,51.899500416448944],[29.360265210580028,51.87332634538596],[29.37335224611254,51.8483420048251],[29.338850061527555,51.85785984884753],[29.30791706845194,51.862618770858745],[29.287691649902648,51.845962543819],[29.26270730934134,51.81383982023905],[29.24248189079125,51.80908089822783],[29.204410514698232,51.830496047280576],[29.19013374866325,51.818598742252135],[29.22820512475627,51.800752784707605],[29.22939485525945,51.79361440169029],[29.198461862183834,51.76030194760911],[29.19013374866325,51.7115229969895],[29.173477521622615,51.68534892592466],[29.182334404255517,51.664726930540354],[29.203749553307812,51.64926043400369],[29.21921604984553,51.64926043400369],[29.2096982058223,51.62903501545316],[29.193041978781665,51.6076198664014],[29.215646858336786,51.592153369862885],[29.220405780348447,51.5624101072908],[29.28584095800878,51.5540819937696],[29.289410149517526,51.53623603622694],[29.302497185049415,51.511251695665095],[29.277512844488463,51.48864681610935],[29.322722603599505,51.443437056998846],[29.33699936963431,51.38157107084681],[29.383398859248267,51.40298621990044],[29.465490263949324,51.39703756738524],[29.496423257024762,51.47199058906881],[29.52973571110683,51.45890355353727],[29.65941633592467,51.517200348179315],[29.722472052578464,51.51839007868241],[29.698677442520427,51.46961112806271],[29.74388720163147,51.438678134987626],[29.796235343759204,51.44224732649673],[29.83311698934993,51.45652409253037],[29.849773216390563,51.47199058906881],[29.874757556952225,51.48388789409725],[29.91401866354798,51.4743700500749],[29.971125727688086,51.486267355103344],[29.99016141573455,51.50292358214389],[30.027043061325276,51.50292358214389],[30.09723716099727,51.49459546862455],[30.134118806587196,51.507682504155994],[30.157913416646032,51.512441426167214],[30.193605331733043,51.49102627711545],[30.232866438329598,51.47318031957092],[30.25785077889064,51.46247274504549],[30.29830161599002,51.44224732649673],[30.326855148059717,51.441057595993726],[30.326855148059717,51.40774514191068],[30.323285956550972,51.36253538280017],[30.34113191409452,51.343499694753525],[30.36254706314744,51.33636131173621],[30.419654127286744,51.31137697117446],[30.452966581368813,51.28401316960848],[30.493417418467484,51.28877209162059],[30.531488794561124,51.2828234391045],[30.55528340461916,51.2828234391045],[30.562421787636563,51.29472074413391],[30.55528340461916,51.32089481519778],[30.57312936216342,51.3304126592211],[30.613580199262092,51.347068886263514]]]]}},{"type":"Feature","properties":{"kind":"district","id":"uyezd-1897-254","name":"Бобруйский","provinceId":"gubernia-1897-71"},"geometry":{"type":"MultiPolygon","coordinates":[[[[29.5739540281314,53.554654226506486],[29.557297801090854,53.57844883656434],[29.491862623430432,53.601053716120084],[29.414530140741036,53.57963856706832],[29.391925261185914,53.580828297570434],[29.37764849515031,53.56774126203801],[29.35742307660102,53.56774126203801],[29.351474424086444,53.55108503499836],[29.385976608670628,53.55227476550047],[29.416909601746866,53.5130136589041],[29.405012296717803,53.49278824035534],[29.331249005537153,53.48921904884624],[29.308644125981143,53.459475786274155],[29.277711132905793,53.458286055770266],[29.215845146754116,53.52610069443652],[29.221793799268603,53.55584395701047],[29.218224607759858,53.57368991455313],[29.195619728204736,53.59986398561708],[29.181342962169932,53.60462290763007],[29.157548352111096,53.57725910606223],[29.119476976018255,53.5594131485177],[29.092113174450763,53.580828297570434],[29.061180181375235,53.57606937556011],[29.070698025398467,53.56774126203801],[29.04214449332877,53.55108503499836],[28.96838120214812,53.54751584348926],[28.93030982605448,53.53799799946594],[28.929120095551564,53.49397797085746],[28.89461791096667,53.48802931834412],[28.84108003833611,53.461855247280255],[28.85654653487383,53.43330171521029],[28.817285428277273,53.394040608614006],[28.78992162671049,53.3857124950928],[28.77802432168143,53.3857124950928],[28.770885938664115,53.37738438157159],[28.758988633635052,53.36786653754827],[28.745901598102364,53.36786653754827],[28.726865910055988,53.363107615537054],[28.720917257541412,53.34883084950252],[28.69355345597463,53.33336435296498],[28.672138306921713,53.35121031050764],[28.63763612233744,53.33217462246197],[28.60670312926129,53.32979516145588],[28.59956474624389,53.36429734604094],[28.61979016479398,53.37381519006426],[28.612651781775778,53.394040608614006],[28.553165256630642,53.394040608614006],[28.52580145506315,53.3797638425776],[28.453227894385325,53.363107615537054],[28.442520319859266,53.3393130054792],[28.42586409281863,53.33098489195799],[28.44133058935635,53.316708125924336],[28.460366277402816,53.306000551398014],[28.42110517080697,53.28339567184138],[28.41158732678374,53.29172378536259],[28.390172177730822,53.29172378536259],[28.373515950690187,53.27506755832204],[28.236696942854856,53.28101621083626],[28.201005027767756,53.27149836681294],[28.162933651674205,53.285775132847476],[28.05466817590937,53.27982648033415],[28.05228871490354,53.23342699071966],[27.90238267153552,53.147766394509766],[27.893246716316245,53.134694047008495],[27.774273666024463,53.0906740184009],[27.783791510047696,53.07520752186247],[27.814724503123134,53.06806913884613],[27.845657496199372,53.053792372809724],[27.851606148713948,53.03118749325585],[27.849226687708118,53.00501342219012],[27.80520665909999,52.98002908163014],[27.799258006585415,52.95980366307961],[27.827811538655823,52.92292201748933],[27.830190999661653,52.87771225837882],[27.82305261664354,52.84083061278854],[27.78498124055061,52.8241743857479],[27.770704474515806,52.78610300965462],[27.73144336791925,52.742082981046224],[27.7135974103757,52.71114998797114],[27.750479055965716,52.70996025746716],[27.801637467591245,52.689734838917516],[27.776653127030293,52.65761211533933],[27.755237977978087,52.62073046974915],[27.780016686106446,52.62214052071518],[27.806190757170313,52.61619186820096],[27.824036714714573,52.603104832668535],[27.88114377885388,52.591207527639206],[27.938250842993984,52.54956696003869],[28.063172545800253,52.53291073299627],[28.113141226922867,52.56741291758135],[28.12741799295767,52.56503345657623],[28.14764341150705,52.55313615154681],[28.191663440115178,52.55789507355803],[28.208319667155813,52.57812049210865],[28.222596433190617,52.604294563172516],[28.29041107185678,52.604294563172516],[28.34632840549397,52.58168968361677],[28.38202032058107,52.595966449651314],[28.426040349189197,52.57336157009557],[28.429609540697854,52.53766965500838],[28.45340415075598,52.522203158471726],[28.487906335340874,52.510305853442304],[28.520029058919228,52.50078800941898],[28.6520891447429,52.53766965500838],[28.74845731547956,52.54242857701959],[28.77106219503459,52.55789507355803],[28.809133571128232,52.56384372607225],[28.83768710319793,52.58287941411889],[28.83768710319793,52.56027453456412],[28.863861174261796,52.535290194002286],[28.905501741864093,52.5471874990317],[28.892414706332204,52.51268531444654],[28.894794167337945,52.46628582483392],[28.942383387454107,52.47342420785114],[29.01019802612027,52.48413178237844],[29.06373589875163,52.505546931429315],[29.078012664786435,52.523392888973845],[29.069684551266207,52.5471874990317],[29.047079671710996,52.561464265066235],[29.069684551266207,52.587638336131974],[29.0970483528337,52.56741291758135],[29.144637572949772,52.55670534305502],[29.176760296528837,52.51268531444654],[29.223159786142084,52.47937286036536],[29.255282509721148,52.43178364024875],[29.28502577229376,52.40679929968887],[29.31357930436417,52.40085064717367],[29.325476609393142,52.43416310125485],[29.368306907498443,52.47580366885724],[29.367117176995528,52.516254505955644],[29.375445290515845,52.530531271991066],[29.37663502101876,52.55313615154681],[29.393291248059395,52.57693076160467],[29.393291248059395,52.60786375468073],[29.42303451063192,52.606674024178616],[29.493228610303913,52.61738159870494],[29.533679447403383,52.601915102166416],[29.58007893701734,52.606674024178616],[29.57056109299331,52.6268994427264],[29.614581121601436,52.62927890373249],[29.66930872473571,52.64117620876182],[29.697862256805408,52.63641728675158],[29.721656866864155,52.61024321568585],[29.747830937928022,52.59953564115952],[29.77876393100346,52.601915102166416],[29.79185096653615,52.61024321568585],[29.810886654582614,52.61381240719584],[29.813266115588444,52.63046863423638],[29.787092044524577,52.65307351379212],[29.759728242957085,52.65307351379212],[29.741882285413535,52.6804373153582],[29.721656866864155,52.69947300340484],[29.766866625974487,52.70423192541605],[29.815645576594275,52.71493949994327],[29.848958030675455,52.743493032012346],[29.833491534137735,52.77918494709954],[29.844199108663883,52.8113076706786],[29.823973690114503,52.86722500431641],[29.825163420617418,52.90529638040881],[29.79185096653615,52.93147045147268],[29.775194739494804,52.969541827566935],[29.76329743446574,52.98024940209237],[29.77162554798606,52.992146707121705],[29.7180876753555,53.08375595584582],[29.66454980272414,53.0825662253437],[29.65146276719216,53.094463530372224],[29.65622168920382,53.11111975741464],[29.706190370325725,53.1289657149573],[29.675257377250286,53.148001403003946],[29.659790880712567,53.17774466557691],[29.602683816572462,53.19083170110844],[29.566991901484563,53.19321116211445],[29.550335674444018,53.226523616195635],[29.558663787964335,53.24317984323804],[29.5907865115434,53.24317984323804],[29.637186001156557,53.2241441551914],[29.625288696127583,53.27530256681533],[29.622909235121753,53.31575340391551],[29.602683816572462,53.34311720548158],[29.62052977411601,53.362152893528226],[29.625288696127583,53.38832696459307],[29.61101193009269,53.42044968817116],[29.574130284502054,53.445434028733],[29.543197291426527,53.451382681248106],[29.507505376339516,53.452572411750225],[29.52416160338015,53.48707459633529],[29.561043248970165,53.51443839790225],[29.574130284502054,53.532284355445],[29.558663787964335,53.54656112148043],[29.5739540281314,53.554654226506486]]]]}},{"type":"Feature","properties":{"kind":"district","id":"uyezd-1897-707","name":"Борисовский","provinceId":"gubernia-1897-71"},"geometry":{"type":"MultiPolygon","coordinates":[[[[27.751311432510253,55.02671881356129],[27.763208737539227,55.024339352555195],[27.776295773071205,55.00054474249734],[27.77748550357412,54.97080147992437],[27.771536851059544,54.930350642825076],[27.776295773071205,54.90893549377323],[27.732275744463077,54.88871007522269],[27.75250116301308,54.847069507620304],[27.747742241001507,54.814946784043016],[27.74655251049868,54.80185974851068],[27.717998978428184,54.8030494790128],[27.70134275138755,54.79472136549337],[27.671599488814227,54.77568567744673],[27.65256380076785,54.77568567744673],[27.638287034732958,54.780444599457944],[27.619251346686582,54.78758298247526],[27.546677786008757,54.73523484034646],[27.550246977517503,54.72214780481501],[27.534780480979784,54.70906076928259],[27.53834967248844,54.69478400324805],[27.52288317594992,54.6709893931893],[27.53834967248844,54.65552289665088],[27.543108594500012,54.629348825586916],[27.55381616902616,54.637676939108125],[27.57166212656971,54.64005640011422],[27.628769190709725,54.6245899035757],[27.638287034732958,54.61150286804328],[27.653753531270677,54.60555421552906],[27.658512453282338,54.57819041396308],[27.672789219317142,54.563913647926675],[27.656132992276508,54.5317909243477],[27.59664646713066,54.50085793127253],[27.550246977517503,54.50085793127253],[27.53359075047687,54.49490927875831],[27.562144282546477,54.475873590710776],[27.59188754511909,54.45921736367014],[27.58117997059294,54.44732005864081],[27.5359702114827,54.44137140612748],[27.51336533192669,54.415197335063525],[27.5002782963948,54.37236703695724],[27.490760452371568,54.33905458287607],[27.510985870920948,54.31525997281821],[27.514555062429604,54.27480913571803],[27.5002782963948,54.2700502137077],[27.494329643880313,54.24268641213985],[27.51574479293252,54.239117220630746],[27.530021558967324,54.2200815325841],[27.537159941985525,54.17844096498359],[27.564662001050333,54.18682983045623],[27.57655930607984,54.20824497950977],[27.65508151927153,54.18920929146313],[27.659840441283635,54.17017360341649],[27.6729274768157,54.17017360341649],[27.70148100888593,54.18326063894713],[27.745501037493526,54.185640099954114],[27.762157264534338,54.15113791536895],[27.785951874592374,54.14994818486595],[27.795469718615873,54.13210222732231],[27.825212981188663,54.13329195782629],[27.834730825212073,54.12377411380199],[27.898976272369936,54.124963844305086],[27.907304385889898,54.113066539275664],[28.004862287129207,54.110687078270544],[28.05126177674281,54.09878977324113],[28.0417439327194,54.08570273770968],[28.004862287129207,54.07499516318238],[27.967980641538215,54.03573405658698],[27.910873577398554,54.02740594306577],[27.878750853819668,53.959591304399524],[27.907304385889898,53.94174534685588],[27.912063307902002,53.92746858082135],[27.935518869247023,53.932768205970206],[27.960503209807975,53.91373251792356],[27.9973848553979,53.89826602138513],[28.043784345011858,53.8923173688718],[28.062820033058323,53.912542787421444],[28.065199494064064,53.92919901446199],[28.059250841549577,53.936337397479306],[28.0889941041229,53.96489092954927],[28.094942756637387,53.99939311413434],[28.16513685630938,54.005341766647675],[28.18298281385293,53.997013653128334],[28.192500657876163,54.006531497151656],[28.2234336509524,54.005341766647675],[28.23890014749012,53.994634192122234],[28.25674610503367,54.006531497151656],[28.279350984588703,54.019618532682216],[28.279350984588703,54.03389529871764],[28.326940204705664,54.04579260374794],[28.36620131130222,54.0255671851983],[28.385236999348596,54.017239071677096],[28.428067297453897,54.0184288021801],[28.447102985500273,54.006531497151656],[28.48636409209603,53.998203383630454],[28.58987064585009,53.98392661759591],[28.63389067445742,53.96964985156049],[28.64578797948728,53.99106500061313],[28.646977709990196,54.01366988016888],[28.670772320048144,54.04103368173495],[28.67910043356855,54.04936179525616],[28.75048426374337,54.082674249337245],[28.764761029778263,54.0683974833028],[28.805211866877645,54.06720775279882],[28.83971405146183,54.02437745469432],[28.874216236046813,54.011290419162876],[28.886113541075787,53.993444461619234],[28.843283242970486,53.97916769558381],[28.85993947001192,53.94466551099865],[28.896821115601846,53.931578475468086],[28.94916925773038,53.91492224842568],[28.95630764074778,53.90659413490634],[28.95630764074778,53.89588656037904],[28.963446023765183,53.8875584468597],[29.0633833860105,53.948234702508636],[29.06100392500467,53.96251146854317],[29.084798535062706,53.98273688709193],[29.133577485682494,53.99582392262435],[29.250171074967646,54.0255671851983],[29.278724607038143,54.02675691570042],[29.310847330616408,54.02199799368831],[29.37866196928266,53.97797796508169],[29.370333855762254,53.96370119904529],[29.41197442336464,53.96370119904529],[29.453614990966226,53.94466551099865],[29.49882475007727,53.96132173804106],[29.532137204158538,53.95775254653196],[29.558311275223204,53.97797796508169],[29.535706395667283,53.99225473111525],[29.555931814217374,54.005341766647675],[29.571398310755093,54.03746449022674],[29.584485346286982,54.079105057829125],[29.540465317678855,54.088622901852446],[29.497635019574354,54.10765858989909],[29.48097879253372,54.13859158297417],[29.46789175700103,54.14454023548839],[29.46551229599529,54.157627271020814],[29.48335825353955,54.170714306553236],[29.476219870522147,54.18974999459988],[29.44528687744591,54.1968883776171],[29.43219984191402,54.22068298767496],[29.444097146942994,54.23733921471737],[29.390559274311634,54.25994409427223],[29.341780323692646,54.236149484213485],[29.32036517463964,54.240908406225586],[29.294191103575862,54.26232355527735],[29.276345146032313,54.26946193829555],[29.25136080547056,54.25399544175801],[29.22875592591544,54.24804678924281],[29.182356436301482,54.26113382477435],[29.14428506020864,54.243287867231594],[29.10383422310917,54.251615980751026],[29.057434733496013,54.238528945219485],[29.069332038525076,54.26113382477435],[29.08360880455988,54.27422086030677],[29.06576284701633,54.308723044891835],[29.046727158969066,54.3289484634406],[28.98248171181156,54.36464037852876],[28.930133569683914,54.36464037852876],[28.89563138509893,54.40271175462205],[28.89801084610476,54.41579879015447],[28.89087246308736,54.43483447820111],[28.917046534152025,54.450300974737765],[28.947979527227464,54.459818818761086],[28.98049882764039,54.4790527952255],[29.00310370719551,54.50740803887858],[28.990016671663533,54.538341031953664],[29.00072424618968,54.546669145473984],[28.993585863172278,54.56213564201241],[29.006672898704167,54.57641240804695],[28.99596532417811,54.58711998257425],[28.98763721065779,54.60496594011691],[28.945996643056205,54.613294053638114],[28.935289068529258,54.62162216715755],[28.94718637355912,54.6466065077193],[28.916253380482882,54.691816266830784],[28.91387391947705,54.704903302362226],[28.941237721044633,54.74059521745039],[28.887699848413185,54.75844117499305],[28.87115031215396,54.78829019317257],[28.829509744552553,54.79185938468069],[28.796197290470307,54.7942388456859],[28.76764375840052,54.79185938468069],[28.75931564488047,54.803756689709225],[28.76645402789796,54.813274533732546],[28.743849148342306,54.816843725242535],[28.70696750275167,54.81446426423555],[28.678413970681884,54.810895072727334],[28.64748097760618,54.810895072727334],[28.65580909112694,54.82279237775587],[28.637963133582947,54.826361569265856],[28.60940960151316,54.819223186247655],[28.579666338940015,54.812084803230434],[28.55825118988763,54.80970534222433],[28.55349226787597,54.819223186247655],[28.5558717288818,54.829930760773976],[28.530887388320405,54.8465869878155],[28.50114412574797,54.8406383353004],[28.50709277826219,54.820412916750655],[28.44641652261343,54.813274533732546],[28.415483529537724,54.821602647253755],[28.413104068531894,54.8465869878155],[28.39049918897624,54.87633025038847],[28.40001703299956,54.89060701642212],[28.417862990543554,54.903694051955426],[28.398827302497,54.92510920100817],[28.39763757199373,54.94057569754473],[28.426191104064316,54.964370307604455],[28.44641652261343,54.996493031182546],[28.465452210659894,55.01552871922919],[28.515420891782952,55.03456440727583],[28.536836040835247,55.058359017333686],[28.50709277826219,55.06906659186099],[28.479728976694876,55.08929201040886],[28.45117544462509,55.10237904594217],[28.407155416017762,55.11665581197573],[28.384550536462108,55.132122308515136],[28.34528942986573,55.12022500348483],[28.302459131760962,55.12022500348483],[28.247429052225783,55.12308698429662],[28.180804144062535,55.119517792789296],[28.129645732436916,55.09572318272966],[28.089194895337446,55.10167183524486],[27.970221845046552,55.13260482831994],[27.95832454001678,55.14331240284716],[27.944047773981886,55.14807132485837],[27.944047773981886,55.13022536731482],[27.92501208593542,55.12308698429662],[27.90478666738613,55.08501560820422],[27.841730950731538,55.06597992015758],[27.81793634067279,55.079066955689115],[27.787003347597263,55.09215399122154],[27.765588198545057,55.06122099814637],[27.751311432510253,55.02671881356129]]]]}},{"type":"Feature","properties":{"kind":"district","id":"uyezd-1897-721","name":"Минский","provinceId":"gubernia-1897-71"},"geometry":{"type":"MultiPolygon","coordinates":[[[[26.66665296814549,53.370250769898135],[26.752076067559106,53.375433627468716],[26.754455528565202,53.36234659193727],[26.811562592704863,53.36591578344451],[26.85320316030716,53.38495147149115],[26.89246426690336,53.39446931551536],[26.899602649920762,53.41469473406411],[26.92101779897368,53.426592039093535],[26.970986480095938,53.423022847584434],[27.00905785618878,53.431350961105636],[27.04831896278498,53.4491969186483],[27.04831896278498,53.4622839541817],[27.108995218434096,53.48012991172525],[27.170861204585062,53.513442365806426],[27.18156877911192,53.53128832335007],[27.18989689263197,53.53128832335007],[27.20060446715794,53.55270347240369],[27.213691502690008,53.55746239441393],[27.21964015520476,53.575308351957574],[27.241055304257678,53.57887754346756],[27.271988297333117,53.6002926925203],[27.282695871859175,53.588395387489996],[27.312439134432054,53.576498082460574],[27.304111020912003,53.53961643687039],[27.319577517450167,53.521770479327635],[27.36597700706377,53.53128832335007],[27.371925659577723,53.54437535888151],[27.38382296460723,53.55032401139671],[27.396910000139297,53.5431856283794],[27.456396525284966,53.56341104692815],[27.459965716793622,53.55389320290581],[27.473052752325778,53.55627266391093],[27.457586255788414,53.60624134503364],[27.515883050430723,53.61337972805086],[27.4897089793665,53.652640834648125],[27.505175475904664,53.67524571420378],[27.540867390992208,53.67524571420378],[27.551574965518267,53.64193326012082],[27.564662001050333,53.62527703308028],[27.57774903658249,53.62289757207507],[27.583697689097153,53.65145110414503],[27.61582041267613,53.663348409174446],[27.650322597260224,53.662158678670465],[27.65508151927153,53.68714301923133],[27.64556367524892,53.72045547331349],[27.632476639716852,53.740680891863136],[27.661030171786283,53.75138846638946],[27.690773434359162,53.72283493431949],[27.727655079950154,53.739491161360135],[27.714568044418087,53.760906310413674],[27.726465349446705,53.765665232424],[27.730034540955362,53.79302903399184],[27.708619391903333,53.816823644050594],[27.707429661399885,53.835859332097236],[27.725275618944057,53.82753121857692],[27.76929564755165,53.78232145946552],[27.79071079660448,53.779941998460316],[27.80855675414794,53.80373660851728],[27.852576782755445,53.804926339021264],[27.86804327929361,53.812064722038485],[27.862094626778944,53.85965394215509],[27.882320045328324,53.894156126739276],[27.901355733375144,53.91795073679714],[27.912063307902002,53.92746858082135],[27.907304385889898,53.94174534685588],[27.878750853819668,53.959591304399524],[27.910873577398554,54.02740594306577],[27.967980641538215,54.03573405658698],[28.004862287129207,54.07499516318238],[28.0417439327194,54.08570273770968],[28.05126177674281,54.09878977324113],[28.004862287129207,54.110687078270544],[27.907304385889898,54.113066539275664],[27.898976272369936,54.124963844305086],[27.834730825212073,54.12377411380199],[27.825212981188663,54.13329195782629],[27.795469718615873,54.13210222732231],[27.785951874592374,54.14994818486595],[27.762157264534338,54.15113791536895],[27.745501037493526,54.185640099954114],[27.70148100888593,54.18326063894713],[27.6729274768157,54.17017360341649],[27.659840441283635,54.17017360341649],[27.65508151927153,54.18920929146313],[27.57655930607984,54.20824497950977],[27.564662001050333,54.18682983045623],[27.537159941985525,54.17844096498359],[27.489570721868652,54.16297446844507],[27.415807430688,54.14869770241053],[27.38844362912042,54.1332312058721],[27.381305246103107,54.10943659581335],[27.33728521749569,54.101108482293924],[27.33966467850152,54.11776470933456],[27.275419231344014,54.11181605681945],[27.26828084832661,54.0904009077676],[27.234968394244543,54.08802144676159],[27.234968394244543,54.095159829778815],[27.214742975695252,54.09397009927493],[27.215932706198167,54.10824686531035],[27.124323457473878,54.10348794329825],[27.13384130149711,54.12966201436389],[27.14930779803483,54.13917985838721],[27.148118067531914,54.15464635492386],[27.130272109988454,54.149887432912735],[27.11361588294782,54.13204147536821],[27.02676555623439,54.13204147536821],[27.012488790199498,54.110626326317245],[26.9708482225972,54.10348794329825],[26.97560714460966,54.08921117726371],[26.941104960024678,54.04757060966132],[26.923259002481128,54.013068425078025],[26.91731034996664,53.98451489300806],[26.8364086757685,53.98451489300806],[26.766214576096505,53.97856624049295],[26.76740430659942,54.003550581054704],[26.810234604703922,54.00593004206071],[26.837598406271415,53.998791659041714],[26.866151938341112,54.003550581054704],[26.810234604703922,54.02615546061045],[26.82570110124164,54.038052765638],[26.853064902809134,54.04757060966132],[26.84116759778007,54.065416567205844],[26.817372987721324,54.05946791469162],[26.773352959113907,54.065416567205844],[26.799527030177774,54.077313872234285],[26.810234604703922,54.09634956028093],[26.786439994645797,54.104677673802136],[26.76502484559368,54.09753929078491],[26.735281583020267,54.12252363134489],[26.718625355979633,54.101108482293924],[26.67579505787442,54.091590638269714],[26.661518291839528,54.110626326317245],[26.64010314278741,54.104677673802136],[26.647241525804723,54.083262524749486],[26.606790688705342,54.07612414173217],[26.616308532728574,54.05470899268041],[26.656759369827956,54.05351926217643],[26.663897752845358,54.02020680809525],[26.636533951278665,54.01544788608403],[26.610359880214087,54.009499233568036],[26.665087483348273,53.97618677948685],[26.64605179530181,53.94168459490179],[26.616308532728574,53.925028367861145],[26.59965230568794,53.856023998691896],[26.623446915746776,53.8643521122131],[26.663897752845358,53.83817804114914],[26.685312901897653,53.81795262259861],[26.638913412284495,53.81081423958129],[26.643672334296067,53.781070977008326],[26.616308532728574,53.75965582795745],[26.65081071731347,53.74418933141894],[26.662708022342443,53.7311022958866],[26.659138830833786,53.681133614763894],[26.676984788377336,53.66209792671815],[26.665087483348273,53.62997520313908],[26.659138830833786,53.60023194056522],[26.67341559686859,53.57881679151346],[26.647241525804723,53.5895243660389],[26.643672334296067,53.595473018554],[26.618687993734316,53.60618059308033],[26.610359880214087,53.59666274905701],[26.573478234624073,53.60142167106912],[26.554442546577697,53.59309355754791],[26.535406858530433,53.58476544402857],[26.522319822998455,53.56335029497494],[26.539351804333833,53.54633088432913],[26.563146414391426,53.54395142332304],[26.60121779048489,53.51539789125307],[26.647617280098757,53.50588004722975],[26.677360542671725,53.47970597616588],[26.660704315630912,53.441634600073485],[26.66903242915132,53.4047529544832],[26.646427549595842,53.38809672744266],[26.66665296814549,53.370250769898135]]]]}},{"type":"Feature","properties":{"kind":"district","id":"uyezd-1897-722","name":"Игуменский","provinceId":"gubernia-1897-71"},"geometry":{"type":"MultiPolygon","coordinates":[[[[27.912063307902002,53.92746858082135],[27.901355733375144,53.91795073679714],[27.882320045328324,53.894156126739276],[27.862094626778944,53.85965394215509],[27.86804327929361,53.812064722038485],[27.852576782755445,53.804926339021264],[27.80855675414794,53.80373660851728],[27.79071079660448,53.779941998460316],[27.76929564755165,53.78232145946552],[27.725275618944057,53.82753121857692],[27.707429661399885,53.835859332097236],[27.708619391903333,53.816823644050594],[27.730034540955362,53.79302903399184],[27.726465349446705,53.765665232424],[27.714568044418087,53.760906310413674],[27.727655079950154,53.739491161360135],[27.690773434359162,53.72283493431949],[27.661030171786283,53.75138846638946],[27.632476639716852,53.740680891863136],[27.64556367524892,53.72045547331349],[27.65508151927153,53.68714301923133],[27.650322597260224,53.662158678670465],[27.61582041267613,53.663348409174446],[27.583697689097153,53.65145110414503],[27.57774903658249,53.62289757207507],[27.564662001050333,53.62527703308028],[27.551574965518267,53.64193326012082],[27.540867390992208,53.67524571420378],[27.505175475904664,53.67524571420378],[27.4897089793665,53.652640834648125],[27.515883050430723,53.61337972805086],[27.457586255788414,53.60624134503364],[27.473052752325778,53.55627266391093],[27.459965716793622,53.55389320290581],[27.456396525284966,53.56341104692815],[27.396910000139297,53.5431856283794],[27.38382296460723,53.55032401139671],[27.371925659577723,53.54437535888151],[27.36597700706377,53.53128832335007],[27.319577517450167,53.521770479327635],[27.304111020912003,53.53961643687039],[27.312439134432054,53.576498082460574],[27.282695871859175,53.588395387489996],[27.271988297333117,53.6002926925203],[27.241055304257678,53.57887754346756],[27.21964015520476,53.575308351957574],[27.213691502690008,53.55746239441393],[27.20060446715794,53.55270347240369],[27.18989689263197,53.53128832335007],[27.18156877911192,53.53128832335007],[27.170861204585062,53.513442365806426],[27.108995218434096,53.48012991172525],[27.04831896278498,53.4622839541817],[27.04831896278498,53.4491969186483],[27.00905785618878,53.431350961105636],[26.970986480095938,53.423022847584434],[26.92101779897368,53.426592039093535],[26.899602649920762,53.41469473406411],[26.89246426690336,53.39446931551536],[26.919665276127603,53.389281686600924],[27.025551290887407,53.35121031050764],[27.038638326419385,53.33098489195799],[27.083848085530427,53.32265677843865],[27.096935121062316,53.310759473409234],[27.12667838363493,53.309569742907115],[27.163560029225653,53.284585402345364],[27.16237029872274,53.26792917530473],[27.175457334254627,53.25841133128141],[27.15166272419659,53.25722160077751],[27.14452434117919,53.24413456524509],[27.186164908780775,53.232237260217545],[27.211149249342526,53.23342699071966],[27.213528710348356,53.19178642311727],[27.24565143392662,53.17394046557452],[27.3146558030957,53.18583777060394],[27.40626505181999,53.18821723160817],[27.45504400243969,53.235806451725665],[27.61684735083597,53.25603187027443],[27.620416542344717,53.28696486335137],[27.65848791843827,53.27506755832204],[27.694179833525368,53.28696486335137],[27.73701013163058,53.26911890580685],[27.776271238227135,53.250083217760206],[27.803635039793917,53.24770375675509],[27.785789082250368,53.15133558601887],[27.763184202694447,53.10017717439316],[27.90238267153552,53.147766394509766],[28.05228871490354,53.23342699071966],[28.05466817590937,53.27982648033415],[28.162933651674205,53.285775132847476],[28.201005027767756,53.27149836681294],[28.236696942854856,53.28101621083626],[28.373515950690187,53.27506755832204],[28.390172177730822,53.29172378536259],[28.41158732678374,53.29172378536259],[28.42110517080697,53.28339567184138],[28.460366277402816,53.306000551398014],[28.44133058935635,53.316708125924336],[28.42586409281863,53.33098489195799],[28.442520319859266,53.3393130054792],[28.453227894385325,53.363107615537054],[28.52580145506315,53.3797638425776],[28.553165256630642,53.394040608614006],[28.612651781775778,53.394040608614006],[28.61979016479398,53.37381519006426],[28.59956474624389,53.36429734604094],[28.60670312926129,53.32979516145588],[28.63763612233744,53.33217462246197],[28.672138306921713,53.35121031050764],[28.69355345597463,53.33336435296498],[28.720917257541412,53.34883084950252],[28.726865910055988,53.363107615537054],[28.745901598102364,53.36786653754827],[28.758988633635052,53.36786653754827],[28.770885938664115,53.37738438157159],[28.77802432168143,53.3857124950928],[28.78992162671049,53.3857124950928],[28.817285428277273,53.394040608614006],[28.85654653487383,53.43330171521029],[28.84108003833611,53.461855247280255],[28.89461791096667,53.48802931834412],[28.929120095551564,53.49397797085746],[28.93030982605448,53.53799799946594],[28.96838120214812,53.54751584348926],[29.04214449332877,53.55108503499836],[29.070698025398467,53.56774126203801],[29.061180181375235,53.57606937556011],[29.092113174450763,53.580828297570434],[29.119476976018255,53.5594131485177],[29.157548352111096,53.57725910606223],[29.181342962169932,53.60462290763007],[29.195619728204736,53.59986398561708],[29.218224607759858,53.57368991455313],[29.221793799268603,53.55584395701047],[29.215845146754116,53.52610069443652],[29.277711132905793,53.458286055770266],[29.308644125981143,53.459475786274155],[29.331249005537153,53.48921904884624],[29.405012296717803,53.49278824035534],[29.416909601746866,53.5130136589041],[29.385976608670628,53.55227476550047],[29.351474424086444,53.55108503499836],[29.35742307660102,53.56774126203801],[29.37764849515031,53.56774126203801],[29.391925261185914,53.580828297570434],[29.414530140741036,53.57963856706832],[29.491862623430432,53.601053716120084],[29.557297801090854,53.57844883656434],[29.5739540281314,53.554654226506486],[29.59893836869315,53.54751584348926],[29.6524762413238,53.55703368751258],[29.661994085346944,53.57131045354711],[29.684598964902865,53.57844883656434],[29.692927078423182,53.58677695008555],[29.684598964902865,53.60224344662397],[29.661994085346944,53.62008940416673],[29.678650312388378,53.622468865172735],[29.682219503897123,53.63079697869394],[29.682219503897123,53.64388401422458],[29.709583305463816,53.660540241267],[29.694116808926097,53.68433485132388],[29.682219503897123,53.71645757490295],[29.626302170259933,53.71645757490295],[29.588230794166293,53.73787272395657],[29.559677262096596,53.75452895099711],[29.54540049606179,53.774754369545875],[29.539451843547305,53.79854897960374],[29.554918340085024,53.80568736262104],[29.58347187215472,53.81163601513616],[29.639389205791822,53.783082483067076],[29.657235163335372,53.7866516745744],[29.669132468365145,53.79497978809561],[29.642958397300568,53.81401547614225],[29.613215134727955,53.824723050667686],[29.628681631265675,53.842569008212216],[29.641768666797653,53.860414965755766],[29.628681631265675,53.86993280977909],[29.610835673722214,53.86517388776796],[29.58109241114889,53.86517388776796],[29.55134914857628,53.859225235252765],[29.513277772482727,53.87112254028307],[29.48472424041303,53.88301984531062],[29.440704211804903,53.87945065380241],[29.438324750799072,53.905624724866364],[29.441893942307818,53.924660412913006],[29.453614990966226,53.94466551099865],[29.41197442336464,53.96370119904529],[29.370333855762254,53.96370119904529],[29.37866196928266,53.97797796508169],[29.310847330616408,54.02199799368831],[29.278724607038143,54.02675691570042],[29.250171074967646,54.0255671851983],[29.133577485682494,53.99582392262435],[29.084798535062706,53.98273688709193],[29.06100392500467,53.96251146854317],[29.0633833860105,53.948234702508636],[28.963446023765183,53.8875584468597],[28.95630764074778,53.89588656037904],[28.95630764074778,53.90659413490634],[28.94916925773038,53.91492224842568],[28.896821115601846,53.931578475468086],[28.85993947001192,53.94466551099865],[28.843283242970486,53.97916769558381],[28.886113541075787,53.993444461619234],[28.874216236046813,54.011290419162876],[28.83971405146183,54.02437745469432],[28.805211866877645,54.06720775279882],[28.764761029778263,54.0683974833028],[28.75048426374337,54.082674249337245],[28.67910043356855,54.04936179525616],[28.670772320048144,54.04103368173495],[28.646977709990196,54.01366988016888],[28.64578797948728,53.99106500061313],[28.63389067445742,53.96964985156049],[28.58987064585009,53.98392661759591],[28.48636409209603,53.998203383630454],[28.447102985500273,54.006531497151656],[28.428067297453897,54.0184288021801],[28.385236999348596,54.017239071677096],[28.36620131130222,54.0255671851983],[28.326940204705664,54.04579260374794],[28.279350984588703,54.03389529871764],[28.279350984588703,54.019618532682216],[28.25674610503367,54.006531497151656],[28.23890014749012,53.994634192122234],[28.2234336509524,54.005341766647675],[28.192500657876163,54.006531497151656],[28.18298281385293,53.997013653128334],[28.16513685630938,54.005341766647675],[28.094942756637387,53.99939311413434],[28.0889941041229,53.96489092954927],[28.059250841549577,53.936337397479306],[28.065199494064064,53.92919901446199],[28.062820033058323,53.912542787421444],[28.043784345011858,53.8923173688718],[27.9973848553979,53.89826602138513],[27.960503209807975,53.91373251792356],[27.935518869247023,53.932768205970206],[27.912063307902002,53.92746858082135]]]]}},{"type":"Feature","properties":{"kind":"district","id":"uyezd-1897-723","name":"Слуцкий","provinceId":"gubernia-1897-71"},"geometry":{"type":"MultiPolygon","coordinates":[[[[26.89246426690336,53.39446931551536],[26.85320316030716,53.38495147149115],[26.811562592704863,53.36591578344451],[26.754455528565202,53.36234659193727],[26.752076067559106,53.375433627468716],[26.66665296814549,53.370250769898135],[26.63690970557243,53.365491847886915],[26.63690970557243,53.34764589034327],[26.651186471607502,53.34526642933727],[26.628581592052026,53.32266154978153],[26.62977132255494,53.303625861734886],[26.649996741104587,53.28934909569946],[26.660704315630912,53.25841610262428],[26.66903242915132,53.25246745010918],[26.62501240054328,53.220344726530115],[26.55719776187685,53.21677553502199],[26.536972343328003,53.225103648542216],[26.519126385784187,53.21320634351289],[26.521505846790017,53.20011930798224],[26.532213421316253,53.19060146395892],[26.526264768801678,53.16442739289319],[26.50603935025203,53.16204793188896],[26.469157704661484,53.139443052333306],[26.444173364100177,53.11445871177235],[26.403722527000884,53.10375113724602],[26.34661546286149,53.10256140674302],[26.320441391797267,53.08471544919938],[26.23240133458119,53.08233598819338],[26.202658072008134,53.04426461210009],[26.17886346195054,53.04426461210009],[26.156258582395065,53.052592725620315],[26.126515319822097,53.04188515109399],[26.105100170769536,53.03950569008789],[26.081305560711055,52.99905485298861],[26.088443943728635,52.982398625947965],[26.13603316384542,52.974070512427744],[26.153879121389235,52.95741428538622],[26.128894780827927,52.93242994482536],[26.128894780827927,52.92053263979594],[26.13603316384542,52.89078937722297],[26.134843433342503,52.86342557565601],[26.15030992988049,52.84676934861547],[26.212175916031544,52.839630965597266],[26.237141856258084,52.833692229770335],[26.26093646631612,52.820605194239775],[26.27164404084218,52.83845115178244],[26.290679728889444,52.84439980429764],[26.306146225427163,52.822984655244014],[26.277592693356755,52.79681058418005],[26.23595212575517,52.79086193166583],[26.24309050877257,52.77777489613341],[26.297818111906846,52.756359747081646],[26.328751104982285,52.74565217255621],[26.339458679508432,52.74565217255621],[26.38823763012813,52.72780621501168],[26.364443020070183,52.680216994894195],[26.392996552139792,52.673078611876875],[26.43939604175375,52.67783753388996],[26.470329034829188,52.6885451084154],[26.498882566899596,52.6885451084154],[26.532195020980865,52.65761211533933],[26.578594510594822,52.66594022886054],[26.60476858165869,52.63857642729367],[26.69161890837123,52.60764343421761],[26.695188099879974,52.596935859691285],[26.71422378792724,52.596935859691285],[26.71898270993881,52.58027963265065],[26.758243816534566,52.57552071063854],[26.807022767154265,52.5636234056101],[26.852232526265396,52.542208256557366],[26.99907383467951,52.52472714841207],[27.00213856963253,52.524362299012836],[27.0366407542168,52.524362299012836],[27.041399676228373,52.511275263480414],[27.16394191802881,52.56005421410012],[27.351919337489583,52.5100855329783],[27.557742714493994,52.57908990214676],[27.63745465818922,52.592176937679184],[27.658869807241427,52.60645370371461],[27.698130913837982,52.61954073924703],[27.755237977978087,52.62073046974915],[27.776653127030293,52.65761211533933],[27.801637467591245,52.689734838917516],[27.750479055965716,52.70996025746716],[27.7135974103757,52.71114998797114],[27.73144336791925,52.742082981046224],[27.770704474515806,52.78610300965462],[27.78498124055061,52.8241743857479],[27.82305261664354,52.84083061278854],[27.830190999661653,52.87771225837882],[27.827811538655823,52.92292201748933],[27.799258006585415,52.95980366307961],[27.80520665909999,52.98002908163014],[27.849226687708118,53.00501342219012],[27.851606148713948,53.03118749325585],[27.845657496199372,53.053792372809724],[27.814724503123134,53.06806913884613],[27.783791510047696,53.07520752186247],[27.774273666024463,53.0906740184009],[27.893246716316245,53.134694047008495],[27.90238267153552,53.147766394509766],[27.763184202694447,53.10017717439316],[27.785789082250368,53.15133558601887],[27.803635039793917,53.24770375675509],[27.776271238227135,53.250083217760206],[27.73701013163058,53.26911890580685],[27.694179833525368,53.28696486335137],[27.65848791843827,53.27506755832204],[27.620416542344717,53.28696486335137],[27.61684735083597,53.25603187027443],[27.45504400243969,53.235806451725665],[27.40626505181999,53.18821723160817],[27.3146558030957,53.18583777060394],[27.24565143392662,53.17394046557452],[27.213528710348356,53.19178642311727],[27.211149249342526,53.23342699071966],[27.186164908780775,53.232237260217545],[27.14452434117919,53.24413456524509],[27.15166272419659,53.25722160077751],[27.175457334254627,53.25841133128141],[27.16237029872274,53.26792917530473],[27.163560029225653,53.284585402345364],[27.12667838363493,53.309569742907115],[27.096935121062316,53.310759473409234],[27.083848085530427,53.32265677843865],[27.038638326419385,53.33098489195799],[27.025551290887407,53.35121031050764],[26.919665276127603,53.389281686600924],[26.89246426690336,53.39446931551536]]]]}}]}
