{"type":"FeatureCollection","features":[{"type":"Feature","properties":{"kind":"province","id":"gubernia-1897-41","name":"Абосская губерния"},"geometry":{"type":"MultiPolygon","coordinates":[[[[23.028656291046193,60.091412171917],[23.03838739655523,60.08262828486026],[23.064561467619185,60.07905909335116],[23.13951448930284,60.087387206871384],[23.20019074495169,60.12188939145655],[23.233503199033137,60.14449427101131],[23.30488702920769,60.17780672509436],[23.335820022284107,60.1433045405092],[23.371511937371384,60.158771037047714],[23.40839358296202,60.158771037047714],[23.497623370680568,60.16234022855584],[23.524987172247084,60.1897040301228],[23.55354070431767,60.20279106565434],[23.630873187007154,60.1897040301228],[23.648719144550437,60.21349864018066],[23.623734803989752,60.22896513671909],[23.61064776845733,60.24800082476573],[23.626114264995582,60.27655435683481],[23.61659642097155,60.28964139236723],[23.677272676620223,60.324143576953276],[23.71177486120503,60.35150737851926],[23.736589906041964,60.37986742976222],[23.745087315286476,60.38957875461254],[23.77483057785962,60.410993903664306],[23.781968960877023,60.42646040020283],[23.753415428807237,60.44192689674037],[23.699877556175878,60.44549608824947],[23.734379740760684,60.47642908132544],[23.67965213762609,60.47167015931436],[23.616596420971586,60.47880854233069],[23.57971477538175,60.48951611685702],[23.58804288890171,60.50260315239032],[23.513089867218056,60.50974153540666],[23.497623370680603,60.52044910993396],[23.497623370680603,60.53591560647062],[23.514279597721327,60.534725875968505],[23.516659058727157,60.55733075552327],[23.52498717224712,60.59183294010843],[23.497623370680603,60.59183294010843],[23.439326576037672,60.547812911499946],[23.395306547429634,60.540674528483606],[23.348907057815765,60.543053989488726],[23.297748646190236,60.56684859954659],[23.251349156577167,60.58945347910322],[23.232640125949683,60.58729237433004],[23.242157969973004,60.59443075734824],[23.26396969585978,60.62357915466966],[23.200517402370796,60.699721906855345],[23.155307643260198,60.76178618142515],[23.16125629577433,60.76297591192815],[23.192189288849946,60.75345806790483],[23.254055275002067,60.785580791483014],[23.22074282092062,60.80937540154078],[23.2600039275162,60.83673920310774],[23.309972608639168,60.85101596914414],[23.251675813996236,60.90693330278009],[23.282608807071853,60.90693330278009],[23.301644495118406,60.940245756862154],[23.252865544498707,60.943814948370374],[23.20884551589067,61.0033014735163],[23.2600039275162,61.01519877854661],[23.295695842603475,61.036613927598374],[23.27666015455692,61.0532701546399],[23.238588778463814,61.06516745966745],[23.255245005504538,61.104428566263735],[23.302834225621766,61.100859374755615],[23.344474793223085,61.1306026373277],[23.31711099165666,61.16272536090676],[23.260797081185075,61.168674013421864],[23.28578142174656,61.244816765608434],[23.297678726775622,61.30549302125658],[23.250089506658483,61.337615744835645],[23.29291980476396,61.40186119199368],[23.29054034375822,61.420896880040324],[23.307196570798943,61.43993256808697],[23.358354982424473,61.46372717814394],[23.33931929437703,61.485142327196584],[23.31618564570959,61.52744385618912],[23.329272681242013,61.53577196971033],[23.388759206387505,61.525064395184],[23.41374354694899,61.55361792725397],[23.449435462036266,61.561946040775176],[23.486317107626814,61.60001741686846],[23.480368455111883,61.6190531049151],[23.491076029638474,61.640468253966866],[23.482747916117713,61.6606936725166],[23.52438848371992,61.710662353639215],[23.57673662584792,61.73088777218895],[23.601720966409406,61.74992346023559],[23.6159977324443,61.761820765264034],[23.637412881496683,61.76063103476103],[23.631464228981752,61.78204618381368],[23.610049079929368,61.79513321934522],[23.608859349426897,61.89269112058443],[23.594582583392004,61.921244652654394],[23.56245985981303,61.920054922151394],[23.475609533100222,61.96407495075979],[23.393518128399165,61.9260035746665],[23.269786156095723,61.97359279478222],[23.213868822458622,62.01404363188249],[23.217438013967723,62.03545878093425],[23.231714780002704,62.04973554696879],[23.294770496657208,62.079478809541754],[23.288821844142277,62.0973247670854],[23.334031603253674,62.11873991613814],[23.3542570218027,62.11873991613814],[23.3542570218027,62.12944749066535],[23.385190014878315,62.153242100723205],[23.450062802538866,62.150911624083164],[23.433406575498168,62.172326773134955],[23.40128385191923,62.1996905747028],[23.3572638233112,62.23895168129911],[23.30253622017733,62.279402518397546],[23.21806535447041,62.324612277509004],[23.120475443403215,62.30357222320528],[23.002692123614526,62.2762084216384],[22.957482364503928,62.2762084216384],[22.895616378352074,62.25955219459688],[22.77426386705544,62.27144949962719],[22.631496206705442,62.28810572666684],[22.592235100109242,62.2643111166081],[22.57081995105668,62.2262397405157],[22.52561019194617,62.22386027950961],[22.51252315641357,62.19649647794273],[22.47683124132603,62.20006566945086],[22.43994959573619,62.16437375436456],[22.364996574052448,62.10607695972163],[22.249592715269323,62.107266690224634],[22.19486511213576,62.03945205155749],[22.02235418921253,61.97401687389724],[21.89743248640635,61.99781148395599],[21.741577790524552,62.015657441498746],[21.68685018739019,62.00970878898443],[21.566687406595936,62.01922663300873],[21.44295543429285,62.01327798049442],[21.395486118576695,61.94880419796124],[21.420472718094757,61.951434366330474],[21.452034738538966,61.94354386121904],[21.413897297168788,61.93170810355239],[21.43493864413189,61.92250251425506],[21.449404570168934,61.92250251425506],[21.442829149242964,61.90014608310871],[21.463870496205978,61.89094049381218],[21.47570625387219,61.88041982033063],[21.483596758983175,61.86200864173685],[21.49411743246508,61.834391873848304],[21.508583358502126,61.818610863626425],[21.511213526872247,61.79625443247822],[21.51384369524228,61.77126783295989],[21.52304928453917,61.76206224366433],[21.549350968242337,61.756801906924],[21.56381689427938,61.75548682273801],[21.578282820316513,61.737075644146],[21.59537891472359,61.723924802293354],[21.62036551424174,61.709458876257465],[21.641406861204754,61.69367786603381],[21.650612450500844,61.684472276739136],[21.633516356093768,61.67789685581192],[21.619050430056724,61.67132143488746],[21.630886187723647,61.66211584559004],[21.622995682612572,61.65554042466371],[21.594063830538484,61.658170593035706],[21.594063830538484,61.652910256293595],[21.59800908309442,61.64501975118314],[21.61379009331657,61.63581416188758],[21.62957110353863,61.63449907770159],[21.615105177501587,61.62397840422093],[21.632201271908663,61.617402983293715],[21.612475009130755,61.61214264655338],[21.616420261686603,61.593731467961376],[21.658502955612718,61.57137503681317],[21.726887333242,61.54770352147897],[21.797901879241316,61.51614150103521],[21.78343595320436,61.50956608010897],[21.75581918531529,61.52140183777554],[21.741353259279045,61.52403200614664],[21.73609292253809,61.5174565852212],[21.718996828130926,61.522716921960644],[21.72031191231603,61.51219624847909],[21.70190073372305,61.522716921960644],[21.707161070464004,61.53586776381329],[21.697955481167913,61.53981301636852],[21.671653797463946,61.53849793218342],[21.65192753468675,61.54770352147897],[21.637461608649616,61.555594026591294],[21.609844840760633,61.56216944751672],[21.582228072871562,61.5766353735535],[21.55461130498329,61.579265541923625],[21.52041911616825,61.5805806261105],[21.517788947798216,61.57137503681317],[21.549350968242337,61.55822419496141],[21.567762146835317,61.546388437294844],[21.54803588405732,61.534552679627296],[21.56381689427938,61.52929234288697],[21.587488409612515,61.53323759544308],[21.60458450401968,61.530607427072965],[21.6361465244646,61.508250995924755],[21.630886187723647,61.496415238257214],[21.603269419834575,61.49246998570287],[21.574337567760576,61.485894564776544],[21.55461130498329,61.48983981733275],[21.544090631501472,61.49904540662742],[21.49806268502022,61.50956608010897],[21.45992524365004,61.51219624847909],[21.45992524365004,61.50167557499843],[21.487542011539023,61.49246998570287],[21.502007937576156,61.485894564776544],[21.521734200354064,61.485894564776544],[21.54803588405732,61.47668897548196],[21.5664470626495,61.449072207590675],[21.55461130498329,61.434606281554785],[21.53225487383526,61.42934594481446],[21.502007937576156,61.43197611318466],[21.47307608550207,61.42803086062855],[21.44151406505786,61.424085608072346],[21.458610159464936,61.413564934590795],[21.48491184316899,61.41224985040667],[21.50463810594619,61.40698951366633],[21.52962470546514,61.396468840185676],[21.536200126390398,61.38463308251813],[21.537515210576213,61.36885207229625],[21.54146046313135,61.3570163146287],[21.525679452909202,61.3570163146287],[21.536200126390398,61.34781072533225],[21.55724147335341,61.34781072533225],[21.582228072871562,61.35438614625858],[21.576967736131408,61.3372900518507],[21.558556557538427,61.33334479929637],[21.545405715687288,61.32282412581392],[21.56118672590926,61.30967328396217],[21.56118672590926,61.297837526295595],[21.537515210576213,61.30046769466572],[21.519104031983233,61.307043115592045],[21.49806268502022,61.3149336207025],[21.505953190131294,61.30046769466572],[21.526994537094307,61.29389227374028],[21.55461130498329,61.28994702118417],[21.545405715687288,61.282056516073716],[21.526994537094307,61.28074143188772],[21.496747600835114,61.28468668444384],[21.48491184316899,61.282056516073716],[21.502007937576156,61.26496042166584],[21.54803588405732,61.25575483237117],[21.583543157057377,61.24128890633351],[21.617735345871708,61.236028569592285],[21.61115992494565,61.22945314866596],[21.59537891472359,61.22682298029575],[21.590118577983347,61.22419281192563],[21.567762146835317,61.22419281192563],[21.55461130498329,61.222877727739636],[21.54146046313135,61.20578163333363],[21.525679452909202,61.20446654914763],[21.51384369524228,61.211041970073865],[21.512528611057263,61.20315146496341],[21.536200126390398,61.18737045474153],[21.53883029476123,61.17947994962921],[21.52304928453917,61.174219612887995],[21.51384369524228,61.184740286369546],[21.487542011539023,61.184740286369546],[21.43493864413189,61.18342520218542],[21.43230847576177,61.176849781259094],[21.45992524365004,61.175534697073985],[21.47833642224302,61.175534697073985],[21.503323021761172,61.16632910777754],[21.47570625387219,61.163698939407425],[21.461240327835057,61.16764419196353],[21.45071965435395,61.16632910777754],[21.465185580390994,61.14528776081533],[21.495432516650098,61.134767087334666],[21.503323021761172,61.122931329667125],[21.49806268502022,61.112410656185574],[21.47307608550207,61.112410656185574],[21.46650066457601,61.103205066889124],[21.480966590613054,61.093999477592675],[21.474391169687085,61.083478804111124],[21.48491184316899,61.07953355155679],[21.49806268502022,61.08610897248125],[21.51384369524228,61.08084863574092],[21.51384369524228,61.07032796225937],[21.49148726409496,61.06901287807524],[21.467815748761115,61.06901287807524],[21.454664906909798,61.08216371992691],[21.429678307390937,61.09005422503745],[21.40732187624282,61.087424056667246],[21.392855950205774,61.09268439340757],[21.386280529280516,61.08610897248125],[21.411267128798755,61.07164304644536],[21.420472718094757,61.06375254133313],[21.43493864413189,61.04928661529724],[21.4112671287984,61.042711194370916],[21.395486118576606,61.05717712040858],[21.365239182317502,61.06375254133313],[21.349458172095442,61.0769033831848],[21.336307330243503,61.09005422503745],[21.31263581491028,61.091369309223445],[21.311320730725264,61.067697793889245],[21.324471572576492,61.05060169948137],[21.338937498613536,61.04139611018492],[21.367869350687624,61.02693018414904],[21.35077325628046,61.0216698474087],[21.363924098132486,61.01509442648149],[21.375759855798698,61.008519005557034],[21.373129687428577,60.99931341626049],[21.3849654450947,60.99010782696316],[21.402061539502665,60.98616257440882],[21.413897297168788,60.97827206929651],[21.415212381353893,60.96775139581496],[21.442829149242964,60.9559156381483],[21.45071965435395,60.936189375372166],[21.452034738538966,60.913832944223955],[21.445459317612997,60.887531260520525],[21.408636960428723,60.874380418667876],[21.386280529280516,60.874380418667876],[21.366554266502607,60.86912008192665],[21.37181460324356,60.85333907170575],[21.36918443487264,60.83492789311188],[21.386280529280516,60.82572230381632],[21.415212381353893,60.82046196707599],[21.411267128798755,60.80994129359444],[21.398116286946728,60.80073570429799],[21.404691707872786,60.77443402059359],[21.427048139020815,60.77574910477958],[21.452034738538966,60.783639609890116],[21.47833642224302,60.78626977826024],[21.49148726409496,60.779694357335785],[21.49148726409496,60.769173683855115],[21.47833642224302,60.75865301037179],[21.465185580390994,60.75339267363146],[21.503323021761172,60.74681725270602],[21.51384369524228,60.7402418317797],[21.495432516650098,60.73761166340958],[21.477021338058005,60.73761166340958],[21.463870496205978,60.73892674759371],[21.446774401798812,60.73761166340958],[21.45729507527992,60.721830653187695],[21.461240327835856,60.70867981133691],[21.449404570168934,60.69552896948338],[21.43230847576177,60.69552896948338],[21.417842549724725,60.69552896948338],[21.408636960428723,60.696844053669366],[21.398116286946728,60.70473455877982],[21.38102019253965,60.70473455877982],[21.366554266502607,60.70473455877982],[21.36918443487264,60.69289880111316],[21.383650360909684,60.67054236996505],[21.3849654450947,60.65870661229928],[21.402061539502665,60.650816107186955],[21.421787802279862,60.638980349521276],[21.436253728316906,60.63503509696517],[21.438883896687827,60.615308834187076],[21.445459317612997,60.5995278239652],[21.454664906909798,60.59032223466875],[21.470445917131947,60.58374681374332],[21.50069285339105,60.591637318854744],[21.5164738636132,60.59821273978107],[21.537515210576213,60.59821273978107],[21.558556557538427,60.59821273978107],[21.57959790450153,60.59426748722487],[21.603269419834575,60.58769206629863],[21.62036551424174,60.57848647700307],[21.622995682612572,60.569280887705645],[21.59800908309442,60.575856308632865],[21.5664470626495,60.56796580352241],[21.5664470626495,60.55876021422499],[21.58880349379753,60.540349035632985],[21.612475009130755,60.52588310959531],[21.594063830538484,60.51404735192866],[21.5861733254275,60.50352667844711],[21.584858241242483,60.496951257520784],[21.607214672390512,60.496951257520784],[21.6361465244646,60.504841762633106],[21.66113312398275,60.51404735192866],[21.675599050019795,60.52982836215054],[21.678229218389916,60.54560937237331],[21.67033871327884,60.56007529841098],[21.655872787241798,60.56139038259519],[21.64535211376069,60.57191105607674],[21.65455770305678,60.575856308632865],[21.662448208167767,60.58374681374332],[21.650612450501644,60.59558257141086],[21.663763292352872,60.59558257141086],[21.678229218389916,60.58506189792931],[21.696640396982808,60.58506189792931],[21.705845986278987,60.589007150483646],[21.69927056535293,60.60610324489152],[21.713736491389973,60.60215799233541],[21.72425716487108,60.589007150483646],[21.74266834346406,60.589007150483646],[21.74266834346406,60.59821273978107],[21.75187393276015,60.611363581632745],[21.76765494298221,60.611363581632745],[21.772602661236956,60.612188201341965],[21.79921696342642,60.61662391837307],[21.826833731315403,60.6218842551134],[21.841299657352447,60.627144591853735],[21.85576558338958,60.64292560207562],[21.870231509426535,60.64424068626161],[21.872861677796656,60.63240492859495],[21.854450499203764,60.61662391837307],[21.829463899685525,60.611363581632745],[21.818943226204418,60.6034730765214],[21.813682889463465,60.59426748722487],[21.829463899685525,60.59032223466875],[21.818943226204418,60.57191105607674],[21.834724236426478,60.565335635151314],[21.83077898387054,60.5429792040031],[21.8373544047966,60.52588310959531],[21.836039320611494,60.51010209937246],[21.818943226204418,60.506156846817234],[21.792641542500363,60.49432108915066],[21.776860532278302,60.485115499855105],[21.795271710871283,60.47590991055857],[21.826833731315403,60.481170247298905],[21.84655999409269,60.49037583659633],[21.854450499203764,60.50352667844711],[21.876806930351794,60.504841762633106],[21.863656088500566,60.49037583659633],[21.84409421124563,60.4681837909702],[21.808586938246282,60.46522485155405],[21.806614311968403,60.45832065958169],[21.84212158496766,60.45536172016545],[21.836203706134555,60.4435259624979],[21.848039463801477,60.434649144249356],[21.878615171106702,60.43859439680361],[21.876642544828734,60.42281338658181],[21.85592996891255,60.410977628915155],[21.834231079856586,60.4090050026371],[21.836203706134555,60.388292426720916],[21.848039463801477,60.36659353766486],[21.884533049939808,60.36067565883149],[21.918067696661897,60.36067565883149],[21.944698151411984,60.357716719415336],[21.985136990106163,60.3498262143048],[22.023603202522374,60.345880961748676],[22.025575828800342,60.36166197197145],[22.023603202522374,60.37448404277709],[22.00486325288416,60.37842929533143],[21.98020542441204,60.38631980044286],[21.981191737551026,60.39618293183137],[21.993027495217238,60.40308712380373],[21.990068555800995,60.42281338658181],[21.98020542441204,60.430703891693156],[21.97132860616207,60.43563545738745],[21.96146547477303,60.4435259624979],[21.94864340396792,60.451416467609334],[21.956533909078907,60.45832065958169],[21.94568446455097,60.46719747783122],[21.92595820177297,60.46226591213781],[21.918067696661897,60.46719747783122],[21.897355120745715,60.47903323549778],[21.906231938995774,60.486923740609214],[21.915108757245743,60.49678687199773],[21.913136130967775,60.50467737711004],[21.906231938995774,60.52045838733193],[21.906231938995774,60.5372257106919],[21.920040322939865,60.54906146835856],[21.944698151411984,60.54906146835856],[21.967383353606134,60.53229414499769],[21.981191737551292,60.515526821637714],[22.001904313467207,60.50960894280345],[22.017685323689268,60.50960894280345],[22.0344526470504,60.49580055885963],[22.05220628355043,60.47804692235969],[22.068973606911474,60.4681837909702],[22.085740930272518,60.46522485155405],[22.119275576994696,60.45536172016545],[22.14097446604986,60.452402780749296],[22.16563229452189,60.463252225275994],[22.19029012299401,60.45832065958169],[22.225797395994068,60.449443841331274],[22.245523658772154,60.43662177052555],[22.231715274827174,60.42577232599797],[22.19226274927198,60.417881820887516],[22.185358557299978,60.40703237636082],[22.198180628105085,60.39026505299897],[22.203112193800006,60.38434717416569],[22.224811082855084,60.38533348730378],[22.252427850744155,60.38631980044286],[22.259332042716245,60.39223767927703],[22.271167800382457,60.39223767927703],[22.297798255132456,60.39421030555518],[22.3076613865215,60.382374547887636],[22.35105916463263,60.39026505299897],[22.408265326687854,60.39618293183137],[22.480266185826242,60.406046063220856],[22.505910327437256,60.40999131577706],[22.512154480943153,60.405188120772124],[22.518732398242452,60.40012818438757],[22.495060882909318,60.387306113582824],[22.521691337659405,60.37645666905524],[22.584815378547734,60.37349772963722],[22.604541641325643,60.37645666905524],[22.62426790410373,60.38434717416569],[22.643007853741942,60.39519661869328],[22.64892573257576,60.38927873986088],[22.623281590964744,60.37349772963722],[22.625254217242713,60.36166197197145],[22.60355532818666,60.357716719415336],[22.586788004825703,60.34390833547151],[22.551280731826356,60.323195759556306],[22.553253358103525,60.306428436194466],[22.54536285299254,60.29459267852692],[22.526622903353527,60.28867479969452],[22.518732398242452,60.27979798144313],[22.495060882909318,60.27683904202698],[22.495060882909318,60.26401697122125],[22.483225125243194,60.25316752669464],[22.514787145687315,60.24823596100035],[22.546349166131435,60.26204434494319],[22.584815378547734,60.27190747633268],[22.630185782936834,60.28275692086213],[22.635117348630867,60.27585272888879],[22.614404772714686,60.269934850054625],[22.593692196797704,60.26401697122125],[22.604541641325643,60.24922227413844],[22.61539108585367,60.245277021582325],[22.598623762492625,60.234427577054745],[22.57495224715949,60.2314686376385],[22.571006994603554,60.2265370719442],[22.539444974159434,60.2265370719442],[22.54536285299254,60.21075606172232],[22.5680480551866,60.21075606172232],[22.59763744935364,60.215687627416614],[22.602569015047763,60.211742374860506],[22.59467850993669,60.19694767777672],[22.567061742048416,60.19694767777672],[22.546349166131435,60.18905717266627],[22.525636590215342,60.18905717266627],[22.50689664057624,60.19497505150052],[22.496047196048302,60.19497505150052],[22.483225125243194,60.192016112082506],[22.469416741298215,60.192016112082506],[22.45462204421514,60.18412560697196],[22.45462204421514,60.17524878872244],[22.430950528882004,60.17327616244438],[22.424046336909914,60.16637197047203],[22.422073710632034,60.15157727338833],[22.43686840771511,60.14664570769403],[22.455608357354123,60.15552252594444],[22.486184064659348,60.14763202083399],[22.524650277076358,60.145659394555935],[22.562130176353584,60.14664570769403],[22.587774317964687,60.14368676827689],[22.61539108585367,60.1377688894445],[22.6134184595757,60.13086469747215],[22.586788004825703,60.1377688894445],[22.564102802631552,60.1377688894445],[22.53155446904836,60.134809950028256],[22.486184064659348,60.12889207119409],[22.458567296771076,60.11804262666651],[22.439827347131974,60.121001566082654],[22.439827347131974,60.11212474783411],[22.45264941793717,60.10127530330555],[22.474348306993136,60.10028899016656],[22.48223881210421,60.09239848505602],[22.478293559548273,60.08450797994557],[22.45264941793717,60.08352166680561],[22.428977902604036,60.09141217191606],[22.393470629604778,60.08056272738848],[22.36684017485469,60.07464484855608],[22.36684017485469,60.045055454389484],[22.379662245659887,60.02730181788955],[22.39840219529881,60.02138393905715],[22.401361134715764,60.00067136313919],[22.413196892381976,59.996726110583964],[22.430950528882004,60.00856186825151],[22.435882094576126,59.998698736862025],[22.42996421574302,59.99080823175157],[22.444758912826096,59.98489035291731],[22.45462204421514,59.98883560547351],[22.453635731076155,60.0056029288335],[22.46349886246511,60.01743868650015],[22.480266185826242,60.00856186825151],[22.519718711381437,60.00757555511155],[22.563116489492568,60.009548181389604],[22.589746944242656,60.00856186825151],[22.61045952015875,60.015466060222],[22.621308964686776,60.009548181389604],[22.63117209607573,60.011520807667665],[22.645966793158895,60.02532919161149],[22.666679369075876,60.03124707044575],[22.687391944992058,60.028288131027736],[22.69035088440901,60.01250712080585],[22.71500871288104,60.01053449452779],[22.731776036242174,60.01053449452779],[22.76037911726943,60.0056029288335],[22.750515985880387,60.01250712080585],[22.743611793908297,60.02039762591719],[22.757420177852477,60.02532919161149],[22.7692559355194,60.03026075730579],[22.759392804130446,60.03815126241624],[22.768269622380416,60.04604176752767],[22.773201188075248,60.062809090888535],[22.775173814352417,60.07365853541612],[22.795886390269487,60.07760378797232],[22.818571592463638,60.08056272738848],[22.83928416838053,60.08549429308367],[22.85506517860268,60.09042585877796],[22.857037804879848,60.098316363888415],[22.858024118018832,60.109165808416094],[22.881695633351878,60.122974192360715],[22.87972300707471,60.13185101061024],[22.862955683713754,60.13974151572256],[22.862955683713754,60.14960464711018],[22.864928309990923,60.16439934419397],[22.840270481518715,60.16834459675008],[22.849147299768774,60.17820772813868],[22.862955683713754,60.17820772813868],[22.885640885907815,60.180180354416734],[22.885640885907815,60.17228984930628],[22.8866271990468,60.156508839082534],[22.90931240124095,60.13974151572256],[22.93890179540719,60.13086469747215],[22.969477502713215,60.12691944491603],[22.998080583740382,60.12396050549979],[23.027669977907422,60.122974192360715],[23.050355180101484,60.122974192360715],[23.050355180101484,60.11015212155596],[23.03161523046256,60.10324792958272],[23.028656291046193,60.091412171917]]]]}},{"type":"Feature","properties":{"kind":"district","id":"uyezd-1897-10","name":"Икалисский","provinceId":"gubernia-1897-41"},"geometry":{"type":"MultiPolygon","coordinates":[[[[22.37867800941236,61.73088777218895],[22.4262672295295,61.702334240118006],[22.4714769886401,61.69162666559257],[22.58450138641686,61.68210882156925],[22.620193301504138,61.696385587602904],[22.684438748662,61.696385587602904],[22.73083823827507,61.71899046715953],[22.752253387327453,61.690436935089565],[22.822447486999447,61.67378070804804],[22.861708593595914,61.623812026926316],[22.874795629128336,61.613104452399995],[23.013994097969054,61.57384334580362],[23.027081133501476,61.58455092033003],[23.0437373605422,61.57979199831881],[23.03897843853054,61.56789469328851],[23.060393587582922,61.56313577127729],[23.092516311161898,61.58930984234213],[23.11155199920845,61.58693038133515],[23.10441361619096,61.56789469328851],[23.119880112728325,61.56313577127729],[23.122259573734155,61.536961700212444],[23.230525049499345,61.5179260121658],[23.276924539113214,61.5191157426689],[23.31618564570959,61.52744385618912],[23.329272681242013,61.53577196971033],[23.388759206387505,61.525064395184],[23.41374354694899,61.55361792725397],[23.449435462036266,61.561946040775176],[23.486317107626814,61.60001741686846],[23.480368455111883,61.6190531049151],[23.491076029638474,61.640468253966866],[23.482747916117713,61.6606936725166],[23.52438848371992,61.710662353639215],[23.57673662584792,61.73088777218895],[23.601720966409406,61.74992346023559],[23.6159977324443,61.761820765264034],[23.637412881496683,61.76063103476103],[23.631464228981752,61.78204618381368],[23.610049079929368,61.79513321934522],[23.608859349426897,61.89269112058443],[23.594582583392004,61.921244652654394],[23.56245985981303,61.920054922151394],[23.475609533100222,61.96407495075979],[23.393518128399165,61.9260035746665],[23.269786156095723,61.97359279478222],[23.213868822458622,62.01404363188249],[23.217438013967723,62.03545878093425],[23.231714780002704,62.04973554696879],[23.294770496657208,62.079478809541754],[23.288821844142277,62.0973247670854],[23.334031603253674,62.11873991613814],[23.3542570218027,62.11873991613814],[23.3542570218027,62.12944749066535],[23.385190014878315,62.153242100723205],[23.450062802538866,62.150911624083164],[23.433406575498168,62.172326773134955],[23.40128385191923,62.1996905747028],[23.3572638233112,62.23895168129911],[23.30253622017733,62.279402518397546],[23.21806535447041,62.324612277509004],[23.120475443403215,62.30357222320528],[23.002692123614526,62.2762084216384],[22.957482364503928,62.2762084216384],[22.895616378352074,62.25955219459688],[22.77426386705544,62.27144949962719],[22.631496206705442,62.28810572666684],[22.592235100109242,62.2643111166081],[22.57081995105668,62.2262397405157],[22.52561019194617,62.22386027950961],[22.51252315641357,62.19649647794273],[22.47683124132603,62.20006566945086],[22.43994959573619,62.16437375436456],[22.364996574052448,62.10607695972163],[22.249592715269323,62.107266690224634],[22.19486511213576,62.03945205155749],[22.02235418921253,61.97401687389724],[22.015810206023062,61.95931602874768],[21.981308021439055,61.91053707812807],[22.04555346859612,61.852240283485145],[22.10028107173075,61.836773786948484],[22.087194036198326,61.7975126803522],[22.147870291847177,61.772528339790355],[22.20497735598675,61.766579687275254],[22.254946037109008,61.699954779112886],[22.26208442012721,61.73921588570918],[22.344175824828355,61.74397480771951],[22.37867800941236,61.73088777218895]]]]}},{"type":"Feature","properties":{"kind":"district","id":"uyezd-1897-11","name":"Ульфсбюский","provinceId":"gubernia-1897-41"},"geometry":{"type":"MultiPolygon","coordinates":[[[[22.02235418921253,61.97401687389724],[21.89743248640635,61.99781148395599],[21.741577790524552,62.015657441498746],[21.68685018739019,62.00970878898443],[21.566687406595936,62.01922663300873],[21.44295543429285,62.01327798049442],[21.395486118576695,61.94880419796124],[21.420472718094757,61.951434366330474],[21.452034738538966,61.94354386121904],[21.413897297168788,61.93170810355239],[21.43493864413189,61.92250251425506],[21.449404570168934,61.92250251425506],[21.442829149242964,61.90014608310871],[21.463870496205978,61.89094049381218],[21.47570625387219,61.88041982033063],[21.483596758983175,61.86200864173685],[21.49411743246508,61.834391873848304],[21.508583358502126,61.818610863626425],[21.511213526872247,61.79625443247822],[21.51384369524228,61.77126783295989],[21.52304928453917,61.76206224366433],[21.549350968242337,61.756801906924],[21.56381689427938,61.75548682273801],[21.578282820316513,61.737075644146],[21.59537891472359,61.723924802293354],[21.62036551424174,61.709458876257465],[21.641406861204754,61.69367786603381],[21.650612450500844,61.684472276739136],[21.633516356093768,61.67789685581192],[21.619050430056724,61.67132143488746],[21.630886187723647,61.66211584559004],[21.622995682612572,61.65554042466371],[21.594063830538484,61.658170593035706],[21.594063830538484,61.652910256293595],[21.59800908309442,61.64501975118314],[21.61379009331657,61.63581416188758],[21.62957110353863,61.63449907770159],[21.615105177501587,61.62397840422093],[21.632201271908663,61.617402983293715],[21.612475009130755,61.61214264655338],[21.616420261686603,61.593731467961376],[21.658502955612718,61.57137503681317],[21.726887333242,61.54770352147897],[21.797901879241316,61.51614150103521],[21.78343595320436,61.50956608010897],[21.75581918531529,61.52140183777554],[21.741353259279045,61.52403200614664],[21.73609292253809,61.5174565852212],[21.718996828130926,61.522716921960644],[21.72031191231603,61.51219624847909],[21.70190073372305,61.522716921960644],[21.707161070464004,61.53586776381329],[21.697955481167913,61.53981301636852],[21.671653797463946,61.53849793218342],[21.65192753468675,61.54770352147897],[21.637461608649616,61.555594026591294],[21.609844840760633,61.56216944751672],[21.582228072871562,61.5766353735535],[21.55461130498329,61.579265541923625],[21.52041911616825,61.5805806261105],[21.517788947798216,61.57137503681317],[21.549350968242337,61.55822419496141],[21.567762146835317,61.546388437294844],[21.54803588405732,61.534552679627296],[21.56381689427938,61.52929234288697],[21.587488409612515,61.53323759544308],[21.60458450401968,61.530607427072965],[21.6361465244646,61.508250995924755],[21.630886187723647,61.496415238257214],[21.603269419834575,61.49246998570287],[21.574337567760576,61.485894564776544],[21.55461130498329,61.48983981733275],[21.544090631501472,61.49904540662742],[21.49806268502022,61.50956608010897],[21.45992524365004,61.51219624847909],[21.45992524365004,61.50167557499843],[21.487542011539023,61.49246998570287],[21.502007937576156,61.485894564776544],[21.521734200354064,61.485894564776544],[21.54803588405732,61.47668897548196],[21.5664470626495,61.449072207590675],[21.55461130498329,61.434606281554785],[21.53225487383526,61.42934594481446],[21.502007937576156,61.43197611318466],[21.47307608550207,61.42803086062855],[21.44151406505786,61.424085608072346],[21.458610159464936,61.413564934590795],[21.48491184316899,61.41224985040667],[21.50463810594619,61.40698951366633],[21.52962470546514,61.396468840185676],[21.536200126390398,61.38463308251813],[21.537515210576213,61.36885207229625],[21.54146046313135,61.3570163146287],[21.525679452909202,61.3570163146287],[21.536200126390398,61.34781072533225],[21.55724147335341,61.34781072533225],[21.582228072871562,61.35438614625858],[21.576967736131408,61.3372900518507],[21.558556557538427,61.33334479929637],[21.545405715687288,61.32282412581392],[21.56118672590926,61.30967328396217],[21.56118672590926,61.297837526295595],[21.537515210576213,61.30046769466572],[21.519104031983233,61.307043115592045],[21.49806268502022,61.3149336207025],[21.505953190131294,61.30046769466572],[21.526994537094307,61.29389227374028],[21.55461130498329,61.28994702118417],[21.545405715687288,61.282056516073716],[21.526994537094307,61.28074143188772],[21.496747600835114,61.28468668444384],[21.48491184316899,61.282056516073716],[21.502007937576156,61.26496042166584],[21.54803588405732,61.25575483237117],[21.583543157057377,61.24128890633351],[21.617735345871708,61.236028569592285],[21.61115992494565,61.22945314866596],[21.59537891472359,61.22682298029575],[21.590118577983347,61.22419281192563],[21.567762146835317,61.22419281192563],[21.55461130498329,61.222877727739636],[21.54146046313135,61.20578163333363],[21.525679452909202,61.20446654914763],[21.51384369524228,61.211041970073865],[21.512528611057263,61.20315146496341],[21.536200126390398,61.18737045474153],[21.53883029476123,61.17947994962921],[21.52304928453917,61.174219612887995],[21.51384369524228,61.184740286369546],[21.487542011539023,61.184740286369546],[21.43493864413189,61.18342520218542],[21.43230847576177,61.176849781259094],[21.45992524365004,61.175534697073985],[21.47833642224302,61.175534697073985],[21.503323021761172,61.16632910777754],[21.47570625387219,61.163698939407425],[21.461240327835057,61.16764419196353],[21.45071965435395,61.16632910777754],[21.465185580390994,61.14528776081533],[21.495432516650098,61.134767087334666],[21.503323021761172,61.122931329667125],[21.49806268502022,61.112410656185574],[21.47307608550207,61.112410656185574],[21.46650066457601,61.103205066889124],[21.480966590613054,61.093999477592675],[21.474391169687085,61.083478804111124],[21.48491184316899,61.07953355155679],[21.49806268502022,61.08610897248125],[21.51384369524228,61.08084863574092],[21.51384369524228,61.07032796225937],[21.49148726409496,61.06901287807524],[21.467815748761115,61.06901287807524],[21.454664906909798,61.08216371992691],[21.429678307390937,61.09005422503745],[21.40732187624282,61.087424056667246],[21.392855950205774,61.09268439340757],[21.386280529280516,61.08610897248125],[21.411267128798755,61.07164304644536],[21.420472718094757,61.06375254133313],[21.43493864413189,61.04928661529724],[21.4112671287984,61.042711194370916],[21.486317859362863,61.01207219219306],[21.562460611549078,61.06085114281276],[21.606480640157116,61.046574376778224],[21.63265471122116,61.06561006482487],[21.706418002402255,61.06204087331665],[21.83014997470561,61.01445165320004],[21.880118655827868,60.977570007608875],[21.861082967781314,60.962103511070445],[21.8824981168337,60.94782674503591],[21.93722571996744,60.95139593654589],[21.925328414938377,60.93354997900048],[21.968158713043145,60.93473970950437],[22.012178741651184,60.893099141902965],[22.075234458305776,60.893099141902965],[22.129565484605923,60.899840948084645],[22.16406766918993,60.87485660752466],[22.195195127407313,60.84665362396572],[22.270148149090968,60.86212012050335],[22.332014135243,60.88710446106511],[22.3284449437339,60.90098465026587],[22.27133787959424,60.91764087730739],[22.2308870424945,60.94857387038336],[22.297511950658283,61.0009220125103],[22.234456234003602,61.05802907665111],[22.196384857910495,61.105618296767716],[22.22136919847118,61.11989506280226],[22.209471893442117,61.1389307508489],[22.21780000696288,61.16629455241586],[22.208282162939646,61.18295077945729],[22.185677283383903,61.181761048953405],[22.188056744389733,61.191278892976726],[22.16664159533744,61.19841727599395],[22.161882673325778,61.21983242504669],[22.17259024785237,61.261472992649956],[22.12381129723267,61.27812921968962],[22.054806928063147,61.29954436874324],[22.06075558057808,61.3173903262859],[22.12024210572357,61.326908170309224],[22.12381129723267,61.34594385835587],[22.098826956671186,61.36378981589951],[22.17615943936067,61.426845532553656],[22.238025425511992,61.40662011400401],[22.347480631780364,61.42446607154854],[22.445038533019762,61.481573135688464],[22.44464195618528,61.50060882373511],[22.338755941426008,61.53749046932627],[22.262613189238994,61.570802923406475],[22.328048366899417,61.60530510799253],[22.438693303670348,61.652894328109134],[22.378017048022386,61.68858624319543],[22.370878665004184,61.713570583757274],[22.37867800941236,61.73088777218895],[22.344175824828355,61.74397480771951],[22.26208442012721,61.73921588570918],[22.254946037109008,61.699954779112886],[22.20497735598675,61.766579687275254],[22.147870291847177,61.772528339790355],[22.087194036198326,61.7975126803522],[22.10028107173075,61.836773786948484],[22.04555346859612,61.852240283485145],[21.981308021439055,61.91053707812807],[22.015810206023062,61.95931602874768],[22.02235418921253,61.97401687389724]]]]}},{"type":"Feature","properties":{"kind":"district","id":"uyezd-1897-12","name":"Маскуский","provinceId":"gubernia-1897-41"},"geometry":{"type":"MultiPolygon","coordinates":[[[[22.195195127407313,60.84665362396572],[22.241594617021093,60.80858224787244],[22.296322220155012,60.77289033278613],[22.332014135243,60.77408006328923],[22.415295270446617,60.74790599222439],[22.343911440272063,60.73006003467986],[22.241594617021093,60.715783268646206],[22.111913992203608,60.68604000607324],[22.07622207711553,60.66343512651661],[22.041719892531614,60.640830246961755],[21.984612828391153,60.627743211430314],[22.034581509514123,60.56230803376918],[21.998889594426046,60.533754501699214],[21.981191737551292,60.515526821637714],[22.001904313467207,60.50960894280345],[22.017685323689268,60.50960894280345],[22.0344526470504,60.49580055885963],[22.05220628355043,60.47804692235969],[22.068973606911474,60.4681837909702],[22.085740930272518,60.46522485155405],[22.119275576994696,60.45536172016545],[22.14097446604986,60.452402780749296],[22.16563229452189,60.463252225275994],[22.19029012299401,60.45832065958169],[22.225797395994068,60.449443841331274],[22.245523658772154,60.43662177052555],[22.231715274827174,60.42577232599797],[22.19226274927198,60.417881820887516],[22.185358557299978,60.40703237636082],[22.198180628105085,60.39026505299897],[22.203112193800006,60.38434717416569],[22.224811082855084,60.38533348730378],[22.252427850744155,60.38631980044286],[22.259332042716245,60.39223767927703],[22.271167800382457,60.39223767927703],[22.297798255132456,60.39421030555518],[22.3076613865215,60.382374547887636],[22.35105916463263,60.39026505299897],[22.408265326687854,60.39618293183137],[22.480266185826242,60.406046063220856],[22.505910327437256,60.40999131577706],[22.51215448094324,60.40518812077231],[22.531888859732568,60.42548902593447],[22.511663441182744,60.457611749512644],[22.54378616476163,60.473078246051074],[22.59851376789546,60.488544742589596],[22.658000293041752,60.51709827465956],[22.69964086064325,60.54446207622554],[22.780542534841747,60.52780584918588],[22.85311609551966,60.5254263881789],[22.867392861554553,60.51471881365257],[22.91141289016259,60.528995579687106],[22.970899415308082,60.53494423220222],[23.047042167494297,60.546841537232524],[23.11485680616046,60.56706695578039],[23.187430366838374,60.58610264382703],[23.232640125949683,60.58729237433004],[23.242157969973004,60.59443075734824],[23.26396969585978,60.62357915466966],[23.200517402370796,60.699721906855345],[23.155307643260198,60.76178618142515],[23.126754111189523,60.74750941538973],[23.044662706488467,60.69754073426702],[23.023247557435994,60.6951612732619],[22.96138157128476,60.705868847788224],[22.881669627589446,60.73799157136641],[22.80552687540323,60.77844240846481],[22.769834960315155,60.784391060979914],[22.767455499309413,60.808185671037776],[22.80076795339086,60.82008297606808],[22.786491187355878,60.85220569964626],[22.782921995847577,60.88075923171711],[22.771024690818514,60.92953818233672],[22.735332775731237,60.92477926032373],[22.680605172596607,60.91169222479219],[22.623498108456946,60.9128819552952],[22.547355356269932,60.94857387038336],[22.503335327662782,60.95690198390368],[22.473592065089548,60.954522522896696],[22.416485000949976,60.93548683485005],[22.391500660388402,60.9200203383134],[22.3284449437339,60.90098465026587],[22.332014135243,60.88710446106511],[22.270148149090968,60.86212012050335],[22.195195127407313,60.84665362396572]]]]}},{"type":"Feature","properties":{"kind":"district","id":"uyezd-1897-13","name":"Вемоский","provinceId":"gubernia-1897-41"},"geometry":{"type":"MultiPolygon","coordinates":[[[[22.129565484605923,60.899840948084645],[22.043904888395677,60.86890795500956],[22.055802193424828,60.85582091947714],[22.01297189532006,60.8498722669638],[21.915413994080662,60.79038574181689],[21.79406148278314,60.7154327201343],[21.832132858877046,60.655946194988275],[21.805958787813,60.64761808146796],[21.758369567695862,60.63096185442653],[21.772602661236956,60.612188201341965],[21.79921696342642,60.61662391837307],[21.826833731315403,60.6218842551134],[21.841299657352447,60.627144591853735],[21.85576558338958,60.64292560207562],[21.870231509426535,60.64424068626161],[21.872861677796656,60.63240492859495],[21.854450499203764,60.61662391837307],[21.829463899685525,60.611363581632745],[21.818943226204418,60.6034730765214],[21.813682889463465,60.59426748722487],[21.829463899685525,60.59032223466875],[21.818943226204418,60.57191105607674],[21.834724236426478,60.565335635151314],[21.83077898387054,60.5429792040031],[21.8373544047966,60.52588310959531],[21.836039320611494,60.51010209937246],[21.818943226204418,60.506156846817234],[21.792641542500363,60.49432108915066],[21.776860532278302,60.485115499855105],[21.795271710871283,60.47590991055857],[21.826833731315403,60.481170247298905],[21.84655999409269,60.49037583659633],[21.854450499203764,60.50352667844711],[21.876806930351794,60.504841762633106],[21.863656088500566,60.49037583659633],[21.84409421124563,60.4681837909702],[21.808586938246282,60.46522485155405],[21.806614311968403,60.45832065958169],[21.84212158496766,60.45536172016545],[21.836203706134555,60.4435259624979],[21.848039463801477,60.434649144249356],[21.878615171106702,60.43859439680361],[21.876642544828734,60.42281338658181],[21.85592996891255,60.410977628915155],[21.834231079856586,60.4090050026371],[21.836203706134555,60.388292426720916],[21.848039463801477,60.36659353766486],[21.884533049939808,60.36067565883149],[21.918067696661897,60.36067565883149],[21.944698151411984,60.357716719415336],[21.985136990106163,60.3498262143048],[22.023603202522374,60.345880961748676],[22.025575828800342,60.36166197197145],[22.023603202522374,60.37448404277709],[22.00486325288416,60.37842929533143],[21.98020542441204,60.38631980044286],[21.981191737551026,60.39618293183137],[21.993027495217238,60.40308712380373],[21.990068555800995,60.42281338658181],[21.98020542441204,60.430703891693156],[21.97132860616207,60.43563545738745],[21.96146547477303,60.4435259624979],[21.94864340396792,60.451416467609334],[21.956533909078907,60.45832065958169],[21.94568446455097,60.46719747783122],[21.92595820177297,60.46226591213781],[21.918067696661897,60.46719747783122],[21.897355120745715,60.47903323549778],[21.906231938995774,60.486923740609214],[21.915108757245743,60.49678687199773],[21.913136130967775,60.50467737711004],[21.906231938995774,60.52045838733193],[21.906231938995774,60.5372257106919],[21.920040322939865,60.54906146835856],[21.944698151411984,60.54906146835856],[21.967383353606134,60.53229414499769],[21.981191737551292,60.515526821637714],[21.998889594426046,60.533754501699214],[22.034581509514123,60.56230803376918],[21.984612828391153,60.627743211430314],[22.041719892531614,60.640830246961755],[22.07622207711553,60.66343512651661],[22.111913992203608,60.68604000607324],[22.241594617021093,60.715783268646206],[22.343911440272063,60.73006003467986],[22.415295270446617,60.74790599222439],[22.332014135243,60.77408006328923],[22.296322220155012,60.77289033278613],[22.241594617021093,60.80858224787244],[22.195195127407313,60.84665362396572],[22.16406766918993,60.87485660752466],[22.129565484605923,60.899840948084645]]]]}},{"type":"Feature","properties":{"kind":"district","id":"uyezd-1897-18","name":"Пикисский","provinceId":"gubernia-1897-41"},"geometry":{"type":"MultiPolygon","coordinates":[[[[23.73437974076072,60.47642908132548],[23.67965213762609,60.47167015931436],[23.616596420971586,60.47880854233069],[23.57971477538175,60.48951611685702],[23.58804288890171,60.50260315239032],[23.513089867218056,60.50974153540666],[23.497623370680603,60.52044910993396],[23.497623370680603,60.53591560647062],[23.514279597721327,60.534725875968505],[23.516659058727157,60.55733075552327],[23.52498717224712,60.59183294010843],[23.497623370680603,60.59183294010843],[23.439326576037672,60.547812911499946],[23.395306547429634,60.540674528483606],[23.348907057815765,60.543053989488726],[23.297748646190236,60.56684859954659],[23.251349156577167,60.58945347910322],[23.232640125949683,60.58729237433004],[23.187430366838374,60.58610264382703],[23.11485680616046,60.56706695578039],[23.047042167494297,60.546841537232524],[22.970899415308082,60.53494423220222],[22.91141289016259,60.528995579687106],[22.867392861554553,60.51471881365257],[22.85311609551966,60.5254263881789],[22.780542534841747,60.52780584918588],[22.69964086064325,60.54446207622554],[22.658000293041752,60.51709827465956],[22.59851376789546,60.488544742589596],[22.54378616476163,60.473078246051074],[22.511663441182744,60.457611749512644],[22.531888859732568,60.42548902593447],[22.51215448094324,60.40518812077231],[22.518732398242452,60.40012818438757],[22.495060882909318,60.387306113582824],[22.521691337659405,60.37645666905524],[22.584815378547734,60.37349772963722],[22.604541641325643,60.37645666905524],[22.62426790410373,60.38434717416569],[22.643007853741942,60.39519661869328],[22.64892573257576,60.38927873986088],[22.623281590964744,60.37349772963722],[22.625254217242713,60.36166197197145],[22.60355532818666,60.357716719415336],[22.586788004825703,60.34390833547151],[22.551280731826356,60.323195759556306],[22.553253358103525,60.306428436194466],[22.54536285299254,60.29459267852692],[22.526622903353527,60.28867479969452],[22.518732398242452,60.27979798144313],[22.495060882909318,60.27683904202698],[22.495060882909318,60.26401697122125],[22.483225125243194,60.25316752669464],[22.514787145687315,60.24823596100035],[22.546349166131435,60.26204434494319],[22.584815378547734,60.27190747633268],[22.630185782936834,60.28275692086213],[22.635117348630867,60.27585272888879],[22.614404772714686,60.269934850054625],[22.593692196797704,60.26401697122125],[22.604541641325643,60.24922227413844],[22.61539108585367,60.245277021582325],[22.598623762492625,60.234427577054745],[22.57495224715949,60.2314686376385],[22.571006994603554,60.2265370719442],[22.539444974159434,60.2265370719442],[22.54536285299254,60.21075606172232],[22.5680480551866,60.21075606172232],[22.59763744935364,60.215687627416614],[22.602569015047763,60.211742374860506],[22.59467850993669,60.19694767777672],[22.567061742048416,60.19694767777672],[22.546349166131435,60.18905717266627],[22.525636590215342,60.18905717266627],[22.50689664057624,60.19497505150052],[22.496047196048302,60.19497505150052],[22.483225125243194,60.192016112082506],[22.469416741298215,60.192016112082506],[22.45462204421514,60.18412560697196],[22.45462204421514,60.17524878872244],[22.430950528882004,60.17327616244438],[22.424046336909914,60.16637197047203],[22.422073710632034,60.15157727338833],[22.43686840771511,60.14664570769403],[22.455608357354123,60.15552252594444],[22.486184064659348,60.14763202083399],[22.524650277076358,60.145659394555935],[22.562130176353584,60.14664570769403],[22.587774317964687,60.14368676827689],[22.61539108585367,60.1377688894445],[22.6134184595757,60.13086469747215],[22.586788004825703,60.1377688894445],[22.564102802631552,60.1377688894445],[22.53155446904836,60.134809950028256],[22.486184064659348,60.12889207119409],[22.458567296771076,60.11804262666651],[22.439827347131974,60.121001566082654],[22.439827347131974,60.11212474783411],[22.45264941793717,60.10127530330555],[22.474348306993136,60.10028899016656],[22.48223881210421,60.09239848505602],[22.478293559548273,60.08450797994557],[22.45264941793717,60.08352166680561],[22.428977902604036,60.09141217191606],[22.393470629604778,60.08056272738848],[22.36684017485469,60.07464484855608],[22.36684017485469,60.045055454389484],[22.379662245659887,60.02730181788955],[22.39840219529881,60.02138393905715],[22.401361134715764,60.00067136313919],[22.413196892381976,59.996726110583964],[22.430950528882004,60.00856186825151],[22.435882094576126,59.998698736862025],[22.42996421574302,59.99080823175157],[22.444758912826096,59.98489035291731],[22.45462204421514,59.98883560547351],[22.453635731076155,60.0056029288335],[22.46349886246511,60.01743868650015],[22.480266185826242,60.00856186825151],[22.519718711381437,60.00757555511155],[22.563116489492568,60.009548181389604],[22.589746944242656,60.00856186825151],[22.61045952015875,60.015466060222],[22.621308964686776,60.009548181389604],[22.63117209607573,60.011520807667665],[22.645966793158895,60.02532919161149],[22.666679369075876,60.03124707044575],[22.687391944992058,60.028288131027736],[22.69035088440901,60.01250712080585],[22.71500871288104,60.01053449452779],[22.731776036242174,60.01053449452779],[22.76037911726943,60.0056029288335],[22.750515985880387,60.01250712080585],[22.743611793908297,60.02039762591719],[22.757420177852477,60.02532919161149],[22.7692559355194,60.03026075730579],[22.759392804130446,60.03815126241624],[22.768269622380416,60.04604176752767],[22.773201188075248,60.062809090888535],[22.775173814352417,60.07365853541612],[22.795886390269487,60.07760378797232],[22.818571592463638,60.08056272738848],[22.83928416838053,60.08549429308367],[22.85506517860268,60.09042585877796],[22.857037804879848,60.098316363888415],[22.858024118018832,60.109165808416094],[22.881695633351878,60.122974192360715],[22.87972300707471,60.13185101061024],[22.862955683713754,60.13974151572256],[22.862955683713754,60.14960464711018],[22.864928309990923,60.16439934419397],[22.840270481518715,60.16834459675008],[22.849147299768774,60.17820772813868],[22.862955683713754,60.17820772813868],[22.885640885907815,60.180180354416734],[22.885640885907815,60.17228984930628],[22.8866271990468,60.156508839082534],[22.90931240124095,60.13974151572256],[22.93890179540719,60.13086469747215],[22.969477502713215,60.12691944491603],[22.998080583740382,60.12396050549979],[23.027669977907422,60.122974192360715],[23.050355180101484,60.122974192360715],[23.050355180101484,60.11015212155596],[23.03161523046256,60.10324792958272],[23.02865629104623,60.09141217191704],[23.038387396555265,60.0826282848603],[23.06456146761922,60.0790590933512],[23.139514489302876,60.087387206871426],[23.200190744951726,60.12188939145659],[23.233503199033173,60.144494271011354],[23.304887029207727,60.1778067250944],[23.335820022284143,60.143304540509234],[23.37151193737142,60.15877103704776],[23.408393582962056,60.15877103704776],[23.497623370680603,60.16234022855588],[23.52498717224712,60.18970403012284],[23.553540704317705,60.202791065654374],[23.63087318700719,60.18970403012284],[23.648719144550473,60.2134986401807],[23.623734803989787,60.228965136719125],[23.610647768457365,60.24800082476577],[23.626114264995618,60.27655435683485],[23.616596420971586,60.28964139236727],[23.67727267662026,60.32414357695332],[23.711774861205065,60.3515073785193],[23.736589906041964,60.37986742976222],[23.74508731528651,60.389578754612586],[23.774830577859657,60.41099390366435],[23.78196896087706,60.42646040020287],[23.753415428807273,60.44192689674041],[23.699877556175913,60.44549608824951],[23.73437974076072,60.47642908132548]]]]}},{"type":"Feature","properties":{"kind":"district","id":"uyezd-1897-558","name":"Вирмоский","provinceId":"gubernia-1897-41"},"geometry":{"type":"MultiPolygon","coordinates":[[[[21.772602661236956,60.612188201341965],[21.758369567695862,60.63096185442653],[21.805958787813,60.64761808146796],[21.832132858877046,60.655946194988275],[21.79406148278314,60.7154327201343],[21.915413994080662,60.79038574181689],[22.01297189532006,60.8498722669638],[22.055802193424828,60.85582091947714],[22.043904888395677,60.86890795500956],[22.129565484605923,60.899840948084645],[22.075234458305776,60.893099141902965],[22.012178741651184,60.893099141902965],[21.968158713043145,60.93473970950437],[21.925328414938377,60.93354997900048],[21.93722571996744,60.95139593654589],[21.8824981168337,60.94782674503591],[21.861082967781314,60.962103511070445],[21.880118655827868,60.977570007608875],[21.83014997470561,61.01445165320004],[21.706418002402255,61.06204087331665],[21.63265471122116,61.06561006482487],[21.606480640157116,61.046574376778224],[21.562460611549078,61.06085114281276],[21.486317859362863,61.01207219219306],[21.4112671287984,61.042711194370916],[21.395486118576606,61.05717712040858],[21.365239182317502,61.06375254133313],[21.349458172095442,61.0769033831848],[21.336307330243503,61.09005422503745],[21.31263581491028,61.091369309223445],[21.311320730725264,61.067697793889245],[21.324471572576492,61.05060169948137],[21.338937498613536,61.04139611018492],[21.367869350687624,61.02693018414904],[21.35077325628046,61.0216698474087],[21.363924098132486,61.01509442648149],[21.375759855798698,61.008519005557034],[21.373129687428577,60.99931341626049],[21.3849654450947,60.99010782696316],[21.402061539502665,60.98616257440882],[21.413897297168788,60.97827206929651],[21.415212381353893,60.96775139581496],[21.442829149242964,60.9559156381483],[21.45071965435395,60.936189375372166],[21.452034738538966,60.913832944223955],[21.445459317612997,60.887531260520525],[21.408636960428723,60.874380418667876],[21.386280529280516,60.874380418667876],[21.366554266502607,60.86912008192665],[21.37181460324356,60.85333907170575],[21.36918443487264,60.83492789311188],[21.386280529280516,60.82572230381632],[21.415212381353893,60.82046196707599],[21.411267128798755,60.80994129359444],[21.398116286946728,60.80073570429799],[21.404691707872786,60.77443402059359],[21.427048139020815,60.77574910477958],[21.452034738538966,60.783639609890116],[21.47833642224302,60.78626977826024],[21.49148726409496,60.779694357335785],[21.49148726409496,60.769173683855115],[21.47833642224302,60.75865301037179],[21.465185580390994,60.75339267363146],[21.503323021761172,60.74681725270602],[21.51384369524228,60.7402418317797],[21.495432516650098,60.73761166340958],[21.477021338058005,60.73761166340958],[21.463870496205978,60.73892674759371],[21.446774401798812,60.73761166340958],[21.45729507527992,60.721830653187695],[21.461240327835856,60.70867981133691],[21.449404570168934,60.69552896948338],[21.43230847576177,60.69552896948338],[21.417842549724725,60.69552896948338],[21.408636960428723,60.696844053669366],[21.398116286946728,60.70473455877982],[21.38102019253965,60.70473455877982],[21.366554266502607,60.70473455877982],[21.36918443487264,60.69289880111316],[21.383650360909684,60.67054236996505],[21.3849654450947,60.65870661229928],[21.402061539502665,60.650816107186955],[21.421787802279862,60.638980349521276],[21.436253728316906,60.63503509696517],[21.438883896687827,60.615308834187076],[21.445459317612997,60.5995278239652],[21.454664906909798,60.59032223466875],[21.470445917131947,60.58374681374332],[21.50069285339105,60.591637318854744],[21.5164738636132,60.59821273978107],[21.537515210576213,60.59821273978107],[21.558556557538427,60.59821273978107],[21.57959790450153,60.59426748722487],[21.603269419834575,60.58769206629863],[21.62036551424174,60.57848647700307],[21.622995682612572,60.569280887705645],[21.59800908309442,60.575856308632865],[21.5664470626495,60.56796580352241],[21.5664470626495,60.55876021422499],[21.58880349379753,60.540349035632985],[21.612475009130755,60.52588310959531],[21.594063830538484,60.51404735192866],[21.5861733254275,60.50352667844711],[21.584858241242483,60.496951257520784],[21.607214672390512,60.496951257520784],[21.6361465244646,60.504841762633106],[21.66113312398275,60.51404735192866],[21.675599050019795,60.52982836215054],[21.678229218389916,60.54560937237331],[21.67033871327884,60.56007529841098],[21.655872787241798,60.56139038259519],[21.64535211376069,60.57191105607674],[21.65455770305678,60.575856308632865],[21.662448208167767,60.58374681374332],[21.650612450501644,60.59558257141086],[21.663763292352872,60.59558257141086],[21.678229218389916,60.58506189792931],[21.696640396982808,60.58506189792931],[21.705845986278987,60.589007150483646],[21.69927056535293,60.60610324489152],[21.713736491389973,60.60215799233541],[21.72425716487108,60.589007150483646],[21.74266834346406,60.589007150483646],[21.74266834346406,60.59821273978107],[21.75187393276015,60.611363581632745],[21.76765494298221,60.611363581632745],[21.772602661236956,60.612188201341965]]]]}},{"type":"Feature","properties":{"kind":"district","id":"uyezd-1897-657","name":"Тюрвисский","provinceId":"gubernia-1897-41"},"geometry":{"type":"MultiPolygon","coordinates":[[[[22.37867800941236,61.73088777218895],[22.370878665004184,61.713570583757274],[22.378017048022386,61.68858624319543],[22.438693303670348,61.652894328109134],[22.328048366899417,61.60530510799253],[22.262613189238994,61.570802923406475],[22.338755941426008,61.53749046932627],[22.44464195618528,61.50060882373511],[22.543389587927237,61.42803526305666],[22.656413985704,61.42803526305666],[22.696864822802937,61.37330765992283],[22.76705892247493,61.34356439735075],[22.793232993539775,61.32095951779412],[22.82178652560956,61.257903801139975],[22.909826582824838,61.22102215554969],[23.018092058590028,61.171053474426984],[23.090665619267853,61.12822317632258],[23.12040888184091,61.12108479330438],[23.1763262154781,61.1329820983337],[23.210828400062905,61.15915616939854],[23.260797081185075,61.168674013421864],[23.28578142174656,61.244816765608434],[23.297678726775622,61.30549302125658],[23.250089506658483,61.337615744835645],[23.29291980476396,61.40186119199368],[23.29054034375822,61.420896880040324],[23.307196570798943,61.43993256808697],[23.358354982424473,61.46372717814394],[23.33931929437703,61.485142327196584],[23.31618564570959,61.52744385618912],[23.276924539113214,61.5191157426689],[23.230525049499345,61.5179260121658],[23.122259573734155,61.536961700212444],[23.119880112728325,61.56313577127729],[23.10441361619096,61.56789469328851],[23.11155199920845,61.58693038133515],[23.092516311161898,61.58930984234213],[23.060393587582922,61.56313577127729],[23.03897843853054,61.56789469328851],[23.0437373605422,61.57979199831881],[23.027081133501476,61.58455092033003],[23.013994097969054,61.57384334580362],[22.874795629128336,61.613104452399995],[22.861708593595914,61.623812026926316],[22.822447486999447,61.67378070804804],[22.752253387327453,61.690436935089565],[22.73083823827507,61.71899046715953],[22.684438748662,61.696385587602904],[22.620193301504138,61.696385587602904],[22.58450138641686,61.68210882156925],[22.4714769886401,61.69162666559257],[22.4262672295295,61.702334240118006],[22.37867800941236,61.73088777218895]]]]}},{"type":"Feature","properties":{"kind":"district","id":"uyezd-1897-658","name":"Лоймииокский","provinceId":"gubernia-1897-41"},"geometry":{"type":"MultiPolygon","coordinates":[[[[22.44464195618528,61.50060882373511],[22.445038533019762,61.481573135688464],[22.347480631780364,61.42446607154854],[22.238025425511992,61.40662011400401],[22.17615943936067,61.426845532553656],[22.098826956671186,61.36378981589951],[22.12381129723267,61.34594385835587],[22.12024210572357,61.326908170309224],[22.06075558057808,61.3173903262859],[22.054806928063147,61.29954436874324],[22.12381129723267,61.27812921968962],[22.17259024785237,61.261472992649956],[22.161882673325778,61.21983242504669],[22.16664159533744,61.19841727599395],[22.188056744389733,61.191278892976726],[22.185677283383903,61.181761048953405],[22.208282162939646,61.18295077945729],[22.21780000696288,61.16629455241586],[22.209471893442117,61.1389307508489],[22.22136919847118,61.11989506280226],[22.196384857910495,61.105618296767716],[22.234456234003602,61.05802907665111],[22.297511950658283,61.0009220125103],[22.2308870424945,60.94857387038336],[22.27133787959424,60.91764087730739],[22.3284449437339,60.90098465026587],[22.391500660388402,60.9200203383134],[22.416485000949976,60.93548683485005],[22.473592065089548,60.954522522896696],[22.503335327662782,60.95690198390368],[22.547355356269932,60.94857387038336],[22.623498108456946,60.9128819552952],[22.680605172596607,60.91169222479219],[22.735332775731237,60.92477926032373],[22.771024690818514,60.92953818233672],[22.782921995847577,60.88075923171711],[22.786491187355878,60.85220569964626],[22.80076795339086,60.82008297606808],[22.767455499309413,60.808185671037776],[22.769834960315155,60.784391060979914],[22.80552687540323,60.77844240846481],[22.881669627589446,60.73799157136641],[22.96138157128476,60.705868847788224],[23.023247557435994,60.6951612732619],[23.044662706488467,60.69754073426702],[23.126754111189523,60.74750941538973],[23.155307643260198,60.76178618142515],[23.16125629577433,60.76297591192815],[23.192189288849946,60.75345806790483],[23.254055275002067,60.785580791483014],[23.22074282092062,60.80937540154078],[23.2600039275162,60.83673920310774],[23.309972608639168,60.85101596914414],[23.251675813996236,60.90693330278009],[23.282608807071853,60.90693330278009],[23.301644495118406,60.940245756862154],[23.252865544498707,60.943814948370374],[23.20884551589067,61.0033014735163],[23.2600039275162,61.01519877854661],[23.295695842603475,61.036613927598374],[23.27666015455692,61.0532701546399],[23.238588778463814,61.06516745966745],[23.255245005504538,61.104428566263735],[23.302834225621766,61.100859374755615],[23.344474793223085,61.1306026373277],[23.31711099165666,61.16272536090676],[23.260797081185075,61.168674013421864],[23.210828400062905,61.15915616939854],[23.1763262154781,61.1329820983337],[23.12040888184091,61.12108479330438],[23.090665619267853,61.12822317632258],[23.018092058590028,61.171053474426984],[22.909826582824838,61.22102215554969],[22.82178652560956,61.257903801139975],[22.793232993539775,61.32095951779412],[22.76705892247493,61.34356439735075],[22.696864822802937,61.37330765992283],[22.656413985704,61.42803526305666],[22.543389587927237,61.42803526305666],[22.44464195618528,61.50060882373511]]]]}}]}
