{"type":"FeatureCollection","features":[{"type":"Feature","properties":{"kind":"province","id":"gubernia-1897-2","name":"Тифлисская губерния"},"geometry":{"type":"MultiPolygon","coordinates":[[[[46.44358055874312,41.90197445391546],[46.46499570779569,41.88769768787915],[46.48641085684816,41.89721553190247],[46.517343849923684,41.899594992909456],[46.54589738199365,41.89126687938825],[46.56017414802872,41.85914415580918],[46.55898441752554,41.84129819826555],[46.58039956657801,41.83059062373922],[46.60300444613367,41.81036520518957],[46.61847094267183,41.80441655267535],[46.63750663071794,41.83297008474531],[46.673198545805484,41.83772900675653],[46.69699315586432,41.84486738977553],[46.76837698603927,41.857954425306716],[46.8088278231379,41.81155493569258],[46.811207284143464,41.7877603256356],[46.81953539766413,41.77348355959929],[46.86474515677473,41.75325814104964],[46.90162680236537,41.737791644512996],[46.938508447956096,41.741360836021116],[46.95278521399108,41.731842991996906],[46.96111332751095,41.71042784294603],[46.977769554552296,41.68068458037307],[47.002753895113514,41.664028353331545],[47.01822039165088,41.658079700817325],[47.03249715768586,41.652131048303104],[47.03844581020097,41.63785428226679],[47.03487661869222,41.60335209768252],[47.0551020372416,41.58907533164709],[47.07056853377976,41.571229374104426],[47.12291667590777,41.567660182596214],[47.14314209445715,41.58550614013896],[47.170505896023926,41.59621371466618],[47.16693670451518,41.56290126058322],[47.209767002620126,41.54029638102925],[47.21095673312331,41.52007096247872],[47.200249158597074,41.510553118456286],[47.200249158597074,41.5034147354372],[47.21214646362649,41.49270716091176],[47.222071742567614,41.48032022405728],[47.161395486918856,41.4398693869571],[47.10547815328246,41.412505585390136],[47.07097596869748,41.38276232281806],[47.03290459260384,41.366106095777425],[46.95795157092027,41.38157259231408],[46.9389158828739,41.354208790748096],[46.98293591148202,41.314947684151804],[46.92582884734192,41.30186064861938],[46.9103623508042,41.29115307409395],[46.902034237283885,41.26973792504032],[46.90560342879254,41.245943314981574],[46.927018577844834,41.22452816592981],[46.95676184041736,41.213820591404286],[46.955572109914534,41.20192328637407],[46.91274181181003,41.19478490335764],[46.90084450678097,41.16147244927468],[46.88061908823088,41.13172918670172],[46.861583400184415,41.1269702646905],[46.850875825658264,41.09960646312443],[46.90798288979837,41.098416732620535],[46.94724399639413,41.09008861910111],[46.986505102990684,41.08176050557999],[46.97698725896745,40.98420260434068],[46.967469414944304,40.92828527070465],[46.932967230359324,40.92828527070465],[46.909172620301284,40.9437517672413],[46.892516393259854,40.966356646797934],[46.87229097471056,40.97468476031736],[46.817563371576284,40.990151256855796],[46.77949199548345,41.030602093954286],[46.75569738542541,41.04725832099483],[46.773543342968956,41.07462212256268],[46.766404959951466,41.08651942759112],[46.74023088888689,41.091278349603314],[46.69978005178822,41.1269702646905],[46.64624217915686,41.1305394561996],[46.63434487412788,41.11745242066718],[46.616498916584334,41.10912430714775],[46.60341188105165,41.07581185306479],[46.549874008421,41.05677616501815],[46.530838320373825,41.02227398043486],[46.49871559679547,41.00799721439854],[46.46064422070183,41.00085883138123],[46.430900958129214,41.02346371093697],[46.3809322770066,41.03179182445818],[46.35713766694857,41.04368912948671],[46.30478952482012,41.06867347004757],[46.28694356727657,41.09484754111233],[46.23459542514813,41.142436761228936],[46.20961108458717,41.13886756972081],[46.153693750949984,41.16742110179077],[46.095396956307056,41.18764652034042],[46.04066935317278,41.19597463385985],[46.000218516074106,41.18407732883132],[45.96928552299787,41.180508137321326],[45.92526549439045,41.19478490335764],[45.90741953684619,41.2173897829125],[45.88243519628524,41.24237412347425],[45.8372254371742,41.243563853976454],[45.83484597616837,41.261409811520004],[45.831276784659714,41.279255769064534],[45.86934816075326,41.272117386047306],[45.89909142332588,41.26616873353211],[45.89433250131422,41.32089633666692],[45.828897323653884,41.324465528175125],[45.76465187649637,41.33041418069024],[45.7099242733629,41.358967712760204],[45.57905391804214,41.41012612438404],[45.50648035736432,41.43511046494588],[45.49220359132951,41.406556932875915],[45.47435763378517,41.368485556783526],[45.476737094791,41.34826013823299],[45.46127059825328,41.29710172660728],[45.4481835627213,41.25665088950879],[45.39464569009003,41.260220081016996],[45.360143505505846,41.276876308057545],[45.33040024293252,41.279255769064534],[45.28519048382228,41.29234280459606],[45.27448290929533,41.28282496057274],[45.23165261119092,41.29353253509818],[45.21499638415028,41.2637892725261],[45.11981794391654,41.298291457111176],[45.042485461227145,41.32208606716903],[45.00798327664296,41.3066195706306],[44.973481092058066,41.279255769064534],[44.98180920557838,41.23761520146215],[44.952065943005856,41.2173897829125],[44.92113294992962,41.19240544235075],[44.88306157383669,41.15433406625746],[44.875923190819286,41.14005730022292],[44.915184297415045,41.13529837821171],[44.94849675149711,41.098416732620535],[44.9056664533919,41.06986320055057],[44.86640534679614,41.042499398983615],[44.83904154522856,41.06034535652725],[44.81881612667918,41.05915562602425],[44.802159899638546,41.04844805149881],[44.79026259460878,41.011566405907644],[44.79621124712415,40.98658206534767],[44.82833397070242,40.971115568809154],[44.85688750277211,40.92947500120685],[44.86164642478448,40.86285009304449],[44.84142100623439,40.84262467449387],[44.78907286410586,40.8128814119209],[44.7507764528729,40.79802854867372],[44.700807771750284,40.81111558420703],[44.665115856663185,40.82301288923556],[44.636562324592774,40.845617768790326],[44.618716367049224,40.87774049236939],[44.598490948499844,40.90510429393724],[44.553281189388805,40.92295025147999],[44.502122777763276,40.919381059971776],[44.484276820219726,40.915811868463564],[44.43668760010365,40.92413998198299],[44.39147784099261,40.94912432254385],[44.34626808188157,40.95031405304686],[44.36173457841929,40.927709173492985],[44.3486475428874,40.92057079047389],[44.28321236522697,40.92651944298909],[44.239192336619645,40.93246809550331],[44.20587988253758,40.94317567002963],[44.15710093191859,40.97053947159748],[44.12378847783661,40.976488124110816],[44.09047602375534,40.97053947159748],[44.06549168319359,40.97767785461471],[44.05597383917045,41.000282734170455],[44.05121491715879,41.02169788322319],[44.02979976810658,41.0264568052344],[43.99767704452743,41.04311303227495],[43.98459000899554,41.071666564344916],[43.95365701592001,41.09189198289367],[43.959605668434584,41.119255784460634],[43.96436459044616,41.14186066401638],[43.92153429234086,41.1561374300518],[43.88703210775676,41.162086082566915],[43.835873696131145,41.15732716055392],[43.794233128528845,41.14305039452027],[43.755897367879356,41.11238178600068],[43.696410842734224,41.12784828253731],[43.65477027513192,41.12784828253731],[43.629785934570975,41.129038013041196],[43.585765905962845,41.14212504857282],[43.48106962170587,41.1326072045495],[43.45727501164783,41.13498666555551],[43.44894689812752,41.155212084105244],[43.4334804015898,41.182575885673],[43.38946037298167,41.19566292120365],[43.33354303934448,41.21231914824419],[43.275246244702345,41.19685265170763],[43.230036485591214,41.1766272331578],[43.19196510949757,41.25633917685268],[43.14913481139317,41.250390524337476],[43.125340201334325,41.25158025484137],[43.14437588938151,41.268236481882006],[43.17887807396569,41.28846190043174],[43.209811067041926,41.292031091939776],[43.212190528047934,41.314635971495605],[43.19196510949757,41.31463597149552],[43.17054996044537,41.3134462409934],[43.15032454189608,41.32177435451283],[43.12771966234007,41.32534354602282],[43.11463262680818,41.33486139004614],[43.08369963373274,41.341999773063364],[43.03492068311304,41.33486139004614],[43.01945418657523,41.37531222714455],[42.96829577494971,41.45264470983412],[42.905240058295114,41.4895263554244],[42.90167086678637,41.503803121459825],[42.87311733471676,41.502613390955936],[42.85289191616667,41.472870128383946],[42.823148653594146,41.483577702909294],[42.800543774038935,41.499044199447724],[42.78864646900996,41.51332096548235],[42.805302696050504,41.52878746201989],[42.814820540073825,41.54663341956433],[42.83028703661155,41.56209991610294],[42.84218434164052,41.58470479565673],[42.802923235044766,41.585894526160615],[42.77317997247144,41.578756143143394],[42.741057248893085,41.587084256662735],[42.71845236933797,41.565669107610084],[42.68276045425016,41.56209991610294],[42.65301719167755,41.57399722113138],[42.64825826966597,41.591843178675816],[42.619394656943655,41.59737403831063],[42.589651394370335,41.618789187363284],[42.55039028777449,41.648532449936255],[42.514698372686766,41.66280921597079],[42.514698372686766,41.68660382602954],[42.48733457111999,41.727054663127944],[42.50637025916636,41.75203900368978],[42.507559989669275,41.77821307475365],[42.49460514641531,41.797777531913226],[42.55647113256698,41.797777531913226],[42.58145547312794,41.803726184426566],[42.62190631022732,41.8251413334793],[42.6492701117941,41.831089985994325],[42.72303340297484,41.80848510643867],[42.795606963652666,41.83465917750253],[42.85628321930134,41.82633106398319],[42.91695947495019,41.83227971649644],[42.94908219852934,41.8239516029771],[42.96811788657572,41.8239516029771],[42.97287680858729,41.83703863850952],[42.987153574622184,41.84417702152675],[43.0299838727274,41.82871052498831],[43.06924497932315,41.83465917750253],[43.11921366044585,41.82871052498831],[43.17394126358013,41.82871052498831],[43.21082290917026,41.838228369011595],[43.23223805822306,41.85131540454317],[43.2631710512985,41.86202297906949],[43.30719107990662,41.88224839762012],[43.340503533987984,41.89533543315254],[43.353590569519874,41.9179403127073],[43.37976464058445,41.9238889652225],[43.42140520818604,41.9179403127073],[43.44401008774196,41.92031977371242],[43.45947658427968,41.941734922765164],[43.4749430808174,41.958391149805706],[43.4892198468522,41.99170360388875],[43.50706580439575,42.03810309350236],[43.520152839928436,42.06308743406224],[43.54513718048939,42.10353827116251],[43.541567988980646,42.13566099474069],[43.543947449986476,42.174922101336975],[43.568931790547424,42.178491292845194],[43.580829095577286,42.21180374692726],[43.599864783623666,42.23797781799112],[43.62960804619619,42.262962158551986],[43.668869152792745,42.30341299565226],[43.67362807480431,42.320069222692894],[43.680766457821804,42.33553571923132],[43.7081302593885,42.324828144704114],[43.74263244397339,42.34624329375676],[43.78070382006632,42.345053563254645],[43.80092923861641,42.347433024259765],[43.81639573515413,42.3557611377792],[43.81758546565705,42.37717628683184],[43.81996492666288,42.4033503578958],[43.83186223169194,42.40454008839969],[43.83067250118903,42.414057932422125],[43.81758546565705,42.415247662926106],[43.7997395081135,42.411678471417005],[43.78189355056924,42.421196315440326],[43.77594489805475,42.43547308147487],[43.71883783391465,42.44261146449209],[43.68314591882755,42.44974984751118],[43.666489691786914,42.47235472706505],[43.67719726631306,42.481872571088374],[43.69504322385661,42.49020068460958],[43.74263244397339,42.47235472706505],[43.77594489805475,42.47354445756895],[43.79854977761058,42.48306230159227],[43.833051962194766,42.49020068460958],[43.85208765024123,42.52351313869076],[43.87588226030007,42.52827206070287],[43.90324606186676,42.54611801824553],[43.94369689896623,42.561584514784045],[43.957973665001035,42.573481819814354],[43.98484305191131,42.57698298153081],[44.04670903806308,42.60196732209256],[44.08478041415592,42.61386462712021],[44.11452367672924,42.625761932150425],[44.15616424433083,42.61267489661809],[44.17401020187509,42.62814139315652],[44.208512386459276,42.630520854162526],[44.248963223558654,42.63171058466473],[44.25623379885407,42.659735347621755],[44.252664607345324,42.68828887969172],[44.27764894790628,42.713273220253555],[44.316910054502834,42.75372405735196],[44.32999709003472,42.76562136238138],[44.34070466456087,42.76205217087317],[44.34308412556661,42.74539594383262],[44.36806846612836,42.7358780998093],[44.40613984222129,42.75253432684896],[44.427554991273496,42.75967270986618],[44.4489701403265,42.73468836930621],[44.47514421139037,42.73706783031142],[44.49774909094549,42.71565268125957],[44.522733431507156,42.714462950755674],[44.522733431507156,42.75253432684896],[44.556045885588425,42.77157001489649],[44.5762713041386,42.76562136238138],[44.60720429721404,42.75372405735196],[44.63456809878073,42.757293248861956],[44.65270434624598,42.761923780129706],[44.69048543241792,42.77157001489649],[44.7237978864999,42.75848297936407],[44.75473087957543,42.739447291317425],[44.779715220136296,42.69542726270903],[44.82373524874451,42.6894786101957],[44.835632553773486,42.67163265265117],[44.84277093679098,42.65854561711875],[44.86180662483815,42.65616615611275],[44.86646267018867,42.642808631122556],[44.88787781924087,42.66422378017619],[44.91048269879679,42.69158758174217],[44.90572377678522,42.71062326978881],[44.88192916672639,42.736797340853656],[44.88787781924087,42.7534535678942],[44.90572377678522,42.76297141191752],[44.97115895444475,42.77010979493483],[45.015178983052884,42.735607610350556],[45.03897359311101,42.718951383310014],[45.073475777695904,42.70348488677247],[45.09608065725102,42.72133084431513],[45.10083957926268,42.74512545437486],[45.127013650327264,42.76297141191752],[45.14842879937956,42.77486871694694],[45.15437745189396,42.797473596502684],[45.18412071446737,42.804611979519905],[45.19839748050217,42.81769901505144],[45.250745622629815,42.797473596502684],[45.275729963191566,42.798663327004796],[45.28643753771772,42.77843790845506],[45.34235487135491,42.7582124899063],[45.395892743986266,42.69872596476125],[45.38994409147089,42.67969027671461],[45.36139055940128,42.627342134585014],[45.344734332360645,42.588081027988636],[45.34116514085199,42.56785560943899],[45.35663163738971,42.56071722642265],[45.376857055939,42.57261453145198],[45.3982722049921,42.58927075849262],[45.42087708454713,42.577373453462315],[45.439912772593594,42.579752914469296],[45.45537926913131,42.584511836480516],[45.48393280120181,42.571424800948094],[45.52319390779756,42.578563183965315],[45.54936797886214,42.55357884340534],[45.591008546463726,42.55833776541567],[45.61837234803122,42.53454315535781],[45.639787497083425,42.508369084293946],[45.67785887317716,42.52145611982637],[45.717119979772825,42.50717935379183],[45.75876054737521,42.50004097077451],[45.79636190647961,42.49717680474803],[45.774946757426605,42.444828662619315],[45.759480260888886,42.410326478036026],[45.7678083744092,42.35440914439821],[45.76542891340337,42.32942480383735],[45.757100799883055,42.310389115790706],[45.73092672881928,42.31157884629282],[45.67619912568491,42.31157884629282],[45.64288667160373,42.285404775228955],[45.61671260053907,42.25566151265687],[45.67500939518209,42.20688256203718],[45.75829053038597,42.17832902996632],[45.772567296420775,42.14382684538303],[45.80825921150867,42.12479115733639],[45.84276139609277,42.133119270855815],[45.873694389169,42.133119270855815],[45.90581711274736,42.12479115733639],[45.943888488841,42.12122196582639],[45.95221660236132,42.10694519979186],[45.9367501058236,42.076012206716776],[45.943888488841,42.05697651867013],[45.96649336839621,42.03675110011951],[46.00456474448985,42.03794083062349],[46.04739504259426,42.051027866155025],[46.07237938315601,42.021284603582856],[46.097363723716875,42.04269975263382],[46.11877887276917,42.03437163911439],[46.160419440371555,42.03675110011951],[46.166368092886046,42.01771541207384],[46.173506475903444,42.010577029056535],[46.197301085961485,42.00819756805052],[46.213957313002915,42.01295649006174],[46.24013138406669,42.03199217810838],[46.25916707211316,42.02604352559318],[46.26154653311899,41.98202349698657],[46.28058222116616,41.96060834793294],[46.30318710072129,41.94395212089239],[46.33174063279098,41.93919319888029],[46.3543455123469,41.9451418513954],[46.399555271457146,41.95109050390962],[46.417401229001406,41.940382929384185],[46.417401229001406,41.91777804982853],[46.43049352321168,41.91030256743489],[46.44358055874312,41.90197445391546]]]]}},{"type":"Feature","properties":{"kind":"district","id":"uyezd-1897-418","name":"Закатальский","provinceId":"gubernia-1897-2"},"geometry":{"type":"MultiPolygon","coordinates":[[[[46.986505102990684,41.08176050557999],[46.94724399639413,41.09008861910111],[46.90798288979837,41.098416732620535],[46.850875825658264,41.09960646312443],[46.861583400184415,41.1269702646905],[46.88061908823088,41.13172918670172],[46.90084450678097,41.16147244927468],[46.91274181181003,41.19478490335764],[46.955572109914534,41.20192328637407],[46.95676184041736,41.213820591404286],[46.927018577844834,41.22452816592981],[46.90560342879254,41.245943314981574],[46.902034237283885,41.26973792504032],[46.9103623508042,41.29115307409395],[46.92582884734192,41.30186064861938],[46.98293591148202,41.314947684151804],[46.9389158828739,41.354208790748096],[46.95795157092027,41.38157259231408],[47.03290459260384,41.366106095777425],[47.07097596869748,41.38276232281806],[47.10547815328246,41.412505585390136],[47.161395486918856,41.4398693869571],[47.222071742567614,41.48032022405728],[47.21214646362649,41.49270716091176],[47.200249158597074,41.5034147354372],[47.200249158597074,41.510553118456286],[47.21095673312331,41.52007096247872],[47.209767002620126,41.54029638102925],[47.16693670451518,41.56290126058322],[47.170505896023926,41.59621371466618],[47.14314209445715,41.58550614013896],[47.12291667590777,41.567660182596214],[47.07056853377976,41.571229374104426],[47.0551020372416,41.58907533164709],[47.03487661869222,41.60335209768252],[47.03844581020097,41.63785428226679],[47.03249715768586,41.652131048303104],[47.01822039165088,41.658079700817325],[47.002753895113514,41.664028353331545],[46.977769554552296,41.68068458037307],[46.96111332751095,41.71042784294603],[46.95278521399108,41.731842991996906],[46.938508447956096,41.741360836021116],[46.90162680236537,41.737791644512996],[46.86474515677473,41.75325814104964],[46.81953539766413,41.77348355959929],[46.811207284143464,41.7877603256356],[46.8088278231379,41.81155493569258],[46.76837698603923,41.857954425306175],[46.69699315586432,41.84486738977553],[46.673198545805484,41.83772900675653],[46.63750663071794,41.83297008474531],[46.61847094267183,41.80441655267535],[46.60300444613367,41.81036520518957],[46.58039956657801,41.83059062373922],[46.55898441752554,41.84129819826555],[46.56017414802872,41.85914415580918],[46.54589738199365,41.89126687938825],[46.517343849923684,41.899594992909456],[46.48641085684816,41.89721553190247],[46.46499570779569,41.88769768787915],[46.44358055874312,41.90197445391546],[46.430493523211325,41.91030256743489],[46.4126475656676,41.878179843856714],[46.391232416615125,41.84843658128375],[46.37100699806494,41.821072779716786],[46.353161040521215,41.805606283178356],[46.32222804744569,41.793708978149915],[46.30557182040514,41.7782424816114],[46.298433437387565,41.76634517658296],[46.22942906821822,41.76753490708507],[46.20563445816018,41.735412183506895],[46.19492688363395,41.70328945992694],[46.19849607514269,41.658079700817325],[46.20206526665144,41.63309536025557],[46.219911224195165,41.62238778573013],[46.23775718173889,41.61286994170584],[46.254413408779435,41.618818594220144],[46.247275025761944,41.640233743272795],[46.25798260028818,41.643802934782784],[46.27820801883756,41.63309536025557],[46.28772586286133,41.61286994170584],[46.31746912543376,41.62000832472404],[46.33293562197193,41.614059672208924],[46.341263735492596,41.58907533164709],[46.33888427448623,41.58074721812686],[46.31984858644012,41.5974034451683],[46.3150896644282,41.586695870642856],[46.29962316789003,41.58907533164709],[46.29962316789003,41.578367757121654],[46.306761550907524,41.568849913099214],[46.30795128141071,41.55933206907589],[46.31746912543376,41.55576287756591],[46.31271020342263,41.54148611153137],[46.343643196498164,41.51174284895929],[46.3733864590714,41.49984554392907],[46.3936118776206,41.489137969403636],[46.382904303094364,41.46296389833879],[46.37219672856813,41.44630767129727],[46.37695565058014,41.42846171375461],[46.41383729616998,41.41299521721609],[46.52686169394674,41.37373411062069],[46.5482768429993,41.34637030905382],[46.56493307004056,41.32852435150929],[46.62917851719806,41.30948866346354],[46.668439623794356,41.29164270591901],[46.6981828863667,41.27498647887749],[46.68628558133808,41.263089173849046],[46.680336928822975,41.247622677310616],[46.66249097127925,41.23215618077396],[46.65773204926812,41.21906914524065],[46.66487043228561,41.20598210970912],[46.660111510273595,41.189325882667596],[46.64464501373543,41.16434154210673],[46.65059366625063,41.1500647760722],[46.64624217915686,41.1305394561996],[46.69978005178822,41.1269702646905],[46.74023088888689,41.091278349603314],[46.766404959951466,41.08651942759112],[46.773543342968956,41.07462212256268],[46.75569738542541,41.04725832099483],[46.77949199548345,41.030602093954286],[46.817563371576284,40.990151256855796],[46.87229097471056,40.97468476031736],[46.892516393259854,40.966356646797934],[46.909172620301284,40.9437517672413],[46.932967230359324,40.92828527070465],[46.967469414944304,40.92828527070465],[46.97698725896745,40.98420260434068],[46.986505102990684,41.08176050557999]]]]}},{"type":"Feature","properties":{"kind":"district","id":"uyezd-1897-426","name":"Телавский","provinceId":"gubernia-1897-2"},"geometry":{"type":"MultiPolygon","coordinates":[[[[45.61671260053907,42.25566151265687],[45.58268043294341,42.24424891264607],[45.54460905685048,42.270422983711796],[45.56840366690861,42.29659705477567],[45.53390148232362,42.3049251682951],[45.49464037572787,42.32277112583962],[45.46727657416037,42.32634031734872],[45.437533311587764,42.30968409030809],[45.43872304209068,42.29778678527778],[45.46251765214871,42.273992175220016],[45.45181007762265,42.259715409184494],[45.416118162535554,42.246628373652165],[45.39232355247672,42.19903915353645],[45.38994409147089,42.1716753519686],[45.36733921191577,42.14193208939652],[45.337595949343246,42.11337855732567],[45.337595949343246,42.09196340827293],[45.35901109839554,42.08363529475359],[45.40779004901524,42.084825025255704],[45.419687354044214,42.07411745072929],[45.41730789303847,42.06222014570174],[45.38994409147089,42.06459960670597],[45.3697186729216,42.05032284067241],[45.3280781053201,42.037235805139986],[45.27454023268865,42.05627149318663],[45.255504544641475,42.027717961116664],[45.23646885659501,42.03009742212267],[45.225761282068866,42.02414876960845],[45.20910505502823,41.99440550703548],[45.186500175472396,41.982508202006066],[45.17103367893468,41.96942116647374],[45.166274756923016,41.92183194635615],[45.19482828899343,41.90874491082471],[45.22695101257178,41.89565787529229],[45.26502238866542,41.87781191774953],[45.297145112243776,41.84925838567957],[45.3340267578345,41.82546377561994],[45.37209813392743,41.796910243550855],[45.422066815050044,41.798099974053954],[45.43634358108485,41.79572051304874],[45.45418953862848,41.815945931596616],[45.45656899963423,41.82665350612392],[45.47362180350943,41.827975428904224],[45.48313964753267,41.83630354242454],[45.508123988094326,41.823216506893004],[45.53072886764945,41.818457584881784],[45.54500563368434,41.81131920186358],[45.60449215883019,41.81607812387578],[45.62471757737948,41.820837045886904],[45.648512187438314,41.81369866286968],[45.66040949246738,41.820837045886904],[45.68896302453699,41.80418081884636],[45.71394736509874,41.77919647828461],[45.72941386163646,41.78395540029672],[45.76867496823221,41.78514513080061],[45.73655224465386,41.848200847454756],[45.78295173426782,41.889841415055365],[45.79722850030262,41.910066833605896],[45.818643649354826,41.96836362824892],[45.838869067904206,41.990968507804574],[45.91382208958857,42.05045503294971],[45.94713454366984,42.03498853641119],[45.96649336839621,42.03675110011951],[45.943888488841,42.05697651867013],[45.9367501058236,42.076012206716776],[45.95221660236132,42.10694519979186],[45.943888488841,42.12122196582639],[45.90581711274736,42.12479115733639],[45.873694389169,42.133119270855815],[45.84276139609277,42.133119270855815],[45.80825921150867,42.12479115733639],[45.772567296420775,42.14382684538303],[45.75829053038597,42.17832902996632],[45.67500939518209,42.20688256203718],[45.61671260053907,42.25566151265687]]]]}},{"type":"Feature","properties":{"kind":"district","id":"uyezd-1897-427","name":"Сигнахский","provinceId":"gubernia-1897-2"},"geometry":{"type":"MultiPolygon","coordinates":[[[[45.50648035736432,41.43511046494588],[45.57905391804214,41.41012612438404],[45.7099242733629,41.358967712760204],[45.76465187649637,41.33041418069024],[45.828897323653884,41.324465528175125],[45.89433250131422,41.32089633666692],[45.89909142332588,41.26616873353211],[45.86934816075326,41.272117386047306],[45.831276784659714,41.279255769064534],[45.83484597616837,41.261409811520004],[45.8372254371742,41.243563853976454],[45.88243519628524,41.24237412347425],[45.90741953684619,41.2173897829125],[45.92526549439045,41.19478490335764],[45.96928552299787,41.180508137321326],[46.000218516074106,41.18407732883132],[46.04066935317278,41.19597463385985],[46.095396956307056,41.18764652034042],[46.153693750949984,41.16742110179077],[46.20961108458717,41.13886756972081],[46.23459542514813,41.142436761228936],[46.28694356727657,41.09484754111233],[46.30478952482012,41.06867347004757],[46.35713766694857,41.04368912948671],[46.3809322770066,41.03179182445818],[46.430900958129214,41.02346371093697],[46.46064422070183,41.00085883138123],[46.49871559679547,41.00799721439854],[46.530838320373825,41.02227398043486],[46.549874008421,41.05677616501815],[46.60341188105165,41.07581185306479],[46.616498916584334,41.10912430714775],[46.63434487412788,41.11745242066718],[46.64624217915686,41.1305394561996],[46.65059366625063,41.1500647760722],[46.64464501373543,41.16434154210673],[46.660111510273595,41.189325882667596],[46.66487043228561,41.20598210970912],[46.65773204926812,41.21906914524065],[46.66249097127925,41.23215618077396],[46.680336928822975,41.247622677310616],[46.68628558133808,41.263089173849046],[46.6981828863667,41.27498647887749],[46.668439623794356,41.29164270591901],[46.62917851719806,41.30948866346354],[46.56493307004056,41.32852435150929],[46.5482768429993,41.34637030905382],[46.52686169394674,41.37373411062069],[46.41383729616998,41.41299521721609],[46.37695565058014,41.42846171375461],[46.37219672856813,41.44630767129727],[46.382904303094364,41.46296389833879],[46.3936118776206,41.489137969403636],[46.3733864590714,41.49984554392907],[46.343643196498164,41.51174284895929],[46.31271020342263,41.54148611153137],[46.31746912543376,41.55576287756591],[46.30795128141071,41.55933206907589],[46.306761550907524,41.568849913099214],[46.29962316789003,41.578367757121654],[46.29962316789003,41.58907533164709],[46.3150896644282,41.586695870642856],[46.31984858644012,41.5974034451683],[46.33888427448623,41.58074721812686],[46.341263735492596,41.58907533164709],[46.33293562197193,41.614059672208924],[46.31746912543376,41.62000832472404],[46.28772586286133,41.61286994170584],[46.27820801883756,41.63309536025557],[46.25798260028818,41.643802934782784],[46.247275025761944,41.640233743272795],[46.254413408779435,41.618818594220144],[46.23775718173889,41.61286994170584],[46.219911224195165,41.62238778573013],[46.20206526665144,41.63309536025557],[46.19849607514269,41.658079700817325],[46.19492688363395,41.70328945992694],[46.20563445816018,41.735412183506895],[46.22942906821822,41.76753490708507],[46.298433437387565,41.76634517658296],[46.30557182040514,41.7782424816114],[46.32222804744569,41.793708978149915],[46.353161040521215,41.805606283178356],[46.37100699806494,41.821072779716786],[46.391232416615125,41.84843658128375],[46.4126475656676,41.878179843856714],[46.430493523211325,41.91030256743489],[46.417401229001406,41.91777804982853],[46.417401229001406,41.940382929384185],[46.399555271457146,41.95109050390962],[46.3543455123469,41.9451418513954],[46.33174063279098,41.93919319888029],[46.30318710072129,41.94395212089239],[46.28058222116616,41.96060834793294],[46.26154653311899,41.98202349698657],[46.25916707211316,42.02604352559318],[46.24013138406669,42.03199217810838],[46.213957313002915,42.01295649006174],[46.197301085961485,42.00819756805052],[46.173506475903444,42.010577029056535],[46.166368092886046,42.01771541207384],[46.160419440371555,42.03675110011951],[46.11877887276917,42.03437163911439],[46.097363723716875,42.04269975263382],[46.07237938315601,42.021284603582856],[46.04739504259426,42.051027866155025],[46.00456474448985,42.03794083062349],[45.96649336839621,42.03675110011951],[45.94713454366984,42.03498853641119],[45.91382208958857,42.05045503294971],[45.838869067904206,41.990968507804574],[45.818643649354826,41.96836362824892],[45.79722850030262,41.910066833605896],[45.78295173426782,41.889841415055365],[45.73655224465386,41.848200847454756],[45.76867496823221,41.78514513080061],[45.72941386163646,41.78395540029672],[45.71394736509874,41.77919647828461],[45.68896302453699,41.80418081884636],[45.66040949246738,41.820837045886904],[45.648512187438314,41.81369866286968],[45.62471757737948,41.820837045886904],[45.60449215883019,41.81607812387578],[45.54500563368434,41.81131920186358],[45.53072886764945,41.818457584881784],[45.508123988094326,41.823216506893004],[45.48313964753267,41.83630354242454],[45.47362180350943,41.827975428904224],[45.49503695256244,41.807750010354574],[45.50336506608276,41.7827656697946],[45.514072640608816,41.77086836476518],[45.5128829101059,41.744694293701315],[45.51169317960307,41.73041752766491],[45.514072640608816,41.71138183961827],[45.51169317960307,41.686397499058295],[45.52715967614079,41.65665423648532],[45.52834940664362,41.63404935692958],[45.50574452708859,41.6411877399469],[45.45220665445723,41.64237747045079],[45.44863746294848,41.595977980836295],[45.43317096641076,41.56504498776121],[45.40461743434035,41.529353072672166],[45.44506827143974,41.509127654123404],[45.4569655764688,41.46986654752712],[45.48194991702975,41.446071937469256],[45.50648035736432,41.43511046494588]]]]}},{"type":"Feature","properties":{"kind":"district","id":"uyezd-1897-428","name":"Тифлисский","provinceId":"gubernia-1897-2"},"geometry":{"type":"MultiPolygon","coordinates":[[[[45.47362180350943,41.827975428904224],[45.45656899963423,41.82665350612392],[45.45418953862848,41.815945931596616],[45.43634358108485,41.79572051304874],[45.422066815050044,41.798099974053954],[45.37209813392743,41.796910243550855],[45.3340267578345,41.82546377561994],[45.297145112243776,41.84925838567957],[45.26502238866542,41.87781191774953],[45.22695101257178,41.89565787529229],[45.185310444970284,41.888519492274966],[45.13296230284184,41.876622187245644],[45.09013200473654,41.86353515171322],[45.06514766417558,41.8623454212111],[45.03659413210518,41.86115569070898],[45.00489627342067,41.86810621199764],[44.95849678380662,41.870485673003735],[44.91566648570212,41.88238297803129],[44.87521564860274,41.8919008220555],[44.833575081000355,41.88357270853429],[44.80740100993658,41.86572675099065],[44.783606399878536,41.82765537489737],[44.75386313730522,41.83479375791468],[44.72411987473269,41.84788079344799],[44.69080742065062,41.82289645288624],[44.62061332097863,41.80980941735471],[44.5754035618683,41.799101842827405],[44.555178143319004,41.780066154781736],[44.530193802757346,41.76816884975232],[44.48736350465284,41.76578938874631],[44.45999970308535,41.74794343120267],[44.40289263894525,41.75270235321389],[44.356493149331996,41.77649696327353],[44.33150880877034,41.77411750226743],[44.31723204273553,41.758651005729],[44.29700662418615,41.73961531768147],[44.25893524809251,41.73842558717935],[44.22086387199967,41.73604612617326],[44.21967414149675,41.68488771454755],[44.24108929054896,41.668231487507],[44.26012497859543,41.6646622959979],[44.27559147513394,41.656334182477586],[44.2720222836252,41.632539572419816],[44.22086387199967,41.59803738783465],[44.163756807859656,41.55758655073625],[44.12211624025727,41.53260221017441],[44.137582736795785,41.52427409665507],[44.14948004182476,41.53022274916929],[44.168515729871224,41.54212005419773],[44.21610494998801,41.54330978470171],[44.25060713457219,41.53260221017441],[44.25893524809251,41.51832544413996],[44.23989956004605,41.49691029508722],[44.232761177028735,41.467167032514254],[44.2375200990403,41.45289026647971],[44.25417632608094,41.4517005359776],[44.29462716318032,41.45764918849093],[44.32674988675868,41.480254068046676],[44.37076991536689,41.48739245106479],[44.469517547108495,41.509997330620536],[44.51353757571671,41.51832544413996],[44.54209110778632,41.51475625263175],[44.56945490935381,41.51594598313386],[44.60038790242925,41.50404867810542],[44.64321820053455,41.50404867810542],[44.68128957662739,41.48739245106479],[44.76457071183207,41.52784328816328],[44.84904157753887,41.562345472748355],[44.919235677210864,41.56353520325047],[45.00013735140901,41.55163789822105],[45.019173039455474,41.52427409665507],[45.03344980549028,41.51713571363776],[45.04534711052005,41.51237679162476],[45.04415738001713,41.46002864949694],[45.06676225957226,41.4409929614503],[45.0774698340984,41.40768050736912],[45.10245417465936,41.35890155674951],[45.11435147968913,41.3541426347374],[45.12267959320945,41.33867613820075],[45.15837150829655,41.327968563674425],[45.171458543828436,41.310122606129895],[45.20239153690467,41.314881528141115],[45.21428884193374,41.29822530110048],[45.23165261119092,41.29353253509818],[45.27448290929533,41.28282496057274],[45.28519048382228,41.29234280459606],[45.33040024293252,41.279255769064534],[45.360143505505846,41.276876308057545],[45.39464569009003,41.260220081016996],[45.4481835627213,41.25665088950879],[45.46127059825328,41.29710172660728],[45.476737094791,41.34826013823299],[45.47435763378517,41.368485556783526],[45.49220359132951,41.406556932875915],[45.50648035736432,41.43511046494588],[45.48194991702975,41.446071937469256],[45.4569655764688,41.46986654752712],[45.44506827143974,41.509127654123404],[45.40461743434035,41.529353072672166],[45.43317096641076,41.56504498776121],[45.44863746294848,41.595977980836295],[45.45220665445723,41.64237747045079],[45.50574452708859,41.6411877399469],[45.52834940664362,41.63404935692958],[45.52715967614079,41.65665423648532],[45.51169317960307,41.686397499058295],[45.514072640608816,41.71138183961827],[45.51169317960307,41.73041752766491],[45.5128829101059,41.744694293701315],[45.514072640608816,41.77086836476518],[45.50336506608276,41.7827656697946],[45.49503695256244,41.807750010354574],[45.47362180350943,41.827975428904224]]]]}},{"type":"Feature","properties":{"kind":"district","id":"uyezd-1897-429","name":"Тионетский","provinceId":"gubernia-1897-2"},"geometry":{"type":"MultiPolygon","coordinates":[[[[45.22695101257178,41.89565787529229],[45.19482828899343,41.90874491082471],[45.166274756923016,41.92183194635615],[45.17103367893468,41.96942116647374],[45.186500175472396,41.982508202006066],[45.20910505502823,41.99440550703548],[45.225761282068866,42.02414876960845],[45.23646885659501,42.03009742212267],[45.255504544641475,42.027717961116664],[45.27454023268865,42.05627149318663],[45.3280781053201,42.037235805139986],[45.3697186729216,42.05032284067241],[45.38994409147089,42.06459960670597],[45.41730789303847,42.06222014570174],[45.419687354044214,42.07411745072929],[45.40779004901524,42.084825025255704],[45.35901109839554,42.08363529475359],[45.337595949343246,42.09196340827293],[45.337595949343246,42.11337855732567],[45.36733921191577,42.14193208939652],[45.38994409147089,42.1716753519686],[45.39232355247672,42.19903915353645],[45.416118162535554,42.246628373652165],[45.45181007762265,42.259715409184494],[45.46251765214871,42.273992175220016],[45.43872304209068,42.29778678527778],[45.437533311587764,42.30968409030809],[45.46727657416037,42.32634031734872],[45.49464037572787,42.32277112583962],[45.53390148232362,42.3049251682951],[45.56840366690861,42.29659705477567],[45.54460905685048,42.270422983711796],[45.58268043294341,42.24424891264607],[45.61671260053907,42.25566151265687],[45.64288667160373,42.285404775228955],[45.67619912568491,42.31157884629282],[45.73092672881928,42.31157884629282],[45.757100799883055,42.310389115790706],[45.76542891340337,42.32942480383735],[45.7678083744092,42.35440914439821],[45.759480260888886,42.410326478036026],[45.774946757426605,42.444828662619315],[45.79636190647961,42.49717680474803],[45.75876054737521,42.50004097077451],[45.717119979772825,42.50717935379183],[45.67785887317716,42.52145611982637],[45.639787497083425,42.508369084293946],[45.61837234803122,42.53454315535781],[45.591008546463726,42.55833776541567],[45.54936797886214,42.55357884340534],[45.52319390779756,42.578563183965315],[45.48393280120181,42.571424800948094],[45.45537926913131,42.584511836480516],[45.439912772593594,42.579752914469296],[45.42087708454713,42.577373453462315],[45.3982722049921,42.58927075849262],[45.376857055939,42.57261453145198],[45.35663163738971,42.56071722642265],[45.34116514085199,42.56785560943899],[45.344734332360645,42.588081027988636],[45.36139055940128,42.627342134585014],[45.38994409147089,42.67969027671461],[45.395892743986266,42.69872596476125],[45.34235487135491,42.7582124899063],[45.28643753771772,42.77843790845506],[45.275729963191566,42.798663327004796],[45.250745622629815,42.797473596502684],[45.19839748050217,42.81769901505144],[45.18412071446737,42.804611979519905],[45.15437745189396,42.797473596502684],[45.14842879937956,42.77486871694694],[45.127013650327264,42.76297141191752],[45.10083957926268,42.74512545437486],[45.09608065725102,42.72133084431513],[45.073475777695904,42.70348488677247],[45.03897359311101,42.718951383310014],[45.015178983052884,42.735607610350556],[44.97115895444475,42.77010979493483],[44.90572377678522,42.76297141191752],[44.88787781924087,42.7534535678942],[44.88192916672639,42.736797340853656],[44.90572377678522,42.71062326978881],[44.91048269879679,42.69158758174217],[44.88787781924087,42.66422378017619],[44.86646267018867,42.642808631122556],[44.88073943622347,42.61782429056258],[44.84504752113637,42.584511836480516],[44.834339946610314,42.53930207736903],[44.834339946610314,42.51431773680905],[44.86289347867992,42.49409231825852],[44.874790783708896,42.48219501322998],[44.871221592200236,42.46672851669156],[44.84147832962771,42.45245175065613],[44.834339946610314,42.421518757580955],[44.84980644314803,42.40010360852919],[44.84504752113637,42.37749872897257],[44.82363237208345,42.356083579920806],[44.7903199180021,42.348945196903486],[44.78437126548761,42.30968409030809],[44.81411452806013,42.28588948024846],[44.82839129409503,42.2680435227057],[44.85218590415386,42.2680435227057],[44.87003186169732,42.262094870190595],[44.86289347867992,42.24067972113883],[44.897395663264106,42.22402349409642],[44.90096485477276,42.20617753655367],[44.893826471755446,42.189521309513125],[44.86170374817701,42.17286508247249],[44.85813455666835,42.15144993341984],[44.86646267018867,42.126465592858],[44.88192916672639,42.109809365817455],[44.911672429299706,42.102670982800234],[44.91524162080837,42.06103041519785],[44.874790783708896,42.05508176268265],[44.85218590415386,42.043184457655094],[44.84504752113637,42.02652823061268],[44.87003186169732,42.00749254256604],[44.909292968293876,41.94681628691799],[44.933087578351916,41.92659086836923],[44.99852275601225,41.90160652780739],[45.03302494059652,41.886140031268965],[45.03659413210518,41.86115569070898],[45.06514766417558,41.8623454212111],[45.09013200473654,41.86353515171322],[45.13296230284184,41.876622187245644],[45.185310444970284,41.888519492274966],[45.22695101257178,41.89565787529229]]]]}},{"type":"Feature","properties":{"kind":"district","id":"uyezd-1897-431","name":"Ахалцихский","provinceId":"gubernia-1897-2"},"geometry":{"type":"MultiPolygon","coordinates":[[[[43.11921366044585,41.82871052498828],[43.06924497932315,41.834659177502544],[43.0299838727274,41.828710524988324],[42.987153574622184,41.84417702152675],[42.97287680858729,41.837038638509526],[42.96811788657572,41.823951602977104],[42.94908219852934,41.823951602977104],[42.91695947495019,41.832279716496444],[42.85628321930134,41.826331063983204],[42.795606963652666,41.834659177502544],[42.72303340297484,41.808485106438674],[42.6492701117941,41.831089985994325],[42.62190631022729,41.82514133347931],[42.5814554731279,41.803726184426566],[42.556471132566955,41.79777753191323],[42.49460514641528,41.79777753191323],[42.50755998966925,41.77821307475365],[42.50637025916633,41.75203900368979],[42.48733457111996,41.727054663127944],[42.51469837268674,41.68660382602954],[42.51469837268674,41.662809215970796],[42.55039028777446,41.648532449936255],[42.58965139437031,41.61878918736329],[42.619394656943626,41.59737403831055],[42.64825826966597,41.59184317867586],[42.65301719167755,41.573997221131336],[42.68276045425016,41.562099916102895],[42.71845236933797,41.56566910761013],[42.741057248893085,41.58708425666278],[42.77317997247144,41.57875614314344],[42.802923235044766,41.58589452616066],[42.84218434164052,41.58470479565677],[42.83028703661155,41.562099916102895],[42.814820540073825,41.54663341956437],[42.805302696050504,41.52878746201985],[42.78864646900996,41.51332096548231],[42.800543774038935,41.499044199447766],[42.823148653594146,41.483577702909336],[42.85289191616667,41.4728701283839],[42.87311733471676,41.50261339095598],[42.90167086678637,41.50380312145987],[42.905240058295114,41.489526355424445],[42.96829577494971,41.45264470983416],[43.01945418657523,41.37531222714459],[43.03492068311304,41.334861390046186],[43.08369963373274,41.34199977306341],[43.11463262680818,41.334861390046186],[43.12771966234007,41.325343546022864],[43.15032454189608,41.321774354512876],[43.17054996044537,41.31344624099344],[43.19196510949757,41.31463597149556],[43.21219052804767,41.31463597149556],[43.22434087599224,41.32525430018632],[43.24456629454153,41.34547971873597],[43.25408413856539,41.36927432879294],[43.28858632314966,41.38355109482836],[43.31000147220213,41.39187920834868],[43.319519316225275,41.400207321869885],[43.31595012471653,41.41686354890955],[43.294534975663964,41.45612465550583],[43.28382740113773,41.46445276902704],[43.27549928761786,41.477539804558575],[43.260032791079695,41.48943710958879],[43.257653330074135,41.50728306713154],[43.24813548605027,41.52155983316697],[43.25408413856539,41.55130309573994],[43.265981443594,41.55011336523693],[43.282637670635346,41.5370263297054],[43.312380933207784,41.5370263297054],[43.327847429745944,41.55130309573994],[43.326657699242766,41.57152851428967],[43.326657699242766,41.592943663342325],[43.337365273769,41.60722042937686],[43.35521123131273,41.61554854289629],[43.39923125992085,41.63696369194983],[43.41707721746458,41.65124045798525],[43.38495449388587,41.665517224019794],[43.36234961433022,41.69882967810097],[43.342124195780926,41.71548590514249],[43.33022689075151,41.736901054195144],[43.29334524516158,41.75117782022879],[43.28739659264647,41.77021350827633],[43.25884306057651,41.77021350827633],[43.23504845051848,41.77378269978543],[43.22434087599224,41.788059465819074],[43.22434087599224,41.818992458895046],[43.210822909170055,41.8382283690116],[43.17394126358013,41.82871052498828],[43.11921366044585,41.82871052498828]]]]}},{"type":"Feature","properties":{"kind":"district","id":"uyezd-1897-432","name":"Ахалкалакский","provinceId":"gubernia-1897-2"},"geometry":{"type":"MultiPolygon","coordinates":[[[[43.96436459044616,41.14186066401638],[43.96078405729672,41.16583041279498],[43.94531756075891,41.19081475335682],[43.92747160321545,41.20628124989348],[43.93223052522702,41.23602451246644],[43.920333220198046,41.250301278501865],[43.906056454162446,41.27766508006883],[43.92985106422119,41.32168510867722],[43.898918071144955,41.37284352030293],[43.879882383098575,41.396638130360785],[43.862036425555026,41.396638130360785],[43.859656964549195,41.414484087903446],[43.877502922092745,41.41686354890955],[43.88940022712181,41.44422735047739],[43.883451574607236,41.478729535061575],[43.83705208499337,41.52155983316608],[43.788273134374286,41.52155983316608],[43.72283795671395,41.50609333662943],[43.677628197602914,41.493006301097004],[43.67286927559134,41.508472797635434],[43.6764384671,41.52631875517818],[43.68714604162614,41.558441478757246],[43.68476658062031,41.58223608881511],[43.70023307715803,41.59889231585565],[43.70618172967252,41.6262561174235],[43.70618172967252,41.669086415528],[43.682387119614575,41.66789668502589],[43.653833587544874,41.65243018848746],[43.595536792901854,41.61316908189197],[43.53010161524152,41.61316908189197],[43.47656374261016,41.61435881239417],[43.41707721746458,41.65124045798525],[43.39923125992085,41.63696369194983],[43.35521123131273,41.61554854289629],[43.337365273769,41.60722042937686],[43.326657699242766,41.592943663342325],[43.326657699242766,41.57152851428967],[43.327847429745944,41.55130309573994],[43.312380933207784,41.5370263297054],[43.282637670635346,41.5370263297054],[43.265981443594,41.55011336523693],[43.25408413856539,41.55130309573994],[43.24813548605027,41.52155983316697],[43.257653330074135,41.50728306713154],[43.260032791079695,41.48943710958879],[43.27549928761786,41.477539804558575],[43.28382740113773,41.46445276902704],[43.294534975663964,41.45612465550583],[43.31595012471653,41.41686354890955],[43.319519316225275,41.400207321869885],[43.31000147220213,41.39187920834868],[43.28858632314966,41.38355109482836],[43.25408413856539,41.36927432879294],[43.24456629454153,41.34547971873597],[43.22434087599224,41.32525430018632],[43.21219052804767,41.31463597149556],[43.209811067041926,41.29203109193982],[43.17887807396569,41.2884619004317],[43.14437588938151,41.26823648188205],[43.125340201334325,41.251580254841414],[43.14913481139317,41.25039052433752],[43.19196510949757,41.256339176852634],[43.230036485591214,41.176627233157845],[43.275246244702345,41.19685265170759],[43.33354303934448,41.212319148244234],[43.38946037298167,41.195662921203606],[43.4334804015898,41.182575885673046],[43.44894689812752,41.1552120841052],[43.45727501164783,41.13498666555555],[43.48106962170587,41.13260720454946],[43.585765905962845,41.14212504857278],[43.629785934570975,41.12903801304124],[43.65477027513192,41.12784828253735],[43.696410842734224,41.12784828253735],[43.755897367879356,41.1123817860007],[43.794233128528845,41.14305039452027],[43.835873696131145,41.15732716055392],[43.88703210775676,41.162086082566915],[43.92153429234086,41.1561374300518],[43.96436459044616,41.14186066401638]]]]}},{"type":"Feature","properties":{"kind":"district","id":"uyezd-1897-433","name":"Горийский","provinceId":"gubernia-1897-2"},"geometry":{"type":"MultiPolygon","coordinates":[[[[43.70618172967252,41.669086415528],[43.70618172967252,41.69526048659187],[43.70261253816386,41.719055096649726],[43.74544283626908,41.72024482715371],[43.770427176830026,41.73809078469637],[43.79541151739178,41.75831620324611],[43.79065259538012,41.79043892682508],[43.81563693594107,41.786869735316074],[43.83586235449045,41.78092108280176],[43.87869265259566,41.77616216079063],[43.9096256456711,41.74047024570336],[43.946507291261824,41.73452159318825],[44.010752738419335,41.73571132369214],[44.07618791607975,41.73333186268613],[44.14876147675749,41.73214213218215],[44.17969446983293,41.74760862872067],[44.20229934938894,41.74165997620547],[44.22086387199967,41.73604612617326],[44.25893524809251,41.73842558717935],[44.29700662418615,41.73961531768147],[44.31723204273553,41.758651005729],[44.33150880877034,41.77411750226743],[44.356493149331996,41.77649696327353],[44.40289263894525,41.75270235321389],[44.45999970308535,41.74794343120267],[44.48736350465284,41.76578938874631],[44.530193802757346,41.76816884975232],[44.555178143319004,41.780066154781736],[44.5754035618683,41.799101842827405],[44.62061332097863,41.80980941735471],[44.69080742065062,41.82289645288624],[44.72411987473269,41.84788079344799],[44.70700946718063,41.86909333229683],[44.682025126619685,41.879800906822354],[44.648712672537705,41.886939289839574],[44.61421048795343,41.896457133862896],[44.57613911185988,41.89764686436679],[44.570190459345305,41.92382093543075],[44.551154771298926,41.9369079709613],[44.548775310293095,41.95356419800372],[44.52736016124089,41.970220425044346],[44.51784231721766,41.99877395711431],[44.52973962224663,42.01543018415486],[44.51784231721766,42.04636317722994],[44.479770941124016,42.04755290773392],[44.45835579207172,42.057070751757244],[44.44407902603612,42.08681401432932],[44.41195630245785,42.09038320583842],[44.38578223139399,42.09990104986174],[44.35246977731201,42.09157293634054],[44.32153678423648,42.13440323444682],[44.307260018201674,42.154628652996465],[44.32629570624814,42.18080272406042],[44.30844974870459,42.201028142609175],[44.322726514739394,42.22839194417703],[44.322726514739394,42.24385844071368],[44.30131136568639,42.2569454762461],[44.275137294622525,42.273601703286644],[44.26086052858772,42.29620658284239],[44.2810859471371,42.31881146239725],[44.328675167253884,42.31524227088903],[44.3441416637916,42.32951903692446],[44.3441416637916,42.35926229949743],[44.3726951958613,42.3842466400574],[44.38935142290264,42.40566178911014],[44.3441416637916,42.425887207659784],[44.327485436751054,42.4401639736961],[44.32629570624814,42.456820200736736],[44.313208670716165,42.47704561928549],[44.30844974870459,42.48894292431491],[44.33581355027128,42.519875917389996],[44.33819301127711,42.54961917996296],[44.33581355027128,42.579362442536905],[44.32034705373356,42.585311095050244],[44.29893190468056,42.594828939073565],[44.28584486914867,42.611485166115884],[44.259670798084805,42.62219274064141],[44.248963223558654,42.63171058466473],[44.208512386459276,42.630520854162526],[44.17401020187509,42.62814139315652],[44.15616424433083,42.61267489661809],[44.11452367672924,42.625761932150425],[44.08478041415592,42.61386462712021],[44.04670903806308,42.60196732209256],[43.98484305191131,42.57698298153081],[43.957973665001035,42.573481819814376],[43.94369689896623,42.56158451478407],[43.90324606186676,42.54611801824555],[43.87588226030007,42.52827206070289],[43.85208765024123,42.52351313869079],[43.833051962194766,42.490200684609604],[43.79854977761058,42.48306230159229],[43.77594489805475,42.47354445756897],[43.74263244397339,42.47235472706508],[43.69504322385661,42.490200684609604],[43.67719726631306,42.4818725710884],[43.666489691786914,42.47235472706508],[43.68314591882755,42.44974984751114],[43.71883783391465,42.44261146449206],[43.77594489805475,42.43547308147483],[43.78189355056924,42.4211963154403],[43.7997395081135,42.41167847141698],[43.81758546565705,42.41524766292608],[43.83067250118903,42.4140579324221],[43.83186223169194,42.404540088399656],[43.81996492666288,42.40335035789577],[43.81758546565705,42.37717628683181],[43.81639573515413,42.35576113777916],[43.80092923861641,42.34743302425973],[43.78070382006632,42.34505356325461],[43.74263244397339,42.34624329375673],[43.7081302593885,42.32482814470408],[43.680766457821804,42.33553571923129],[43.67362807480431,42.320069222692865],[43.668869152792745,42.303412995652224],[43.62960804619619,42.26296215855196],[43.599864783623666,42.237977817991094],[43.580829095577286,42.21180374692723],[43.568931790547424,42.17849129284516],[43.543947449986476,42.174922101336946],[43.541567988980646,42.13566099474066],[43.54513718048939,42.10353827116248],[43.520152839928436,42.06308743406221],[43.50706580439575,42.03810309350233],[43.4892198468522,41.99170360388872],[43.4749430808174,41.95839114980568],[43.45947658427968,41.941734922765136],[43.44401008774196,41.92031977371239],[43.42140520818604,41.91794031270727],[43.37976464058445,41.923888965222474],[43.353590569519874,41.91794031270727],[43.340503533987984,41.89533543315251],[43.30719107990662,41.88224839762009],[43.2631710512985,41.862022979069465],[43.23223805822306,41.851315404543136],[43.210822909170055,41.8382283690116],[43.22434087599224,41.818992458895046],[43.22434087599224,41.788059465819074],[43.23504845051848,41.77378269978543],[43.25884306057651,41.77021350827633],[43.28739659264647,41.77021350827633],[43.29334524516158,41.75117782022879],[43.33022689075151,41.736901054195144],[43.342124195780926,41.71548590514249],[43.36234961433022,41.69882967810097],[43.38495449388587,41.665517224019794],[43.41707721746458,41.65124045798525],[43.47656374261016,41.61435881239417],[43.53010161524152,41.61316908189197],[43.595536792901854,41.61316908189197],[43.653833587544874,41.65243018848746],[43.682387119614575,41.66789668502589],[43.70618172967252,41.669086415528]]]]}},{"type":"Feature","properties":{"kind":"district","id":"uyezd-1897-434","name":"Душетский","provinceId":"gubernia-1897-2"},"geometry":{"type":"MultiPolygon","coordinates":[[[[45.03659413210518,41.86115569070898],[45.03302494059652,41.886140031268965],[44.99852275601225,41.90160652780739],[44.933087578351916,41.92659086836923],[44.909292968293876,41.94681628691799],[44.87003186169732,42.00749254256604],[44.84504752113637,42.02652823061268],[44.85218590415386,42.043184457655094],[44.874790783708896,42.05508176268265],[44.91524162080837,42.06103041519785],[44.911672429299706,42.102670982800234],[44.88192916672639,42.109809365817455],[44.86646267018867,42.126465592858],[44.85813455666835,42.15144993341984],[44.86170374817701,42.17286508247249],[44.893826471755446,42.189521309513125],[44.90096485477276,42.20617753655367],[44.897395663264106,42.22402349409642],[44.86289347867992,42.24067972113883],[44.87003186169732,42.262094870190595],[44.85218590415386,42.2680435227057],[44.82839129409503,42.2680435227057],[44.81411452806013,42.28588948024846],[44.78437126548761,42.30968409030809],[44.7903199180021,42.348945196903486],[44.82363237208345,42.356083579920806],[44.84504752113637,42.37749872897257],[44.84980644314803,42.40010360852919],[44.834339946610314,42.421518757580955],[44.84147832962771,42.45245175065613],[44.871221592200236,42.46672851669156],[44.874790783708896,42.48219501322998],[44.86289347867992,42.49409231825852],[44.834339946610314,42.51431773680905],[44.834339946610314,42.53930207736903],[44.84504752113637,42.584511836480516],[44.88073943622347,42.61782429056258],[44.86646267018867,42.642808631122556],[44.86180662483815,42.65616615611275],[44.84277093679098,42.65854561711875],[44.835632553773486,42.67163265265117],[44.82373524874451,42.6894786101957],[44.779715220136296,42.69542726270903],[44.75473087957543,42.739447291317425],[44.7237978864999,42.75848297936407],[44.69048543241792,42.77157001489649],[44.6527043462459,42.76192378012989],[44.63456809878073,42.757293248861956],[44.60720429721404,42.75372405735196],[44.5762713041386,42.76562136238138],[44.556045885588425,42.77157001489649],[44.522733431507156,42.75253432684896],[44.522733431507156,42.714462950755674],[44.49774909094549,42.71565268125957],[44.47514421139037,42.73706783031142],[44.4489701403265,42.73468836930621],[44.427554991273496,42.75967270986618],[44.40613984222129,42.75253432684896],[44.36806846612836,42.7358780998093],[44.34308412556661,42.74539594383262],[44.34070466456087,42.76205217087317],[44.32999709003472,42.76562136238138],[44.316910054502834,42.75372405735196],[44.27764894790628,42.713273220253555],[44.252664607345324,42.68828887969172],[44.25623379885407,42.659735347621755],[44.248963223558654,42.63171058466473],[44.259670798084805,42.62219274064141],[44.28584486914867,42.611485166115884],[44.29893190468056,42.594828939073565],[44.32034705373356,42.585311095050244],[44.33581355027128,42.579362442536905],[44.33819301127711,42.54961917996296],[44.33581355027128,42.519875917389996],[44.30844974870459,42.48894292431491],[44.313208670716165,42.47704561928549],[44.32629570624814,42.456820200736736],[44.327485436751054,42.4401639736961],[44.3441416637916,42.425887207659784],[44.38935142290264,42.40566178911014],[44.3726951958613,42.3842466400574],[44.3441416637916,42.35926229949743],[44.3441416637916,42.32951903692446],[44.328675167253884,42.31524227088903],[44.2810859471371,42.31881146239725],[44.26086052858772,42.29620658284239],[44.275137294622525,42.273601703286644],[44.30131136568639,42.2569454762461],[44.322726514739394,42.24385844071368],[44.322726514739394,42.22839194417703],[44.30844974870459,42.201028142609175],[44.32629570624814,42.18080272406042],[44.307260018201674,42.154628652996465],[44.32153678423648,42.13440323444682],[44.35246977731201,42.09157293634054],[44.38578223139399,42.09990104986174],[44.41195630245785,42.09038320583842],[44.44407902603612,42.08681401432932],[44.45835579207172,42.057070751757244],[44.479770941124016,42.04755290773392],[44.51784231721766,42.04636317722994],[44.52973962224663,42.01543018415486],[44.51784231721766,41.99877395711431],[44.52736016124089,41.970220425044346],[44.548775310293095,41.95356419800372],[44.551154771298926,41.9369079709613],[44.570190459345305,41.92382093543075],[44.57613911185988,41.89764686436679],[44.61421048795343,41.896457133862896],[44.648712672537705,41.886939289839574],[44.682025126619685,41.879800906822354],[44.70700946718063,41.86909333229683],[44.72411987473269,41.84788079344799],[44.75386313730522,41.83479375791468],[44.783606399878536,41.82765537489737],[44.80740100993658,41.86572675099065],[44.833575081000355,41.88357270853429],[44.87521564860274,41.8919008220555],[44.91566648570212,41.88238297803129],[44.95849678380662,41.870485673003735],[45.00489627342067,41.86810621199764],[45.03659413210518,41.86115569070898]]]]}},{"type":"Feature","properties":{"kind":"district","id":"uyezd-1897-783","name":"Борчалинский","provinceId":"gubernia-1897-2"},"geometry":{"type":"MultiPolygon","coordinates":[[[[44.22086387199967,41.73604612617326],[44.20229934938894,41.74165997620547],[44.17969446983293,41.74760862872067],[44.14876147675749,41.73214213218215],[44.07618791607975,41.73333186268613],[44.010752738419335,41.73571132369214],[43.946507291261824,41.73452159318825],[43.9096256456711,41.74047024570336],[43.87869265259566,41.77616216079063],[43.83586235449045,41.78092108280176],[43.81563693594107,41.786869735316074],[43.79065259538012,41.79043892682508],[43.79541151739178,41.75831620324611],[43.770427176830026,41.73809078469637],[43.74544283626908,41.72024482715371],[43.70261253816386,41.719055096649726],[43.70618172967252,41.69526048659187],[43.70618172967252,41.669086415528],[43.70618172967252,41.6262561174235],[43.70023307715803,41.59889231585565],[43.68476658062031,41.58223608881511],[43.68714604162614,41.558441478757246],[43.6764384671,41.52631875517818],[43.67286927559134,41.508472797635434],[43.677628197602914,41.493006301097004],[43.72283795671395,41.50609333662943],[43.788273134374286,41.52155983316608],[43.83705208499337,41.52155983316608],[43.883451574607236,41.478729535061575],[43.88940022712181,41.44422735047739],[43.877502922092745,41.41686354890955],[43.859656964549195,41.414484087903446],[43.862036425555026,41.396638130360785],[43.879882383098575,41.396638130360785],[43.898918071144955,41.37284352030293],[43.92985106422119,41.32168510867722],[43.906056454162446,41.27766508006883],[43.920333220198046,41.250301278501865],[43.93223052522702,41.23602451246644],[43.92747160321545,41.20628124989348],[43.94531756075891,41.19081475335682],[43.96078405729672,41.16583041279498],[43.96436459044616,41.14186066401638],[43.959605668434584,41.119255784460634],[43.95365701592001,41.09189198289367],[43.98459000899554,41.071666564344916],[43.99767704452743,41.04311303227495],[44.02979976810658,41.0264568052344],[44.05121491715879,41.02169788322319],[44.05597383917045,41.000282734170455],[44.06549168319359,40.97767785461471],[44.09047602375534,40.97053947159748],[44.12378847783661,40.976488124110816],[44.15710093191859,40.97053947159748],[44.20587988253758,40.94317567002963],[44.239192336619645,40.93246809550331],[44.28321236522697,40.92651944298909],[44.3486475428874,40.92057079047389],[44.36173457841929,40.927709173492985],[44.34626808188157,40.95031405304686],[44.39147784099261,40.94912432254385],[44.43668760010365,40.92413998198299],[44.484276820219726,40.915811868463564],[44.502122777763276,40.919381059971776],[44.553281189388805,40.92295025147999],[44.598490948499844,40.90510429393724],[44.618716367049224,40.87774049236939],[44.636562324592774,40.845617768790326],[44.665115856663185,40.82301288923556],[44.700807771750284,40.81111558420703],[44.7507764528729,40.79802854867372],[44.78907286410586,40.8128814119209],[44.84142100623439,40.84262467449387],[44.86164642478448,40.86285009304449],[44.85688750277211,40.92947500120685],[44.82833397070242,40.971115568809154],[44.79621124712415,40.98658206534767],[44.79026259460878,41.011566405907644],[44.802159899638546,41.04844805149881],[44.81881612667918,41.05915562602425],[44.83904154522856,41.06034535652725],[44.86640534679614,41.042499398983615],[44.9056664533919,41.06986320055057],[44.94849675149711,41.098416732620535],[44.915184297415045,41.13529837821171],[44.875923190819286,41.14005730022292],[44.88306157383669,41.15433406625746],[44.92113294992962,41.19240544235075],[44.952065943005856,41.2173897829125],[44.98180920557838,41.23761520146215],[44.973481092058066,41.279255769064534],[45.00798327664296,41.3066195706306],[45.042485461227145,41.32208606716903],[45.11981794391654,41.298291457111176],[45.21499638415028,41.2637892725261],[45.23165261119092,41.29353253509818],[45.21428884193374,41.29822530110048],[45.20239153690467,41.314881528141115],[45.171458543828436,41.310122606129895],[45.15837150829655,41.327968563674425],[45.12267959320945,41.33867613820075],[45.11435147968913,41.3541426347374],[45.10245417465936,41.35890155674951],[45.0774698340984,41.40768050736912],[45.06676225957226,41.4409929614503],[45.04415738001713,41.46002864949694],[45.04534711052005,41.51237679162476],[45.03344980549028,41.51713571363776],[45.019173039455474,41.52427409665507],[45.00013735140901,41.55163789822105],[44.919235677210864,41.56353520325047],[44.84904157753887,41.562345472748355],[44.76457071183207,41.52784328816328],[44.68128957662739,41.48739245106479],[44.64321820053455,41.50404867810542],[44.60038790242925,41.50404867810542],[44.56945490935381,41.51594598313386],[44.54209110778632,41.51475625263175],[44.51353757571671,41.51832544413996],[44.469517547108495,41.509997330620536],[44.37076991536689,41.48739245106479],[44.32674988675868,41.480254068046676],[44.29462716318032,41.45764918849093],[44.25417632608094,41.4517005359776],[44.2375200990403,41.45289026647971],[44.232761177028735,41.467167032514254],[44.23989956004605,41.49691029508722],[44.25893524809251,41.51832544413996],[44.25060713457219,41.53260221017441],[44.21610494998801,41.54330978470171],[44.168515729871224,41.54212005419773],[44.14948004182476,41.53022274916929],[44.137582736795785,41.52427409665507],[44.12211624025727,41.53260221017441],[44.163756807859656,41.55758655073625],[44.22086387199967,41.59803738783465],[44.2720222836252,41.632539572419816],[44.27559147513394,41.656334182477586],[44.26012497859543,41.6646622959979],[44.24108929054896,41.668231487507],[44.21967414149675,41.68488771454755],[44.22086387199967,41.73604612617326]]]]}}]}
