{"type":"FeatureCollection","features":[{"type":"Feature","properties":{"kind":"province","id":"gubernia-1897-31","name":"Петроковская губерния"},"geometry":{"type":"MultiPolygon","coordinates":[[[[19.987665153635533,51.47952814908149],[19.97695757910941,51.461682191536966],[19.9626808130746,51.462871922040904],[19.946024586033957,51.461682191536966],[19.929368358993372,51.44621569500032],[19.91628132346068,51.42718000695368],[19.894866174408435,51.418851893432475],[19.882968869379397,51.40933404940915],[19.86155372032715,51.408144318907034],[19.838948840771252,51.40219566639189],[19.834189918759648,51.38434970884737],[19.85084614580029,51.35817563778346],[19.86750237284167,51.33557075822773],[19.886538060888086,51.33319129722349],[19.87583048636202,51.321293992193205],[19.89129698289969,51.31891453118715],[19.88177913887648,51.298689112637476],[19.892486713402604,51.29274046012324],[19.880589408373623,51.28084315509568],[19.863933181332982,51.25228962302481],[19.885348330385227,51.245151240007544],[19.888917521893916,51.222546360452725],[19.90319428792871,51.19280309787795],[19.882968869379425,51.16305983530489],[19.891296982899654,51.128557650721596],[19.86631264233879,51.103573310159845],[19.84132830177704,51.088106813621415],[19.853225606806102,51.05479435954024],[19.847276954291527,51.01434352244085],[19.82348234423349,50.9953078343951],[19.81277476970743,50.97746187685057],[19.819913152724833,50.95842618880393],[19.82348234423349,50.933441848244044],[19.79492881216388,50.91797535170552],[19.77232393260796,50.9144061601974],[19.77470339361379,50.894180741647666],[19.76280608858473,50.89180128064166],[19.753288244561496,50.879903975611356],[19.723544981988972,50.876334784103136],[19.710457946456284,50.863247748571695],[19.722355251486057,50.85254017404528],[19.710457946456284,50.83112502499263],[19.684283875392417,50.82160718096931],[19.661678995837296,50.80614068443079],[19.670007109357613,50.785915265881144],[19.66048926533438,50.77163849984758],[19.64978169080832,50.75617200330906],[19.630746002761057,50.74784388978786],[19.611710314714593,50.75260281179996],[19.59386435717113,50.76331038632638],[19.57363893862104,50.788294726888125],[19.535567562528094,50.77639742185784],[19.52842917951069,50.757361733811194],[19.52367025749912,50.73237739325121],[19.509393491464316,50.69192655615103],[19.53913675403684,50.682408712127625],[19.540326484539754,50.67646005961429],[19.527239449007777,50.66932167659529],[19.547464867557157,50.66337302408098],[19.537947023533924,50.63362976150802],[19.511772952470057,50.62649137849079],[19.507014030458485,50.603886498935935],[19.462994001850358,50.59793784642083],[19.43919939179232,50.58604054139141],[19.443958313803893,50.57414323636297],[19.464183732353273,50.55748700932233],[19.47013238486776,50.53607186026879],[19.49035780341705,50.518225902726044],[19.50344483894903,50.4991902146794],[19.492737264422882,50.47301614361554],[19.476081037382247,50.47301614361554],[19.43919939179232,50.446842072551576],[19.46537346285619,50.41947827098373],[19.46775292386193,50.39806312193197],[19.44276858330098,50.37902743388533],[19.46775292386193,50.3576122848317],[19.489168072914136,50.33976632728904],[19.44752750531264,50.336197135779045],[19.401128015698593,50.33500740527596],[19.38328205815513,50.31835117823541],[19.357107987090465,50.31835117823541],[19.310708497477307,50.30764360370998],[19.27977550440107,50.292177107171455],[19.257170624845948,50.280279802142125],[19.263530172414328,50.26851463914078],[19.25796391115681,50.2683986753646],[19.200856847016794,50.26720894486151],[19.155647087906285,50.2612602923464],[19.133042208350542,50.28148571089605],[19.087832449240032,50.28981382441636],[19.074745413708232,50.32907493101354],[19.064037839181996,50.33621331402996],[19.0580891866668,50.3445414275502],[19.06641730018747,50.36119765459172],[19.035484307111943,50.36238738509472],[19.008120505544362,50.37904361213624],[18.98075670397758,50.38737172565558],[18.965290207439416,50.42187391023985],[18.965290207439416,50.43734040677829],[18.965290207439416,50.45518636432281],[18.985515625989418,50.463514477843134],[19.002171853030053,50.49920639293032],[19.047381612140562,50.50515504544365],[19.080694066222453,50.50991396745576],[19.087832449240032,50.51943181147996],[19.08545298823447,50.56464157058967],[19.097350293263087,50.58486698913932],[19.087832449240032,50.60033348567686],[19.080694066222453,50.61817944322139],[19.09378110175434,50.63959459227413],[19.099729754269806,50.665768663338],[19.071176222199487,50.665768663338],[19.03429457660876,50.66100974132678],[19.02001781057378,50.67290704635522],[18.983136164983144,50.67171731585222],[18.978377242971927,50.69432219540796],[18.959341554925018,50.70740923093949],[18.939116136375727,50.7085989614425],[18.903424221288272,50.73715249351246],[18.859404192680056,50.775223869606634],[18.759466830435095,50.77879306111485],[18.72496464585082,50.8037774016766],[18.691652191768842,50.81924389821325],[18.65715000718457,50.82519255072934],[18.61907863109155,50.83827958626078],[18.6036121345533,50.84898716078622],[18.614319709079624,50.866833118330746],[18.63097593612017,50.903714763920135],[18.64406297165277,50.91918126045857],[18.642873241149587,50.9358374874992],[18.61907863109155,50.946545062026416],[18.613129978576442,50.953683445042756],[18.610750517570878,50.97628832459947],[18.667160583602687,50.998271552629404],[18.668350314105602,51.01849697118003],[18.651694087064968,51.05061969475723],[18.669540044608517,51.07441430481686],[18.87298396060701,51.070845113307854],[18.894399109659304,51.10534729789204],[18.952695904302235,51.089880801353516],[18.95864455681674,51.110106219904125],[18.937229407764622,51.15650570951773],[18.949126712793596,51.16721328404317],[18.993146741401723,51.17197220605607],[18.977680244863294,51.205284660136456],[18.99433647190464,51.21599223466278],[18.997905663413295,51.23859711421852],[18.984818627880607,51.25168414974996],[18.984818627880607,51.26001226327108],[19.0062337769337,51.26834037679238],[19.001474854922066,51.284996603832916],[18.89439910965932,51.29332471735235],[18.858707194572222,51.28618633433513],[18.845620159039534,51.28856579534104],[18.843240698033703,51.29808363936357],[18.859896925075137,51.31949878841631],[18.834912584513475,51.32901663243963],[18.839671506525047,51.339724206965954],[18.81825635747275,51.35043178149317],[18.820635818478582,51.39445181009978],[18.792082286408974,51.39921073211286],[18.78256444238574,51.4099183066383],[18.783754172888656,51.42181561166763],[18.809928243952523,51.4539383352467],[18.834912584513475,51.49557890284908],[18.837292045519305,51.5479270449769],[18.84918935054908,51.576480577045984],[18.876553152115772,51.576480577045984],[18.897968301167978,51.585998421069306],[18.94555752128485,51.587188151573194],[18.982439166874865,51.59313680408653],[19.00385431592787,51.580049768555966],[19.008613237939443,51.62169033615649],[19.00147485492204,51.65500279023945],[18.9634034788284,51.6740384782852],[18.993146741401723,51.69426389683582],[19.02170027347142,51.696643357841836],[19.024079734477162,51.6764179392913],[19.065720302079548,51.6740384782852],[19.05739218855843,51.687125513818515],[19.09546356465207,51.69545362733794],[19.081186798617267,51.7192482373958],[19.0550127275526,51.722817428905785],[19.024079734477162,51.78706287606205],[18.986008358383522,51.803719103102594],[18.97384666879861,51.82050752242231],[19.00953858388571,51.8193177919202],[19.04523049897352,51.82169725292442],[19.044040768470605,51.844302132480166],[19.059507265008325,51.85025078499528],[19.105906754622282,51.844302132480166],[19.151116513732614,51.84192267147407],[19.189187889826254,51.84787132398927],[19.207033847369804,51.849061054491386],[19.22844899642201,51.85738916801259],[19.22606953541618,51.87404539505314],[19.215361960890032,51.89308108309978],[19.229638726925636,51.92044488466763],[19.242725762457614,51.921634615169744],[19.249864145475016,51.92639353718096],[19.245105223463355,51.93591138120428],[19.259381989498248,51.94423949472549],[19.274848486035967,51.93710111170826],[19.29507390458526,51.94661895573158],[19.39620099733349,51.9478086862337],[19.428323720911862,51.97398275729756],[19.51060607001483,51.985365981245195],[19.57604124767522,51.98298652024096],[19.60221531873907,51.97108921521067],[19.622440737289196,51.95562271867311],[19.66527103539363,51.952053527164026],[19.677168340422668,51.963950832194314],[19.705721872493086,51.962761101690376],[19.7247575605395,51.94015622213465],[19.74974190110123,51.91755134257892],[19.792572199205722,51.91517188157468],[19.83540249731095,51.90684376805348],[19.840161419322556,51.89018754101289],[19.812797617755052,51.866392930955044],[19.858007376866112,51.86758266145716],[19.900837674971342,51.854495625925665],[19.923442554526503,51.85806481743384],[19.963893391625902,51.84259832089538],[19.971031774643336,51.800957753294824],[19.974600966152025,51.77359395172698],[20.03289776079505,51.76050691619455],[20.06621021487623,51.74266095865189],[20.10904051298144,51.74504041965701],[20.120937818010503,51.765265838205764],[20.13997350605697,51.765265838205764],[20.14711188907437,51.78549125675639],[20.16733730762366,51.796198831282716],[20.16019892460626,51.80690640580815],[20.11617889599893,51.81523451932936],[20.114989165496016,51.850926434416635],[20.12926593153082,51.850926434416635],[20.13402485354248,51.862823739445076],[20.163768116115005,51.874721044474406],[20.174475690641863,51.85568535642776],[20.262515747857407,51.852116164918755],[20.26727466986898,51.883049157995615],[20.325571464512,51.87591077497839],[20.344607152558464,51.861634008942076],[20.35293526607878,51.87353131397229],[20.393386103178162,51.86401346994897],[20.395765564183993,51.849736703914516],[20.415990982733284,51.85449562592565],[20.423129365750775,51.8378393988851],[20.445734245305808,51.841408590393314],[20.47071858586756,51.82594209385479],[20.540912685539553,51.81404478882547],[20.542102416042468,51.80214748379694],[20.55399972107153,51.79381937027573],[20.55399972107153,51.777163143235185],[20.564707295597678,51.766455568709745],[20.559948373586018,51.75217880267521],[20.595640288673827,51.74266095865189],[20.61824516822895,51.72957392311858],[20.633711664766757,51.704589582558604],[20.628952742755096,51.686743625014074],[20.626573281749266,51.66532847596223],[20.62538355124635,51.63558521338926],[20.642039778286986,51.615359794838724],[20.63448197038738,51.5932575723418],[20.622584665358406,51.55875538775673],[20.48933484903182,51.568273231780054],[20.490524579534735,51.60634460787422],[20.460781316961413,51.60634460787422],[20.440555898412033,51.61467272139365],[20.40843317483368,51.61467272139365],[20.37274125974587,51.58611918932458],[20.350136380190747,51.574221884295156],[20.332290422647286,51.581360267312476],[20.2906498550449,51.56232457926485],[20.251388748448345,51.53615050820099],[20.228783868893135,51.52663266417767],[20.195471414811955,51.51949428116044],[20.166917882741547,51.52306347266945],[20.152641116706743,51.52306347266945],[20.152641116706743,51.51473535914825],[20.14557709184604,51.509418750964855],[20.137174620169024,51.51473535914825],[20.14074381167768,51.53020185568677],[20.10676213418781,51.53551846387104],[20.083636747537575,51.53734023870399],[20.072929173011516,51.54328889121821],[20.04199617993528,51.54447862172219],[20.019787877214696,51.53068656070718],[19.98290623162393,51.49023572360693],[19.987665153635533,51.47952814908149]]]]}},{"type":"Feature","properties":{"kind":"district","id":"uyezd-1897-146","name":"Равский","provinceId":"gubernia-1897-31"},"geometry":{"type":"MultiPolygon","coordinates":[[[[20.54091268553957,51.81404478882545],[20.470718585867576,51.82594209385478],[20.445734245305825,51.8414085903933],[20.423129365750793,51.83783939888508],[20.4159909827333,51.85449562592563],[20.39576556418401,51.8497367039145],[20.39338610317818,51.86401346994895],[20.3529352660788,51.87353131397227],[20.34460715255848,51.861634008942055],[20.325571464512016,51.875910774978365],[20.267274669868996,51.88304915799559],[20.262515747857424,51.85211616491873],[20.17447569064188,51.85568535642774],[20.163768116115023,51.874721044474384],[20.1340248535425,51.86282373944506],[20.12926593153084,51.85092643441662],[20.114989165496034,51.85092643441662],[20.11617889599895,51.81523451932934],[20.160198924606277,51.806906405808135],[20.16733730762368,51.796198831282695],[20.147111889074388,51.78549125675637],[20.139973506056986,51.76526583820575],[20.12093781801052,51.76526583820575],[20.10904051298146,51.74504041965699],[20.066210214876246,51.74266095865187],[20.032897760795066,51.76050691619453],[19.974600966152046,51.77359395172695],[19.968232888754628,51.75387119023437],[19.923023129644296,51.73840469369683],[19.931351243164613,51.718179275147094],[19.902797711094205,51.713420353136854],[19.909936094112407,51.69914358710045],[19.84807010796064,51.6741592465387],[19.875433909527423,51.63846733145142],[19.918264207632635,51.639657061955404],[19.965853427748797,51.63846733145142],[19.978940463281486,51.61705218239966],[19.95038693121099,51.60872406887846],[19.961094505737137,51.584929458820596],[19.976561002275655,51.584929458820596],[19.99321722931629,51.56946296228394],[20.007493995351094,51.5539964657464],[20.04199617993528,51.54447862172219],[20.072929173011516,51.54328889121821],[20.083636747537575,51.53734023870399],[20.10676213418781,51.53551846387104],[20.14074381167768,51.53020185568677],[20.137174620169024,51.51473535914825],[20.14557709184604,51.509418750964855],[20.152641116706743,51.51473535914825],[20.152641116706743,51.52306347266945],[20.166917882741547,51.52306347266945],[20.195471414811955,51.51949428116044],[20.228783868893135,51.52663266417767],[20.251388748448345,51.53615050820099],[20.2906498550449,51.56232457926485],[20.332290422647286,51.581360267312476],[20.350136380190747,51.574221884295156],[20.37274125974587,51.58611918932458],[20.40843317483368,51.61467272139365],[20.440555898412033,51.61467272139365],[20.460781316961413,51.60634460787422],[20.490524579534735,51.60634460787422],[20.48933484903182,51.568273231780054],[20.622584665358406,51.55875538775673],[20.63448197038738,51.5932575723418],[20.642039778287003,51.61535979483874],[20.62538355124637,51.63558521338927],[20.626573281749284,51.66532847596224],[20.628952742755114,51.68674362501409],[20.633711664766775,51.70458958255861],[20.618245168228967,51.72957392311859],[20.595640288673845,51.742660958651896],[20.559948373586035,51.75217880267522],[20.564707295597696,51.76645556870976],[20.55399972107155,51.7771631432352],[20.55399972107155,51.79381937027574],[20.542102416042486,51.802147483796944],[20.54091268553957,51.81404478882545]]]]}},{"type":"Feature","properties":{"kind":"district","id":"uyezd-1897-147","name":"Брезинский","provinceId":"gubernia-1897-31"},"geometry":{"type":"MultiPolygon","coordinates":[[[[19.835402497310973,51.906843768053434],[19.79257219920576,51.915171881574636],[19.74974190110126,51.91755134257896],[19.72475756053951,51.94015622213462],[19.705721872493044,51.96276110169036],[19.677168340422636,51.96395083219434],[19.665271035393662,51.95205352716403],[19.62244073728916,51.95562271867313],[19.60221531873907,51.971089215210675],[19.576041247675203,51.982986520240985],[19.51060607001487,51.98536598124521],[19.428323720911834,51.97398275729755],[19.39620099733348,51.94780868623368],[19.415404781733514,51.93757439270394],[19.432061008774895,51.91972843515941],[19.435630200283583,51.894744094599446],[19.421353434248772,51.88760571158218],[19.427302086762495,51.87808786755886],[19.461804271347432,51.8757084065528],[19.485598881406247,51.84001649146467],[19.484409150902593,51.8114629593947],[19.509393491464323,51.81384242040076],[19.526049718504908,51.8114629593947],[19.554603250574587,51.81265268989682],[19.573638938621798,51.8067040373835],[19.592674626667417,51.79480673235412],[19.625987080749496,51.793617001852],[19.67000710935764,51.78052996631959],[19.612900045217543,51.763873739279006],[19.603382201194336,51.755545625757804],[19.5962438181769,51.72818182418996],[19.570069747112314,51.679402873570325],[19.58434651314792,51.68178233457638],[19.615279506223374,51.72818182418996],[19.64145357728796,51.73532020720904],[19.65929953483152,51.711525597151194],[19.67357630086633,51.678213143068206],[19.69975037193018,51.67583368206397],[19.69856064142806,51.624675270438274],[19.705699024445437,51.59969092987558],[19.723544981988994,51.56399901478835],[19.773513663111657,51.53068656070718],[19.8080158476958,51.55805036227321],[19.79849800367259,51.57708605032076],[19.81872342222192,51.57708605032076],[19.831810457753818,51.56280928428441],[19.84846668479446,51.560429823280174],[19.852035876303148,51.53901467422838],[19.835379649262563,51.52116871668386],[19.837759110268337,51.51165087266054],[19.86750237284167,51.5140303336666],[19.87702021686414,51.49975356763025],[19.888917521893916,51.49737410662419],[19.894866174408435,51.504512489643275],[19.943645125028183,51.504512489643275],[19.99004461464216,51.49975356763025],[20.019787877214696,51.53068656070718],[20.04199617993528,51.54447862172219],[20.007493995351094,51.5539964657464],[19.99321722931629,51.56946296228394],[19.976561002275655,51.584929458820596],[19.961094505737137,51.584929458820596],[19.95038693121099,51.60872406887846],[19.978940463281486,51.61705218239966],[19.965853427748797,51.63846733145142],[19.918264207632635,51.639657061955404],[19.875433909527423,51.63846733145142],[19.84807010796064,51.6741592465387],[19.909936094112407,51.69914358710045],[19.902797711094205,51.713420353136854],[19.931351243164613,51.718179275147094],[19.923023129644296,51.73840469369683],[19.968232888754628,51.75387119023437],[19.974600966152046,51.77359395172695],[19.9710317746433,51.8009577532948],[19.9638933916259,51.84259832089541],[19.923442554526517,51.85806481743384],[19.900837674971307,51.85449562592563],[19.858007376866095,51.86758266145716],[19.812797617755052,51.866392930955044],[19.840161419322545,51.89018754101291],[19.835402497310973,51.906843768053434]]]]}},{"type":"Feature","properties":{"kind":"district","id":"uyezd-1897-149","name":"Лодзинский","provinceId":"gubernia-1897-31"},"geometry":{"type":"MultiPolygon","coordinates":[[[[19.024079734477134,51.78706287606202],[19.048967786835814,51.786478618832874],[19.076331588402507,51.790047810342955],[19.119161886507808,51.788858079838974],[19.154853801594907,51.780529966319634],[19.190545716682628,51.76744293078623],[19.223858170763986,51.76744293078623],[19.25122197233148,51.76030454776901],[19.29643173144252,51.73532020720726],[19.341641490552764,51.73650993771115],[19.38090259714932,51.731751015699935],[19.393989632681297,51.717474249663624],[19.391610171675467,51.70200775312608],[19.39874855469287,51.68178233457634],[19.411835590224758,51.66750556854092],[19.407076668213186,51.64252122798094],[19.415404781733503,51.62348553993341],[19.440389122295166,51.62348553993341],[19.451096696821313,51.60444985188677],[19.442768583300996,51.59255254685744],[19.415404781733503,51.58184497233103],[19.411835590224758,51.56042982328015],[19.445148044306826,51.565188745290484],[19.471322115370604,51.554481170765044],[19.47489130687935,51.5330660217123],[19.49035780341707,51.52354817768996],[19.51058322196716,51.53068656070718],[19.537947023533942,51.5354454827184],[19.54389567604843,51.51878925567777],[19.579587591136328,51.5318762912093],[19.58196705214207,51.54615305724384],[19.618848697732084,51.558050362273164],[19.654540612819893,51.558050362273164],[19.684283875392417,51.55329144026106],[19.723544981988994,51.56399901478835],[19.705699024445437,51.59969092987558],[19.69856064142806,51.624675270438274],[19.69975037193018,51.67583368206397],[19.67357630086633,51.678213143068206],[19.65929953483152,51.711525597151194],[19.64145357728796,51.73532020720904],[19.615279506223374,51.72818182418996],[19.58434651314792,51.68178233457638],[19.570069747112314,51.679402873570325],[19.5962438181769,51.72818182418996],[19.603382201194336,51.755545625757804],[19.612900045217543,51.763873739279006],[19.67000710935764,51.78052996631959],[19.625987080749496,51.793617001852],[19.592674626667417,51.79480673235412],[19.573638938621798,51.8067040373835],[19.554603250574587,51.81265268989682],[19.526049718504908,51.8114629593947],[19.509393491464323,51.81384242040076],[19.484409150902593,51.8114629593947],[19.485598881406247,51.84001649146467],[19.461804271347432,51.8757084065528],[19.427302086762495,51.87808786755886],[19.421353434248772,51.88760571158218],[19.435630200283583,51.894744094599446],[19.432061008774895,51.91972843515941],[19.415404781733514,51.93757439270394],[19.39620099733348,51.94780868623368],[19.295073904585248,51.946618955731566],[19.274848486035957,51.937101111708245],[19.259381989498237,51.944239494725466],[19.245105223463344,51.935911381204264],[19.249864145475005,51.92639353718094],[19.242725762457603,51.92163461516972],[19.229638726925625,51.9204448846676],[19.21536196089002,51.89308108309976],[19.22606953541617,51.874045395053116],[19.228448996422,51.857389168012574],[19.207033847369793,51.849061054491365],[19.189187889826243,51.84787132398925],[19.151116513732603,51.84192267147405],[19.10590675462227,51.84430213248015],[19.059507265008314,51.850250784995254],[19.044040768470595,51.84430213248015],[19.04523049897351,51.82169725292441],[19.0095385838857,51.81931779192017],[18.9738466687986,51.82050752242229],[18.986008358383494,51.803719103102566],[19.024079734477134,51.78706287606202]]]]}},{"type":"Feature","properties":{"kind":"district","id":"uyezd-1897-150","name":"Новорадомский","provinceId":"gubernia-1897-31"},"geometry":{"type":"MultiPolygon","coordinates":[[[[18.952695904302235,51.089880801353516],[18.96568665163184,51.0869170831193],[18.977583956660904,51.07501977808988],[18.987101800684137,51.07620950859386],[18.995429914204365,51.06312247306144],[19.02160398526903,51.05479435954024],[19.040639673315496,51.0417073240087],[19.058485630859046,51.04884570702602],[19.084659701922913,51.039327863001716],[19.091798084941026,51.025051096968156],[19.112023503490406,50.99768729540031],[19.14176676606293,50.98460025986789],[19.171510028636252,50.96794403282725],[19.201253291208776,50.92868292623096],[19.226237631770527,50.91321642969342],[19.24051439780533,50.89537047214978],[19.26906792987503,50.875145053601024],[19.29167280943015,50.88347316712046],[19.310708497477325,50.876334784103136],[19.31427768898607,50.857299096056494],[19.34759014306725,50.85372990454739],[19.36067717859923,50.870386131588035],[19.38804098016672,50.870386131588035],[19.402317746201525,50.86086828756471],[19.438009661289424,50.84064286901595],[19.48797834241124,50.82993529448865],[19.529618910013625,50.82755583348353],[19.54389567604843,50.804950953928675],[19.570069747112296,50.80257149292178],[19.57363893862104,50.788294726888125],[19.59386435717113,50.76331038632638],[19.611710314714593,50.75260281179996],[19.630746002761057,50.74784388978786],[19.64978169080832,50.75617200330906],[19.66048926533438,50.77163849984758],[19.670007109357613,50.785915265881144],[19.661678995837296,50.80614068443079],[19.684283875392417,50.82160718096931],[19.710457946456284,50.83112502499263],[19.722355251486057,50.85254017404528],[19.710457946456284,50.863247748571695],[19.723544981988972,50.876334784103136],[19.753288244561496,50.879903975611356],[19.76280608858473,50.89180128064166],[19.77470339361379,50.894180741647666],[19.77232393260796,50.9144061601974],[19.79492881216388,50.91797535170552],[19.82348234423349,50.933441848244044],[19.819913152724833,50.95842618880393],[19.81277476970743,50.97746187685057],[19.82348234423349,50.9953078343951],[19.847276954291527,51.01434352244085],[19.853225606806102,51.05479435954024],[19.84132830177704,51.088106813621415],[19.86631264233879,51.103573310159845],[19.891296982899654,51.128557650721596],[19.882968869379425,51.16305983530489],[19.903194287928727,51.19280309787791],[19.866312642338755,51.189233906369736],[19.853225606806063,51.178526331843386],[19.834189918759648,51.17614687083733],[19.81872342222192,51.14283441675616],[19.784221237636984,51.14402414725828],[19.75328824456153,51.15116253027736],[19.743770400538324,51.14283441675616],[19.675955761872103,51.16305983530492],[19.678335222877934,51.18090579285035],[19.674766031369245,51.19756201989003],[19.58553624365078,51.190423636873675],[19.58553624365078,51.167818757317946],[19.57601839962757,51.167818757317946],[19.564121094597795,51.19399282838185],[19.540326484539776,51.20470040290729],[19.511772952470096,51.19637228938791],[19.49749618643449,51.169008487820065],[19.468942654364866,51.17376740983127],[19.427302086762495,51.16543929631189],[19.39161017167544,51.18090579285035],[19.38209232765223,51.19637228938791],[19.330933916026652,51.18566471486065],[19.30475984496286,51.19399282838185],[19.275016582389526,51.190423636873675],[19.258360355348884,51.19875175039306],[19.234565745290865,51.21540797743364],[19.201253291208786,51.22016689944576],[19.17388948964208,51.23206420447423],[19.156043532098522,51.2308744739712],[19.135818113548396,51.23801285699028],[19.12035161701067,51.2392025874924],[19.110833772987462,51.24991016201875],[19.091798084941026,51.258238275538105],[19.07276239689385,51.253479353526885],[19.046588325829983,51.257048545035985],[19.033501290298094,51.27608423308263],[19.0192245242632,51.28203288559783],[19.001474854922023,51.28499660383302],[19.006233776933684,51.26834037679239],[18.98481862788059,51.26001226327109],[18.98481862788059,51.25168414974998],[18.997905663413277,51.238597114218535],[18.99433647190462,51.21599223466279],[18.977680244863276,51.20528466013646],[18.993146741401706,51.17197220605608],[18.94912671279358,51.16721328404318],[18.937229407764605,51.156505709517745],[18.958644556816722,51.11010621990414],[18.952695904302235,51.089880801353516]]]]}},{"type":"Feature","properties":{"kind":"district","id":"uyezd-1897-151","name":"Ченстоховский","provinceId":"gubernia-1897-31"},"geometry":{"type":"MultiPolygon","coordinates":[[[[19.099729754269806,50.665768663338],[19.115592694999044,50.66932167659529],[19.14176676606291,50.68002925112162],[19.184597064168212,50.70263413067825],[19.227427362273424,50.710962244197674],[19.275016582389497,50.685977903636726],[19.298811192448333,50.688357364642826],[19.3309339160266,50.69549574766005],[19.3309339160266,50.676460059614385],[19.35591825658755,50.676460059614385],[19.35829771759338,50.666942215591064],[19.392799902178364,50.668131946093176],[19.420163703745057,50.69192655615103],[19.46537346285619,50.69192655615103],[19.509393491464316,50.69192655615103],[19.52367025749912,50.73237739325121],[19.52842917951069,50.757361733811194],[19.535567562528094,50.77639742185784],[19.57363893862104,50.788294726888125],[19.570069747112296,50.80257149292178],[19.54389567604843,50.804950953928675],[19.529618910013625,50.82755583348353],[19.48797834241124,50.82993529448865],[19.438009661289424,50.84064286901595],[19.402317746201525,50.86086828756471],[19.38804098016672,50.870386131588035],[19.36067717859923,50.870386131588035],[19.34759014306725,50.85372990454739],[19.31427768898607,50.857299096056494],[19.310708497477325,50.876334784103136],[19.29167280943015,50.88347316712046],[19.26906792987503,50.875145053601024],[19.24051439780533,50.89537047214978],[19.226237631770527,50.91321642969342],[19.201253291208776,50.92868292623096],[19.171510028636252,50.96794403282725],[19.14176676606293,50.98460025986789],[19.112023503490406,50.99768729540031],[19.091798084941026,51.025051096968156],[19.084659701922913,51.039327863001716],[19.058485630859046,51.04884570702602],[19.040639673315496,51.0417073240087],[19.02160398526903,51.05479435954024],[18.995429914204365,51.06312247306144],[18.987101800684137,51.07620950859386],[18.977583956660904,51.07501977808988],[18.96568665163184,51.0869170831193],[18.952695904302235,51.089880801353516],[18.894399109659304,51.10534729789204],[18.87298396060701,51.070845113307854],[18.669540044608517,51.07441430481686],[18.651694087064968,51.05061969475723],[18.668350314105602,51.01849697118003],[18.667160583602687,50.998271552629404],[18.610750517570878,50.97628832459947],[18.613129978576442,50.953683445042756],[18.61907863109155,50.946545062026416],[18.642873241149587,50.9358374874992],[18.64406297165277,50.91918126045857],[18.63097593612017,50.903714763920135],[18.614319709079624,50.866833118330746],[18.6036121345533,50.84898716078622],[18.61907863109155,50.83827958626078],[18.65715000718457,50.82519255072934],[18.691652191768842,50.81924389821325],[18.72496464585082,50.8037774016766],[18.759466830435095,50.77879306111485],[18.859404192680056,50.775223869606634],[18.903424221288272,50.73715249351246],[18.939116136375727,50.7085989614425],[18.959341554925018,50.70740923093949],[18.978377242971927,50.69432219540796],[18.983136164983144,50.67171731585222],[19.02001781057378,50.67290704635522],[19.03429457660876,50.66100974132678],[19.071176222199487,50.665768663338],[19.099729754269806,50.665768663338]]]]}},{"type":"Feature","properties":{"kind":"district","id":"uyezd-1897-152","name":"Бендинский","provinceId":"gubernia-1897-31"},"geometry":{"type":"MultiPolygon","coordinates":[[[[19.263530172414328,50.26851463914078],[19.257170624845948,50.280279802142125],[19.27977550440107,50.292177107171455],[19.310708497477307,50.30764360370998],[19.357107987090465,50.31835117823541],[19.38328205815513,50.31835117823541],[19.401128015698593,50.33500740527596],[19.44752750531264,50.336197135779045],[19.489168072914136,50.33976632728904],[19.46775292386193,50.3576122848317],[19.44276858330098,50.37902743388533],[19.46775292386193,50.39806312193197],[19.46537346285619,50.41947827098373],[19.43919939179232,50.446842072551576],[19.476081037382247,50.47301614361554],[19.492737264422882,50.47301614361554],[19.50344483894903,50.4991902146794],[19.49035780341705,50.518225902726044],[19.47013238486776,50.53607186026879],[19.464183732353273,50.55748700932233],[19.443958313803893,50.57414323636297],[19.43919939179232,50.58604054139141],[19.462994001850358,50.59793784642083],[19.507014030458485,50.603886498935935],[19.511772952470057,50.62649137849079],[19.537947023533924,50.63362976150802],[19.547464867557157,50.66337302408098],[19.527239449007777,50.66932167659529],[19.540326484539754,50.67646005961429],[19.53913675403684,50.682408712127625],[19.509393491464316,50.69192655615103],[19.46537346285619,50.69192655615103],[19.420163703745057,50.69192655615103],[19.392799902178364,50.668131946093176],[19.35829771759338,50.666942215591064],[19.35591825658755,50.676460059614385],[19.3309339160266,50.676460059614385],[19.3309339160266,50.69549574766005],[19.298811192448333,50.688357364642826],[19.275016582389497,50.685977903636726],[19.227427362273424,50.710962244197674],[19.184597064168212,50.70263413067825],[19.14176676606291,50.68002925112162],[19.115592694999044,50.66932167659529],[19.099729754269806,50.665768663338],[19.09378110175434,50.63959459227413],[19.080694066222453,50.61817944322139],[19.087832449240032,50.60033348567686],[19.097350293263087,50.58486698913932],[19.08545298823447,50.56464157058967],[19.087832449240032,50.51943181147996],[19.080694066222453,50.50991396745576],[19.047381612140562,50.50515504544365],[19.002171853030053,50.49920639293032],[18.985515625989418,50.463514477843134],[18.965290207439416,50.45518636432281],[18.965290207439416,50.43734040677829],[18.965290207439416,50.42187391023985],[18.98075670397758,50.38737172565558],[19.008120505544362,50.37904361213624],[19.035484307111943,50.36238738509472],[19.06641730018747,50.36119765459172],[19.0580891866668,50.3445414275502],[19.064037839181996,50.33621331402996],[19.074745413708232,50.32907493101354],[19.087832449240032,50.28981382441636],[19.133042208350542,50.28148571089605],[19.155647087906285,50.2612602923464],[19.200856847016794,50.26720894486151],[19.25796391115681,50.2683986753646],[19.263530172414328,50.26851463914078]]]]}},{"type":"Feature","properties":{"kind":"district","id":"uyezd-1897-158","name":"Петроковский","provinceId":"gubernia-1897-31"},"geometry":{"type":"MultiPolygon","coordinates":[[[[19.99004461464216,51.49975356763025],[19.943645125028183,51.504512489643275],[19.894866174408435,51.504512489643275],[19.888917521893916,51.49737410662419],[19.87702021686414,51.49975356763025],[19.86750237284167,51.5140303336666],[19.837759110268337,51.51165087266054],[19.835379649262563,51.52116871668386],[19.852035876303148,51.53901467422838],[19.84846668479446,51.560429823280174],[19.831810457753818,51.56280928428441],[19.81872342222192,51.57708605032076],[19.79849800367259,51.57708605032076],[19.8080158476958,51.55805036227321],[19.773513663111657,51.53068656070718],[19.723544981988994,51.56399901478835],[19.684283875392417,51.55329144026106],[19.654540612819893,51.558050362273164],[19.618848697732084,51.558050362273164],[19.58196705214207,51.54615305724384],[19.579587591136328,51.5318762912093],[19.54389567604843,51.51878925567777],[19.537947023533942,51.5354454827184],[19.51058322196716,51.53068656070718],[19.49035780341707,51.52354817768996],[19.47489130687935,51.5330660217123],[19.471322115370604,51.554481170765044],[19.445148044306826,51.565188745290484],[19.411835590224758,51.56042982328015],[19.35234906507891,51.5354454827184],[19.319036610997642,51.53068656070718],[19.288103617921404,51.53425575221442],[19.272637121383685,51.54139413523351],[19.25598089434305,51.563999014788365],[19.23337601478793,51.558050362273164],[19.227427362273442,51.5294968302032],[19.245273319816903,51.479528149081474],[19.24289385881116,51.46525138304605],[19.211960865734923,51.45930273053094],[19.198873830203034,51.46525138304605],[19.153664071091992,51.44264650349031],[19.181027872659485,51.41409297142123],[19.153664071091992,51.40100593588792],[19.1393873050571,51.38791890035736],[19.12392080851938,51.3914880918646],[19.08584943242654,51.3962470138767],[19.08584943242654,51.38553943935127],[19.11083377298749,51.37126267331682],[19.132248922039697,51.3474680632571],[19.153664071091992,51.333191297223536],[19.150094879583246,51.31772480068501],[19.12392080851938,51.30344803465048],[19.08584943242654,51.30939668716381],[19.056106169853216,51.30820695666169],[19.071572666390935,51.28560207710595],[19.091798084941026,51.258238275538105],[19.110833772987462,51.24991016201875],[19.12035161701067,51.2392025874924],[19.135818113548396,51.23801285699028],[19.156043532098522,51.2308744739712],[19.17388948964208,51.23206420447423],[19.201253291208786,51.22016689944576],[19.234565745290865,51.21540797743364],[19.258360355348884,51.19875175039306],[19.275016582389526,51.190423636873675],[19.30475984496286,51.19399282838185],[19.330933916026652,51.18566471486065],[19.38209232765223,51.19637228938791],[19.39161017167544,51.18090579285035],[19.427302086762495,51.16543929631189],[19.468942654364866,51.17376740983127],[19.49749618643449,51.169008487820065],[19.511772952470096,51.19637228938791],[19.540326484539776,51.20470040290729],[19.564121094597795,51.19399282838185],[19.57601839962757,51.167818757317946],[19.58553624365078,51.167818757317946],[19.58553624365078,51.190423636873675],[19.674766031369245,51.19756201989003],[19.678335222877934,51.18090579285035],[19.675955761872103,51.16305983530492],[19.743770400538324,51.14283441675616],[19.75328824456153,51.15116253027736],[19.784221237636984,51.14402414725828],[19.81872342222192,51.14283441675616],[19.834189918759648,51.17614687083733],[19.853225606806063,51.178526331843386],[19.866312642338755,51.189233906369736],[19.903194287928727,51.19280309787791],[19.888917521893916,51.222546360452725],[19.885348330385227,51.245151240007544],[19.863933181332982,51.25228962302481],[19.880589408373623,51.28084315509568],[19.892486713402604,51.29274046012324],[19.88177913887648,51.298689112637476],[19.89129698289969,51.31891453118715],[19.87583048636202,51.321293992193205],[19.886538060888086,51.33319129722349],[19.86750237284167,51.33557075822773],[19.85084614580029,51.35817563778346],[19.834189918759648,51.38434970884737],[19.838948840771252,51.40219566639189],[19.86155372032715,51.408144318907034],[19.882968869379397,51.40933404940915],[19.894866174408435,51.418851893432475],[19.91628132346068,51.42718000695368],[19.929368358993372,51.44621569500032],[19.946024586033957,51.461682191536966],[19.9626808130746,51.462871922040904],[19.97695757910941,51.461682191536966],[19.987665153635533,51.47952814908149],[19.98290623162393,51.49023572360693],[19.99004461464216,51.49975356763025]]]]}},{"type":"Feature","properties":{"kind":"district","id":"uyezd-1897-714","name":"Лаский","provinceId":"gubernia-1897-31"},"geometry":{"type":"MultiPolygon","coordinates":[[[[19.024079734477134,51.78706287606202],[19.055012727552572,51.722817428905756],[19.08118679861724,51.71924823739577],[19.095463564652043,51.69545362733791],[19.057392188558403,51.68712551381848],[19.06572030207952,51.67403847828517],[19.024079734477134,51.67641793929127],[19.021700273471392,51.6966433578418],[18.993146741401695,51.69426389683579],[18.963403478828372,51.67403847828517],[19.001474854922012,51.655002790239415],[19.008613237939414,51.62169033615646],[19.003854315927843,51.58004976855594],[18.982439166874837,51.5931368040865],[18.945557521284822,51.58718815157316],[18.89796830116795,51.58599842106927],[18.876553152115743,51.57648057704595],[18.84918935054905,51.57648057704595],[18.837292045519277,51.54792704497687],[18.834912584513447,51.49557890284905],[18.809928243952495,51.45393833524666],[18.783754172888628,51.4218156116676],[18.782564442385713,51.409918306638275],[18.792082286408956,51.39921073211288],[18.820635818478564,51.394451810099795],[18.818256357472734,51.35043178149318],[18.83967150652503,51.33972420696597],[18.834912584513457,51.32901663243964],[18.85989692507512,51.31949878841632],[18.843240698033686,51.29808363936358],[18.845620159039516,51.28856579534106],[18.858707194572204,51.28618633433514],[18.894399109659304,51.29332471735236],[19.001474854922023,51.28499660383302],[19.0192245242632,51.28203288559783],[19.033501290298094,51.27608423308263],[19.046588325829983,51.257048545035985],[19.07276239689385,51.253479353526885],[19.091798084941026,51.258238275538105],[19.071572666390935,51.28560207710595],[19.056106169853216,51.30820695666169],[19.08584943242654,51.30939668716381],[19.12392080851938,51.30344803465048],[19.150094879583246,51.31772480068501],[19.153664071091992,51.333191297223536],[19.132248922039697,51.3474680632571],[19.11083377298749,51.37126267331682],[19.08584943242654,51.38553943935127],[19.08584943242654,51.3962470138767],[19.12392080851938,51.3914880918646],[19.1393873050571,51.38791890035736],[19.153664071091992,51.40100593588792],[19.181027872659485,51.41409297142123],[19.153664071091992,51.44264650349031],[19.198873830203034,51.46525138304605],[19.211960865734923,51.45930273053094],[19.24289385881116,51.46525138304605],[19.245273319816903,51.479528149081474],[19.227427362273442,51.5294968302032],[19.23337601478793,51.558050362273164],[19.25598089434305,51.563999014788365],[19.272637121383685,51.54139413523351],[19.288103617921404,51.53425575221442],[19.319036610997642,51.53068656070718],[19.35234906507891,51.5354454827184],[19.411835590224758,51.56042982328015],[19.415404781733503,51.58184497233103],[19.442768583300996,51.59255254685744],[19.451096696821313,51.60444985188677],[19.440389122295166,51.62348553993341],[19.415404781733503,51.62348553993341],[19.407076668213186,51.64252122798094],[19.411835590224758,51.66750556854092],[19.39874855469287,51.68178233457634],[19.391610171675467,51.70200775312608],[19.393989632681297,51.717474249663624],[19.38090259714932,51.731751015699935],[19.341641490552764,51.73650993771115],[19.29643173144252,51.73532020720726],[19.25122197233148,51.76030454776901],[19.223858170763986,51.76744293078623],[19.190545716682628,51.76744293078623],[19.154853801594907,51.780529966319634],[19.119161886507808,51.788858079838974],[19.076331588402507,51.790047810342955],[19.048967786835814,51.786478618832874],[19.024079734477134,51.78706287606202]]]]}}]}
