{"type":"FeatureCollection","features":[{"type":"Feature","properties":{"kind":"province","id":"gubernia-1897-40","name":"Вазаская губерния"},"geometry":{"type":"MultiPolygon","coordinates":[[[[25.15389130696275,63.55200886349121],[25.1936811826713,63.56734316775055],[25.247219055302708,63.61374265736595],[25.26506501284655,63.616122118370185],[25.382848332634808,63.573291820266604],[25.497062460915117,63.53165125266423],[25.518477609967704,63.53759990517756],[25.564877099581565,63.52213340864091],[25.607707397685942,63.52570260015],[25.686229610877888,63.53403071367029],[25.758803171555996,63.529271791657266],[25.823048618713642,63.51261556461759],[25.87896595235088,63.486441493553684],[25.92417571146109,63.48049284103763],[25.93964220799984,63.465026344500984],[26.025302804209275,63.45788796148372],[26.153793698523884,63.48049284103763],[26.155333185519996,63.48157953774082],[26.217459439979024,63.44016203476805],[26.182957255394395,63.41755715521319],[26.168680489359325,63.33189655900428],[26.206751865452787,63.303343026934314],[26.226977284002434,63.25218461530861],[26.206751865452787,63.236718118771066],[26.212700517967363,63.224820813741644],[26.236495128025755,63.21530296971832],[26.243633511043335,63.184369976642266],[26.194854560423547,63.18080078513326],[26.197234021429466,63.12726291250234],[26.22102863148777,63.06777638735729],[26.246012972049165,63.04041258578856],[26.29241246166184,63.016617975731386],[26.278135695627252,63.010669323217364],[26.23292593651701,63.02256662824492],[26.19604429092655,63.015428245227696],[26.17700860287973,62.997582287684054],[26.238874589031674,62.96783902511109],[26.226977284002434,62.95951091159166],[26.246012972049165,62.95237252857443],[26.28646380914766,62.95237252857443],[26.29122273115932,62.93928549304201],[26.279325426130168,62.923818996504465],[26.255530816072486,62.90716276946206],[26.215079978973193,62.91787034398838],[26.108004233710385,62.935716301532025],[26.071122588120637,62.93333684052779],[26.063984205103147,62.914301152481144],[26.066363666108977,62.8940757339315],[26.000928488448377,62.88931681191931],[25.989031183419137,62.87979896789599],[26.09253773717249,62.858383818843336],[26.119901538739626,62.82388163425915],[26.018774445992193,62.80246648520641],[26.1091939642133,62.76082591760402],[26.136557765780438,62.71204696698442],[26.136557765780438,62.67397559089113],[26.226977284002434,62.64899125033116],[26.15321399282134,62.631145292785746],[26.147265340306763,62.59664310820156],[26.03899986454184,62.56927930663549],[26.100865850692895,62.468152213887166],[26.13893722678627,62.43127056829688],[26.23530539752284,62.393199192203596],[26.31263788021188,62.37535323465996],[26.337622220773188,62.302779673981604],[26.263858929592182,62.29683102146827],[26.384021710387056,62.19808338972596],[26.331673568258612,62.158822283129666],[26.238874589031674,62.09695629697764],[26.29598165317098,62.04222869384372],[26.359037369826016,62.014864892277735],[26.2174594399792,62.01486489227729],[26.15321399282134,62.0327108498204],[26.098486389687064,62.03509031082649],[26.061604744097316,62.04817734635803],[25.96880576486958,62.06007465138735],[25.899801395700234,62.10052548848674],[25.795105111443966,62.160012013632674],[25.708254784730894,62.148114708603345],[25.67732179165572,62.169529857655995],[25.616645536006782,62.160012013632674],[25.584522812427984,62.21117042525838],[25.51551844325864,62.22306773028593],[25.428668116546188,62.23853422682534],[25.34300752033594,62.22306773028593],[25.34300752033594,62.17190931866209],[25.27995180368197,62.14454551709513],[25.070559235168815,62.165960666146006],[25.030024910409804,62.1961213831937],[24.95269242772082,62.20088030520492],[24.92413889565023,62.17708569514616],[24.84799614346406,62.12592728352138],[24.878929136539682,62.065251027872364],[24.87179075352219,62.05692291435207],[24.769473930271204,62.03550776530028],[24.720694979652365,62.00219531121911],[24.686192795067598,61.99029800618882],[24.66477764601518,62.00457477222426],[24.619567886903894,62.02480019077393],[24.57673758879912,62.041456417815425],[24.544614865220183,62.050974261838746],[24.530338099185258,62.075958602398714],[24.50773321963038,62.07952779390871],[24.430400736940896,62.09856348195535],[24.373293672800457,62.1009429429605],[24.34355041022809,62.108081325978674],[24.32332499167825,62.14496297156802],[24.276925502064387,62.19731111369583],[24.178177870322543,62.21753653224641],[24.091327543609793,62.23895168129911],[24.017564252429395,62.21991599325247],[23.97711341532971,62.21991599325247],[23.962836649294786,62.20920841872612],[23.96164691879227,62.18541380866827],[23.960457188288956,62.16637812062163],[23.953318805271522,62.150911624083164],[23.924765273201672,62.1485321630762],[23.923575542699155,62.14258351056196],[23.91405769867589,62.137824588551666],[23.897401471634396,62.15329108508831],[23.84148413799801,62.162808929111634],[23.836725215986405,62.1485321630762],[23.858140365038764,62.140204049556814],[23.868847939564546,62.11284024798988],[23.805792222909986,62.10213267346353],[23.80222303140164,62.07952779390871],[23.790325726372544,62.06882021938236],[23.734408392735418,62.073579141393566],[23.688008903121556,62.05930237535904],[23.654696449040102,62.06644075837539],[23.61900453395282,62.084286715919006],[23.546430973274937,62.11640943949806],[23.450062802538866,62.150911624083164],[23.433406575498168,62.172326773134955],[23.40128385191923,62.1996905747028],[23.3572638233112,62.23895168129911],[23.30253622017733,62.279402518397546],[23.21806535447041,62.324612277509004],[23.120475443403215,62.30357222320528],[23.002692123614526,62.2762084216384],[22.957482364503928,62.2762084216384],[22.895616378352074,62.25955219459688],[22.77426386705544,62.27144949962719],[22.631496206705442,62.28810572666684],[22.592235100109242,62.2643111166081],[22.57081995105668,62.2262397405157],[22.52561019194617,62.22386027950961],[22.51252315641357,62.19649647794273],[22.47683124132603,62.20006566945086],[22.43994959573619,62.16437375436456],[22.364996574052448,62.10607695972163],[22.249592715269323,62.107266690224634],[22.19486511213576,62.03945205155749],[22.02235418921253,61.97401687389724],[21.89743248640635,61.99781148395599],[21.741577790524552,62.015657441498746],[21.68685018739019,62.00970878898443],[21.566687406595936,62.01922663300873],[21.44295543429285,62.01327798049442],[21.395486118576695,61.94880419796124],[21.38102019253965,61.93959860866293],[21.35997884557655,61.93565335610859],[21.345512919539505,61.950119282144485],[21.3349922460584,61.98036621840314],[21.363924098132486,61.98036621840314],[21.358663761391533,62.009298070478565],[21.342882751169473,62.0145584072188],[21.324471572576492,61.996147228626796],[21.295539720503204,61.984311470959256],[21.298169888873325,62.00666790210835],[21.292909552132283,62.02376399651534],[21.311320730725264,62.054010932773025],[21.319211235836338,62.09609362669923],[21.31263581491028,62.13423106806931],[21.311320730725264,62.15790258340351],[21.329731909317445,62.15658749921752],[21.336307330243503,62.13949140480965],[21.349458172095442,62.128970731328984],[21.367869350687624,62.13028581551498],[21.363924098132486,62.14606682573597],[21.357348677206428,62.16710817270085],[21.37181460324356,62.189464603847284],[21.391540866020758,62.19340985640339],[21.40995204461374,62.19867019314373],[21.424417970650694,62.20524561407005],[21.43756881250201,62.210505950809406],[21.45992524365004,62.21445120336561],[21.44151406505786,62.222341708476065],[21.41915763390974,62.222341708476065],[21.398116286946728,62.2157662875516],[21.3849654450947,62.236807634513724],[21.386280529280516,62.261794234032145],[21.366554266502607,62.261794234032145],[21.35603359302141,62.24995847636549],[21.34025258279864,62.27362999169969],[21.342882751169473,62.28678083355047],[21.354718508835596,62.31834285399415],[21.354718508835596,62.33543894840203],[21.370499519057745,62.35911046373623],[21.375759855798698,62.381466894882564],[21.357348677206428,62.38278197906856],[21.3349922460584,62.369631137216885],[21.325786656762308,62.35253504280901],[21.310005646540247,62.34464453769856],[21.298169888873325,62.35779537955023],[21.288964299577145,62.376206558142236],[21.29948497305834,62.38672723162476],[21.30606039398431,62.39724790510631],[21.302115141428462,62.42223450462464],[21.28764921539213,62.40250824184656],[21.277128541910223,62.38672723162476],[21.24688160565112,62.38804231580889],[21.228470427058937,62.405138410216765],[21.237676016355028,62.4288099255491],[21.260032447503146,62.438015514846526],[21.275813457725206,62.460371945994645],[21.267922952614132,62.47220770366219],[21.25871736331804,62.45642669343853],[21.24293635309598,62.44327585158686],[21.212689416836877,62.43275517810531],[21.189017901503743,62.42091942043865],[21.175867059651715,62.43012500973509],[21.182442480577684,62.451166356697314],[21.203483827539987,62.46563228273497],[21.21531958520691,62.49193396643841],[21.196908406614817,62.4906188822533],[21.16534638616981,62.485358545513066],[21.13641453409652,62.474837872030534],[21.115373187133507,62.486673629697194],[21.137729618281625,62.49456413480862],[21.13641453409652,62.50508480829106],[21.156140796873718,62.52744123943927],[21.179812312206852,62.54190716547507],[21.196908406614817,62.55242783895848],[21.18375756476279,62.55768817569695],[21.17060672291076,62.56820884917948],[21.17060672291076,62.58793511195748],[21.156140796873718,62.594510532881934],[21.16140113361467,62.607661374733695],[21.186387733132822,62.61160662728981],[21.20874416428094,62.61029154310381],[21.225840258688105,62.593195448698694],[21.237676016355028,62.585304943585484],[21.241621268910166,62.60108595380915],[21.228470427058937,62.61686696403103],[21.21137433265106,62.62738763751169],[21.17060672291076,62.63396305843801],[21.140359786651658,62.63790831099324],[21.146935207577627,62.65237423703002],[21.160086049429655,62.66289491051157],[21.146935207577627,62.676045752363336],[21.12720894479963,62.6681552472519],[21.11142793457757,62.65105915284589],[21.103537429466584,62.628702721697685],[21.083811166689298,62.624757469141485],[21.07066032483736,62.639223395179236],[21.085126250874314,62.64711390028969],[21.090386587614557,62.66157982632744],[21.08644133505942,62.679991004919444],[21.137729618281625,62.70760777280799],[21.15877096524464,62.7115530253641],[21.16797655454073,62.7299642039561],[21.20216874335497,62.735224540696436],[21.203483827539987,62.7483753825482],[21.179056799873713,62.76392052102075],[21.16949462909657,62.770614040565334],[21.134608839965235,62.7950340929556],[21.183501595864445,62.817258072911486],[21.232394351763745,62.81948047090557],[21.26128552570497,62.857261236828876],[21.2835095056581,62.892819604755445],[21.32129027158008,62.899486798741236],[21.383517415452374,62.88170761477795],[21.40796379340198,62.90615399272703],[21.43463256934664,62.950601952634344],[21.490192519232526,62.9639363406077],[21.456856549301367,62.99282751454848],[21.43907736533746,63.050609862429155],[21.505749305200577,63.07950103636905],[21.614646806975696,63.035053076459945],[21.672429154856548,63.03283067846587],[21.732433900732367,63.04394266844159],[21.559086857090698,63.119504200287324],[21.5101941011914,63.170619354182215],[21.516639055377112,63.23618009504665],[21.578866199249497,63.25395927900993],[21.623314159157264,63.22951290106086],[21.665539721069976,63.21617851308751],[21.683318905033882,63.218400911083364],[21.67442931305224,63.24729208502414],[21.734434058928148,63.24729208502414],[21.80332839678623,63.26951606497737],[21.854443550681296,63.26951606497737],[21.907781102570617,63.265071268985565],[21.872222734644403,63.189509737141606],[21.821107580749338,63.17173055317832],[21.84110916270821,63.16284096119668],[21.956673858470626,63.19617693112926],[21.98112023641952,63.17173055317832],[22.00334421637416,63.16061856320269],[22.047792176281927,63.145061777235256],[22.047792176281927,63.16728575718848],[22.00334421637416,63.20284412511505],[22.02462992929593,63.20942334547263],[22.125576106121564,63.24062489103658],[22.18113605600665,63.24951448302],[22.223361617919362,63.24729208502414],[22.238918403888214,63.28285045294983],[22.27892156780525,63.29840723891903],[22.363372691630673,63.300629636913115],[22.356705497644885,63.331743208849744],[22.398931059557597,63.338410402835535],[22.378929477598813,63.36285678078549],[22.21447202593781,63.447307904611094],[22.21891682192863,63.46953188456432],[22.250030393864822,63.47397668055602],[22.301145547759887,63.47397668055602],[22.35448309964992,63.453975098596885],[22.43448942748461,63.433973516639526],[22.443379019466164,63.449530302605176],[22.330036721699514,63.498423058505985],[22.303367945754854,63.52731423244677],[22.32781432370446,63.55398300838992],[22.39295487994775,63.52807992425459],[22.43004463149308,63.50953504848171],[22.478937387392378,63.525091834449135],[22.474492591401557,63.5650949983683],[22.52560774529662,63.5650949983683],[22.535527923367972,63.6071296512136],[22.53871989346972,63.620654948254895],[22.543164689460454,63.65621331617969],[22.569833465405114,63.682882092124615],[22.60983662932286,63.700661276088795],[22.60983662932286,63.720662858046154],[22.623171017295146,63.720662858046154],[22.64317259925402,63.70510607207872],[22.678730967180943,63.700661276088795],[22.72317892708871,63.71399566406036],[22.76762688699719,63.70732847007458],[22.812074846905755,63.70732847007458],[22.838743622851126,63.69177168410626],[22.818742040891454,63.6717701021489],[22.78762846895606,63.66954770415127],[22.743180509047583,63.65621331617969],[22.82096443888731,63.620654948254895],[22.818742040891454,63.649546122193904],[22.856522806813434,63.66954770415127],[22.89652597073118,63.69843887809205],[22.93430673665316,63.74066444000529],[22.880969184763927,63.75399882797687],[22.952085920616266,63.77177801194104],[22.989866686539045,63.76066602196443],[23.01431306448785,63.77400040993601],[22.978754696561637,63.79622438989189],[22.996533880524744,63.82289316583504],[23.038759442438256,63.82289316583504],[23.049871432414776,63.86956352374],[23.172103322163068,63.90956668765739],[23.265444037970045,63.90956668765739],[23.307669599882757,63.93401306560646],[23.374341539745963,63.93401306560646],[23.383231131727516,63.96290423954724],[23.372119141750108,64.00512980146048],[23.389898325714015,64.06513454733701],[23.434346285621782,64.08958092528609],[23.509907817465653,64.05180015936268],[23.612138125254983,64.0495777613678],[23.64102929919541,64.0762465373146],[23.587691747305378,64.11402730323516],[23.614360523250838,64.1340288851934],[23.714368433044314,64.11402730323516],[23.707701239057815,64.15403046715255],[23.70547884106205,64.18514403909016],[23.718303874474206,64.19239297101839],[23.76428607955839,64.1600933427599],[23.79997799464522,64.14700630722658],[23.883259129849638,64.12916034968391],[23.951073768516068,64.11131439214019],[23.992714336117476,64.08633005157755],[24.029595981708024,64.08038139906421],[24.05933924428099,64.06372517202358],[24.090272237356963,64.02089487391828],[24.133102535461997,63.981633767321995],[24.211624748653954,63.93166508619929],[24.274680465308812,63.89835263211722],[24.286577770337963,63.87455802205936],[24.319890224419677,63.87098883055026],[24.441242735716756,63.83053799345097],[24.532851984441667,63.735359553217755],[24.576872013048906,63.68182168058782],[24.63040988568025,63.655515417244715],[24.729157517422607,63.6031672751169],[24.80054134759706,63.58770077857844],[24.8528894897255,63.58413158707117],[24.876684099783915,63.54249101946789],[24.901668440345247,63.515127217900044],[25.1467529239452,63.492522338345225],[25.15389130696275,63.55200886349121]]]]}},{"type":"Feature","properties":{"kind":"district","id":"uyezd-1897-8","name":"Куортанеский","provinceId":"gubernia-1897-40"},"geometry":{"type":"MultiPolygon","coordinates":[[[[23.21806535447041,62.324612277509004],[23.30253622017733,62.279402518397546],[23.3572638233112,62.23895168129911],[23.40128385191923,62.1996905747028],[23.433406575498168,62.172326773134955],[23.450062802538866,62.150911624083164],[23.546430973274937,62.11640943949806],[23.61900453395282,62.084286715919006],[23.654696449040102,62.06644075837539],[23.688008903121556,62.05930237535904],[23.734408392735418,62.073579141393566],[23.790325726372544,62.06882021938236],[23.80222303140164,62.07952779390871],[23.805792222909986,62.10213267346353],[23.868847939564546,62.11284024798988],[23.858140365038764,62.140204049556814],[23.836725215986405,62.1485321630762],[23.84148413799801,62.162808929111634],[23.897401471634396,62.15329108508831],[23.91405769867589,62.137824588551666],[23.923575542699155,62.14258351056196],[23.924765273201672,62.1485321630762],[23.953318805271522,62.150911624083164],[23.960457188288956,62.16637812062163],[23.96164691879227,62.18541380866827],[23.962836649294786,62.20920841872612],[23.97711341532971,62.21991599325247],[24.017564252429395,62.21991599325247],[24.091327543609793,62.23895168129911],[24.178177870322543,62.21753653224641],[24.276925502064387,62.19731111369583],[24.32332499167825,62.14496297156802],[24.34355041022809,62.108081325978674],[24.373293672800457,62.1009429429605],[24.430400736940896,62.09856348195535],[24.50773321963038,62.07952779390871],[24.530338099185258,62.075958602398714],[24.544614865220183,62.050974261838746],[24.57673758879912,62.041456417815425],[24.619567886903894,62.02480019077393],[24.66477764601518,62.00457477222426],[24.686192795067598,61.99029800618882],[24.720694979652365,62.00219531121911],[24.769473930271204,62.03550776530028],[24.87179075352219,62.05692291435207],[24.878929136539682,62.065251027872364],[24.84799614346406,62.12592728352138],[24.92413889565023,62.17708569514616],[24.95269242772082,62.20088030520492],[25.030024910409566,62.1961213831928],[25.041922215439456,62.24252087280729],[25.038353023930313,62.26631548286605],[25.0788038610292,62.33175066052536],[25.058578442480155,62.3591144620932],[25.069286017005936,62.38052961114499],[25.066906556000163,62.41384206522616],[25.129962272654723,62.41979071774131],[25.18350014528602,62.454292902326415],[25.189448797800196,62.50069239193908],[25.21205367735587,62.52805619350602],[25.26440181948385,62.53281511551904],[25.196587180818426,62.574455683120505],[24.99433299532228,62.56493783909718],[24.918190243136053,62.591111910162],[24.85632425698401,62.57088649161233],[24.82777072491416,62.551850803565685],[24.80397611485597,62.53281511551904],[24.73616147618975,62.52924592400905],[24.706418213616644,62.54828161205569],[24.683813334061767,62.56969676110839],[24.663587915511926,62.594681101670176],[24.643362496962823,62.62680382524832],[24.60053219885731,62.648218974301926],[24.549373787231843,62.67439304536492],[24.520820255161993,62.70175684693277],[24.477989957057275,62.75172552805452],[24.454195346999086,62.7767098686154],[24.423262353923462,62.79455582615901],[24.378052594812118,62.81597097521353],[24.360206637268845,62.835006663258355],[24.339981218719004,62.84928342929379],[24.339981218719004,62.868319117340434],[24.355447715257185,62.89449318840525],[24.375673133806288,62.91233914594795],[24.37210394229794,62.95041052204124],[24.349499062742268,62.99205108964452],[24.339981218719004,63.040830040264154],[24.34355041022809,63.06819384183018],[24.407483277728087,63.12529952896694],[24.346546768531457,63.132623807375246],[24.312573353059236,63.147429342522635],[24.200738685785833,63.191449371131114],[24.14006243013707,63.211674789680764],[24.07819644398495,63.24260778275682],[23.999674230792905,63.26759212331858],[23.930669861623382,63.28543808086124],[23.86761414496879,63.271161314826784],[23.77481516574194,63.33302730097971],[23.70700052707569,63.37585759908421],[23.61539127835131,63.41273924467262],[23.522592299123573,63.46032846478923],[23.438121433417397,63.49483064937528],[23.34889164569796,63.4972101103804],[23.269179702003445,63.47936415283587],[23.229918595407067,63.44605169875558],[23.202554793839752,63.39608301763297],[23.166862878752475,63.367529485563004],[23.120463389138607,63.34492460600637],[23.09547904857792,63.33302730097971],[23.052648750472443,63.324699187458506],[22.9741265372796,63.33302730097971],[22.962802065456287,63.2995303285079],[22.994924789034428,63.25788976090553],[23.044893470157433,63.23409515084859],[23.166245981454153,63.20792107978377],[23.357792592423777,63.20792107978377],[23.39943316002598,63.1876956612341],[23.45416076315979,63.140106441117496],[23.47200672070386,63.109173448041474],[23.442263458130697,63.077050724463334],[23.374448819464476,63.02351285183158],[23.454821724550527,62.976584593106054],[23.514308249696,62.93018510349157],[23.4726676820938,62.8968726494104],[23.428647653486507,62.87545750035861],[23.3739200503519,62.86356019532832],[23.32633083023552,62.844524507281676],[23.37154058934607,62.823109358228976],[23.30253622017733,62.8064531311893],[23.30967460319482,62.78384825163539],[23.294208106656583,62.76243310258087],[23.294208106656583,62.736259031517875],[23.224014006984532,62.72436172648759],[23.20854751044709,62.70175684693277],[23.17166586485655,62.64346005228981],[23.14460082204772,62.61439019149566],[23.089574460155404,62.60895786770652],[23.069349041605562,62.585163257646855],[23.18832209189725,62.52448700199875],[23.27993134062166,62.48879508691061],[23.312054064200595,62.476897781881235],[23.384627624878476,62.42692910075948],[23.37510978085521,62.41741125673616],[23.325141099733003,62.40551395170678],[23.290638915148236,62.38171934164802],[23.262085383078443,62.36149392309835],[23.23710104251694,62.347217157063824],[23.21806535447041,62.324612277509004]]]]}},{"type":"Feature","properties":{"kind":"district","id":"uyezd-1897-9","name":"Ильмолаский","provinceId":"gubernia-1897-40"},"geometry":{"type":"MultiPolygon","coordinates":[[[[23.089574460155404,62.60895786770652],[23.0505172656653,62.62693306331137],[23.009968405535602,62.660326242241396],[22.97538261307302,62.69371942117054],[22.94795250180895,62.73307566776661],[22.919329777011882,62.764083619630654],[22.875203076282574,62.80940293389358],[22.828691148487362,62.84398872635492],[22.660845929596768,62.825982867410005],[22.496663120194565,62.816465023386684],[22.391966835938387,62.80218825735126],[22.35032626833618,62.79148068282484],[22.29202947369316,62.78434229980762],[22.23373267905005,62.74151200170223],[22.217076452009238,62.72366604415859],[22.190902380945726,62.72485577466159],[22.15164127434935,62.70344062560895],[22.125467203285126,62.68797412907141],[22.12903639479387,62.667748710521664],[22.111190437250055,62.64276436995992],[22.106431515238395,62.62848760392538],[22.08620609668875,62.611831376883856],[22.050514181601205,62.61302110738695],[22.029099032548643,62.6308670649305],[22.011253075005538,62.61302110738695],[21.98150981243257,62.62253895141027],[21.96485358539167,62.62253895141027],[21.957715202374178,62.609451915878736],[21.949387088853772,62.609451915878736],[21.939869244830362,62.62134922090718],[21.91131571276031,62.61421083788996],[21.922023287286546,62.596364880346314],[21.950576819356687,62.590416227831206],[21.970802237906245,62.59160595833421],[21.9838892734384,62.578518922802765],[21.954146010865433,62.56781134827635],[21.89228002471358,62.56900107877944],[21.90893625175448,62.58327784481389],[21.895849216222324,62.592795688837214],[21.878003258678596,62.588036766826086],[21.854208648620116,62.602313532860535],[21.83636269107639,62.62372868191328],[21.8042399674983,62.61421083788996],[21.793532392971976,62.61421083788996],[21.807809159007046,62.62967733442838],[21.83636269107639,62.64395410046292],[21.826844847053778,62.66180005800656],[21.807809159007046,62.677266554544985],[21.66147230714786,62.62253895141027],[21.54963763987419,62.666558980018664],[21.468735965675606,62.70700981711805],[21.429474859080027,62.754599037234655],[21.405680249021636,62.79267041332794],[21.389024021980735,62.818844484390915],[21.359280759407767,62.85096720796998],[21.383517415452463,62.88170761477795],[21.32129027158008,62.899486798741236],[21.2835095056581,62.892819604755445],[21.26128552570497,62.857261236828876],[21.232394351763745,62.81948047090557],[21.183501595864445,62.817258072911486],[21.134608839965235,62.7950340929556],[21.16949462909657,62.770614040565334],[21.179056799873713,62.76392052102075],[21.203483827539987,62.7483753825482],[21.20216874335497,62.735224540696436],[21.16797655454073,62.7299642039561],[21.15877096524464,62.7115530253641],[21.137729618281625,62.70760777280799],[21.08644133505942,62.679991004919444],[21.090386587614557,62.66157982632744],[21.085126250874314,62.64711390028969],[21.07066032483736,62.639223395179236],[21.083811166689298,62.624757469141485],[21.103537429466584,62.628702721697685],[21.11142793457757,62.65105915284589],[21.12720894479963,62.6681552472519],[21.146935207577627,62.676045752363336],[21.160086049429655,62.66289491051157],[21.146935207577627,62.65237423703002],[21.140359786651658,62.63790831099324],[21.17060672291076,62.63396305843801],[21.21137433265106,62.62738763751169],[21.228470427058937,62.61686696403103],[21.241621268910166,62.60108595380915],[21.237676016355028,62.585304943585484],[21.225840258688105,62.593195448698694],[21.20874416428094,62.61029154310381],[21.186387733132822,62.61160662728981],[21.16140113361467,62.607661374733695],[21.156140796873718,62.594510532881934],[21.17060672291076,62.58793511195748],[21.17060672291076,62.56820884917948],[21.18375756476279,62.55768817569695],[21.196908406614817,62.55242783895848],[21.179812312206852,62.54190716547507],[21.156140796873718,62.52744123943927],[21.13641453409652,62.50508480829106],[21.137729618281625,62.49456413480862],[21.115373187133507,62.486673629697194],[21.13641453409652,62.474837872030534],[21.16534638616981,62.485358545513066],[21.196908406614817,62.4906188822533],[21.21531958520691,62.49193396643841],[21.203483827539987,62.46563228273497],[21.182442480577684,62.451166356697314],[21.175867059651715,62.43012500973509],[21.189017901503743,62.42091942043865],[21.212689416836877,62.43275517810531],[21.24293635309598,62.44327585158686],[21.25871736331804,62.45642669343853],[21.267922952614132,62.47220770366219],[21.275813457725206,62.460371945994645],[21.260032447503146,62.438015514846526],[21.237676016355028,62.4288099255491],[21.228470427058937,62.405138410216765],[21.24688160565112,62.38804231580889],[21.277128541910223,62.38672723162476],[21.28764921539213,62.40250824184656],[21.302115141428462,62.42223450462464],[21.30606039398431,62.39724790510631],[21.29948497305834,62.38672723162476],[21.288964299577145,62.376206558142236],[21.298169888873325,62.35779537955023],[21.310005646540247,62.34464453769856],[21.325786656762308,62.35253504280901],[21.3349922460584,62.369631137216885],[21.357348677206428,62.38278197906856],[21.375759855798698,62.381466894882564],[21.370499519057745,62.35911046373623],[21.354718508835596,62.33543894840203],[21.354718508835596,62.31834285399415],[21.342882751169473,62.28678083355047],[21.34025258279864,62.27362999169969],[21.35603359302141,62.24995847636549],[21.366554266502607,62.261794234032145],[21.386280529280516,62.261794234032145],[21.3849654450947,62.236807634513724],[21.398116286946728,62.2157662875516],[21.41915763390974,62.222341708476065],[21.44151406505786,62.222341708476065],[21.45992524365004,62.21445120336561],[21.43756881250201,62.210505950809406],[21.424417970650694,62.20524561407005],[21.40995204461374,62.19867019314373],[21.391540866020758,62.19340985640339],[21.37181460324356,62.189464603847284],[21.357348677206428,62.16710817270085],[21.363924098132486,62.14606682573597],[21.367869350687624,62.13028581551498],[21.349458172095442,62.128970731328984],[21.336307330243503,62.13949140480965],[21.329731909317445,62.15658749921752],[21.311320730725264,62.15790258340351],[21.31263581491028,62.13423106806931],[21.319211235836338,62.09609362669923],[21.311320730725264,62.054010932773025],[21.292909552132283,62.02376399651534],[21.298169888873325,62.00666790210835],[21.295539720503204,61.984311470959256],[21.324471572576492,61.996147228626796],[21.342882751169473,62.0145584072188],[21.358663761391533,62.009298070478565],[21.363924098132486,61.98036621840314],[21.3349922460584,61.98036621840314],[21.345512919539505,61.950119282144485],[21.35997884557655,61.93565335610859],[21.38102019253965,61.93959860866293],[21.395486118576695,61.94880419796124],[21.44295543429285,62.01327798049442],[21.566687406595936,62.01922663300873],[21.68685018739019,62.00970878898443],[21.741577790524552,62.015657441498746],[21.89743248640635,61.99781148395599],[22.02235418921253,61.97401687389724],[22.19486511213576,62.03945205155749],[22.249592715269323,62.107266690224634],[22.364996574052448,62.10607695972163],[22.43994959573619,62.16437375436456],[22.47683124132603,62.20006566945086],[22.51252315641357,62.19649647794273],[22.52561019194617,62.22386027950961],[22.57081995105668,62.2262397405157],[22.592235100109242,62.2643111166081],[22.631496206705442,62.28810572666684],[22.77426386705544,62.27144949962719],[22.895616378352074,62.25955219459688],[22.957482364503928,62.2762084216384],[23.002692123614526,62.2762084216384],[23.120475443403215,62.30357222320528],[23.21806535447041,62.324612277509004],[23.23710104251694,62.347217157063824],[23.262085383078443,62.36149392309835],[23.290638915148236,62.38171934164802],[23.325141099733003,62.40551395170678],[23.37510978085521,62.41741125673616],[23.384627624878476,62.42692910075948],[23.312054064200595,62.476897781881235],[23.27993134062166,62.48879508691061],[23.18832209189725,62.52448700199875],[23.069349041605562,62.585163257646855],[23.089574460155404,62.60895786770652]]]]}},{"type":"Feature","properties":{"kind":"district","id":"uyezd-1897-20","name":"Лауккас","provinceId":"gubernia-1897-40"},"geometry":{"type":"MultiPolygon","coordinates":[[[[26.35903736982575,62.01486489227685],[26.29598165317098,62.04222869384372],[26.238874589031674,62.09695629697764],[26.331673568258612,62.158822283129666],[26.384021710387056,62.19808338972596],[26.263858929592182,62.29683102146827],[26.337622220773188,62.302779673981604],[26.31263788021188,62.37535323465996],[26.23530539752284,62.393199192203596],[26.13893722678627,62.43127056829688],[26.100865850692895,62.468152213887166],[26.03899986454184,62.56927930663549],[26.147265340306763,62.59664310820156],[26.15321399282134,62.631145292785746],[26.226977284002434,62.64899125033116],[26.136557765780438,62.67397559089113],[26.136557765780438,62.71204696698442],[26.1091939642133,62.76082591760402],[26.018774445992193,62.80246648520641],[26.119901538739626,62.82388163425915],[26.09253773717249,62.858383818843336],[25.989031183419137,62.87979896789599],[26.000928488448377,62.88931681191931],[26.066363666108977,62.8940757339315],[26.063984205103147,62.914301152481144],[26.071122588120637,62.93333684052779],[26.108004233710385,62.935716301532025],[26.215079978973193,62.91787034398838],[26.255530816072486,62.90716276946206],[26.279325426130168,62.923818996504465],[26.29122273115932,62.93928549304201],[26.28646380914766,62.95237252857443],[26.246012972049165,62.95237252857443],[26.226977284002434,62.95951091159166],[26.238874589031674,62.96783902511109],[26.17700860287973,62.997582287684054],[26.19604429092655,63.015428245227696],[26.23292593651701,63.02256662824492],[26.278135695627252,63.010669323217364],[26.292412461662234,63.016617975730696],[26.246012972049165,63.04041258578856],[26.22102863148777,63.06777638735729],[26.197234021429466,63.12726291250234],[26.194854560423547,63.18080078513326],[26.243633511043335,63.184369976642266],[26.236495128025755,63.21530296971832],[26.212700517967363,63.224820813741644],[26.206751865452787,63.236718118771066],[26.226977284002434,63.25218461530861],[26.206751865452787,63.303343026934314],[26.168680489359325,63.33189655900428],[26.182957255394395,63.41755715521319],[26.217459439979024,63.44016203476805],[26.155333185519996,63.48157953774082],[26.153793698523884,63.48049284103763],[26.025302804209275,63.45788796148372],[25.93964220799984,63.465026344500984],[25.92417571146109,63.48049284103763],[25.87896595235088,63.486441493553684],[25.823048618713642,63.51261556461759],[25.758803171555996,63.529271791657266],[25.686229610877888,63.53403071367029],[25.607707397685942,63.52570260015],[25.564877099581565,63.52213340864091],[25.518477609967704,63.53759990517756],[25.497062460915117,63.53165125266423],[25.382848332634808,63.573291820266604],[25.26506501284655,63.616122118370185],[25.247219055302708,63.61374265736595],[25.1936811826713,63.56734316775055],[25.15389130696275,63.55200886349121],[25.1467529239452,63.492522338345225],[25.118199391875123,63.4651585367792],[25.063471788741595,63.45445096225285],[24.984771087206564,63.44605169875558],[24.925284562061073,63.42939547171592],[24.85628019289164,63.38656517360965],[24.80155258975772,63.35801164153968],[24.776568249197034,63.34492460600815],[24.70042549701011,63.3199402654464],[24.723030376564964,63.25450508778526],[24.73677837348807,63.16883622955906],[24.684430231359272,63.155749194025745],[24.603528557161397,63.14980054151242],[24.541001609619478,63.16170610855904],[24.483894545479018,63.16884449157537],[24.407483277728087,63.12529952896694],[24.34355041022809,63.06819384183018],[24.339981218719004,63.040830040264154],[24.349499062742268,62.99205108964452],[24.37210394229794,62.95041052204124],[24.375673133806288,62.91233914594795],[24.355447715257185,62.89449318840525],[24.339981218719004,62.868319117340434],[24.339981218719004,62.84928342929379],[24.360206637268845,62.835006663258355],[24.378052594812118,62.81597097521353],[24.423262353923462,62.79455582615901],[24.454195346999086,62.7767098686154],[24.477989957057275,62.75172552805452],[24.520820255161993,62.70175684693277],[24.549373787231843,62.67439304536492],[24.60053219885731,62.648218974301926],[24.643362496962823,62.62680382524832],[24.663587915511926,62.594681101670176],[24.683813334061767,62.56969676110839],[24.706418213616644,62.54828161205569],[24.73616147618975,62.52924592400905],[24.80397611485597,62.53281511551904],[24.82777072491416,62.551850803565685],[24.85632425698401,62.57088649161233],[24.918190243136053,62.591111910162],[24.99433299532228,62.56493783909718],[25.196587180818426,62.574455683120505],[25.26440181948385,62.53281511551904],[25.21205367735587,62.52805619350602],[25.189448797800196,62.50069239193908],[25.18350014528602,62.454292902326415],[25.129962272654723,62.41979071774131],[25.066906556000163,62.41384206522616],[25.069286017005936,62.38052961114499],[25.058578442480155,62.3591144620932],[25.0788038610292,62.33175066052536],[25.038353023930313,62.26631548286605],[25.041922215439456,62.24252087280729],[25.030024910409566,62.1961213831928],[25.070559235168815,62.165960666146006],[25.27995180368197,62.14454551709513],[25.34300752033594,62.17190931866209],[25.34300752033594,62.22306773028593],[25.428668116546188,62.23853422682534],[25.51551844325864,62.22306773028593],[25.584522812427984,62.21117042525838],[25.616645536006782,62.160012013632674],[25.67732179165572,62.169529857655995],[25.708254784730894,62.148114708603345],[25.795105111443966,62.160012013632674],[25.899801395700234,62.10052548848674],[25.96880576486958,62.06007465138735],[26.061604744097316,62.04817734635803],[26.098486389687064,62.03509031082649],[26.15321399282134,62.0327108498204],[26.217459439979024,62.01486489227685],[26.35903736982575,62.01486489227685]]]]}},{"type":"Feature","properties":{"kind":"district","id":"uyezd-1897-556","name":"Педерсёреский","provinceId":"gubernia-1897-40"},"geometry":{"type":"MultiPolygon","coordinates":[[[[22.53552792336762,63.607129651213704],[22.601740889867777,63.587629628601505],[22.72666259267369,63.53171229496547],[22.788528578824923,63.5043484933986],[22.863481600509378,63.47222576981865],[22.93010650867156,63.441292776742586],[22.969367615267938,63.41511870567961],[22.9776957287887,63.39489328712899],[22.97174707627377,63.377047329586325],[22.969367615267938,63.35801164153968],[22.9741265372796,63.33302730097971],[23.052648750472443,63.324699187458506],[23.09547904857792,63.33302730097971],[23.120463389138607,63.34492460600637],[23.166862878752475,63.367529485563004],[23.202554793839752,63.39608301763297],[23.229918595407067,63.44605169875558],[23.269179702003445,63.47936415283587],[23.34889164569796,63.4972101103804],[23.438121433417397,63.49483064937528],[23.522592299123573,63.46032846478923],[23.61539127835131,63.41273924467262],[23.70700052707569,63.37585759908421],[23.77481516574194,63.33302730097971],[23.86761414496879,63.271161314826784],[23.930669861623382,63.28543808086124],[23.999674230792905,63.26759212331858],[24.07819644398495,63.24260778275682],[24.14006243013707,63.211674789680764],[24.200738685785833,63.191449371131114],[24.312573353059236,63.147429342522635],[24.346546768531457,63.132623807375246],[24.407483277728087,63.12529952896694],[24.483894545479018,63.16884449157537],[24.541001609619478,63.16170610855904],[24.603528557161397,63.14980054151242],[24.684430231359272,63.155749194025745],[24.73677837348807,63.16883622955906],[24.723030376564964,63.25450508778526],[24.70042549701011,63.3199402654464],[24.776568249197034,63.34492460600815],[24.80155258975772,63.35801164153968],[24.85628019289164,63.38656517360965],[24.925284562061073,63.42939547171592],[24.984771087206564,63.44605169875558],[25.063471788741595,63.45445096225285],[25.01350310761893,63.47943530281282],[24.99446741957223,63.47705584180676],[24.981380384040108,63.49728126035643],[24.901668440345247,63.515127217900044],[24.876684099783915,63.54249101946789],[24.8528894897255,63.58413158707117],[24.80054134759706,63.58770077857844],[24.729157517422607,63.6031672751169],[24.63040988568025,63.655515417244715],[24.576872013048906,63.68182168058782],[24.532851984441667,63.735359553217755],[24.441242735716756,63.83053799345097],[24.319890224419677,63.87098883055026],[24.286577770337963,63.87455802205936],[24.274680465308812,63.89835263211722],[24.211624748653954,63.93166508619929],[24.133102535461997,63.981633767321995],[24.090272237356963,64.02089487391828],[24.05933924428099,64.06372517202358],[24.029595981708024,64.08038139906421],[23.992714336117476,64.08633005157755],[23.951073768516068,64.11131439214019],[23.883259129849638,64.12916034968391],[23.79997799464522,64.14700630722658],[23.76428607955839,64.1600933427599],[23.718303874474206,64.19239297101839],[23.70547884106205,64.18514403909016],[23.707701239057815,64.15403046715255],[23.714368433044314,64.11402730323516],[23.614360523250838,64.1340288851934],[23.587691747305378,64.11402730323516],[23.64102929919541,64.0762465373146],[23.612138125254983,64.0495777613678],[23.509907817465653,64.05180015936268],[23.434346285621782,64.08958092528609],[23.389898325714015,64.06513454733701],[23.372119141750108,64.00512980146048],[23.383231131727516,63.96290423954724],[23.374341539745963,63.93401306560646],[23.307669599882757,63.93401306560646],[23.265444037970045,63.90956668765739],[23.172103322163068,63.90956668765739],[23.049871432414776,63.86956352374],[23.038759442438256,63.82289316583504],[22.996533880524744,63.82289316583504],[22.978754696561637,63.79622438989189],[23.01431306448785,63.77400040993601],[22.989866686539045,63.76066602196443],[22.952085920616266,63.77177801194104],[22.880969184763927,63.75399882797687],[22.93430673665316,63.74066444000529],[22.89652597073118,63.69843887809205],[22.856522806813434,63.66954770415127],[22.818742040891454,63.649546122193904],[22.82096443888731,63.620654948254895],[22.743180509047583,63.65621331617969],[22.78762846895606,63.66954770415127],[22.818742040891454,63.6717701021489],[22.838743622851126,63.69177168410626],[22.812074846905755,63.70732847007458],[22.76762688699719,63.70732847007458],[22.72317892708871,63.71399566406036],[22.678730967180943,63.700661276088795],[22.64317259925402,63.70510607207872],[22.623171017295146,63.720662858046154],[22.60983662932286,63.720662858046154],[22.60983662932286,63.700661276088795],[22.569833465405114,63.682882092124615],[22.543164689460454,63.65621331617969],[22.53871989346972,63.620654948254895],[22.53552792336762,63.607129651213704]]]]}},{"type":"Feature","properties":{"kind":"district","id":"uyezd-1897-557","name":"Корсгольмский","provinceId":"gubernia-1897-40"},"geometry":{"type":"MultiPolygon","coordinates":[[[[21.383517415452463,62.88170761477795],[21.359280759407767,62.85096720796998],[21.389024021980735,62.818844484390915],[21.405680249021636,62.79267041332794],[21.429474859080027,62.754599037234655],[21.468735965675606,62.70700981711805],[21.54963763987419,62.666558980018664],[21.66147230714786,62.62253895141027],[21.807809159007046,62.677266554544985],[21.826844847053778,62.66180005800656],[21.83636269107639,62.64395410046292],[21.807809159007046,62.62967733442838],[21.793532392971976,62.61421083788996],[21.8042399674983,62.61421083788996],[21.83636269107639,62.62372868191328],[21.854208648620116,62.602313532860535],[21.878003258678596,62.588036766826086],[21.895849216222324,62.592795688837214],[21.90893625175448,62.58327784481389],[21.89228002471358,62.56900107877944],[21.954146010865433,62.56781134827635],[21.9838892734384,62.578518922802765],[21.970802237906245,62.59160595833421],[21.950576819356687,62.590416227831206],[21.922023287286546,62.596364880346314],[21.91131571276031,62.61421083788996],[21.939869244830362,62.62134922090718],[21.949387088853772,62.609451915878736],[21.957715202374178,62.609451915878736],[21.96485358539167,62.62253895141027],[21.98150981243257,62.62253895141027],[22.011253075005538,62.61302110738695],[22.029099032548643,62.6308670649305],[22.050514181601205,62.61302110738695],[22.08620609668875,62.611831376883856],[22.106431515238395,62.62848760392538],[22.111190437250055,62.64276436995992],[22.12903639479387,62.667748710521664],[22.125467203285126,62.68797412907141],[22.15164127434935,62.70344062560895],[22.190902380945726,62.72485577466159],[22.217076452009238,62.72366604415859],[22.23373267905005,62.74151200170223],[22.29202947369316,62.78434229980762],[22.35032626833618,62.79148068282484],[22.391966835938387,62.80218825735126],[22.496663120194565,62.816465023386684],[22.660845929596768,62.825982867410005],[22.828691148487362,62.84398872635492],[22.853736032684818,62.8726114511519],[22.85731387328443,62.90004156241686],[22.84896557855221,62.93462735487908],[22.850158192085207,62.96325007967615],[22.823920694354754,63.00976200747305],[22.763097404161098,63.05746654880028],[22.668880935036967,63.123060293127345],[22.50191504038717,63.11948245252827],[22.41962470659567,63.09443756832939],[22.28605199087555,63.09682279539636],[22.19541336235183,63.12067506606037],[22.098811666160994,63.15526085852438],[22.042758830100656,63.1874614239223],[22.02462992929593,63.20942334547263],[22.00334421637416,63.20284412511505],[22.047792176281927,63.16728575718848],[22.047792176281927,63.145061777235256],[22.00334421637416,63.16061856320269],[21.98112023641952,63.17173055317832],[21.956673858470626,63.19617693112926],[21.84110916270821,63.16284096119668],[21.821107580749338,63.17173055317832],[21.872222734644403,63.189509737141606],[21.907781102570617,63.265071268985565],[21.854443550681296,63.26951606497737],[21.80332839678623,63.26951606497737],[21.734434058928148,63.24729208502414],[21.67442931305224,63.24729208502414],[21.683318905033882,63.218400911083364],[21.665539721069976,63.21617851308751],[21.623314159157264,63.22951290106086],[21.578866199249497,63.25395927900993],[21.516639055377112,63.23618009504665],[21.5101941011914,63.170619354182215],[21.559086857090698,63.119504200287324],[21.732433900732367,63.04394266844159],[21.672429154856548,63.03283067846587],[21.614646806975696,63.035053076459945],[21.505749305200577,63.07950103636905],[21.43907736533746,63.050609862429155],[21.456856549301367,62.99282751454848],[21.490192519232526,62.9639363406077],[21.43463256934664,62.950601952634344],[21.40796379340198,62.90615399272703],[21.383517415452463,62.88170761477795]]]]}},{"type":"Feature","properties":{"kind":"district","id":"uyezd-1897-656","name":"Лаппоский","provinceId":"gubernia-1897-40"},"geometry":{"type":"MultiPolygon","coordinates":[[[[22.53552792336762,63.607129651213704],[22.52560774529662,63.5650949983683],[22.474492591401557,63.5650949983683],[22.478937387392378,63.525091834449135],[22.43004463149308,63.50953504848171],[22.39295487994775,63.52807992425459],[22.32781432370446,63.55398300838992],[22.303367945754854,63.52731423244677],[22.330036721699514,63.498423058505985],[22.443379019466164,63.449530302605176],[22.43448942748461,63.433973516639526],[22.35448309964992,63.453975098596885],[22.301145547759887,63.47397668055602],[22.250030393864822,63.47397668055602],[22.21891682192863,63.46953188456432],[22.21447202593781,63.447307904611094],[22.378929477598813,63.36285678078549],[22.398931059557597,63.338410402835535],[22.356705497644885,63.331743208849744],[22.363372691630673,63.300629636913115],[22.27892156780525,63.29840723891903],[22.238918403888214,63.28285045294983],[22.223361617919362,63.24729208502414],[22.18113605600665,63.24951448302],[22.125576106121564,63.24062489103658],[22.02462992929593,63.20942334547263],[22.042758830100656,63.1874614239223],[22.098811666160994,63.15526085852438],[22.19541336235183,63.12067506606037],[22.28605199087555,63.09682279539636],[22.41962470659567,63.09443756832939],[22.50191504038717,63.11948245252827],[22.668880935036967,63.123060293127345],[22.763097404161098,63.05746654880028],[22.823920694354754,63.00976200747305],[22.850158192085207,62.96325007967615],[22.84896557855221,62.93462735487908],[22.85731387328443,62.90004156241686],[22.853736032684818,62.8726114511519],[22.828691148487362,62.84398872635492],[22.875203076282574,62.80940293389358],[22.919329777011882,62.764083619630654],[22.94795250180895,62.73307566776661],[22.97538261307302,62.69371942117054],[23.009968405535602,62.660326242241396],[23.0505172656653,62.62693306331137],[23.089574460155404,62.60895786770652],[23.14460082204772,62.61439019149566],[23.17166586485655,62.64346005228981],[23.20854751044709,62.70175684693277],[23.224014006984532,62.72436172648759],[23.294208106656583,62.736259031517875],[23.294208106656583,62.76243310258087],[23.30967460319482,62.78384825163539],[23.30253622017733,62.8064531311893],[23.37154058934607,62.823109358228976],[23.32633083023552,62.844524507281676],[23.3739200503519,62.86356019532832],[23.428647653486507,62.87545750035861],[23.4726676820938,62.8968726494104],[23.514308249696,62.93018510349157],[23.454821724550527,62.976584593106054],[23.374448819464476,63.02351285183158],[23.442263458130697,63.077050724463334],[23.47200672070386,63.109173448041474],[23.45416076315979,63.140106441117496],[23.39943316002598,63.1876956612341],[23.357792592423777,63.20792107978377],[23.166245981454153,63.20792107978377],[23.044893470157433,63.23409515084859],[22.994924789034428,63.25788976090553],[22.962802065456287,63.2995303285079],[22.9741265372796,63.33302730097971],[22.969367615267938,63.35801164153968],[22.97174707627377,63.377047329586325],[22.9776957287887,63.39489328712899],[22.969367615267938,63.41511870567961],[22.93010650867156,63.441292776742586],[22.863481600509378,63.47222576981865],[22.788528578824923,63.5043484933986],[22.72666259267369,63.53171229496547],[22.601740889867777,63.587629628601505],[22.53552792336762,63.607129651213704]]]]}}]}
