{"type":"FeatureCollection","features":[{"type":"Feature","properties":{"kind":"province","id":"gubernia-1897-8","name":"Бессарабская губерния"},"geometry":{"type":"MultiPolygon","coordinates":[[[[30.475453793313612,46.07894350517926],[30.440889890344003,46.11397027029037],[30.414715819280225,46.147282724373326],[30.40519797525699,46.18178490895663],[30.38854174821556,46.209148710524474],[30.37069579067201,46.22818439857023],[30.33619360608791,46.24840981712076],[30.31715791804065,46.268635235669606],[30.279086541947805,46.3078963422659],[30.294553038485525,46.32574229981043],[30.29812222999427,46.34358825735309],[30.28860438597104,46.362623945400614],[30.271948158930407,46.375710980932155],[30.256481662392687,46.4006953214939],[30.243394626859995,46.43043858406696],[30.217220555796132,46.439956428090284],[30.193425945738092,46.436387236582064],[30.175579988193746,46.428059123059974],[30.186287562720693,46.41973100953966],[30.179149179702492,46.41378235702632],[30.161303222158942,46.42211047054575],[30.157734030650282,46.40783370451122],[30.132749690089334,46.41973100953966],[30.120852385060267,46.43400777557508],[30.114903732545784,46.435197506078175],[30.1160934630487,46.42330020104964],[30.09943723600726,46.42686939255786],[30.089919391984118,46.42092074004364],[30.067314512428908,46.42686939255786],[30.070883703937653,46.436387236582064],[30.05184801589119,46.442335889096285],[30.017345831306294,46.45542292462871],[30.032812327844013,46.46613049915415],[30.014966370300463,46.46850996016025],[30.02210475331787,46.47921753468657],[30.00901771778598,46.48040726518869],[30.01615610080338,46.49111483971599],[30.00306906527149,46.4923045702181],[29.994740951751083,46.50539160575043],[29.97570526370471,46.497063492229316],[29.955479845154528,46.49111483971599],[29.92216739107335,46.51015052776263],[29.89956251151743,46.519668371784974],[29.9043214335298,46.531565676814395],[29.882906284476796,46.54227325133983],[29.905511164032717,46.55298082586704],[29.88885493699128,46.56368840039346],[29.88885493699128,46.580344627434],[29.86625005743616,46.577965166427994],[29.843645177881037,46.57439597491889],[29.84483490838395,46.588672740955204],[29.816281376313455,46.59462139346854],[29.798435418769998,46.605328967995845],[29.787727844243847,46.59462139346854],[29.76512296468873,46.580344627434],[29.74846673764729,46.58986247145732],[29.731810510606657,46.59105220195944],[29.70920563105154,46.605328967995845],[29.722292666583513,46.612467351013066],[29.716344014068937,46.62079546453249],[29.735379702115402,46.62912357805273],[29.753225659658952,46.64815926610025],[29.743707815635723,46.65291818811245],[29.74608727664146,46.669574415152994],[29.73062078010374,46.669574415152994],[29.72348239708643,46.65767711012357],[29.710395361554454,46.670764145655994],[29.69611859551965,46.66243603213479],[29.68038771442528,46.67962102828916],[29.676818522916534,46.68913887231248],[29.67562879241362,46.70579509935303],[29.679197983922364,46.72364105689579],[29.654213643361416,46.75219458896663],[29.643506068834554,46.781937851538714],[29.63993687732581,46.80930165310656],[29.62447038078809,46.818819497129],[29.62447038078809,46.80811192260267],[29.618521728273606,46.80454273109446],[29.60662442324454,46.8152503056199],[29.588778465701083,46.8152503056199],[29.582829813186507,46.8259578801472],[29.56379412513933,46.8259578801472],[29.574501699665475,46.80930165310656],[29.564983855642247,46.79978380908324],[29.55070708960735,46.79740434807724],[29.541189245584206,46.779558390532706],[29.53762005407546,46.790265965059916],[29.529291940555233,46.79859407857935],[29.523343288040657,46.79383515656902],[29.525722749046487,46.779558390532706],[29.515015174520343,46.77479946852149],[29.505497330496397,46.781937851538714],[29.48646164244993,46.796214617573256],[29.475754067923788,46.82952707165621],[29.469805415409297,46.864029256239505],[29.46623622390055,46.88425467479013],[29.453149188368663,46.89496224931645],[29.449579996859917,46.91161847635709],[29.45909784088324,46.92470551188853],[29.457908110380323,46.949689852450376],[29.44244161384252,46.95801796596972],[29.431734039315657,46.9651563489888],[29.417457273280853,46.96396661848482],[29.397231854731473,46.95563850496548],[29.369868053163984,46.934223355911854],[29.348452904111774,46.936602816918835],[29.32703775505948,46.949689852450376],[29.296104761983244,46.96991527100002],[29.277069073936865,46.98776122854268],[29.27587934343395,46.997279072566],[29.287776648462923,46.9996585335721],[29.294915031480414,46.98895095904666],[29.31157125852176,46.99133042005267],[29.33774532958563,46.99252015055478],[29.348452904111774,46.99846880306998],[29.363919400649493,47.004417455583315],[29.35083236511752,47.021073682625726],[29.342504251597198,47.03654017916238],[29.35083236511752,47.03891964016839],[29.359160478637833,47.029401796145066],[29.369868053163984,47.025832604635966],[29.37105778366761,47.0460580231857],[29.3781961666851,47.06033478922113],[29.36510913115241,47.06628344173623],[29.338935060088545,47.087698590787994],[29.328227485562394,47.10673427883464],[29.30205341449853,47.10316508732563],[29.283017726451355,47.105544548332524],[29.27349988242812,47.11863158386406],[29.280638265445525,47.14004673291582],[29.246136080861426,47.15551322945434],[29.23304904532945,47.166220803979776],[29.218772279293844,47.166220803979776],[29.218772279293844,47.14837484643702],[29.20449551325904,47.14837484643702],[29.198546860744557,47.166220803979776],[29.179511172698092,47.162651612471564],[29.162854945657458,47.15908242096246],[29.1735625201836,47.12814942788738],[29.169993328674856,47.10792400933862],[29.159285754148,47.101975356823516],[29.155716562639256,47.11863158386406],[29.14619871861602,47.11982131436618],[29.143951449888206,47.101182203154195],[29.107069804298277,47.07976705410145],[29.054721662169747,47.10356166416109],[29.0615956606313,47.114269238686546],[29.083010809683596,47.13211519623107],[29.096097845215485,47.14758169276773],[29.127030838291724,47.15828926729503],[29.13773841281787,47.177324955341675],[29.154394639858506,47.183273607855],[29.167481675390395,47.20944767892074],[29.15082544834976,47.21420660093186],[29.143687065332358,47.23443201948062],[29.12822056879464,47.252277977025145],[29.11037461125109,47.273693126077],[29.086580001192253,47.29272881412364],[29.078251887671936,47.30938504116419],[29.060405930128386,47.32604126820482],[29.047318894596497,47.34745641725836],[29.055647008116814,47.3605434527899],[29.071113504654534,47.3605434527899],[29.086580001192253,47.35102560876658],[29.104425958735803,47.331989920719934],[29.11989245527432,47.331989920719934],[29.15269870167848,47.33947333172822],[29.141991127152334,47.358509019774864],[29.131283552625476,47.379924168826626],[29.078935410497742,47.40847770089659],[29.070607296977514,47.428703119446325],[29.078935410497742,47.440600424475655],[29.106299212064524,47.45368746000808],[29.115817056087756,47.46677449553961],[29.103919751058694,47.47748207006585],[29.05870999194765,47.49532802761046],[29.046812686918678,47.508415063141996],[29.024207807363467,47.51674317666311],[29.01587969384324,47.52983021219376],[29.023018076860552,47.547676169738196],[29.024207807363467,47.56671185778484],[29.012310502334493,47.5845578153275],[28.987326161772742,47.59764485085992],[28.98018777875534,47.611921616896325],[28.986136431269827,47.63928541846231],[28.976618587246683,47.68092598606469],[28.95996236020605,47.71423844014596],[28.965911012720536,47.73684331970064],[28.96472128221762,47.748740624731035],[28.970669934732108,47.76182766026346],[28.98256723976108,47.805847688870074],[29.00279265831126,47.818934724403384],[29.006361849820006,47.839160142953034],[28.974239126240853,47.87604178854242],[28.923080714615235,47.88436990206354],[28.88381960801948,47.89745693759596],[28.833850926896865,47.895077476589066],[28.816004969353315,47.903405590109294],[28.813625508347485,47.92957966117325],[28.820763891364976,47.94623588821379],[28.8148152388504,47.95575373223711],[28.795779550804024,47.96170238475223],[28.780313054265505,47.98192780330276],[28.7660362882307,47.99025591682219],[28.747000600184236,47.99025591682219],[28.733913564652347,47.98192780330276],[28.69822164956445,47.995014838834294],[28.66966811749484,48.01405052688005],[28.674427039506412,48.03308621492669],[28.653011890454206,48.04617325045911],[28.603043209331503,48.04617325045911],[28.579248599273555,48.05212190297333],[28.562592372232032,48.05212190297333],[28.55307452820889,48.04260405895001],[28.547125875694313,48.016429987886056],[28.53522857066534,48.005722413360616],[28.5042955775891,48.02594783190938],[28.495967464068784,48.03308621492669],[28.516192882618874,48.04498351995602],[28.518572343624705,48.05807055548844],[28.53522857066534,48.06045001649454],[28.549505336700143,48.05807055548844],[28.559023180723376,48.077106243535084],[28.566161563740778,48.09257274007361],[28.581628060279296,48.091383009569626],[28.584007521285127,48.081865165546304],[28.61137132285182,48.09257274007361],[28.603043209331503,48.10803923661025],[28.567351294243693,48.11874681113747],[28.551884797705974,48.11993654163959],[28.531659379156594,48.12945438566291],[28.50667503859573,48.13302357717201],[28.48882908105138,48.1342133076759],[28.47693177602232,48.12588519415469],[28.480500967531064,48.10684950610805],[28.48407015903981,48.079485704541185],[28.459085818478858,48.090193279067506],[28.44123986093531,48.091383009569626],[28.419824711882303,48.11517761962926],[28.40792740685324,48.127074924656895],[28.403168484841668,48.14373115169922],[28.41506578987073,48.15681818722987],[28.41506578987073,48.18775118030584],[28.39246091031552,48.19369983282104],[28.368666300257573,48.19013064131282],[28.35438953422188,48.1794230667865],[28.346061420701652,48.15681818722987],[28.327025732655187,48.14135169069321],[28.29847220058558,48.14254142119533],[28.29371327857312,48.152059265218654],[28.29847220058558,48.162766839744975],[28.299661931088494,48.1770436057804],[28.317507888631955,48.19251010231892],[28.346061420701652,48.21273552086768],[28.35438953422188,48.240099322434546],[28.327025732655187,48.26032474098339],[28.31869761913487,48.24961716645787],[28.309179775111637,48.244858244446746],[28.297282470082664,48.25675554947519],[28.28062624304123,48.242478783440646],[28.24493432795422,48.225822556400104],[28.215191065380807,48.21630471237678],[28.19139645532277,48.21273552086768],[28.180688880796623,48.230581478411224],[28.17117103677348,48.243668513942765],[28.169981306270564,48.26032474098339],[28.134289391182755,48.27460150701971],[28.12834073866818,48.26032474098339],[28.092648823581168,48.237719861429426],[28.070043944025247,48.25318635796609],[28.071233674528074,48.27222204601273],[28.080751518551395,48.300775578083574],[28.068854213522332,48.32813937964965],[28.034352028938237,48.33527776266874],[28.011747149382227,48.33646749317086],[27.97010658178064,48.33289830166264],[27.944648931121108,48.339500351040414],[27.903008363518722,48.358536039087056],[27.89111105848975,48.37638199663158],[27.866126717927997,48.39184849316823],[27.858988334910595,48.4204020252382],[27.8375731858583,48.42159175574218],[27.823296419823496,48.425160947251186],[27.794742887753088,48.44181717429183],[27.77094827769505,48.45728367083025],[27.736446093110867,48.46204259284058],[27.711461752549205,48.45847340133237],[27.690046603497,48.45133501831515],[27.650785496900443,48.45490420982327],[27.62580115633949,48.45966313183449],[27.59843735477271,48.46085286233847],[27.591298971755307,48.47393989787089],[27.60081681577854,48.492975585917534],[27.594868163264053,48.500113968934755],[27.58059139722845,48.501303699436875],[27.552037865158752,48.490596124911434],[27.5270535245978,48.47631935887689],[27.50801783655087,48.476319358876985],[27.497310262024477,48.487026933402404],[27.486602687498326,48.5298572315069],[27.467566999451954,48.58458483464171],[27.45091077241132,48.61908701922678],[27.418788048832162,48.62741513274621],[27.400942091288705,48.63217405475743],[27.390234516762554,48.64526109029074],[27.37714748123058,48.64883028179797],[27.35573233217766,48.642881629284645],[27.35573233217766,48.61670755822068],[27.327178800107966,48.60718971419736],[27.31052257306733,48.61075890570558],[27.309332842564416,48.626225402244],[27.278399849488174,48.639312437775544],[27.243897664904082,48.630984324254335],[27.240328473395337,48.6178972887228],[27.267692274962116,48.59886160067616],[27.267692274962116,48.579825912630405],[27.25698470043597,48.57387726011441],[27.207016019313265,48.57387726011441],[27.19511871428429,48.59529240916706],[27.166565182214597,48.59410267866494],[27.151098685676075,48.575066990618296],[27.123734884109382,48.566738877097094],[27.071386741980938,48.572687529611315],[27.052351053934473,48.566738877097094],[27.013089947337917,48.578636182126516],[27.009520755829264,48.59410267866494],[26.997623450800198,48.59648213967104],[26.98929533727997,48.58220537363562],[26.955982883198615,48.58696429564772],[26.932188273139865,48.5774464516244],[26.92148069861372,48.559600494079874],[26.90006554956151,48.55008265005655],[26.876270939502675,48.55365184156467],[26.858424981959125,48.57387726011441],[26.842958485421406,48.58339510413773],[26.838199563409837,48.59767187017316],[26.840579024415575,48.6178972887228],[26.832250910895347,48.6226562107349],[26.80006943519294,48.60592654353889],[26.81077700971909,48.57975247247592],[26.809587279216174,48.563096245434394],[26.78817213016388,48.558337323423174],[26.77746455563782,48.563096245434394],[26.763187789602128,48.58570112498916],[26.751290484573154,48.60116762152768],[26.738203449041265,48.60235735203157],[26.73939317954418,48.58808058599526],[26.756049406584815,48.567855167446496],[26.761998059099213,48.54525028789075],[26.727495874515114,48.54049136587865],[26.71083964747448,48.56190651493139],[26.68347584590699,48.567855167446496],[26.653732583334467,48.567855167446496],[26.63231743428137,48.55714759291919],[26.6346968952872,48.54406055738863],[26.65730177484312,48.54525028789075],[26.67871692389533,48.552388670908066],[26.700132072947625,48.53811190487353],[26.731065066023774,48.51074810330568],[26.727495874515114,48.492902145762926],[26.697752611941794,48.486953493247825],[26.666819618866356,48.49171241525904],[26.658491505346035,48.50598918129535],[26.643025008808316,48.50955837280357],[26.6346968952872,48.50955837280357],[26.6346968952872,48.495281606769026],[26.648973661322806,48.482194571235716],[26.64778393081989,48.463158883189074],[26.621609859755225,48.45721023067574],[26.593056327685616,48.45721023067574],[26.560933604106552,48.482194571235716],[26.53475953304268,48.495281606769026],[26.51691357549913,48.53692217436955],[26.502636809464327,48.54762974889587],[26.4689204893254,48.54646206081187],[26.410623694683174,48.536944216789436],[26.39753665915049,48.52266745075392],[26.33329121199307,48.52147772025083],[26.31544525444952,48.54884152181788],[26.264286842823992,48.54884152181788],[26.235733310754384,48.541703138800564],[26.21431816170209,48.54051340829854],[26.192903012649083,48.554790174332986],[26.179815977117904,48.57263613187565],[26.17862624661428,48.603569124951704],[26.152452175549612,48.62498427400524],[26.135795948508978,48.60713831646072],[26.145313792532207,48.59048208942026],[26.157211097561984,48.57144640137264],[26.15007271454467,48.554790174332986],[26.135795948508978,48.555979904836875],[26.11200133845174,48.561928557351095],[26.08701699788999,48.58572316740718],[26.059653196322493,48.55954909634518],[26.06560184883778,48.54527233030878],[26.054894274311636,48.51909825924482],[26.072740231855185,48.492924188180865],[26.0882067283921,48.45604254259156],[26.09177591990165,48.43938631554915],[26.106052685936454,48.41916089700128],[26.188144090637422,48.389417634427424],[26.202420856672227,48.35372571933926],[26.228594927736893,48.291859733188204],[26.248820346286273,48.27044458413546],[26.280943069864627,48.2514088960898],[26.303547949420548,48.21452725049854],[26.354706361045274,48.20262994546921],[26.368983127080078,48.19549156245101],[26.399916120157116,48.19549156245101],[26.443936148764536,48.20144021496701],[26.454643723290594,48.20857859798343],[26.47843833334943,48.20857859798343],[26.49152536888132,48.22047590301365],[26.522458361956758,48.22880401653485],[26.528407014471334,48.21690671150455],[26.587893539617177,48.22523482502575],[26.60454976665781,48.252598626591826],[26.640241681745714,48.25378835709492],[26.66403629180366,48.26925485363246],[26.686641171358872,48.257357548604816],[26.704487128903132,48.257357548604816],[26.71757416443502,48.268065123130256],[26.738989313487316,48.262116470616036],[26.754455810025036,48.26687539262636],[26.772301767569296,48.25616781810093],[26.794906647123703,48.26330620111824],[26.810373143662225,48.25378835709492],[26.828219101205683,48.25378835709492],[26.8365472147268,48.247839704581494],[26.861531555287755,48.245460243573625],[26.8651007467965,48.23475266904907],[26.881756973837135,48.23951159106029],[26.892464548363193,48.237132130053396],[26.894844009369024,48.222855364019836],[26.919828349929972,48.21095805898944],[26.950761343006214,48.209768328487414],[26.973366222561246,48.19906075396189],[26.968607300550474,48.176455874406145],[27.007868407146226,48.17169695239413],[27.015006790163632,48.165748299880704],[27.001919754631743,48.157420186357726],[26.98526352759111,48.160989377867715],[26.979314875076618,48.155040725353494],[27.007868407146226,48.140763959319045],[27.032852747707977,48.13838449831108],[27.039991130725383,48.14790234233618],[27.056647357766018,48.15028180334237],[27.057837088268933,48.140763959319045],[27.076872776315398,48.11221042724908],[27.073303584806652,48.102692583224695],[27.089959811847287,48.07889797316781],[27.10661603888792,48.065810937633614],[27.11375442190603,48.05034444109696],[27.130410648946757,48.04558551908477],[27.11137496089949,48.03249848355243],[27.10899549989366,48.01941144802099],[27.12089280492352,48.012273065003676],[27.125651726934294,48.022980639530886],[27.14706687598686,48.02654983103919],[27.15182579799896,48.017031987013915],[27.141118223472816,48.00632441248857],[27.156584720010535,47.98966818544793],[27.175620408057,47.996806568465246],[27.175620408057,47.96944276689731],[27.19584582660709,47.95516600086286],[27.19108690459472,47.9266124687929],[27.207743131635354,47.92066381627947],[27.2243993586767,47.8778335181732],[27.210122592641895,47.857608099625324],[27.212502053647725,47.848090255600226],[27.248193968734732,47.8397621420808],[27.25890154326168,47.83024429805748],[27.24581450772979,47.81953672353026],[27.26247073477034,47.80525995749573],[27.270798848290745,47.77908588643177],[27.293403727845778,47.75886046788301],[27.308870224383497,47.752911815367995],[27.306490763378555,47.73268639681826],[27.27674750080523,47.72435828329803],[27.293403727845778,47.70532259525041],[27.291024266840033,47.68985609871385],[27.30054211086327,47.679148524186544],[27.29816264985744,47.66844094966102],[27.31957779890964,47.65297445312259],[27.34099294796274,47.62561065155474],[27.392151359587466,47.605385233005094],[27.409997317131015,47.58515981445633],[27.454017345739146,47.57564197043479],[27.454017345739146,47.538760324842734],[27.483760608312465,47.50306840975546],[27.50398602686176,47.48522245221102],[27.539677941949655,47.469755955674366],[27.55990336049895,47.47927379969769],[27.58726716206644,47.45072026762772],[27.578939048545415,47.42097700505467],[27.589646623071474,47.41621808304265],[27.600354197597618,47.38409535946536],[27.56228282150478,47.39718239499503],[27.56228282150478,47.38766455097348],[27.596785006088965,47.372198054435145],[27.6277179991652,47.34007533085608],[27.61582069413614,47.33412667834186],[27.653892070228977,47.304383415768804],[27.663409914252213,47.30914233778002],[27.67887641079073,47.29962449375847],[27.705050481853796,47.29010664973515],[27.709809403866167,47.30081422426059],[27.74193212744452,47.28177853621395],[27.758588354485155,47.25798392615431],[27.74788077995901,47.25084554313709],[27.749070510461927,47.243707160119776],[27.768106198509102,47.24251742961775],[27.793090539070143,47.2080152450325],[27.807367305105743,47.17470279095141],[27.794280269572965,47.17113359944231],[27.804987844099117,47.163995216424105],[27.796659730578796,47.155667102904765],[27.821644071140547,47.14495952837835],[27.83592083717535,47.14495952837835],[27.850197603210155,47.131872492846995],[27.843059220192757,47.11759572681059],[27.88469978779505,47.11521626580449],[27.907529838848333,47.092386214751926],[27.919201972379234,47.08071408122129],[27.94418631294019,47.05572974065936],[27.97630903651934,47.070006506694874],[27.98463715003966,47.05929893216757],[27.972739845010686,47.04502216613312],[28.001293377080295,47.0390735136189],[28.045313405688418,47.02360701708038],[28.081005320776228,46.999812407022524],[28.100041008821897,46.976017796964754],[28.085764242787093,46.97482806646077],[28.097661547816067,46.94746426489479],[28.108369122343014,46.941515612379504],[28.11074858334804,46.92485938533905],[28.097661547816067,46.92366965483507],[28.094092356307407,46.89987504477898],[28.105989661337183,46.88797773974779],[28.117886966365447,46.88797773974779],[28.120266427371988,46.88202908723446],[28.11074858334804,46.87013178220513],[28.126215079886563,46.84633717214736],[28.114317774856787,46.84038851963207],[28.132163732401047,46.829680945104855],[28.122645888377818,46.81659390957243],[28.151199420447426,46.805886335047],[28.16666591698594,46.78804037750247],[28.17499403050546,46.759486845433486],[28.170235108494687,46.753538192918285],[28.173804300003347,46.74521007939797],[28.185701605032406,46.741640887890824],[28.19997837106721,46.73093331336352],[28.2059270235817,46.69643112877836],[28.22615244213108,46.685723554252924],[28.236860016657936,46.66430840519929],[28.227342172633996,46.65717002218385],[28.23923947766297,46.63337541212421],[28.232101094645564,46.60363214955213],[28.236860016657936,46.57150942597307],[28.22615244213108,46.554853198932435],[28.224962711628166,46.53819697189198],[28.214255137102107,46.523920205855575],[28.22615244213108,46.50012559579771],[28.24637786068037,46.484659099260085],[28.255895704703605,46.466813141716536],[28.24637786068037,46.46324395020832],[28.257085435207316,46.444208262159904],[28.249947052189917,46.43231095713146],[28.242808669171716,46.43112122662926],[28.242808669171716,46.4144649995888],[28.247567591184087,46.396619042044186],[28.235670286154225,46.401377964057176],[28.22139352011942,46.41327526908482],[28.220203789616505,46.396619042044186],[28.201168101570126,46.387101198020865],[28.20830648458753,46.381152545505756],[28.194029718552727,46.364496318467076],[28.198788640564388,46.35140928293359],[28.191650257546897,46.33951197790337],[28.20235783207304,46.33118386438403],[28.192839988049812,46.315717367847284],[28.171424838996806,46.293112488290745],[28.160717264470655,46.300250871307966],[28.144061037430113,46.2681281477289],[28.14644049843585,46.251471920690136],[28.133353462903962,46.251471920690136],[28.129784271395216,46.234815693647725],[28.123835618880733,46.2300567716366],[28.121456157874903,46.207451892080854],[28.132163732401047,46.20388270057264],[28.132163732401047,46.19793404805753],[28.142871306927198,46.19793404805753],[28.15000968994451,46.18960593453624],[28.148819959442392,46.16581132447847],[28.142871306927198,46.15629348045515],[28.138112384915537,46.10156587732132],[28.125025349383648,46.08728911128678],[28.11193831385176,46.07777126726346],[28.10955885284593,46.05278692670339],[28.117886966365447,46.049217735192514],[28.116697235863327,46.02899231664376],[28.105989661337183,46.01709501161443],[28.11193831385176,45.98973121004738],[28.128594540892394,45.93381387640966],[28.139302115418452,45.930244684902334],[28.142871306927198,45.90526034434058],[28.13097400189813,45.88860411729995],[28.141681576424283,45.88384519528793],[28.140491845921368,45.86480950724031],[28.126215079886563,45.85291220221285],[28.13097400189813,45.80532298209624],[28.125025349383648,45.78628729404862],[28.159527533968543,45.774389989019205],[28.159527533968543,45.744646726446234],[28.180942683020838,45.73750834342901],[28.18332214402667,45.71014454186303],[28.172614569500517,45.698247236833524],[28.18689133553532,45.63876071168848],[28.173804300003347,45.64114017269466],[28.159527533968543,45.62924286766427],[28.151199420447426,45.62091475414306],[28.125025349383648,45.61734556263494],[28.105989661337183,45.606637988107636],[28.12740481038948,45.58284337805155],[28.148819959442392,45.57213580352345],[28.16785564748806,45.56737688151321],[28.176183761009177,45.53406442743194],[28.170235108494687,45.50789035636621],[28.189270796541066,45.49004439882355],[28.232101094645564,45.4650600582618],[28.254705974201485,45.44959356172505],[28.2903978892885,45.434127065186715],[28.30586438582622,45.391296767082125],[28.3403665704112,45.35084592998194],[28.34869468393152,45.33418970294131],[28.412461101259176,45.31037760029536],[28.433876250311293,45.30680840878715],[28.485034661936915,45.30799813928935],[28.53619307356253,45.293721373254726],[28.601628251222067,45.278254876717185],[28.6325612442983,45.25683972766542],[28.696806691455812,45.252080805652426],[28.747965103081427,45.235424578611884],[28.80150297571199,45.23423484810968],[28.8443332738172,45.24137323112699],[28.84909219582886,45.25564999716144],[28.83124623828531,45.273495954705965],[28.81934893325625,45.285393259735386],[28.825297585770734,45.29848029526603],[28.858610039852003,45.29848029526603],[28.869317614378154,45.31037760029536],[28.871697075383985,45.32584409683379],[28.851471656834605,45.327033827335995],[28.843143543314284,45.330603018845096],[28.855040848343258,45.3413105933724],[28.881214919407128,45.3413105933724],[28.901440337957304,45.33536194085711],[28.912147912483363,45.32346463582778],[28.946650097067547,45.31989544431868],[28.984721473161187,45.29253164275261],[28.99661877819016,45.287772720740506],[29.01684419673954,45.29134191224872],[29.012085274727973,45.31037760029536],[29.012085274727973,45.328223557839976],[29.021603118751116,45.3377414018633],[29.045397728809952,45.3413105933724],[29.077520452388306,45.35677708990896],[29.098935601441397,45.367484664436176],[29.10845344546454,45.3781922389617],[29.127489133511006,45.391279274494124],[29.18816538915977,45.41150469304475],[29.19530377217717,45.421022537067],[29.242892992294045,45.44243768611983],[29.273825985369484,45.43291984209651],[29.29286167341595,45.438868494611526],[29.32260493598927,45.45909391316029],[29.339261163029903,45.46028364366249],[29.353537929064707,45.44481714712575],[29.366624964596596,45.44124795561585],[29.38447092214095,45.44957606913697],[29.411834723707642,45.45314526064518],[29.448716369298452,45.45790418265817],[29.482028823379636,45.461473374166474],[29.51177208595216,45.45433499114907],[29.531997504502336,45.436489033604545],[29.55222292305163,45.421022537067],[29.578396994115494,45.421022537067],[29.603381334677245,45.41388415404889],[29.618847831214964,45.40198684902143],[29.64383217177592,45.39008954399192],[29.665247320828833,45.36986412544236],[29.687852200384043,45.34606951538264],[29.705698157927593,45.31275706130137],[29.711646810442083,45.29610083426171],[29.71521600195083,45.275875415712065],[29.730682498488548,45.284203529231405],[29.722354384968142,45.29967002577001],[29.727113306979803,45.30442894778114],[29.740200342512487,45.28896245124271],[29.74852845603281,45.30085975627204],[29.763994952570528,45.31037760029536],[29.765184683073443,45.321085174821775],[29.743769534021233,45.330603018845096],[29.75447710854729,45.33893113236621],[29.77232306609084,45.3413105933724],[29.75209764754146,45.35201816789775],[29.743769534021233,45.35201816789775],[29.755666839050207,45.37105385594439],[29.75447710854729,45.38889981348794],[29.75209764754146,45.400797118517445],[29.742579803518318,45.4174533455579],[29.749718186535723,45.438868494611526],[29.749718186535723,45.45076579963917],[29.730682498488548,45.45314526064518],[29.712836540945,45.44719660813096],[29.686662469881128,45.45195553014315],[29.681903547869467,45.461473374166474],[29.653350015799063,45.46385283517159],[29.64145271077009,45.45076579963917],[29.616468370209134,45.45671445215428],[29.61289917870039,45.46742202668149],[29.60219160417433,45.469801487685814],[29.598622412665584,45.48169879271603],[29.5926737601511,45.49002690623546],[29.60457106518016,45.50787286377999],[29.62360675322654,45.51858043830542],[29.647401363284573,45.544754509371245],[29.680713817366552,45.57092858043502],[29.73306195949509,45.60067184300799],[29.809204711681566,45.638743219100476],[29.875829619844815,45.67919405619977],[29.935316144989955,45.71845516279615],[29.962679946557444,45.73749085084279],[29.988854017621314,45.74106004235189],[30.01264862768015,45.74106004235189],[30.04001242924693,45.75057788637521],[30.08165299684852,45.777941687941194],[30.157795749035706,45.826720638560715],[30.223230926696132,45.86717147566098],[30.260112572286054,45.890966085717956],[30.28747637385284,45.91832988728491],[30.313650444917414,45.95283207187008],[30.346962898998775,45.98495479544914],[30.39693158012139,46.027785093553554],[30.437382417220768,46.05633862562352],[30.475453793313612,46.07894350517926]]]]}},{"type":"Feature","properties":{"kind":"district","id":"uyezd-1897-213","name":"Хотинский","provinceId":"gubernia-1897-8"},"geometry":{"type":"MultiPolygon","coordinates":[[[[27.382885921018016,48.197276509081334],[27.33767616190751,48.23296842416861],[27.39240376504116,48.25914249523248],[27.420957297111123,48.24129653768982],[27.420957297111123,48.281747374788225],[27.426905949625436,48.29840360182975],[27.441182715660418,48.33409551691693],[27.44594163767234,48.38168473703265],[27.43880325465485,48.404289616587505],[27.457838942701763,48.423325304635036],[27.4554594816954,48.44355072318379],[27.461408134210508,48.46139668072743],[27.48639247477181,48.46377614173344],[27.508017836550625,48.47631935887692],[27.497310262024477,48.487026933402355],[27.48660268749833,48.52985723150685],[27.467566999451954,48.58458483464166],[27.45091077241132,48.61908701922674],[27.418788048832166,48.627415132746165],[27.400942091288705,48.632174054757385],[27.390234516762558,48.64526109029069],[27.37714748123058,48.648830281797885],[27.355732332177663,48.642881629284645],[27.355732332177663,48.61670755822068],[27.327178800107966,48.60718971419736],[27.31052257306733,48.61075890570558],[27.309332842564416,48.626225402244],[27.278399849488178,48.639312437775544],[27.243897664904082,48.630984324254335],[27.240328473395337,48.6178972887228],[27.26769227496212,48.59886160067616],[27.26769227496212,48.579825912630405],[27.25698470043597,48.57387726011441],[27.20701601931327,48.57387726011441],[27.195118714284295,48.59529240916706],[27.166565182214597,48.59410267866494],[27.15109868567608,48.575066990618296],[27.123734884109385,48.566738877097094],[27.07138674198094,48.572687529611315],[27.052351053934476,48.566738877097094],[27.01308994733792,48.578636182126516],[27.009520755829264,48.59410267866494],[26.9976234508002,48.59648213967104],[26.989295337279973,48.58220537363562],[26.955982883198615,48.58696429564772],[26.932188273139868,48.5774464516244],[26.92148069861372,48.559600494079874],[26.900065549561514,48.55008265005655],[26.876270939502678,48.55365184156467],[26.85842498195913,48.57387726011441],[26.84295848542141,48.58339510413773],[26.838199563409837,48.59767187017316],[26.84057902441558,48.6178972887228],[26.83225091089535,48.6226562107349],[26.800069435192924,48.60592654353883],[26.81077700971907,48.579752472475846],[26.809587279216156,48.56309624543432],[26.78817213016386,48.5583373234231],[26.777464555637803,48.56309624543432],[26.76318778960211,48.585701124989086],[26.751290484573136,48.60116762152761],[26.738203449041247,48.602357352031504],[26.739393179544162,48.588080585995186],[26.756049406584797,48.567855167446425],[26.761998059099195,48.54525028789068],[26.7274958745151,48.54049136587858],[26.710839647474465,48.56190651493132],[26.683475845906973,48.567855167446425],[26.65373258333445,48.567855167446425],[26.632317434281354,48.55714759291912],[26.634696895287185,48.54406055738857],[26.657301774843106,48.54525028789068],[26.678716923895312,48.552388670908],[26.700132072947607,48.53811190487346],[26.731065066023756,48.510748103305616],[26.7274958745151,48.49290214576286],[26.697752611941777,48.48695349324775],[26.666819618866338,48.491712415258974],[26.65849150534602,48.505989181295284],[26.6430250088083,48.5095583728035],[26.634696895287185,48.5095583728035],[26.634696895287185,48.495281606768955],[26.64897366132279,48.48219457123565],[26.647783930819873,48.46315888318901],[26.621609859755207,48.45721023067567],[26.5930563276856,48.45721023067567],[26.560933604106534,48.48219457123565],[26.534759533042667,48.495281606768955],[26.516913575499117,48.53692217436948],[26.502636809464313,48.5476297488958],[26.46892048932538,48.546462060811805],[26.410623694683174,48.536944216789436],[26.39753665915049,48.52266745075392],[26.33329121199307,48.52147772025083],[26.31544525444952,48.54884152181788],[26.264286842823992,48.54884152181788],[26.235733310754384,48.541703138800564],[26.21431816170209,48.54051340829854],[26.192903012649083,48.554790174332986],[26.179815977117904,48.57263613187565],[26.17862624661428,48.603569124951704],[26.152452175549612,48.62498427400524],[26.135795948508978,48.60713831646072],[26.145313792532207,48.59048208942026],[26.157211097561984,48.57144640137264],[26.15007271454467,48.554790174332986],[26.135795948508978,48.555979904836875],[26.11200133845174,48.561928557351095],[26.08701699788999,48.58572316740718],[26.059653196322493,48.55954909634518],[26.06560184883778,48.54527233030878],[26.054894274311636,48.51909825924482],[26.072740231855185,48.492924188180865],[26.0882067283921,48.45604254259156],[26.09177591990165,48.43938631554915],[26.106052685936454,48.41916089700128],[26.188144090637422,48.389417634427424],[26.202420856672227,48.35372571933926],[26.228594927736893,48.291859733188204],[26.248820346286273,48.27044458413546],[26.280943069864627,48.2514088960898],[26.303547949420548,48.21452725049854],[26.354706361045274,48.20262994546921],[26.368983127080078,48.19549156245101],[26.399916120157116,48.19549156245101],[26.443936148764536,48.20144021496701],[26.454643723290594,48.20857859798343],[26.47843833334943,48.20857859798343],[26.49152536888132,48.22047590301365],[26.522458361956758,48.22880401653485],[26.528407014471334,48.21690671150455],[26.587893539617177,48.22523482502575],[26.60454976665781,48.252598626591826],[26.640241681745714,48.25378835709492],[26.66403629180366,48.26925485363246],[26.686641171358872,48.257357548604816],[26.704487128903132,48.257357548604816],[26.71757416443502,48.268065123130256],[26.738989313487316,48.262116470616036],[26.754455810025036,48.26687539262636],[26.772301767569296,48.25616781810093],[26.794906647123703,48.26330620111824],[26.810373143662225,48.25378835709492],[26.828219101205683,48.25378835709492],[26.8365472147268,48.247839704581494],[26.861531555287755,48.245460243573625],[26.8651007467965,48.23475266904907],[26.881756973837135,48.23951159106029],[26.892464548363193,48.237132130053396],[26.894844009369024,48.222855364019836],[26.919828349929972,48.21095805898944],[26.950761343006214,48.209768328487414],[26.973366222561246,48.19906075396189],[26.968607300550474,48.176455874406145],[27.007868407146226,48.17169695239413],[27.015006790163632,48.165748299880704],[27.001919754631743,48.157420186357726],[26.98526352759111,48.160989377867715],[26.979314875076618,48.155040725353494],[27.007868407146226,48.140763959319045],[27.032852747707977,48.13838449831108],[27.039991130725383,48.14790234233618],[27.056647357766018,48.15028180334237],[27.057837088268933,48.140763959319045],[27.076872776315398,48.11221042724908],[27.073303584806652,48.102692583224695],[27.089959811847287,48.07889797316781],[27.10661603888792,48.065810937633614],[27.11375442190603,48.05034444109696],[27.130410648946757,48.04558551908477],[27.11137496089949,48.03249848355243],[27.10899549989366,48.01941144802099],[27.12089280492352,48.012273065003676],[27.125651726934294,48.022980639530886],[27.14706687598686,48.02654983103919],[27.15326793395495,48.035473160683985],[27.15921658647006,48.06759588426305],[27.169924160996295,48.106856990860315],[27.184200927031362,48.12946187041419],[27.18539065753366,48.1413591754445],[27.263912870726145,48.17348189902259],[27.309122629837546,48.1306516009172],[27.34957346693613,48.16396405500024],[27.382885921018016,48.197276509081334]]]]}},{"type":"Feature","properties":{"kind":"district","id":"uyezd-1897-214","name":"Белецкий","provinceId":"gubernia-1897-8"},"geometry":{"type":"MultiPolygon","coordinates":[[[[27.14706687598686,48.02654983103919],[27.15182579799896,48.017031987013915],[27.141118223472816,48.00632441248857],[27.156584720010535,47.98966818544793],[27.175620408057,47.996806568465246],[27.175620408057,47.96944276689731],[27.19584582660709,47.95516600086286],[27.19108690459472,47.9266124687929],[27.207743131635354,47.92066381627947],[27.2243993586767,47.8778335181732],[27.210122592641895,47.857608099625324],[27.212502053647725,47.848090255600226],[27.248193968734732,47.8397621420808],[27.25890154326168,47.83024429805748],[27.24581450772979,47.81953672353026],[27.26247073477034,47.80525995749573],[27.270798848290745,47.77908588643177],[27.293403727845778,47.75886046788301],[27.308870224383497,47.752911815367995],[27.306490763378555,47.73268639681826],[27.27674750080523,47.72435828329803],[27.293403727845778,47.70532259525041],[27.291024266840033,47.68985609871385],[27.30054211086327,47.679148524186544],[27.29816264985744,47.66844094966102],[27.31957779890964,47.65297445312259],[27.34099294796274,47.62561065155474],[27.392151359587466,47.605385233005094],[27.409997317131015,47.58515981445633],[27.454017345739146,47.57564197043479],[27.454017345739146,47.538760324842734],[27.483760608312465,47.50306840975546],[27.50398602686176,47.48522245221102],[27.539677941949655,47.469755955674366],[27.55990336049895,47.47927379969769],[27.58726716206644,47.45072026762772],[27.578939048545415,47.42097700505467],[27.589646623071474,47.41621808304265],[27.600354197597618,47.38409535946536],[27.56228282150478,47.39718239499503],[27.56228282150478,47.38766455097348],[27.596785006088965,47.372198054435145],[27.6277179991652,47.34007533085608],[27.61582069413614,47.33412667834186],[27.653892070228977,47.304383415768804],[27.663409914252213,47.30914233778002],[27.67887641079073,47.29962449375847],[27.705050481853796,47.29010664973515],[27.709809403866167,47.30081422426059],[27.74193212744452,47.28177853621395],[27.758588354485155,47.25798392615431],[27.74788077995901,47.25084554313709],[27.749070510461927,47.243707160119776],[27.768106198509102,47.24251742961775],[27.793090539070143,47.2080152450325],[27.807367305105743,47.17470279095141],[27.794280269572965,47.17113359944231],[27.804987844099117,47.163995216424105],[27.796659730578796,47.155667102904765],[27.821644071140547,47.14495952837835],[27.83592083717535,47.14495952837835],[27.850197603210155,47.131872492846995],[27.843059220192757,47.11759572681059],[27.88469978779505,47.11521626580449],[27.907529838848333,47.092386214751926],[27.936110604873654,47.112638867256486],[27.975371711469407,47.13286428580702],[27.963474406440348,47.16260754837999],[27.972992250463577,47.212576229501806],[27.994407399516582,47.23994003106779],[28.039617158626825,47.255406527606304],[28.075309073714728,47.26968329364075],[28.09910368377276,47.280390868168055],[28.14550317338672,47.292288173197385],[28.15264155640412,47.32084170526646],[28.180005357970813,47.32560062727856],[28.16810805294184,47.38032823041337],[28.15859020891861,47.45290179108996],[28.17405670545633,47.45290179108996],[28.20142050702391,47.438625025056304],[28.21688700356163,47.442194216564516],[28.2216459255732,47.430296911535095],[28.253768649151553,47.426727720026086],[28.24544053563124,47.441004486060535],[28.249009727139892,47.44576340807362],[28.26090703216896,47.446953138575736],[28.271614606695906,47.438625025056304],[28.30135786926843,47.448142869079625],[28.306116791279997,47.52309589076319],[28.30135786926843,47.559977536352584],[28.2145075425558,47.5718748413828],[28.20617942903548,47.583772146410354],[28.20855889004131,47.60399756496098],[28.19904104601808,47.61589486998942],[28.202610237526827,47.63849974954516],[28.18833347149122,47.69322735267908],[28.187143740988304,47.71940142374295],[28.20142050702391,47.73367818977926],[28.209748620544225,47.74676522530991],[28.18119508847373,47.750334416819896],[28.184764279982474,47.77412902687776],[28.1728669749535,47.7907852539183],[28.140744251375146,47.807441480958936],[28.119329102322055,47.81695932498226],[28.124088024334426,47.83718474353279],[28.111000988801734,47.85265124006945],[28.069360421200237,47.85978962308667],[28.034858236615257,47.88239450264241],[27.993217669013667,47.904999382198156],[27.949197640405544,47.92165560923968],[27.87781381023072,47.91689668722758],[27.861157583190085,47.90975830421026],[27.84569108665228,47.902619921193036],[27.815947824078954,47.88001504163729],[27.793342944523836,47.88001504163729],[27.779066178489032,47.890722616163615],[27.75884075993885,47.91927614823358],[27.770738064967915,47.9204658787357],[27.77192779547083,47.95258860231476],[27.780255908991947,47.96210644633808],[27.75884075993885,47.99779836142536],[27.731476958372156,48.03824919852554],[27.701733695798836,48.07156165260672],[27.686267199261117,48.09773572367068],[27.645816362162442,48.125099525237545],[27.598227142045573,48.122720064232425],[27.572053070981703,48.112012489705215],[27.538740616899723,48.09059734065248],[27.517325467847428,48.10130491517969],[27.503048701812624,48.16911955384603],[27.47687463074805,48.17863739786935],[27.451890290187094,48.17744766736537],[27.40787026157888,48.18220658937747],[27.382885921018016,48.197276509081334],[27.34957346693613,48.16396405500024],[27.309122629837546,48.1306516009172],[27.263912870726145,48.17348189902259],[27.18539065753366,48.1413591754445],[27.184200927031362,48.12946187041419],[27.169924160996295,48.106856990860315],[27.15921658647006,48.06759588426305],[27.15326793395495,48.035473160683985],[27.14706687598686,48.02654983103919]]]]}},{"type":"Feature","properties":{"kind":"district","id":"uyezd-1897-216","name":"Сорокский","provinceId":"gubernia-1897-8"},"geometry":{"type":"MultiPolygon","coordinates":[[[[28.820763891364976,47.94623588821382],[28.8148152388504,47.95575373223714],[28.795779550804024,47.96170238475224],[28.780313054265505,47.98192780330278],[28.7660362882307,47.99025591682221],[28.747000600184236,47.99025591682221],[28.733913564652347,47.98192780330278],[28.69822164956445,47.995014838834315],[28.66966811749484,48.01405052688007],[28.674427039506412,48.03308621492671],[28.653011890454206,48.046173250459134],[28.603043209331503,48.046173250459134],[28.579248599273555,48.052121902973354],[28.562592372232032,48.052121902973354],[28.55307452820889,48.04260405895003],[28.547125875694313,48.01642998788608],[28.53522857066534,48.005722413360644],[28.5042955775891,48.0259478319094],[28.495967464068784,48.03308621492671],[28.516192882618874,48.04498351995604],[28.518572343624705,48.05807055548846],[28.53522857066534,48.060450016494556],[28.549505336700143,48.05807055548846],[28.559023180723376,48.077106243535106],[28.566161563740778,48.09257274007362],[28.581628060279296,48.09138300956964],[28.584007521285127,48.08186516554632],[28.61137132285182,48.09257274007362],[28.603043209331503,48.10803923661028],[28.567351294243693,48.11874681113749],[28.551884797705974,48.1199365416396],[28.531659379156594,48.129454385662925],[28.50667503859573,48.133023577172025],[28.48882908105138,48.13421330767592],[28.47693177602232,48.12588519415472],[28.480500967531064,48.10684950610808],[28.48407015903981,48.079485704541206],[28.459085818478858,48.090193279067535],[28.44123986093531,48.09138300956965],[28.419824711882303,48.11517761962928],[28.40792740685324,48.127074924656924],[28.403168484841668,48.14373115169924],[28.41506578987073,48.15681818722989],[28.41506578987073,48.18775118030587],[28.39246091031552,48.19369983282106],[28.368666300257573,48.19013064131285],[28.35438953422188,48.179423066786526],[28.346061420701652,48.15681818722989],[28.327025732655187,48.14135169069324],[28.29847220058558,48.142541421195354],[28.29371327857312,48.152059265218675],[28.29847220058558,48.162766839745004],[28.299661931088494,48.177043605780426],[28.317507888631955,48.19251010231895],[28.346061420701652,48.2127355208677],[28.35438953422188,48.240099322434574],[28.327025732655187,48.26032474098342],[28.31869761913487,48.249617166457895],[28.309179775111637,48.24485824444677],[28.297282470082664,48.25675554947521],[28.28062624304123,48.242478783440674],[28.24493432795422,48.225822556400125],[28.215191065380807,48.216304712376804],[28.19139645532277,48.2127355208677],[28.180688880796623,48.23058147841125],[28.17117103677348,48.24366851394279],[28.169981306270564,48.26032474098342],[28.134289391182755,48.27460150701974],[28.12834073866818,48.26032474098342],[28.092648823581168,48.237719861429454],[28.070043944025247,48.25318635796611],[28.071233674528074,48.27222204601275],[28.080751518551395,48.3007755780836],[28.068854213522332,48.32813937964967],[28.034352028938237,48.33527776266877],[28.011747149382227,48.33646749317088],[27.97010658178064,48.33289830166267],[27.944648931121108,48.33950035104043],[27.903008363518722,48.35853603908707],[27.89111105848975,48.3763819966316],[27.866126717927997,48.391848493168254],[27.858988334910595,48.42040202523822],[27.8375731858583,48.4215917557422],[27.823296419823496,48.425160947251214],[27.794742887753088,48.44181717429184],[27.77094827769505,48.45728367083028],[27.736446093110867,48.462042592840604],[27.711461752549205,48.45847340133239],[27.690046603497,48.45133501831516],[27.650785496900443,48.45490420982329],[27.62580115633949,48.4596631318345],[27.59843735477271,48.460852862338484],[27.591298971755307,48.473939897870906],[27.60081681577854,48.49297558591755],[27.594868163264053,48.50011396893478],[27.58059139722845,48.50130369943689],[27.552037865158752,48.490596124911455],[27.5270535245978,48.47631935887692],[27.508017836550625,48.47631935887692],[27.48639247477181,48.46377614173344],[27.461408134210508,48.46139668072743],[27.4554594816954,48.44355072318379],[27.457838942701763,48.423325304635036],[27.43880325465485,48.404289616587505],[27.44594163767234,48.38168473703265],[27.441182715660418,48.33409551691693],[27.426905949625436,48.29840360182975],[27.420957297111123,48.281747374788225],[27.420957297111123,48.24129653768982],[27.39240376504116,48.25914249523248],[27.33767616190751,48.23296842416861],[27.382885921018016,48.197276509081334],[27.40787026157888,48.18220658937747],[27.451890290187094,48.17744766736537],[27.47687463074805,48.17863739786935],[27.503048701812624,48.16911955384603],[27.517325467847428,48.10130491517969],[27.538740616899723,48.09059734065248],[27.572053070981703,48.112012489705215],[27.598227142045573,48.122720064232425],[27.645816362162442,48.125099525237545],[27.686267199261117,48.09773572367068],[27.701733695798836,48.07156165260672],[27.731476958372156,48.03824919852554],[27.75884075993885,47.99779836142536],[27.780255908991947,47.96210644633808],[27.77192779547083,47.95258860231476],[27.770738064967915,47.9204658787357],[27.75884075993885,47.91927614823358],[27.779066178489032,47.890722616163615],[27.793342944523836,47.88001504163729],[27.815947824078954,47.88001504163729],[27.84569108665228,47.902619921193036],[27.861157583190085,47.90975830421026],[27.87781381023072,47.91689668722758],[27.949197640405544,47.92165560923968],[27.993217669013667,47.904999382198156],[28.034858236615257,47.88239450264241],[28.069360421200237,47.85978962308667],[28.111000988801734,47.85265124006945],[28.124088024334426,47.83718474353279],[28.119329102322055,47.81695932498226],[28.140744251375146,47.807441480958936],[28.1728669749535,47.7907852539183],[28.184764279982474,47.77412902687776],[28.18119508847373,47.750334416819896],[28.209748620544225,47.74676522530991],[28.20142050702391,47.73367818977926],[28.187143740988304,47.71940142374295],[28.18833347149122,47.69322735267908],[28.202610237526827,47.63849974954516],[28.19904104601808,47.61589486998942],[28.20855889004131,47.60399756496098],[28.20617942903548,47.583772146410354],[28.2145075425558,47.5718748413828],[28.30135786926843,47.559977536352584],[28.33704978435624,47.56081475411341],[28.367982777431767,47.58104017266306],[28.370362238437508,47.619111548756344],[28.398915770507205,47.633388314792654],[28.398915770507205,47.642906158815975],[28.409623345034063,47.6524240028393],[28.402484962015862,47.68811591792658],[28.41557199754855,47.69644403144592],[28.439366607606587,47.69644403144592],[28.490525019232205,47.70477214496712],[28.498853132752433,47.728566755024985],[28.521458012307644,47.7404640600544],[28.516699090295983,47.75712028709583],[28.526216934319216,47.78329435815979],[28.5607191189042,47.78805328017003],[28.57856507644775,47.799950585200335],[28.579754806950575,47.81660681224097],[28.615446722038385,47.82612465626429],[28.66779486416612,47.82136573425308],[28.689210013219125,47.81660681224097],[28.74155815534677,47.82255546475519],[28.752265729872917,47.84397061380882],[28.77130141792018,47.872524145878785],[28.803424141498535,47.872524145878785],[28.808183063510107,47.892749564426566],[28.816004969353315,47.90340559010925],[28.813625508347485,47.92957966117321],[28.820763891364976,47.94623588821382]]]]}},{"type":"Feature","properties":{"kind":"district","id":"uyezd-1897-217","name":"Оргеевский","provinceId":"gubernia-1897-8"},"geometry":{"type":"MultiPolygon","coordinates":[[[[28.180005357970813,47.32560062727856],[28.20142050702391,47.31890288518751],[28.231163769596435,47.29391854462753],[28.26566595418133,47.262985551551566],[28.30373733027417,47.246329324510924],[28.365603316425936,47.23800121098972],[28.406054153525318,47.22372444495518],[28.42271038056604,47.21063740942285],[28.43103849408627,47.19398118238222],[28.46435094816754,47.177324955341675],[28.481007175208973,47.168996841820466],[28.519078551301813,47.174945494335574],[28.55833965789837,47.177324955341675],[28.54525262236639,47.22372444495518],[28.566667771418686,47.22610390596128],[28.63448241008485,47.2308628279725],[28.678502438692266,47.21777579244008],[28.716573814785907,47.20944767892074],[28.735609502832283,47.20587848741066],[28.76892195691435,47.188032529867996],[28.792716566972388,47.17018657232347],[28.81770090753334,47.17375576383168],[28.83792632608343,47.16066872830103],[28.86647985815304,47.14877142327171],[28.915258808772826,47.14163304025439],[28.968796681404186,47.13092546572718],[28.979504255930333,47.11902816069865],[29.010437249005772,47.10832058617144],[29.0615956606313,47.114269238686546],[29.083010809683596,47.13211519623107],[29.096097845215485,47.14758169276773],[29.127030838291724,47.15828926729503],[29.13773841281787,47.177324955341675],[29.154394639858506,47.183273607855],[29.167481675390395,47.20944767892074],[29.15082544834976,47.21420660093186],[29.143687065332358,47.23443201948062],[29.12822056879464,47.252277977025145],[29.11037461125109,47.273693126077],[29.086580001192253,47.29272881412364],[29.078251887671936,47.30938504116419],[29.060405930128386,47.32604126820482],[29.047318894596497,47.34745641725836],[29.055647008116814,47.3605434527899],[29.071113504654534,47.3605434527899],[29.086580001192253,47.35102560876658],[29.104425958735803,47.331989920719934],[29.11989245527432,47.331989920719934],[29.15269870167848,47.33947333172818],[29.141991127152334,47.35850901977482],[29.131283552625476,47.379924168826584],[29.078935410497742,47.40847770089655],[29.070607296977514,47.42870311944628],[29.078935410497742,47.44060042447561],[29.106299212064524,47.453687460008034],[29.115817056087756,47.46677449553957],[29.103919751058694,47.47748207006589],[29.05870999194765,47.49532802761042],[29.046812686918678,47.50841506314195],[29.024207807363467,47.51674317666307],[29.01587969384324,47.529830212193716],[29.023018076860552,47.54767616973824],[29.024207807363467,47.56671185778488],[29.012310502334493,47.58455781532754],[28.987326161772742,47.597644850859965],[28.98018777875534,47.61192161689628],[28.986136431269827,47.63928541846235],[28.976618587246683,47.680925986064736],[28.95996236020605,47.71423844014592],[28.965911012720536,47.73684331970068],[28.96472128221762,47.74874062473099],[28.970669934732108,47.761827660263414],[28.98256723976108,47.80584768887003],[29.00279265831126,47.81893472440334],[29.006361849820006,47.83916014295299],[28.974239126240853,47.87604178854238],[28.923080714615235,47.88436990206358],[28.88381960801948,47.89745693759592],[28.833850926896865,47.89507747658902],[28.816004969353315,47.90340559010925],[28.808183063510107,47.892749564426566],[28.803424141498535,47.872524145878785],[28.77130141792018,47.872524145878785],[28.752265729872917,47.84397061380882],[28.74155815534677,47.82255546475519],[28.689210013219125,47.81660681224097],[28.66779486416612,47.82136573425308],[28.615446722038385,47.82612465626429],[28.579754806950575,47.81660681224097],[28.57856507644775,47.799950585200335],[28.5607191189042,47.78805328017003],[28.526216934319216,47.78329435815979],[28.516699090295983,47.75712028709583],[28.521458012307644,47.7404640600544],[28.498853132752433,47.728566755024985],[28.490525019232205,47.70477214496712],[28.439366607606587,47.69644403144592],[28.41557199754855,47.69644403144592],[28.402484962015862,47.68811591792658],[28.409623345034063,47.6524240028393],[28.398915770507205,47.642906158815975],[28.398915770507205,47.633388314792654],[28.370362238437508,47.619111548756344],[28.367982777431767,47.58104017266306],[28.33704978435624,47.56081475411341],[28.30135786926843,47.559977536352584],[28.306116791279997,47.52309589076319],[28.30135786926843,47.448142869079625],[28.271614606695906,47.438625025056304],[28.26090703216896,47.446953138575736],[28.249009727139892,47.44576340807362],[28.24544053563124,47.441004486060535],[28.253768649151553,47.426727720026086],[28.2216459255732,47.430296911535095],[28.21688700356163,47.442194216564516],[28.20142050702391,47.438625025056304],[28.17405670545633,47.45290179108996],[28.15859020891861,47.45290179108996],[28.16810805294184,47.38032823041337],[28.180005357970813,47.32560062727856]]]]}},{"type":"Feature","properties":{"kind":"district","id":"uyezd-1897-218","name":"Кишиневский","provinceId":"gubernia-1897-8"},"geometry":{"type":"MultiPolygon","coordinates":[[[[28.097661547816067,46.92366965483507],[28.11483456486713,46.90963559218467],[28.14338809693674,46.889410173635916],[28.162423784983204,46.862046372068065],[28.200495161076844,46.8346825705012],[28.245704920187883,46.82040580446568],[28.258791955719772,46.807318768935126],[28.293294140303956,46.796611194407916],[28.334934707906342,46.77281658435005],[28.35278066544989,46.75021170479431],[28.384903389028956,46.73117601674767],[28.4229747651218,46.712140328701025],[28.428923417636284,46.71451978970703],[28.41464665160148,46.76567820133274],[28.439630992162435,46.77281658435005],[28.47056398523867,46.77876523686516],[28.53480943239618,46.77876523686516],[28.574070538991933,46.76924739284184],[28.574070538991933,46.75140143529731],[28.576449999997763,46.73117601674767],[28.607382993074005,46.727606825239455],[28.635936525143613,46.71333005920492],[28.66211059620828,46.72522736423247],[28.710889546827175,46.7466425132861],[28.744202000909247,46.76210900982461],[28.732304695880273,46.776385775858174],[28.707320355318522,46.791852272396696],[28.70969981632426,46.807318768935126],[28.744202000909247,46.81564688245456],[28.76799661096728,46.81326742144846],[28.795360412534777,46.82873391798689],[28.827483136113216,46.8001803859179],[28.760858227949882,46.75140143529731],[28.842949632650935,46.710950598198906],[28.876262086732915,46.75497062680553],[28.904815618802523,46.75497062680553],[28.933369150872224,46.793042002898815],[28.95716376093106,46.776385775858174],[28.984527562497753,46.787093350384595],[28.980958370989093,46.81921607396357],[29.017840016579818,46.83825176201021],[29.052342201164002,46.860856641565064],[29.057101123175578,46.88227179061869],[29.052342201164002,46.91677397520199],[29.06067031468423,46.92034316671109],[29.104690343292447,46.90963559218467],[29.135623336367885,46.90844586168256],[29.12729522284757,46.97269130883882],[29.141571988882376,47.00005511040667],[29.173694712461526,47.0179010679512],[29.193920131010906,47.03574702549395],[29.143951449888206,47.101182203154195],[29.107069804298277,47.07976705410145],[29.054721662169747,47.10356166416109],[29.0615956606313,47.114269238686546],[29.010437249005772,47.10832058617144],[28.979504255930333,47.11902816069865],[28.968796681404186,47.13092546572718],[28.915258808772826,47.14163304025439],[28.86647985815304,47.14877142327171],[28.83792632608343,47.16066872830103],[28.81770090753334,47.17375576383168],[28.792716566972388,47.17018657232347],[28.76892195691435,47.188032529867996],[28.735609502832283,47.20587848741066],[28.716573814785907,47.20944767892074],[28.678502438692266,47.21777579244008],[28.63448241008485,47.2308628279725],[28.566667771418686,47.22610390596128],[28.54525262236639,47.22372444495518],[28.55833965789837,47.177324955341675],[28.519078551301813,47.174945494335574],[28.481007175208973,47.168996841820466],[28.46435094816754,47.177324955341675],[28.43103849408627,47.19398118238222],[28.42271038056604,47.21063740942285],[28.406054153525318,47.22372444495518],[28.365603316425936,47.23800121098972],[28.30373733027417,47.246329324510924],[28.26566595418133,47.262985551551566],[28.231163769596435,47.29391854462753],[28.20142050702391,47.31890288518751],[28.180005357970813,47.32560062727856],[28.15264155640412,47.32084170526646],[28.14550317338672,47.292288173197385],[28.09910368377276,47.280390868168055],[28.075309073714728,47.26968329364075],[28.039617158626825,47.255406527606304],[27.994407399516582,47.23994003106779],[27.972992250463577,47.212576229501806],[27.963474406440348,47.16260754837999],[27.975371711469407,47.13286428580702],[27.936110604873654,47.112638867256486],[27.907529838848333,47.092386214751926],[27.919201972379234,47.08071408122129],[27.94418631294019,47.05572974065936],[27.97630903651934,47.070006506694874],[27.98463715003966,47.05929893216757],[27.972739845010686,47.04502216613312],[28.001293377080295,47.0390735136189],[28.045313405688418,47.02360701708038],[28.081005320776228,46.999812407022524],[28.100041008821897,46.976017796964754],[28.085764242787093,46.97482806646077],[28.097661547816067,46.94746426489479],[28.108369122343014,46.941515612379504],[28.11074858334804,46.92485938533905],[28.097661547816067,46.92366965483507]]]]}},{"type":"Feature","properties":{"kind":"district","id":"uyezd-1897-572","name":"Измаильский","provinceId":"gubernia-1897-8"},"geometry":{"type":"MultiPolygon","coordinates":[[[[29.242892992294045,45.44243768611983],[29.241641543405613,45.46433335160606],[29.221416124856326,45.47266146512726],[29.217846933347666,45.49645607518512],[29.20000097580403,45.504784188706324],[29.17144744373362,45.504784188706324],[29.167878252224966,45.52381987675297],[29.18453447926551,45.55356313932505],[29.192862592785914,45.583306401898014],[29.194052323288744,45.62613670000252],[29.185724209768424,45.64398265754704],[29.185724209768424,45.67967457263512],[29.172637174236534,45.7153664877224],[29.150032294681417,45.78080166538264],[29.134565798143697,45.79983735342928],[29.111960918587776,45.83909846002469],[29.075079272997847,45.9307077087488],[29.063181967968788,46.00566073043325],[29.041766818915782,46.054439681051974],[29.010833825840344,46.097269979158256],[29.002505712320023,46.12701324173122],[29.072699811992017,46.18887922788237],[29.004885173325853,46.225760873472645],[28.970118604185025,46.247748855730606],[28.935616419600038,46.26440508277125],[28.841627709870096,46.252507777741826],[28.692911397005794,46.233472089695184],[28.527538857100055,46.22038505416276],[28.408565806809072,46.20491855762433],[28.332423054622588,46.19896990511011],[28.28126464299706,46.160898529017715],[28.277695451488313,46.14781149348529],[28.26103922444768,46.14543203247919],[28.20750135181632,46.100222273368686],[28.178947819746625,46.09427362085358],[28.152773748682044,46.09427362085358],[28.138112384915537,46.10156587732132],[28.125025349383648,46.08728911128678],[28.11193831385176,46.07777126726346],[28.10955885284593,46.05278692670339],[28.117886966365447,46.049217735192514],[28.116697235863327,46.02899231664376],[28.105989661337183,46.01709501161443],[28.11193831385176,45.98973121004738],[28.128594540892394,45.93381387640966],[28.139302115418452,45.930244684902334],[28.142871306927198,45.90526034434058],[28.13097400189813,45.88860411729995],[28.141681576424283,45.88384519528793],[28.140491845921368,45.86480950724031],[28.126215079886563,45.85291220221285],[28.13097400189813,45.80532298209624],[28.125025349383648,45.78628729404862],[28.159527533968543,45.774389989019205],[28.159527533968543,45.744646726446234],[28.180942683020838,45.73750834342901],[28.18332214402667,45.71014454186303],[28.172614569500517,45.698247236833524],[28.18689133553532,45.63876071168848],[28.173804300003347,45.64114017269466],[28.159527533968543,45.62924286766427],[28.151199420447426,45.62091475414306],[28.125025349383648,45.61734556263494],[28.105989661337183,45.606637988107636],[28.12740481038948,45.58284337805155],[28.148819959442392,45.57213580352345],[28.16785564748806,45.56737688151321],[28.176183761009177,45.53406442743194],[28.170235108494687,45.50789035636621],[28.189270796541066,45.49004439882355],[28.232101094645564,45.4650600582618],[28.254705974201485,45.44959356172505],[28.2903978892885,45.434127065186715],[28.30586438582622,45.391296767082125],[28.3403665704112,45.35084592998194],[28.34869468393152,45.33418970294131],[28.412461101259176,45.31037760029536],[28.433876250311293,45.30680840878715],[28.485034661936915,45.30799813928935],[28.53619307356253,45.293721373254726],[28.601628251222067,45.278254876717185],[28.6325612442983,45.25683972766542],[28.696806691455812,45.252080805652426],[28.747965103081427,45.235424578611884],[28.80150297571199,45.23423484810968],[28.8443332738172,45.24137323112699],[28.84909219582886,45.25564999716144],[28.83124623828531,45.273495954705965],[28.81934893325625,45.285393259735386],[28.825297585770734,45.29848029526603],[28.858610039852003,45.29848029526603],[28.869317614378154,45.31037760029536],[28.871697075383985,45.32584409683379],[28.851471656834605,45.327033827335995],[28.843143543314284,45.330603018845096],[28.855040848343258,45.3413105933724],[28.881214919407128,45.3413105933724],[28.901440337957304,45.33536194085711],[28.912147912483363,45.32346463582778],[28.946650097067547,45.31989544431868],[28.984721473161187,45.29253164275261],[28.99661877819016,45.287772720740506],[29.01684419673954,45.29134191224872],[29.012085274727973,45.31037760029536],[29.012085274727973,45.328223557839976],[29.021603118751116,45.3377414018633],[29.045397728809952,45.3413105933724],[29.077520452388306,45.35677708990896],[29.098935601441397,45.367484664436176],[29.10845344546454,45.3781922389617],[29.127489133511006,45.391279274494124],[29.18816538915977,45.41150469304475],[29.19530377217717,45.421022537067],[29.242892992294045,45.44243768611983]]]]}},{"type":"Feature","properties":{"kind":"district","id":"uyezd-1897-573","name":"Аккерманский","provinceId":"gubernia-1897-8"},"geometry":{"type":"MultiPolygon","coordinates":[[[[30.475453793313612,46.07894350517926],[30.440889890344003,46.11397027029037],[30.414715819280225,46.147282724373326],[30.40519797525699,46.18178490895663],[30.38854174821556,46.209148710524474],[30.37069579067201,46.22818439857023],[30.33619360608791,46.24840981712076],[30.31715791804065,46.268635235669606],[30.279086541947805,46.3078963422659],[30.294553038485525,46.32574229981043],[30.29812222999427,46.34358825735309],[30.28860438597104,46.362623945400614],[30.271948158930407,46.375710980932155],[30.256481662392687,46.4006953214939],[30.243394626859995,46.43043858406696],[30.217220555796132,46.439956428090284],[30.193425945738092,46.436387236582064],[30.175579988193746,46.428059123059974],[30.186287562720693,46.41973100953966],[30.179149179702492,46.41378235702632],[30.161303222158942,46.42211047054575],[30.157734030650282,46.40783370451122],[30.132749690089334,46.41973100953966],[30.120852385060267,46.43400777557508],[30.114903732545784,46.435197506078175],[30.1160934630487,46.42330020104964],[30.09943723600726,46.42686939255786],[30.089919391984118,46.42092074004364],[30.067314512428908,46.42686939255786],[30.070883703937653,46.436387236582064],[30.05184801589119,46.442335889096285],[30.017345831306294,46.45542292462871],[30.032812327844013,46.46613049915415],[30.014966370300463,46.46850996016025],[30.02210475331787,46.47921753468657],[30.00901771778598,46.48040726518869],[30.01615610080338,46.49111483971599],[30.00306906527149,46.4923045702181],[29.994740951751083,46.50539160575043],[29.97570526370471,46.497063492229316],[29.955479845154528,46.49111483971599],[29.92216739107335,46.51015052776263],[29.89956251151743,46.519668371784974],[29.9043214335298,46.531565676814395],[29.882906284476796,46.54227325133983],[29.905511164032717,46.55298082586704],[29.88885493699128,46.56368840039346],[29.88885493699128,46.580344627434],[29.86625005743616,46.577965166427994],[29.843645177881037,46.57439597491889],[29.84483490838395,46.588672740955204],[29.816281376313455,46.59462139346854],[29.798435418769998,46.605328967995845],[29.787727844243847,46.59462139346854],[29.76512296468873,46.580344627434],[29.74846673764729,46.58986247145732],[29.731810510606657,46.59105220195944],[29.70920563105154,46.605328967995845],[29.722292666583513,46.612467351013066],[29.716344014068937,46.62079546453249],[29.735379702115402,46.62912357805273],[29.753225659658952,46.64815926610025],[29.743707815635723,46.65291818811245],[29.74608727664146,46.669574415152994],[29.73062078010374,46.669574415152994],[29.72348239708643,46.65767711012357],[29.710395361554454,46.670764145655994],[29.69611859551965,46.66243603213479],[29.68038771442528,46.67962102828916],[29.668490409396306,46.66772372325975],[29.63755741631998,46.67129291476796],[29.643506068834554,46.66177507074464],[29.618521728273606,46.65939560973854],[29.594727118215566,46.66534426225285],[29.57926062167705,46.6451188437041],[29.578070891174136,46.61537558113103],[29.567363316647985,46.60823719811381],[29.53762005407546,46.628462616663455],[29.456718379877408,46.572545283026535],[29.48646164244993,46.53923282894358],[29.3781961666851,46.44405438871125],[29.405559968251794,46.402413821108865],[29.32465829405365,46.37742948054712],[29.2937253009775,46.334599182442616],[29.280638265445525,46.29414834534421],[29.23066958432362,46.321512146910194],[29.162854945657458,46.35006567898114],[29.13311168308413,46.325081338419295],[29.11526572554058,46.315563494395974],[29.056968930897654,46.35958352300446],[29.02722566832513,46.38575759406832],[28.997482405751803,46.323891607916295],[28.970118604185025,46.247748855730606],[29.004885173325853,46.225760873472645],[29.072699811992017,46.18887922788237],[29.002505712320023,46.12701324173122],[29.010833825840344,46.097269979158256],[29.041766818915782,46.054439681051974],[29.063181967968788,46.00566073043325],[29.075079272997847,45.9307077087488],[29.111960918587776,45.83909846002469],[29.134565798143697,45.79983735342928],[29.150032294681417,45.78080166538264],[29.172637174236534,45.7153664877224],[29.185724209768424,45.67967457263512],[29.185724209768424,45.64398265754704],[29.194052323288744,45.62613670000252],[29.192862592785914,45.583306401898014],[29.18453447926551,45.55356313932505],[29.167878252224966,45.52381987675297],[29.17144744373362,45.504784188706324],[29.20000097580403,45.504784188706324],[29.217846933347666,45.49645607518512],[29.221416124856326,45.47266146512726],[29.241641543405613,45.46433335160606],[29.242892992294045,45.44243768611983],[29.273825985369484,45.43291984209651],[29.29286167341595,45.438868494611526],[29.32260493598927,45.45909391316029],[29.339261163029903,45.46028364366249],[29.353537929064707,45.44481714712575],[29.366624964596596,45.44124795561585],[29.38447092214095,45.44957606913697],[29.411834723707642,45.45314526064518],[29.448716369298452,45.45790418265817],[29.482028823379636,45.461473374166474],[29.51177208595216,45.45433499114907],[29.531997504502336,45.436489033604545],[29.55222292305163,45.421022537067],[29.578396994115494,45.421022537067],[29.603381334677245,45.41388415404889],[29.618847831214964,45.40198684902143],[29.64383217177592,45.39008954399192],[29.665247320828833,45.36986412544236],[29.687852200384043,45.34606951538264],[29.705698157927593,45.31275706130137],[29.711646810442083,45.29610083426171],[29.71521600195083,45.275875415712065],[29.730682498488548,45.284203529231405],[29.722354384968142,45.29967002577001],[29.727113306979803,45.30442894778114],[29.740200342512487,45.28896245124271],[29.74852845603281,45.30085975627204],[29.763994952570528,45.31037760029536],[29.765184683073443,45.321085174821775],[29.743769534021233,45.330603018845096],[29.75447710854729,45.33893113236621],[29.77232306609084,45.3413105933724],[29.75209764754146,45.35201816789775],[29.743769534021233,45.35201816789775],[29.755666839050207,45.37105385594439],[29.75447710854729,45.38889981348794],[29.75209764754146,45.400797118517445],[29.742579803518318,45.4174533455579],[29.749718186535723,45.438868494611526],[29.749718186535723,45.45076579963917],[29.730682498488548,45.45314526064518],[29.712836540945,45.44719660813096],[29.686662469881128,45.45195553014315],[29.681903547869467,45.461473374166474],[29.653350015799063,45.46385283517159],[29.64145271077009,45.45076579963917],[29.616468370209134,45.45671445215428],[29.61289917870039,45.46742202668149],[29.60219160417433,45.469801487685814],[29.598622412665584,45.48169879271603],[29.5926737601511,45.49002690623546],[29.60457106518016,45.50787286377999],[29.62360675322654,45.51858043830542],[29.647401363284573,45.544754509371245],[29.680713817366552,45.57092858043502],[29.73306195949509,45.60067184300799],[29.809204711681566,45.638743219100476],[29.875829619844815,45.67919405619977],[29.935316144989955,45.71845516279615],[29.962679946557444,45.73749085084279],[29.988854017621314,45.74106004235189],[30.01264862768015,45.74106004235189],[30.04001242924693,45.75057788637521],[30.08165299684852,45.777941687941194],[30.157795749035706,45.826720638560715],[30.223230926696132,45.86717147566098],[30.260112572286054,45.890966085717956],[30.28747637385284,45.91832988728491],[30.313650444917414,45.95283207187008],[30.346962898998775,45.98495479544914],[30.39693158012139,46.027785093553554],[30.437382417220768,46.05633862562352],[30.475453793313612,46.07894350517926]]]]}},{"type":"Feature","properties":{"kind":"district","id":"uyezd-1897-740","name":"Бендерский","provinceId":"gubernia-1897-8"},"geometry":{"type":"MultiPolygon","coordinates":[[[[29.68038771442528,46.67962102828916],[29.676818522916534,46.68913887231248],[29.67562879241362,46.70579509935303],[29.679197983922364,46.72364105689579],[29.654213643361416,46.75219458896663],[29.643506068834554,46.781937851538714],[29.63993687732581,46.80930165310656],[29.62447038078809,46.818819497129],[29.62447038078809,46.80811192260267],[29.618521728273606,46.80454273109446],[29.60662442324454,46.8152503056199],[29.588778465701083,46.8152503056199],[29.582829813186507,46.8259578801472],[29.56379412513933,46.8259578801472],[29.574501699665475,46.80930165310656],[29.564983855642247,46.79978380908324],[29.55070708960735,46.79740434807724],[29.541189245584206,46.779558390532706],[29.53762005407546,46.790265965059916],[29.529291940555233,46.79859407857935],[29.523343288040657,46.79383515656902],[29.525722749046487,46.779558390532706],[29.515015174520343,46.77479946852149],[29.505497330496397,46.781937851538714],[29.48646164244993,46.796214617573256],[29.475754067923788,46.82952707165621],[29.469805415409297,46.864029256239505],[29.46623622390055,46.88425467479013],[29.453149188368663,46.89496224931645],[29.449579996859917,46.91161847635709],[29.45909784088324,46.92470551188853],[29.457908110380323,46.949689852450376],[29.44244161384252,46.95801796596972],[29.431734039315657,46.9651563489888],[29.417457273280853,46.96396661848482],[29.397231854731473,46.95563850496548],[29.369868053163984,46.934223355911854],[29.348452904111774,46.936602816918835],[29.32703775505948,46.949689852450376],[29.296104761983244,46.96991527100002],[29.277069073936865,46.98776122854268],[29.27587934343395,46.997279072566],[29.287776648462923,46.9996585335721],[29.294915031480414,46.98895095904666],[29.31157125852176,46.99133042005267],[29.33774532958563,46.99252015055478],[29.348452904111774,46.99846880306998],[29.363919400649493,47.004417455583315],[29.35083236511752,47.021073682625726],[29.342504251597198,47.03654017916238],[29.35083236511752,47.03891964016839],[29.359160478637833,47.029401796145066],[29.369868053163984,47.025832604635966],[29.37105778366761,47.0460580231857],[29.3781961666851,47.06033478922113],[29.36510913115241,47.06628344173623],[29.338935060088545,47.087698590787994],[29.328227485562394,47.10673427883464],[29.30205341449853,47.10316508732563],[29.283017726451355,47.105544548332524],[29.27349988242812,47.11863158386406],[29.280638265445525,47.14004673291582],[29.246136080861426,47.15551322945434],[29.23304904532945,47.166220803979776],[29.218772279293844,47.166220803979776],[29.218772279293844,47.14837484643702],[29.20449551325904,47.14837484643702],[29.198546860744557,47.166220803979776],[29.179511172698092,47.162651612471564],[29.162854945657458,47.15908242096246],[29.1735625201836,47.12814942788738],[29.169993328674856,47.10792400933862],[29.159285754148,47.101975356823516],[29.155716562639256,47.11863158386406],[29.14619871861602,47.11982131436618],[29.143951449888206,47.101182203154195],[29.193920131010906,47.03574702549395],[29.173694712461526,47.0179010679512],[29.141571988882376,47.00005511040667],[29.12729522284757,46.97269130883882],[29.135623336367885,46.90844586168256],[29.104690343292447,46.90963559218467],[29.06067031468423,46.92034316671109],[29.052342201164002,46.91677397520199],[29.057101123175578,46.88227179061869],[29.052342201164002,46.860856641565064],[29.017840016579818,46.83825176201021],[28.980958370989093,46.81921607396357],[28.984527562497753,46.787093350384595],[28.95716376093106,46.776385775858174],[28.933369150872224,46.793042002898815],[28.904815618802523,46.75497062680553],[28.876262086732915,46.75497062680553],[28.842949632650935,46.710950598198906],[28.760858227949882,46.75140143529731],[28.827483136113216,46.8001803859179],[28.795360412534777,46.82873391798689],[28.76799661096728,46.81326742144846],[28.744202000909247,46.81564688245456],[28.70969981632426,46.807318768935126],[28.707320355318522,46.791852272396696],[28.732304695880273,46.776385775858174],[28.744202000909247,46.76210900982461],[28.710889546827175,46.7466425132861],[28.66211059620828,46.72522736423247],[28.635936525143613,46.71333005920492],[28.607382993074005,46.727606825239455],[28.576449999997763,46.73117601674767],[28.574070538991933,46.75140143529731],[28.574070538991933,46.76924739284184],[28.53480943239618,46.77876523686516],[28.47056398523867,46.77876523686516],[28.439630992162435,46.77281658435005],[28.41464665160148,46.76567820133274],[28.428923417636284,46.71451978970703],[28.4229747651218,46.712140328701025],[28.384903389028956,46.73117601674767],[28.35278066544989,46.75021170479431],[28.334934707906342,46.77281658435005],[28.293294140303956,46.796611194407916],[28.258791955719772,46.807318768935126],[28.245704920187883,46.82040580446568],[28.200495161076844,46.8346825705012],[28.162423784983204,46.862046372068065],[28.14338809693674,46.889410173635916],[28.11483456486713,46.90963559218467],[28.097661547816067,46.92366965483507],[28.094092356307407,46.89987504477898],[28.105989661337183,46.88797773974779],[28.117886966365447,46.88797773974779],[28.120266427371988,46.88202908723446],[28.11074858334804,46.87013178220513],[28.126215079886563,46.84633717214736],[28.114317774856787,46.84038851963207],[28.132163732401047,46.829680945104855],[28.122645888377818,46.81659390957243],[28.151199420447426,46.805886335047],[28.16666591698594,46.78804037750247],[28.17499403050546,46.759486845433486],[28.170235108494687,46.753538192918285],[28.173804300003347,46.74521007939797],[28.185701605032406,46.741640887890824],[28.19997837106721,46.73093331336352],[28.2059270235817,46.69643112877836],[28.22615244213108,46.685723554252924],[28.236860016657936,46.66430840519929],[28.227342172633996,46.65717002218385],[28.23923947766297,46.63337541212421],[28.232101094645564,46.60363214955213],[28.236860016657936,46.57150942597307],[28.22615244213108,46.554853198932435],[28.224962711628166,46.53819697189198],[28.214255137102107,46.523920205855575],[28.22615244213108,46.50012559579771],[28.24637786068037,46.484659099260085],[28.255895704703605,46.466813141716536],[28.24637786068037,46.46324395020832],[28.257085435207316,46.444208262159904],[28.249947052189917,46.43231095713146],[28.242808669171716,46.43112122662926],[28.242808669171716,46.4144649995888],[28.247567591184087,46.396619042044186],[28.235670286154225,46.401377964057176],[28.22139352011942,46.41327526908482],[28.220203789616505,46.396619042044186],[28.201168101570126,46.387101198020865],[28.20830648458753,46.381152545505756],[28.194029718552727,46.364496318467076],[28.198788640564388,46.35140928293359],[28.191650257546897,46.33951197790337],[28.20235783207304,46.33118386438403],[28.192839988049812,46.315717367847284],[28.171424838996806,46.293112488290745],[28.160717264470655,46.300250871307966],[28.144061037430113,46.2681281477289],[28.14644049843585,46.251471920690136],[28.133353462903962,46.251471920690136],[28.129784271395216,46.234815693647725],[28.123835618880733,46.2300567716366],[28.121456157874903,46.207451892080854],[28.132163732401047,46.20388270057264],[28.132163732401047,46.19793404805753],[28.142871306927198,46.19793404805753],[28.15000968994451,46.18960593453624],[28.148819959442392,46.16581132447847],[28.142871306927198,46.15629348045515],[28.138112384915537,46.10156587732132],[28.152773748682044,46.09427362085358],[28.178947819746625,46.09427362085358],[28.20750135181632,46.100222273368686],[28.26103922444768,46.14543203247919],[28.277695451488313,46.14781149348529],[28.28126464299706,46.160898529017715],[28.332423054622588,46.19896990511011],[28.408565806809072,46.20491855762433],[28.527538857100055,46.22038505416276],[28.692911397005794,46.233472089695184],[28.841627709870096,46.252507777741826],[28.935616419600038,46.26440508277125],[28.970118604185025,46.247748855730606],[28.997482405751803,46.323891607916295],[29.02722566832513,46.38575759406832],[29.056968930897654,46.35958352300446],[29.11526572554058,46.315563494395974],[29.13311168308413,46.325081338419295],[29.162854945657458,46.35006567898114],[29.23066958432362,46.321512146910194],[29.280638265445525,46.29414834534421],[29.2937253009775,46.334599182442616],[29.32465829405365,46.37742948054712],[29.405559968251794,46.402413821108865],[29.3781961666851,46.44405438871125],[29.48646164244993,46.53923282894358],[29.456718379877408,46.572545283026535],[29.53762005407546,46.628462616663455],[29.567363316647985,46.60823719811381],[29.578070891174136,46.61537558113103],[29.57926062167705,46.6451188437041],[29.594727118215566,46.66534426225285],[29.618521728273606,46.65939560973854],[29.643506068834554,46.66177507074464],[29.63755741631998,46.67129291476796],[29.668490409396306,46.66772372325975],[29.68038771442528,46.67962102828916]]]]}}]}
