{"type":"FeatureCollection","features":[{"type":"Feature","properties":{"kind":"province","id":"gubernia-1897-39","name":"Тавастгусская губерния"},"geometry":{"type":"MultiPolygon","coordinates":[[[[26.06842180090682,61.09059005337707],[26.019642850287156,61.07988247885078],[25.953017942124262,61.05965706030202],[25.920895218545375,61.07631328734168],[25.8852033034581,61.09891816689654],[25.94587955910686,61.12866142947039],[25.950638481118432,61.145317656511914],[25.929223332065337,61.1798198410961],[25.94944875061516,61.221460408697595],[25.928033601562777,61.25596259328267],[25.89710060848716,61.26429070680298],[25.8328551613293,61.301172352392285],[25.769799444674707,61.35471022502498],[25.686518309471,61.32972588446225],[25.609185826781516,61.33567453697745],[25.566355528676837,61.32020804043893],[25.540181457611993,61.31782857943381],[25.537801996606163,61.34043345898867],[25.52114576956544,61.372556182568616],[25.517576578057138,61.40110971463858],[25.48188466296986,61.42966324670854],[25.435485173355993,61.48082165833239],[25.444870825101123,61.51175465140933],[25.47818327918257,61.56410279353716],[25.494839506223293,61.61883039667188],[25.49008058421172,61.691403957348456],[25.503167619744055,61.72233695042452],[25.53172115181384,61.753269943501465],[25.560274683883716,61.77468509255412],[25.570982258410307,61.79610024160597],[25.57455144991861,61.82346404317195],[25.610243365005886,61.846068922728584],[25.67686827316958,61.855586766751905],[25.713749918760215,61.8532073057459],[25.7387342593209,61.84131000071737],[25.772046713402347,61.83298188719705],[25.817256472513655,61.86867380228344],[25.880312189168336,61.88295056831886],[25.94336790582284,61.910314369884844],[26.00523389197416,61.94719601547602],[26.070669069634583,61.9852673915693],[26.132535055785905,61.97218035603785],[26.2174594399792,62.01486489227729],[26.15321399282134,62.0327108498204],[26.098486389687064,62.03509031082649],[26.061604744097316,62.04817734635803],[25.96880576486958,62.06007465138735],[25.899801395700234,62.10052548848674],[25.795105111443966,62.160012013632674],[25.708254784730894,62.148114708603345],[25.67732179165572,62.169529857655995],[25.616645536006782,62.160012013632674],[25.584522812427984,62.21117042525838],[25.51551844325864,62.22306773028593],[25.428668116546188,62.23853422682534],[25.34300752033594,62.22306773028593],[25.34300752033594,62.17190931866209],[25.27995180368197,62.14454551709513],[25.070559235168815,62.165960666146006],[25.030024910409804,62.1961213831937],[24.95269242772082,62.20088030520492],[24.92413889565023,62.17708569514616],[24.84799614346406,62.12592728352138],[24.878929136539682,62.065251027872364],[24.87179075352219,62.05692291435207],[24.769473930271204,62.03550776530028],[24.720694979652365,62.00219531121911],[24.686192795067598,61.99029800618882],[24.66477764601518,62.00457477222426],[24.619567886903894,62.02480019077393],[24.57673758879912,62.041456417815425],[24.544614865220183,62.050974261838746],[24.530338099185258,62.075958602398714],[24.50773321963038,62.07952779390871],[24.430400736940896,62.09856348195535],[24.373293672800457,62.1009429429605],[24.34355041022809,62.108081325978674],[24.32332499167825,62.14496297156802],[24.276925502064387,62.19731111369583],[24.178177870322543,62.21753653224641],[24.091327543609793,62.23895168129911],[24.017564252429395,62.21991599325247],[23.97711341532971,62.21991599325247],[23.962836649294786,62.20920841872612],[23.96164691879227,62.18541380866827],[23.960457188288956,62.16637812062163],[23.953318805271522,62.150911624083164],[23.924765273201672,62.1485321630762],[23.923575542699155,62.14258351056196],[23.91405769867589,62.137824588551666],[23.897401471634396,62.15329108508831],[23.84148413799801,62.162808929111634],[23.836725215986405,62.1485321630762],[23.858140365038764,62.140204049556814],[23.868847939564546,62.11284024798988],[23.805792222909986,62.10213267346353],[23.80222303140164,62.07952779390871],[23.790325726372544,62.06882021938236],[23.734408392735418,62.073579141393566],[23.688008903121556,62.05930237535904],[23.654696449040102,62.06644075837539],[23.61900453395282,62.084286715919006],[23.546430973274937,62.11640943949806],[23.450062802538866,62.150911624083164],[23.385190014878315,62.153242100723205],[23.3542570218027,62.12944749066535],[23.3542570218027,62.11873991613814],[23.334031603253674,62.11873991613814],[23.288821844142277,62.0973247670854],[23.294770496657208,62.079478809541754],[23.231714780002704,62.04973554696879],[23.217438013967723,62.03545878093425],[23.213868822458622,62.01404363188249],[23.269786156095723,61.97359279478222],[23.393518128399165,61.9260035746665],[23.475609533100222,61.96407495075979],[23.56245985981303,61.920054922151394],[23.594582583392004,61.921244652654394],[23.608859349426897,61.89269112058443],[23.610049079929368,61.79513321934522],[23.631464228981752,61.78204618381368],[23.637412881496683,61.76063103476103],[23.6159977324443,61.761820765264034],[23.601720966409406,61.74992346023559],[23.57673662584792,61.73088777218895],[23.52438848371992,61.710662353639215],[23.482747916117713,61.6606936725166],[23.491076029638474,61.640468253966866],[23.480368455111883,61.6190531049151],[23.486317107626814,61.60001741686846],[23.449435462036266,61.561946040775176],[23.41374354694899,61.55361792725397],[23.388759206387505,61.525064395184],[23.329272681242013,61.53577196971033],[23.31618564570959,61.52744385618912],[23.33931929437703,61.485142327196584],[23.358354982424473,61.46372717814394],[23.307196570798943,61.43993256808697],[23.29054034375822,61.420896880040324],[23.29291980476396,61.40186119199368],[23.250089506658483,61.337615744835645],[23.297678726775622,61.30549302125658],[23.28578142174656,61.244816765608434],[23.260797081185075,61.168674013421864],[23.31711099165666,61.16272536090676],[23.344474793223085,61.1306026373277],[23.302834225621766,61.100859374755615],[23.255245005504538,61.104428566263735],[23.238588778463814,61.06516745966745],[23.27666015455692,61.0532701546399],[23.295695842603475,61.036613927598374],[23.2600039275162,61.01519877854661],[23.20884551589067,61.0033014735163],[23.252865544498707,60.943814948370374],[23.301644495118406,60.940245756862154],[23.282608807071853,60.90693330278009],[23.251675813996236,60.90693330278009],[23.309972608639168,60.85101596914414],[23.2600039275162,60.83673920310774],[23.22074282092062,60.80937540154078],[23.254055275002067,60.785580791483014],[23.192189288849946,60.75345806790483],[23.16125629577433,60.76297591192815],[23.155307643260198,60.76178618142515],[23.200517402370796,60.699721906855345],[23.26396969585978,60.62357915466966],[23.242157969973004,60.59443075734824],[23.232640125949683,60.58729237433004],[23.251349156577167,60.58945347910322],[23.297748646190236,60.56684859954659],[23.348907057815765,60.543053989488726],[23.395306547429634,60.540674528483606],[23.439326576037672,60.547812911499946],[23.497623370680603,60.59183294010843],[23.52498717224712,60.59183294010843],[23.516659058727157,60.55733075552327],[23.514279597721327,60.534725875968505],[23.497623370680603,60.53591560647062],[23.497623370680603,60.52044910993396],[23.513089867218056,60.50974153540666],[23.58804288890171,60.50260315239032],[23.57971477538175,60.48951611685702],[23.616596420971586,60.47880854233069],[23.67965213762609,60.47167015931436],[23.734379740760684,60.47642908132544],[23.777085716470406,60.48312083940341],[23.833003050106797,60.499777066444935],[23.811587901054413,60.5247614070058],[23.874643617709005,60.55331493907576],[23.918663646317043,60.59257604567205],[23.873453887206534,60.60566308120359],[23.872264156703174,60.61993984723901],[23.885351192235596,60.63778580478167],[23.90319714977879,60.64135499629166],[23.95197610039849,60.63897553528565],[24.01265235604734,60.62350903874713],[24.050723732140447,60.62231930824413],[24.107698604002717,60.627342614811816],[24.183841356188843,60.622583692801484],[24.210015427252888,60.60116854374875],[24.236189498317643,60.58689177771332],[24.249276533849265,60.566666359163676],[24.28139925742824,60.57142528117578],[24.27783006591914,60.58570204721032],[24.33374739955624,60.6166350402854],[24.38133661967338,60.59640962173664],[24.412269612748997,60.58094312519822],[24.38014688917011,60.57142528117578],[24.402751768725764,60.557148515140355],[24.43487449230394,60.54049228809883],[24.495550747952702,60.52978471357251],[24.54313996806984,60.547630671117034],[24.576452422151288,60.582132855702106],[24.565744847624785,60.60473773525696],[24.547898890081502,60.61425557928028],[24.562175656116395,60.627342614811816],[24.571693500139627,60.642809111350246],[24.597867571203672,60.6654139909051],[24.654974635343333,60.66898318241509],[24.73825577054775,60.65589614688178],[24.84414178530711,60.642809111350246],[24.89411046642928,60.60473773525696],[24.944079147552248,60.567856089665796],[24.999996481189438,60.51312848653285],[25.00951432521267,60.51074902552587],[25.019032169235903,60.57023555067189],[25.038067857282456,60.59997881324486],[25.076139233375564,60.621393962298484],[25.10588249594871,60.640429650345126],[25.074949502873093,60.69753671448407],[25.11540033997203,60.71895186353593],[25.10231330443961,60.73084916856624],[25.05353435381991,60.71895186353593],[25.036878126779186,60.73322862957136],[25.082087885890584,60.75702323962921],[25.132056567012665,60.77130000566552],[25.095174921422206,60.80818165125581],[25.13567308662116,60.812193115693766],[25.14043200863282,60.820521229214975],[25.148760122152783,60.82528015122716],[25.159467696679375,60.82290069022018],[25.172554732211797,60.84193637826682],[25.195159611766652,60.84193637826682],[25.18207257623503,60.824090420724076],[25.197539072772482,60.82646988173017],[25.211815838807464,60.80624446318052],[25.23798990987142,60.788398505635996],[25.273681824959496,60.77293200909934],[25.279630477473628,60.736050363507196],[25.39265487525039,60.74437847702938],[25.436674903858428,60.777690931110556],[25.460469513916642,60.790777966642004],[25.45095166989341,60.812193115693766],[25.359342421168943,60.851454222290144],[25.378378109215497,60.87167964083979],[25.423587868326806,60.85978233581037],[25.467607896934133,60.88119748486311],[25.50448954252468,60.874059101846775],[25.523525230571234,60.8835769458701],[25.60680636577565,60.87167964083979],[25.625842053822204,60.8835769458701],[25.61037555728404,60.91688939995127],[25.59847825225489,60.94544293202124],[25.677000465447733,60.95496077604456],[25.70317453651169,60.937114818500035],[25.736486990593225,60.93949427950604],[25.723399955061602,60.92164832196338],[25.746004834616457,60.90975101693307],[25.753143217633948,60.90023317290975],[25.780507019201174,60.90856128643007],[25.788835132721225,60.896663981401545],[25.782886480207004,60.88119748486311],[25.810250281774408,60.878818023857015],[25.880444381446402,60.88238721536709],[25.948259020112566,60.876438562851895],[25.950638481118396,60.89785371190463],[25.96848443866168,60.8835769458701],[25.994658509725724,60.885956406875216],[26.013694197773077,60.90261263391674],[26.060093687386146,60.896663981401545],[26.07318072291848,60.876438562851895],[26.093406141468392,60.853833683297125],[26.119580212532348,60.87524883234978],[26.117200751526518,60.89190505938944],[26.150513205607965,60.894284520396425],[26.188584581701072,60.91807913045339],[26.098165063479964,60.92402778296939],[26.07080126191265,60.93235589648971],[26.07556018392431,60.970427272582995],[26.099354793982435,60.98232457761241],[26.119580212532348,60.97280673358909],[26.13385697856724,60.99065269113264],[26.155272127619625,61.043000833260464],[26.105303446497455,61.07631328734164],[26.06842180090682,61.09059005337707]]]]}},{"type":"Feature","properties":{"kind":"district","id":"uyezd-1897-14","name":"Таммелаский","provinceId":"gubernia-1897-39"},"geometry":{"type":"MultiPolygon","coordinates":[[[[23.232640125949683,60.58729237433004],[23.251349156577167,60.58945347910322],[23.297748646190236,60.56684859954659],[23.348907057815765,60.543053989488726],[23.395306547429634,60.540674528483606],[23.439326576037672,60.547812911499946],[23.497623370680603,60.59183294010843],[23.52498717224712,60.59183294010843],[23.516659058727157,60.55733075552327],[23.514279597721327,60.534725875968505],[23.497623370680603,60.53591560647062],[23.497623370680603,60.52044910993396],[23.513089867218056,60.50974153540666],[23.58804288890171,60.50260315239032],[23.57971477538175,60.48951611685702],[23.616596420971586,60.47880854233069],[23.67965213762609,60.47167015931436],[23.73437974076072,60.47642908132548],[23.77708571647044,60.483120839403455],[23.833003050106832,60.49977706644498],[23.81158790105445,60.52476140700584],[23.87464361770904,60.553314939075804],[23.91866364631708,60.59257604567209],[23.87345388720657,60.60566308120362],[23.87226415670321,60.61993984723905],[23.885351192235632,60.637785804781714],[23.903197149778826,60.641354996291696],[23.951976100398525,60.638975535285695],[24.012652356047376,60.62350903874717],[24.050723732140483,60.62231930824417],[24.047154540632093,60.70560044344805],[24.045964810128822,60.75199993306157],[24.049534001637923,60.776984273624294],[24.053103193146224,60.80077888368126],[24.03882642711133,60.83409133776422],[24.007893434035715,60.854316756313864],[23.98290909347414,60.89833678492049],[23.985288554479972,60.91261355095502],[24.04120588811716,60.938787622019866],[24.09355403024596,60.97566926761006],[24.1304356758358,61.016120104709444],[24.18516327897034,61.03872498426429],[24.205388697519453,61.05300175029972],[24.23632169059587,61.077986090860584],[24.2387011516017,61.11367800594875],[24.23394222959004,61.16483641757348],[24.218475733051875,61.20528725467375],[24.19111193148447,61.22908186473161],[24.12351932552697,61.27677654514346],[24.10716983489017,61.279579314967165],[24.0607703452763,61.30456365552705],[23.997714628621708,61.32835826558491],[23.887069691850776,61.271251201445956],[23.822824244693624,61.2367490168608],[23.768096641558994,61.215333867809036],[23.710989577419333,61.19034952724817],[23.687194967361208,61.18202141372785],[23.656261974285503,61.178452222217864],[23.572980839081087,61.196298179762394],[23.54323757650794,61.203436562779615],[23.502786739409004,61.202246832277496],[23.4433002142636,61.19034952724817],[23.414746682192927,61.187970066241185],[23.37667530609982,61.193918718756294],[23.32313743346855,61.18915979674419],[23.260797081185075,61.168674013421864],[23.31711099165666,61.16272536090676],[23.344474793223085,61.1306026373277],[23.302834225621766,61.100859374755615],[23.255245005504538,61.104428566263735],[23.238588778463814,61.06516745966745],[23.27666015455692,61.0532701546399],[23.295695842603475,61.036613927598374],[23.2600039275162,61.01519877854661],[23.20884551589067,61.0033014735163],[23.252865544498707,60.943814948370374],[23.301644495118406,60.940245756862154],[23.282608807071853,60.90693330278009],[23.251675813996236,60.90693330278009],[23.309972608639168,60.85101596914414],[23.2600039275162,60.83673920310774],[23.22074282092062,60.80937540154078],[23.254055275002067,60.785580791483014],[23.192189288849946,60.75345806790483],[23.16125629577433,60.76297591192815],[23.155307643260198,60.76178618142515],[23.200517402370796,60.699721906855345],[23.26396969585978,60.62357915466966],[23.242157969973004,60.59443075734824],[23.232640125949683,60.58729237433004]]]]}},{"type":"Feature","properties":{"kind":"district","id":"uyezd-1897-15","name":"Биркалаский","provinceId":"gubernia-1897-39"},"geometry":{"type":"MultiPolygon","coordinates":[[[[24.460519794256147,61.30218419452193],[24.42482787916887,61.30575338603014],[24.430776531683,61.32835826558491],[24.446243028221254,61.36761937218128],[24.542611198957292,61.39379344324604],[24.546180390465594,61.41163940078968],[24.59376961058282,61.421157244813],[24.622323142652608,61.43424428034453],[24.616374490137677,61.45446969889418],[24.602097724102784,61.46636700392449],[24.440294375706323,61.46874646492961],[24.391515425086624,61.47945403945593],[24.309424020385478,61.49373080549047],[24.286819140830623,61.52942272057864],[24.31775213390624,61.53775083409895],[24.351150721502407,61.537081168689866],[24.285715543841984,61.577532005789166],[24.20719333064994,61.62274176490065],[24.116773812428033,61.62393149540365],[24.032302946721146,61.62274176490065],[23.94664235051081,61.58348065830436],[23.79792603764677,61.57991146679437],[23.718214093951456,61.62631095640877],[23.68371190936674,61.635828800432094],[23.62898430623291,61.644156913952415],[23.596861582653933,61.66200287149694],[23.594482121648102,61.6917461340699],[23.595671852150662,61.715540744126876],[23.63493295874704,61.7321969711684],[23.637412881496683,61.76063103476103],[23.6159977324443,61.761820765264034],[23.601720966409406,61.74992346023559],[23.57673662584792,61.73088777218895],[23.52438848371992,61.710662353639215],[23.482747916117713,61.6606936725166],[23.491076029638474,61.640468253966866],[23.480368455111883,61.6190531049151],[23.486317107626814,61.60001741686846],[23.449435462036266,61.561946040775176],[23.41374354694899,61.55361792725397],[23.388759206387505,61.525064395184],[23.329272681242013,61.53577196971033],[23.31618564570959,61.52744385618912],[23.33931929437703,61.485142327196584],[23.358354982424473,61.46372717814394],[23.307196570798943,61.43993256808697],[23.29054034375822,61.420896880040324],[23.29291980476396,61.40186119199368],[23.250089506658483,61.337615744835645],[23.297678726775622,61.30549302125658],[23.28578142174656,61.244816765608434],[23.260797081185075,61.168674013421864],[23.32313743346855,61.18915979674419],[23.37667530609982,61.193918718756294],[23.414746682192927,61.187970066241185],[23.4433002142636,61.19034952724817],[23.502786739409004,61.202246832277496],[23.54323757650794,61.203436562779615],[23.572980839081087,61.196298179762394],[23.656261974285503,61.178452222217864],[23.687194967361208,61.18202141372785],[23.710989577419333,61.19034952724817],[23.768096641558994,61.215333867809036],[23.822824244693624,61.2367490168608],[23.887069691850776,61.271251201445956],[23.997714628621708,61.32835826558491],[24.0607703452763,61.30456365552705],[24.10716983489017,61.279579314967165],[24.12351932552697,61.27677654514346],[24.190450970094584,61.26530254893076],[24.236850459707654,61.252215513399314],[24.254696417251736,61.2367490168608],[24.32726997792956,61.258164165913534],[24.386756503074963,61.258164165913534],[24.47360682978777,61.278389584464065],[24.460519794256147,61.30218419452193]]]]}},{"type":"Feature","properties":{"kind":"district","id":"uyezd-1897-16","name":"Гаугоский","provinceId":"gubernia-1897-39"},"geometry":{"type":"MultiPolygon","coordinates":[[[[24.12351932552697,61.27677654514346],[24.19111193148447,61.22908186473161],[24.218475733051875,61.20528725467375],[24.23394222959004,61.16483641757348],[24.2387011516017,61.11367800594875],[24.23632169059587,61.077986090860584],[24.205388697519453,61.05300175029972],[24.18516327897034,61.03872498426429],[24.1304356758358,61.016120104709444],[24.09355403024596,60.97566926761006],[24.04120588811716,60.938787622019866],[23.985288554479972,60.91261355095502],[23.98290909347414,60.89833678492049],[24.007893434035715,60.854316756313864],[24.03882642711133,60.83409133776422],[24.053103193146224,60.80077888368126],[24.049534001637923,60.776984273624294],[24.045964810128822,60.75199993306157],[24.047154540632093,60.70560044344805],[24.050723732140483,60.62231930824417],[24.107698604002753,60.62734261481185],[24.18384135618888,60.62258369280153],[24.210015427252923,60.601168543748784],[24.236189498317678,60.58689177771336],[24.2492765338493,60.56666635916372],[24.281399257428276,60.57142528117582],[24.277830065919176,60.58570204721036],[24.333747399556277,60.616635040285445],[24.381336619673416,60.59640962173668],[24.412269612749032,60.58094312519825],[24.380146889170145,60.57142528117582],[24.4027517687258,60.5571485151404],[24.434874492303976,60.540492288098875],[24.495550747952738,60.529784713572546],[24.543139968069877,60.547630671117076],[24.576452422151323,60.58213285570214],[24.56574484762482,60.604737735257004],[24.547898890081537,60.614255579280325],[24.56217565611643,60.62734261481185],[24.571693500139663,60.64280911135029],[24.597867571203707,60.66541399090514],[24.65497463534337,60.66898318241513],[24.738255770547784,60.655896146881815],[24.844141785307144,60.64280911135029],[24.894110466429314,60.604737735257004],[24.944079147552284,60.56785608966583],[24.999996481189473,60.51312848653289],[25.009514325212706,60.510749025525904],[25.01903216923594,60.570235550671924],[25.038067857282492,60.599978813244896],[25.0761392333756,60.62139396229853],[25.105882495948745,60.64042965034517],[25.074949502873128,60.697536714484116],[25.115400339972066,60.71895186353596],[25.102313304439644,60.73084916856627],[25.053534353819945,60.71895186353596],[25.03687812677922,60.73322862957139],[25.08208788589062,60.75702323962925],[25.1320565670127,60.771300005665566],[25.09517492142224,60.80818165125585],[25.072570041867298,60.82364814779339],[25.049965162311555,60.86647844589878],[24.998806750686114,60.908119013500276],[24.98215052364539,60.93191362355813],[24.960735374593007,60.94975958110169],[24.87745423938859,60.97593365216653],[24.82510609726059,61.01757421976892],[24.851280168324635,61.04255856033066],[24.850090437822075,61.068732631393644],[24.896489927435145,61.1020450854758],[24.860798012347868,61.163911071626856],[24.834623941283823,61.212690022246555],[24.783465529658383,61.26146897286617],[24.776734803666805,61.26710080481869],[24.72516873501545,61.310247923485775],[24.6573540963492,61.28050466091281],[24.61095460673613,61.294781426947345],[24.55860646460733,61.3257144200243],[24.51220697499346,61.33999118605883],[24.489602095438517,61.33880145555574],[24.488412364935247,61.3257144200243],[24.46461775487712,61.33523226404664],[24.45747937185963,61.32452468952032],[24.476515059906184,61.31857603700698],[24.495550747952738,61.307868462480656],[24.460519794256147,61.30218419452193],[24.47360682978777,61.278389584464065],[24.386756503074963,61.258164165913534],[24.32726997792956,61.258164165913534],[24.254696417251736,61.2367490168608],[24.236850459707654,61.252215513399314],[24.190450970094584,61.26530254893076],[24.12351932552697,61.27677654514346]]]]}},{"type":"Feature","properties":{"kind":"district","id":"uyezd-1897-17","name":"Ямсяский","provinceId":"gubernia-1897-39"},"geometry":{"type":"MultiPolygon","coordinates":[[[[24.57673758879912,62.041456417815425],[24.543887062974484,62.02725013589136],[24.5224719139221,62.00702471734162],[24.503436225875546,61.97609172426654],[24.603373588120775,61.94515873119057],[24.615270893149837,61.923743582136936],[24.57957897806176,61.914225738113615],[24.57006113403853,61.89637978057087],[24.605753049126605,61.873774901016105],[24.667619035277838,61.85473921296946],[24.6307373896872,61.82856514190462],[24.614081162646567,61.80833972335408],[24.597424935605755,61.77383753876981],[24.587907091582522,61.74885319820983],[24.57006113403853,61.72862777966019],[24.57363032554754,61.6893666730639],[24.546266523980314,61.66676179350726],[24.51652326140797,61.63939799194031],[24.490349190343213,61.61917257339066],[24.453467544753376,61.602516346351],[24.424914012682702,61.57396281428104],[24.408257785642068,61.5489784737192],[24.351150721502407,61.537081168689866],[24.31775213390624,61.53775083409895],[24.286819140830623,61.52942272057864],[24.309424020385478,61.49373080549047],[24.391515425086624,61.47945403945593],[24.440294375706323,61.46874646492961],[24.602097724102784,61.46636700392449],[24.616374490137677,61.45446969889418],[24.622323142652608,61.43424428034453],[24.59376961058282,61.421157244813],[24.546180390465594,61.41163940078968],[24.542611198957292,61.39379344324604],[24.446243028221254,61.36761937218128],[24.430776531683,61.32835826558491],[24.42482787916887,61.30575338603014],[24.460519794256147,61.30218419452193],[24.495550747952738,61.307868462480656],[24.476515059906184,61.31857603700698],[24.45747937185963,61.32452468952032],[24.46461775487712,61.33523226404664],[24.488412364935247,61.3257144200243],[24.489602095438517,61.33880145555574],[24.51220697499346,61.33999118605883],[24.55860646460733,61.3257144200243],[24.61095460673613,61.294781426947345],[24.6573540963492,61.28050466091281],[24.72516873501545,61.310247923485775],[24.776734803666805,61.26710080481869],[24.827532886365727,61.26785989831111],[24.84656857441237,61.28094693384264],[24.882260489500357,61.28332639484874],[24.873932375979596,61.296413430382046],[24.920331865593464,61.31663884893081],[24.912003752072703,61.33805399798346],[24.89177833352368,61.34162318949167],[24.90605509955857,61.38088429608885],[24.89653725553525,61.3987302536316],[24.860845340447263,61.39397133162038],[24.818015042342495,61.41419675017003],[24.818015042342495,61.44869893475421],[24.833481538880747,61.468924353304836],[24.883450220002917,61.47249354481305],[24.909624291066873,61.46059623978452],[24.95126485866917,61.44988866525819],[24.983387582248056,61.446319473748204],[25.019079497335422,61.445129743246085],[25.05358168192014,61.454647587269406],[25.10949901555724,61.47249354481305],[25.182072576235065,61.47368327531605],[25.245128292888946,61.46297570078973],[25.31413266205847,61.453457856766406],[25.342686194128255,61.48201138883637],[25.386706222736294,61.489149771854485],[25.435485173355993,61.48082165833239],[25.444870825101123,61.51175465140933],[25.47818327918257,61.56410279353716],[25.494839506223293,61.61883039667188],[25.49008058421172,61.691403957348456],[25.503167619744055,61.72233695042452],[25.53172115181384,61.753269943501465],[25.560274683883716,61.77468509255412],[25.570982258410307,61.79610024160597],[25.57455144991861,61.82346404317195],[25.610243365005886,61.846068922728584],[25.67686827316958,61.855586766751905],[25.713749918760215,61.8532073057459],[25.7387342593209,61.84131000071737],[25.772046713402347,61.83298188719705],[25.817256472513655,61.86867380228344],[25.880312189168336,61.88295056831886],[25.94336790582284,61.910314369884844],[26.00523389197416,61.94719601547602],[26.070669069634583,61.9852673915693],[26.132535055785905,61.97218035603785],[26.217459439979024,62.01486489227685],[26.15321399282134,62.0327108498204],[26.098486389687064,62.03509031082649],[26.061604744097316,62.04817734635803],[25.96880576486958,62.06007465138735],[25.899801395700234,62.10052548848674],[25.795105111443966,62.160012013632674],[25.708254784730894,62.148114708603345],[25.67732179165572,62.169529857655995],[25.616645536006782,62.160012013632674],[25.584522812427984,62.21117042525838],[25.51551844325864,62.22306773028593],[25.428668116546188,62.23853422682534],[25.34300752033594,62.22306773028593],[25.34300752033594,62.17190931866209],[25.27995180368197,62.14454551709513],[25.070559235168815,62.165960666146006],[25.030024910409566,62.1961213831928],[24.95269242772082,62.20088030520492],[24.92413889565023,62.17708569514616],[24.84799614346406,62.12592728352138],[24.878929136539682,62.065251027872364],[24.87179075352219,62.05692291435207],[24.769473930271204,62.03550776530028],[24.720694979652365,62.00219531121911],[24.686192795067598,61.99029800618882],[24.66477764601518,62.00457477222426],[24.619567886903894,62.02480019077393],[24.57673758879912,62.041456417815425]]]]}},{"type":"Feature","properties":{"kind":"district","id":"uyezd-1897-655","name":"Руовесиский","provinceId":"gubernia-1897-39"},"geometry":{"type":"MultiPolygon","coordinates":[[[[23.450062802538866,62.150911624083164],[23.385190014878315,62.153242100723205],[23.3542570218027,62.12944749066535],[23.3542570218027,62.11873991613814],[23.334031603253674,62.11873991613814],[23.288821844142277,62.0973247670854],[23.294770496657208,62.079478809541754],[23.231714780002704,62.04973554696879],[23.217438013967723,62.03545878093425],[23.213868822458622,62.01404363188249],[23.269786156095723,61.97359279478222],[23.393518128399165,61.9260035746665],[23.475609533100222,61.96407495075979],[23.56245985981303,61.920054922151394],[23.594582583392004,61.921244652654394],[23.608859349426897,61.89269112058443],[23.610049079929368,61.79513321934522],[23.631464228981752,61.78204618381368],[23.637412881496683,61.76063103476103],[23.63493295874704,61.7321969711684],[23.595671852150662,61.715540744126876],[23.594482121648102,61.6917461340699],[23.596861582653933,61.66200287149694],[23.62898430623291,61.644156913952415],[23.68371190936674,61.635828800432094],[23.718214093951456,61.62631095640877],[23.79792603764677,61.57991146679437],[23.94664235051081,61.58348065830436],[24.032302946721146,61.62274176490065],[24.116773812428033,61.62393149540365],[24.20719333064994,61.62274176490065],[24.285715543841984,61.577532005789166],[24.351150721502407,61.537081168689866],[24.408257785642068,61.5489784737192],[24.424914012682702,61.57396281428104],[24.453467544753376,61.602516346351],[24.490349190343213,61.61917257339066],[24.51652326140797,61.63939799194031],[24.546266523980314,61.66676179350726],[24.57363032554754,61.6893666730639],[24.57006113403853,61.72862777966019],[24.587907091582522,61.74885319820983],[24.597424935605755,61.77383753876981],[24.614081162646567,61.80833972335408],[24.6307373896872,61.82856514190462],[24.667619035277838,61.85473921296946],[24.605753049126605,61.873774901016105],[24.57006113403853,61.89637978057087],[24.57957897806176,61.914225738113615],[24.615270893149837,61.923743582136936],[24.603373588120775,61.94515873119057],[24.503436225875546,61.97609172426654],[24.5224719139221,62.00702471734162],[24.543887062974484,62.02725013589136],[24.57673758879912,62.041456417815425],[24.544614865220183,62.050974261838746],[24.530338099185258,62.075958602398714],[24.50773321963038,62.07952779390871],[24.430400736940896,62.09856348195535],[24.373293672800457,62.1009429429605],[24.34355041022809,62.108081325978674],[24.32332499167825,62.14496297156802],[24.276925502064387,62.19731111369583],[24.178177870322543,62.21753653224641],[24.091327543609793,62.23895168129911],[24.017564252429395,62.21991599325247],[23.97711341532971,62.21991599325247],[23.962836649294786,62.20920841872612],[23.96164691879227,62.18541380866827],[23.960457188288956,62.16637812062163],[23.953318805271522,62.150911624083164],[23.924765273201672,62.1485321630762],[23.923575542699155,62.14258351056196],[23.91405769867589,62.137824588551666],[23.897401471634396,62.15329108508831],[23.84148413799801,62.162808929111634],[23.836725215986405,62.1485321630762],[23.858140365038764,62.140204049556814],[23.868847939564546,62.11284024798988],[23.805792222909986,62.10213267346353],[23.80222303140164,62.07952779390871],[23.790325726372544,62.06882021938236],[23.734408392735418,62.073579141393566],[23.688008903121556,62.05930237535904],[23.654696449040102,62.06644075837539],[23.61900453395282,62.084286715919006],[23.546430973274937,62.11640943949806],[23.450062802538866,62.150911624083164]]]]}},{"type":"Feature","properties":{"kind":"district","id":"uyezd-1897-659","name":"Голлолаский","provinceId":"gubernia-1897-39"},"geometry":{"type":"MultiPolygon","coordinates":[[[[25.09517492142224,60.80818165125585],[25.135673086621196,60.8121931156938],[25.140432008632857,60.82052122921501],[25.14876012215282,60.825280151227204],[25.15946769667941,60.82290069022022],[25.172554732211832,60.841936378266865],[25.195159611766687,60.841936378266865],[25.182072576235065,60.82409042072411],[25.197539072772518,60.826469881730205],[25.2118158388075,60.80624446318056],[25.237989909871455,60.78839850563604],[25.27368182495953,60.77293200909938],[25.279630477473663,60.73605036350723],[25.392654875250425,60.744378477029414],[25.436674903858464,60.7776909311106],[25.460469513916678,60.79077796664204],[25.450951669893445,60.8121931156938],[25.35934242116898,60.85145422229019],[25.378378109215532,60.87167964083983],[25.42358786832684,60.85978233581041],[25.46760789693417,60.88119748486315],[25.504489542524716,60.87405910184681],[25.52352523057127,60.88357694587013],[25.606806365775686,60.87167964083983],[25.62584205382224,60.88357694587013],[25.610375557284076,60.916889399951316],[25.598478252254925,60.94544293202128],[25.67700046544777,60.9549607760446],[25.703174536511725,60.93711481850008],[25.73648699059326,60.93949427950608],[25.723399955061637,60.92164832196342],[25.746004834616492,60.909751016933114],[25.753143217633983,60.90023317290979],[25.78050701920121,60.908561286430114],[25.78883513272126,60.89666398140158],[25.78288648020704,60.88119748486315],[25.810250281774444,60.87881802385705],[25.880444381446438,60.88238721536713],[25.9482590201126,60.87643856285193],[25.950638481118432,60.89785371190467],[25.968484438661715,60.88357694587013],[25.99465850972576,60.88595640687525],[26.013694197773113,60.902612633916775],[26.060093687386182,60.89666398140158],[26.073180722918515,60.87643856285193],[26.093406141468428,60.85383368329717],[26.119580212532384,60.87524883234982],[26.117200751526553,60.89190505938947],[26.150513205608,60.89428452039646],[26.188584581701107,60.918079130453435],[26.09816506348,60.92402778296943],[26.070801261912685,60.932355896489746],[26.075560183924345,60.97042727258303],[26.09935479398247,60.982324577612445],[26.119580212532384,60.972806733589124],[26.133856978567277,60.99065269113268],[26.15527212761966,61.0430008332605],[26.10530344649749,61.07631328734168],[26.068421800906854,61.090590053377106],[26.019642850287156,61.07988247885078],[25.953017942124262,61.05965706030202],[25.920895218545375,61.07631328734168],[25.8852033034581,61.09891816689654],[25.94587955910686,61.12866142947039],[25.950638481118432,61.145317656511914],[25.929223332065337,61.1798198410961],[25.94944875061516,61.221460408697595],[25.928033601562777,61.25596259328267],[25.89710060848716,61.26429070680298],[25.8328551613293,61.301172352392285],[25.769799444674707,61.35471022502498],[25.686518309471,61.32972588446225],[25.609185826781516,61.33567453697745],[25.566355528676837,61.32020804043893],[25.540181457611993,61.31782857943381],[25.537801996606163,61.34043345898867],[25.52114576956544,61.372556182568616],[25.517576578057138,61.40110971463858],[25.48188466296986,61.42966324670854],[25.435485173355993,61.48082165833239],[25.386706222736294,61.489149771854485],[25.342686194128255,61.48201138883637],[25.31413266205847,61.453457856766406],[25.245128292888946,61.46297570078973],[25.182072576235065,61.47368327531605],[25.10949901555724,61.47249354481305],[25.05358168192014,61.454647587269406],[25.019079497335422,61.445129743246085],[24.983387582248056,61.446319473748204],[24.95126485866917,61.44988866525819],[24.909624291066873,61.46059623978452],[24.883450220002917,61.47249354481305],[24.833481538880747,61.468924353304836],[24.818015042342495,61.44869893475421],[24.818015042342495,61.41419675017003],[24.860845340447263,61.39397133162038],[24.89653725553525,61.3987302536316],[24.90605509955857,61.38088429608885],[24.89177833352368,61.34162318949167],[24.912003752072703,61.33805399798346],[24.920331865593464,61.31663884893081],[24.873932375979596,61.296413430382046],[24.882260489500357,61.28332639484874],[24.84656857441237,61.28094693384264],[24.827532886365727,61.26785989831111],[24.776734803666805,61.26710080481869],[24.783465529658383,61.26146897286617],[24.834623941283823,61.212690022246555],[24.860798012347868,61.163911071626856],[24.896489927435145,61.1020450854758],[24.850090437822075,61.068732631393644],[24.851280168324635,61.04255856033066],[24.82510609726059,61.01757421976892],[24.87745423938859,60.97593365216653],[24.960735374593007,60.94975958110169],[24.98215052364539,60.93191362355813],[24.998806750686114,60.908119013500276],[25.049965162311555,60.86647844589878],[25.072570041867298,60.82364814779339],[25.09517492142224,60.80818165125585]]]]}}]}
