{"type":"FeatureCollection","features":[{"type":"Feature","properties":{"kind":"province","id":"gubernia-1897-72","name":"Виленская губерния"},"geometry":{"type":"MultiPolygon","coordinates":[[[[24.6398948860047,55.16880484296955],[24.682725184109735,55.16047672945021],[24.721986290705935,55.16166645995233],[24.726745212717862,55.12954373637415],[24.733883595735353,55.12002589234994],[24.795749581886497,55.11407723983572],[24.845718263008933,55.1093183178245],[24.85761556803844,55.11764643134384],[24.89092802212033,55.11407723983572],[24.900445866143386,55.13549238888837],[24.907584249160877,55.16761511246655],[24.92186101519586,55.197358375039514],[24.946845355757077,55.22234271560136],[24.980157809838257,55.211635141074055],[25.018229185932075,55.19140972252529],[25.04797244850451,55.203307027553734],[25.08604382459824,55.200927566548614],[25.112217895661928,55.25089624767132],[25.149099541252653,55.25327570867644],[25.19906822237509,55.24970651716823],[25.210965527403708,55.279449779741284],[25.235949867964926,55.284208701752505],[25.26450340003498,55.279449779741284],[25.31209262015185,55.27826004923819],[25.334697499707506,55.25446543917944],[25.347784535239306,55.25446543917944],[25.353733187753704,55.280639510243404],[25.391804563847522,55.284208701752505],[25.40251213837376,55.31871088633669],[25.445342436478793,55.32228007784667],[25.458429472010593,55.33774657438333],[25.473895968548756,55.33774657438333],[25.473895968548756,55.31038277281637],[25.520295458161648,55.284208701752505],[25.519105727659266,55.275880588232184],[25.52743384117914,55.27231139672397],[25.56074629526112,55.277070318735184],[25.583351174816773,55.290157354266725],[25.635699316944685,55.28777789326071],[25.657114465997335,55.291347084769725],[25.629750664430464,55.31990061683969],[25.596438210348573,55.31038277281637],[25.557177103752373,55.300864928793935],[25.54171060721412,55.30562385080515],[25.5488489902317,55.31752115583359],[25.565505217273046,55.31752115583359],[25.605956054371628,55.33655684388023],[25.603576593366064,55.34488495740055],[25.58097171381041,55.34250549639543],[25.572643600290537,55.361541184442075],[25.559556564757937,55.368679567459296],[25.54171060721412,55.368679567459296],[25.54171060721412,55.34369522689933],[25.557177103752373,55.33774657438333],[25.553607912243628,55.3294184608639],[25.53457222419663,55.33417738287511],[25.523864649670394,55.33179792186911],[25.523864649670394,55.31871088633669],[25.50125977011554,55.3258492693548],[25.517915997156173,55.365110375950195],[25.513157075144157,55.38890498600904],[25.53457222419663,55.38414606399782],[25.596438210348573,55.40556121305047],[25.592869018839828,55.42221744009012],[25.619043089904228,55.43411474512043],[25.6142841678923,55.45909908568041],[25.657114465997335,55.46504773819649],[25.649976082979844,55.48170396523615],[25.654735004991682,55.49598073127247],[25.68090907605537,55.48765261775037],[25.72000099157993,55.4817945447857],[25.71762153057419,55.46513831774516],[25.72594964409415,55.425877211148865],[25.740226410129043,55.41397990611945],[25.78424643873708,55.416359367125544],[25.82707673684185,55.41160044511246],[25.88894272299397,55.38780583505461],[25.906788680537165,55.40208260108914],[25.910357872046266,55.42349775014277],[25.92582436858372,55.4365847856743],[25.98055197171835,55.4294464026561],[26.017433617308185,55.43301559416609],[26.02933092233796,55.417549097627656],[26.059074184910305,55.40922098410734],[26.07810987295686,55.40565179259913],[26.107853135530004,55.421118289135784],[26.13402720659396,55.4365847856743],[26.15068343363477,55.434205324669094],[26.176857504698816,55.440153977182426],[26.224446724815866,55.45681020422395],[26.233964568839188,55.47584589227059],[26.262518100908974,55.490122658305125],[26.308917590522842,55.479415083778804],[26.33985058359846,55.46751777875028],[26.377921959691566,55.43539505517219],[26.418372796790592,55.40684152310222],[26.426700910311265,55.378287991031286],[26.476669591433524,55.35925230298464],[26.486187435456756,55.366390686002845],[26.531397194568154,55.355683111476516],[26.56708910965543,55.35092418946441],[26.594452911222657,55.3473549979562],[26.626575634800833,55.354493380972535],[26.66821620240304,55.355683111476516],[26.70509784799359,55.35925230298464],[26.72056434453104,55.355683111476516],[26.72413353604023,55.346165267453195],[26.756256259619118,55.346165267453195],[26.789568713700564,55.346165267453195],[26.81812224577044,55.340216614938],[26.834778472811163,55.33902688443499],[26.850244969349415,55.32593984890257],[26.87403957940736,55.32475011839957],[26.851434699851886,55.3473549979562],[26.835968203314433,55.36282149449285],[26.82288116778201,55.37114960801406],[26.81217359325551,55.39732367907793],[26.801466018729716,55.40565179259913],[26.782430330683162,55.41516963662245],[26.76934329515074,55.430636133159105],[26.76934329515074,55.44134370768552],[26.740789763080866,55.45443074321883],[26.76815356464827,55.46989723975548],[26.781240600179803,55.4770356227736],[26.802655749232187,55.47584589227059],[26.81574278476461,55.48774319729903],[26.783620061185633,55.50558915484356],[26.799086557723886,55.52819403439841],[26.809794132249678,55.54366053093685],[26.832399011805332,55.55317837496017],[26.86095254387512,55.55793729697138],[26.908541763992346,55.55793729697138],[26.963269367126177,55.5674551409947],[27.02394562277494,55.56031675797837],[27.064396459873787,55.54841945294806],[27.0846218784237,55.56031675797837],[27.101278105464424,55.574593524012904],[27.127452176528468,55.57578325451502],[27.150057056084123,55.597198403567674],[27.173851666142337,55.62575193563764],[27.215492233743745,55.64359789318127],[27.269030106375016,55.668582233742136],[27.29520417743906,55.68642819128577],[27.33684474504118,55.70665360983542],[27.366588007614414,55.72806875888905],[27.382054504151867,55.75543256045512],[27.386813426164238,55.78636555353198],[27.386813426164238,55.804211511074726],[27.38170199141056,55.81991301610742],[27.39240956593715,55.833000051639814],[27.435277787413916,55.81504230521935],[27.50071296507425,55.80314500018905],[27.545922724184848,55.80433473069205],[27.60897844083944,55.79838607817783],[27.725572030125303,55.80671419169904],[27.76007421470931,55.81623203572236],[27.81123262633484,55.81861149672748],[27.831458044884663,55.83050880175601],[27.88023699550436,55.83764718477412],[27.907600797070877,55.84597529829533],[27.92901594612326,55.84002664577933],[27.949241364673085,55.80552446119603],[27.938533790147293,55.76507362409576],[27.934964598638103,55.75079685806122],[27.943292712158865,55.73057143951158],[27.964707861211338,55.71986386498614],[28.003968967806916,55.69012060241309],[28.056317109935716,55.67941302788676],[28.093198755525552,55.67227464486856],[28.111044713069546,55.656808148331905],[28.1300804011161,55.616357311231724],[28.146736628156823,55.59851135368898],[28.172910699220868,55.58542431815566],[28.202653961793924,55.58423458765266],[28.2347766853729,55.57828593513933],[28.266899408951787,55.56043997759569],[28.29188374951256,55.54973240306936],[28.320437281582347,55.54973240306936],[28.302459131760962,55.529492296487646],[28.281043982708578,55.506887416932884],[28.258439103152924,55.4747646933547],[28.278664521702748,55.452159813798076],[28.271526138685346,55.43431385625532],[28.279854252205308,55.41051924619657],[28.277474791199477,55.40338086317846],[28.254869911644533,55.40695005468845],[28.253680181141263,55.39624248016204],[28.24416233711794,55.38910409714393],[28.254869911644533,55.37958625312061],[28.278664521702748,55.37839652261849],[28.29888994025186,55.33556622451398],[28.325064011315906,55.333186763507],[28.34885862137483,55.32366891948368],[28.33577158584241,55.31296134495736],[28.328633202824918,55.295115387413716],[28.357186734894793,55.26775158584773],[28.319115358801685,55.25347481981133],[28.307218053772623,55.24395697578801],[28.302459131760962,55.228490479251356],[28.317925628298415,55.17614233712176],[28.29294128773764,55.16781422360144],[28.273905599691176,55.15591691857211],[28.302459131760916,55.12022500348532],[28.247429052225826,55.12308698429659],[28.180804144062577,55.11951779278927],[28.12964573243696,55.09572318272963],[28.08919489533749,55.10167183524483],[27.970221845046595,55.13260482831991],[27.95832454001682,55.14331240284712],[27.94404777398193,55.148071324858336],[27.94404777398193,55.13022536731479],[27.925012085935464,55.12308698429659],[27.904786667386173,55.08501560820419],[27.84173095073158,55.065979920157545],[27.817936340672833,55.079066955689086],[27.787003347597306,55.09215399122151],[27.7655881985451,55.06122099814633],[27.751311432510295,55.02671881356126],[27.76320873753927,55.02433935255516],[27.776295773071247,55.000544742497304],[27.777485503574162,54.97080147992433],[27.771536851059587,54.93035064282505],[27.776295773071247,54.90893549377319],[27.73227574446312,54.88871007522266],[27.75250116301312,54.847069507620276],[27.74774224100155,54.81494678404299],[27.746552510498724,54.80185974851065],[27.717998978428227,54.80304947901277],[27.701342751387593,54.79472136549334],[27.67159948881427,54.775685677446695],[27.652563800767894,54.775685677446695],[27.638287034733,54.78044459945791],[27.619251346686625,54.78758298247523],[27.5466777860088,54.73523484034642],[27.550246977517546,54.72214780481498],[27.534780480979826,54.70906076928256],[27.538349672488483,54.69478400324802],[27.522883175949964,54.670989393189274],[27.538349672488483,54.655522896650844],[27.543108594500055,54.62934882558689],[27.553816169026202,54.63767693910809],[27.571662126569752,54.64005640011419],[27.628769190709768,54.62458990357567],[27.638287034733,54.611502868043246],[27.65375353127072,54.605554215529025],[27.65851245328238,54.57819041396304],[27.672789219317185,54.56391364792664],[27.65613299227655,54.53179092434767],[27.596646467130704,54.50085793127249],[27.550246977517546,54.50085793127249],[27.53359075047691,54.49490927875827],[27.56214428254652,54.47587359071075],[27.591887545119132,54.459217363670106],[27.581179970592984,54.447320058640784],[27.53597021148274,54.441371406127445],[27.51336533192673,54.415197335063496],[27.500278296394843,54.372367036957215],[27.49076045237161,54.33905458287603],[27.51098587092099,54.315259972818176],[27.514555062429647,54.274809135717994],[27.500278296394843,54.27005021370766],[27.494329643880356,54.24268641213982],[27.515744792932562,54.23911722063072],[27.530021558967366,54.220081532584075],[27.537159941985678,54.1784409649844],[27.489570721868695,54.162974468445036],[27.415807430688044,54.1486977024105],[27.388443629120463,54.133231205872065],[27.38130524610315,54.10943659581332],[27.337285217495733,54.101108482293895],[27.339664678501563,54.11776470933452],[27.275419231344056,54.11181605681942],[27.268280848326654,54.09040090776757],[27.234968394244586,54.08802144676156],[27.234968394244586,54.09515982977878],[27.214742975695295,54.09397009927489],[27.21593270619821,54.10824686531032],[27.12432345747392,54.10348794329821],[27.133841301497153,54.12966201436386],[27.149307798034872,54.13917985838718],[27.148118067531957,54.15464635492383],[27.130272109988496,54.149887432912706],[27.11361588294786,54.132041475368176],[27.026765556234434,54.132041475368176],[27.01248879019954,54.11062632631722],[26.970848222597244,54.10348794329821],[26.975607144609704,54.08921117726368],[26.94110496002472,54.04757060966129],[26.92325900248117,54.01306842507799],[26.917310349966684,53.984514893008026],[26.836408675768542,53.984514893008026],[26.766214576096548,53.978566240492924],[26.767404306599463,54.00355058105467],[26.810234604703965,54.00593004206068],[26.837598406271457,53.99879165904168],[26.866151938341154,54.00355058105467],[26.810234604703965,54.02615546061041],[26.825701101241684,54.03805276563797],[26.853064902809177,54.04757060966129],[26.841167597780114,54.065416567205816],[26.817372987721367,54.059467914691595],[26.77335295911395,54.065416567205816],[26.799527030177817,54.07731387223426],[26.810234604703965,54.0963495602809],[26.78643999464584,54.1046776738021],[26.76502484559372,54.09753929078488],[26.73528158302031,54.122523631344855],[26.718625355979675,54.101108482293895],[26.675795057874463,54.09159063826968],[26.66151829183957,54.11062632631722],[26.640103142787453,54.1046776738021],[26.647241525804766,54.08326252474946],[26.606790688705384,54.07612414173214],[26.616308532728617,54.054708992680375],[26.656759369828,54.053519262176394],[26.6638977528454,54.02020680809522],[26.636533951278707,54.015447886084004],[26.61035988021413,54.00949923356801],[26.665087483348316,53.976186779486824],[26.64605179530185,53.94168459490175],[26.616308532728617,53.92502836786112],[26.599652305687982,53.85602399869186],[26.62344691574682,53.86435211221307],[26.6638977528454,53.838178041149106],[26.685312901897696,53.817952622598575],[26.638913412284538,53.81081423958126],[26.64367233429611,53.7810709770083],[26.616308532728617,53.75965582795742],[26.65081071731351,53.7441893314189],[26.662708022342485,53.73110229588657],[26.65913883083383,53.681133614763866],[26.67698478837738,53.66209792671811],[26.665087483348316,53.62997520313905],[26.65913883083383,53.600231940565195],[26.673415596868633,53.57881679151343],[26.647241525804766,53.589524366038866],[26.64367233429611,53.595473018553974],[26.61868799373436,53.606180593080296],[26.61035988021413,53.596662749056975],[26.573478234624115,53.60142167106908],[26.55444254657774,53.593093557547874],[26.535406858530475,53.584765444028534],[26.522319822998586,53.56335029497589],[26.472351141875883,53.56454002547791],[26.44498734030919,53.57405786950123],[26.403346772706804,53.57881679151343],[26.392639198180657,53.56929894749011],[26.372413779631366,53.56216056447279],[26.35099863057907,53.57167840849611],[26.35099863057907,53.580006522015545],[26.31292725448543,53.606180593080296],[26.271286686883933,53.624026550624826],[26.234405041293208,53.6478211606818],[26.195143934696652,53.66090819621422],[26.186815821176335,53.678754153758746],[26.191574743187907,53.689461728284186],[26.182056899164674,53.710876877337725],[26.1630212111183,53.73586121789769],[26.133277948545775,53.7441893314189],[26.123760104521743,53.757276366951324],[26.083309267423072,53.746568792424995],[26.029771394791712,53.76917367198074],[26.025012472780052,53.77869151600406],[25.994079479704702,53.7822607075113],[25.98218217467484,53.80129639555794],[25.932213493552936,53.821521814108564],[25.919126458020248,53.81081423958126],[25.909608613997104,53.81676289209646],[25.915557266511502,53.8274704666219],[25.865588585389688,53.84769588517243],[25.85012208885197,53.84412669366422],[25.860829663378027,53.83698831064522],[25.85488101086354,53.829849927627905],[25.820378826278557,53.838178041149106],[25.8168096347699,53.84888561567455],[25.800153407729265,53.85483426818975],[25.79420475521478,53.84769588517243],[25.74304634358925,53.85007534617755],[25.724010655542784,53.86197265120697],[25.73828742157759,53.88457753076271],[25.672852243917255,53.904802949311474],[25.64310898134473,53.90004402730114],[25.644298711847558,53.87862887824751],[25.66928305240851,53.85959319020087],[25.644298711847558,53.84650615466854],[25.620504101788722,53.84412669366422],[25.632401406817785,53.835798580143106],[25.619314371285896,53.82509100561758],[25.589571108713283,53.831039658131886],[25.58243272569588,53.82033208360458],[25.58481218670171,53.81438343109125],[25.608606796759748,53.808434778575254],[25.619314371285896,53.80248612606192],[25.646678172853388,53.79415801254072],[25.630021945811954,53.77036340248286],[25.6335911373207,53.746568792424995],[25.622883562794552,53.72753310437835],[25.60027868323943,53.701359033314404],[25.54198188859641,53.66328765722022],[25.514618087029717,53.61926762861184],[25.520566739544204,53.60261140157129],[25.380178540200173,53.608560054086425],[25.36590177416537,53.5919038270458],[25.30998444052818,53.56691948648404],[25.217185461300264,53.572868138999155],[25.195770312248058,53.56097083396894],[25.16721678017845,53.56097083396894],[25.145801631125355,53.5478837984374],[25.127955673581894,53.5478837984374],[25.138663248108042,53.537176223911075],[25.13628378710221,53.500294578321686],[25.154129744646472,53.48006915977115],[25.143422170119614,53.452705358204184],[25.09345348899771,53.45032589719809],[25.08036645346582,53.45389508870808],[25.03991561636635,53.464602663234494],[25.049433460389494,53.406305868591474],[25.044674538377922,53.389649641549155],[25.02444911982863,53.39321883305914],[25.005413431781367,53.390839372053044],[24.987567474237906,53.39559829406515],[24.98399828272916,53.40154694657848],[24.967342055688526,53.40987506009969],[24.964962594682696,53.40273667708246],[24.926891218589144,53.40987506009969],[24.86740469344321,53.42891074814633],[24.824574395338708,53.43247993965543],[24.801969515783675,53.43604913116364],[24.78589326280839,53.436049131163614],[24.78055436673058,53.43604913116364],[24.749621373655142,53.44556697518696],[24.75794948717546,53.46103347172539],[24.741293260134825,53.469361585244734],[24.728206224602935,53.482448620777156],[24.7044116145441,53.49434592580657],[24.65801212493094,53.52289945787565],[24.627079131854703,53.54907352894129],[24.591387216767693,53.56572975598193],[24.533090422124673,53.59666274905701],[24.509295812065837,53.631164933641195],[24.486690932510715,53.631164933641195],[24.495019046031032,53.62045735911576],[24.456947669938103,53.618077898109746],[24.392702222780684,53.608560054086425],[24.370097343224764,53.61450870660154],[24.38675357026611,53.64068277766549],[24.383184378757452,53.66090819621425],[24.385563839763282,53.67399523174667],[24.385563839763282,53.693030919793316],[24.437911981890927,53.698979572308424],[24.456947669938103,53.725153643372295],[24.44505036490833,53.734671487395616],[24.405789258312574,53.75013798393413],[24.390322761774854,53.78464016851743],[24.3938919532836,53.81557316159429],[24.40459952780966,53.83222938863403],[24.415307102335806,53.84055750215426],[24.428394137867695,53.83698831064525],[24.443860634405414,53.82509100561761],[24.468844974967165,53.83222938863403],[24.473603896978737,53.851265076681564],[24.495019046031032,53.860782920704885],[24.51405473407741,53.851265076681564],[24.542608266147816,53.846506154668575],[24.5699720677146,53.845316424166455],[24.59495640827635,53.84174723265824],[24.6199407488373,53.84412669366425],[24.618751018334386,53.856023998691896],[24.59971533028792,53.86554184271522],[24.62826886235753,53.913131062832704],[24.624699670848873,53.93573594238845],[24.63302778436919,53.94049486439967],[24.646114819901168,53.92978728987325],[24.66039158593677,53.927407828867246],[24.65801212493094,53.93692567289057],[24.641355897889508,53.95477163043509],[24.680617004486063,53.952392169429],[24.681806734988978,53.97380731848173],[24.69132457901221,53.98094570149896],[24.70679107554993,53.97380731848173],[24.717498650076077,53.97618677948685],[24.70679107554993,54.009499233568036],[24.69132457901221,54.02020680809525],[24.62826886235753,54.02853492161468],[24.61280236581981,54.04400141815311],[24.60209479129375,54.03210411312467],[24.590197486264778,54.021396538597365],[24.53903907463916,54.02853492161468],[24.522382847598525,54.03686303513588],[24.496208776533948,54.02377599960347],[24.499777968042604,54.01425815558015],[24.48312174100197,53.98570462351019],[24.477173088487483,53.97380731848175],[24.412927641329976,53.960720282948344],[24.401030336301,53.966668935463545],[24.38080491775171,53.961910013452325],[24.390322761774854,53.95358189993112],[24.336784889143495,53.936925672890574],[24.290385399529537,53.94525378641178],[24.26183186745984,53.957151091440224],[24.214242647343056,53.9964121980374],[24.19044803728502,54.01068896407193],[24.171412349238555,54.019017077591364],[24.13453070364783,54.01187869457405],[24.090510675039702,54.00117112004861],[24.01674738385905,53.99403273703139],[23.983434929777694,53.98570462351019],[23.95369166720437,53.97856624049287],[23.934567850972712,53.98864222969045],[23.95003434751043,54.027903336285846],[23.99405437611856,54.04218010232216],[24.013090064165024,54.07192336489513],[24.04402305724126,54.08144120891845],[24.0749560503167,54.07192336489513],[24.107078773895765,54.07668228690546],[24.14158095847995,54.060026059864825],[24.1594269160235,54.062405520870925],[24.16418583803507,54.07549255640335],[24.15347826350901,54.08857959193577],[24.152288533006097,54.10523581897631],[24.138011766971292,54.11475366299963],[24.12849392294806,54.124271507022954],[24.138011766971292,54.13140989004027],[24.1594269160235,54.133789351046275],[24.180842065076504,54.143307195069596],[24.17965233457359,54.15996342211023],[24.170134490549646,54.16710180512746],[24.152288533006097,54.16472234412136],[24.089232816351505,54.17899911015687],[24.066627936796383,54.1920861456892],[24.0392641352296,54.183758032168],[24.009520872656278,54.1920861456892],[24.007141411650448,54.18137857116199],[24.000003028633135,54.17542991864866],[23.967880305054692,54.17899911015687],[23.934567850972712,54.203983450718624],[23.9476548865046,54.24562401832101],[23.975018688072094,54.25871105385157],[23.997623567627304,54.27774674189821],[23.988105723604072,54.30867973497516],[24.027366830199828,54.31462838748849],[24.024987369193997,54.33961272805024],[24.027366830199828,54.363407338108985],[24.008331142153363,54.37887383464751],[24.010710603159193,54.38482248716084],[24.035694943720856,54.38006356514963],[24.077335511322442,54.359838146600865],[24.09280200786016,54.3657867991142],[24.083284163837018,54.39434033118416],[24.04402305724126,54.42051440224803],[24.05711009277315,54.444309012307755],[24.051161440258664,54.46810362236552],[24.055920362270236,54.48713931041216],[24.051161440258664,54.5061749984588],[24.05948955377898,54.52402095600156],[24.09280200786016,54.522831225499445],[24.102319851883394,54.53353880002577],[24.09280200786016,54.55614367958062],[24.0678176672993,54.56447179310183],[24.023797638691082,54.55614367958062],[24.000003028633135,54.53353880002577],[24.015469525170854,54.513313381476124],[23.975018688072094,54.50260580695068],[23.939326772984284,54.521641494997326],[23.890547822364585,54.54543610505519],[23.89173755286741,54.55257448807241],[23.96074192203649,54.57398963712417],[23.984536532095415,54.587076672657574],[24.010710603159193,54.601353438692016],[24.01190033366211,54.60968155221145],[23.99405437611856,54.60968155221145],[23.9833468015925,54.61681993523054],[23.957172730527834,54.62752750975598],[23.95360353901909,54.63823508428141],[23.995244106621474,54.65251185031772],[24.015469525170854,54.6429940062944],[24.01903871667951,54.6310967012641],[24.035694943720856,54.62395831824776],[24.038074404726686,54.61563020472656],[24.04759224874992,54.606112360704216],[24.064248475790553,54.61563020472656],[24.077335511322442,54.64656319780262],[24.096371199368907,54.65489131132382],[24.1308733839538,54.65846050283106],[24.14158095847995,54.671547538364365],[24.132063114456717,54.681065382387686],[24.102319851883394,54.685824304398906],[24.09042254685442,54.69772160942833],[24.096371199368907,54.71199837546286],[24.129683653450975,54.747690290550054],[24.15347826350901,54.76672597859758],[24.160616646526414,54.78100274463123],[24.149909072000266,54.80598708519298],[24.1594269160235,54.8190741207254],[24.185600987088076,54.8190741207254],[24.23319020720415,54.80717681569696],[24.25490690807978,54.81660055001608],[24.287029631658665,54.80946216699708],[24.31201397222006,54.8273081245416],[24.331049660266704,54.845154082084264],[24.327480468757514,54.87846653616642],[24.30963451121432,54.88322545817755],[24.300116667191,54.91177899024751],[24.348895617810697,54.945091444328696],[24.344136695799037,54.956988749359],[24.328670199260873,54.956988749359],[24.30963451121432,54.9486606358378],[24.294168014676067,54.96055794086721],[24.31439343322589,55.009336891486825],[24.35722373133066,55.02837257953347],[24.36674157535398,55.050977459088315],[24.385292558381124,55.07124694173132],[24.405517976930504,55.06410855871303],[24.434071509000468,55.060539367204015],[24.48760938163165,55.064108558713016],[24.530439679736684,55.078385324748446],[24.57326997784172,55.064108558713016],[24.598254318402937,55.08909289927388],[24.61966946745541,55.10217993480728],[24.627997580976082,55.125974544864164],[24.6137208149411,55.1533383464329],[24.624428389467337,55.16642538196443],[24.6398948860047,55.16880484296955]]]]}},{"type":"Feature","properties":{"kind":"district","id":"uyezd-1897-115","name":"Трокский","provinceId":"gubernia-1897-72"},"geometry":{"type":"MultiPolygon","coordinates":[[[[24.385292558381124,55.07124694173126],[24.36674157535398,55.05097745908828],[24.35722373133066,55.028372579533425],[24.31439343322589,55.00933689148678],[24.294168014676067,54.960557940867176],[24.30963451121432,54.948660635837754],[24.328670199260873,54.956988749358956],[24.344136695799037,54.956988749358956],[24.348895617810697,54.94509144432865],[24.300116667191,54.91177899024747],[24.30963451121432,54.883225458177506],[24.327480468757514,54.878466536166385],[24.331049660266704,54.84515408208422],[24.31201397222006,54.82730812454156],[24.287029631658665,54.80946216699704],[24.25490690807969,54.81660055001524],[24.23319020720415,54.80717681569696],[24.185600987088076,54.8190741207254],[24.1594269160235,54.8190741207254],[24.149909072000266,54.80598708519298],[24.160616646526414,54.78100274463123],[24.15347826350901,54.76672597859758],[24.129683653450975,54.747690290550054],[24.096371199368907,54.71199837546286],[24.09042254685442,54.69772160942833],[24.102319851883394,54.685824304398906],[24.132063114456717,54.681065382387686],[24.14158095847995,54.671547538364365],[24.1308733839538,54.65846050283106],[24.096371199368907,54.65489131132382],[24.077335511322442,54.64656319780262],[24.064248475790553,54.61563020472656],[24.04759224874992,54.606112360704216],[24.038074404726686,54.61563020472656],[24.035694943720856,54.62395831824776],[24.01903871667951,54.6310967012641],[24.015469525170854,54.6429940062944],[23.995244106621474,54.65251185031772],[23.95360353901909,54.63823508428141],[23.957172730527834,54.62752750975598],[23.9833468015925,54.61681993523054],[23.99405437611856,54.60968155221145],[24.01190033366211,54.60968155221145],[24.010710603159193,54.601353438692016],[23.984536532095415,54.587076672657574],[23.96074192203649,54.57398963712417],[23.89173755286741,54.55257448807241],[23.890547822364585,54.54543610505519],[23.939326772984284,54.521641494997326],[23.975018688072094,54.50260580695068],[24.015469525170854,54.513313381476124],[24.000003028633135,54.53353880002577],[24.023797638691082,54.55614367958062],[24.0678176672993,54.56447179310183],[24.09280200786016,54.55614367958062],[24.102319851883394,54.53353880002577],[24.09280200786016,54.522831225499445],[24.05948955377898,54.52402095600156],[24.051161440258664,54.5061749984588],[24.055920362270236,54.48713931041216],[24.051161440258664,54.46810362236552],[24.05711009277315,54.444309012307755],[24.04402305724126,54.42051440224803],[24.083284163837018,54.39434033118416],[24.09280200786016,54.3657867991142],[24.077335511322442,54.359838146600865],[24.035694943720856,54.38006356514963],[24.010710603159193,54.38482248716084],[24.008331142153363,54.37887383464751],[24.027366830199828,54.363407338108985],[24.024987369193997,54.33961272805024],[24.027366830199828,54.31462838748849],[23.988105723604072,54.30867973497516],[23.997623567627304,54.27774674189821],[23.975018688072094,54.25871105385157],[23.9476548865046,54.24562401832101],[23.934567850972712,54.203983450718624],[23.967880305054692,54.17899911015687],[24.000003028633135,54.17542991864866],[24.007141411650448,54.18137857116199],[24.009520872656278,54.1920861456892],[24.0392641352296,54.183758032168],[24.066627936796383,54.1920861456892],[24.089232816351505,54.17899911015687],[24.152288533006097,54.16472234412136],[24.170134490549646,54.16710180512746],[24.17965233457359,54.15996342211023],[24.180842065076504,54.143307195069596],[24.1594269160235,54.133789351046275],[24.138011766971292,54.13140989004027],[24.12849392294806,54.124271507022954],[24.138011766971292,54.11475366299963],[24.152288533006097,54.10523581897631],[24.15347826350901,54.08857959193577],[24.16418583803507,54.07549255640335],[24.1594269160235,54.062405520870925],[24.14158095847995,54.060026059864825],[24.107078773895765,54.07668228690546],[24.0749560503167,54.07192336489513],[24.04402305724126,54.08144120891845],[24.013090064165024,54.07192336489513],[23.99405437611856,54.04218010232216],[23.95003434751043,54.027903336285846],[23.934567850972712,53.98864222969045],[23.95369166720437,53.97856624049287],[23.983434929777694,53.98570462351019],[24.01674738385905,53.99403273703139],[24.090510675039702,54.00117112004861],[24.13453070364783,54.01187869457405],[24.171412349238555,54.019017077591364],[24.19044803728502,54.01068896407193],[24.214242647343056,53.9964121980374],[24.26183186745984,53.957151091440224],[24.290385399529537,53.94525378641178],[24.336784889143495,53.936925672890574],[24.390322761774854,53.95358189993112],[24.38080491775171,53.961910013452325],[24.401030336301,53.966668935463545],[24.412927641329976,53.960720282948344],[24.477173088487483,53.97380731848175],[24.48312174100197,53.98570462351019],[24.499777968042604,54.01425815558015],[24.496208776533948,54.02377599960347],[24.522382847598525,54.036863035135895],[24.50334715955135,54.10229821279604],[24.533090422124673,54.09753929078492],[24.552126110171137,54.09634956028094],[24.57711045073209,54.0880214467616],[24.606853713305412,54.0904009077676],[24.600905060790836,54.118954439836685],[24.611612635316984,54.13085174486601],[24.646114819901168,54.16535392945117],[24.692514309515126,54.16654365995329],[24.730585685608766,54.17606150397749],[24.74010352963191,54.186769078502934],[24.725826763596306,54.201045844537475],[24.752000834660972,54.20461503604746],[24.77341598371318,54.201045844537475],[24.791261941256728,54.202235575041456],[24.78055436673058,54.21651234107688],[24.723447302590476,54.23792749012864],[24.712739728064417,54.284326979741266],[24.779364636227665,54.28313724923915],[24.79840032427493,54.30336266778889],[24.81386682081265,54.30336266778889],[24.8317127783562,54.29384482376459],[24.841230622379342,54.281947518737034],[24.90547606953685,54.278378327227045],[24.92808094909206,54.284326979741266],[24.926891218589144,54.29384482376459],[24.919752835571654,54.30098320678279],[24.911424722051336,54.347382696397275],[24.941167984624748,54.347382696397275],[24.967342055688526,54.350951887905495],[24.989946935243648,54.348572426899395],[25.000654509769795,54.32953673885275],[25.01969019781697,54.333105930360965],[25.029208041840203,54.32596754734365],[25.058951304412727,54.33072646935673],[25.09345348899771,54.348572426899395],[25.120817290564403,54.36641838444392],[25.148181092131185,54.38783353349568],[25.192201120739313,54.40448976053632],[25.19814977325389,54.436612484115386],[25.22551357482138,54.45088925015081],[25.255256837393905,54.46040709417324],[25.27429252544037,54.47111466870045],[25.285000099966428,54.479442782219884],[25.277861716949115,54.500857931272535],[25.260015759405476,54.52108334982218],[25.257636298399735,54.54487795988004],[25.25882602890256,54.571052030943996],[25.23622114934753,54.581759605471206],[25.210047078282862,54.59841583251185],[25.176734624201593,54.60674394603305],[25.130335134587636,54.61745152055849],[25.113678907547,54.63767693910813],[25.107730255032514,54.64481532212535],[25.086315105980308,54.649574244137554],[25.074417800950446,54.67931750671052],[25.08036645346582,54.69359427274408],[25.072038339944704,54.71619915229982],[25.044674538377922,54.72571699632314],[25.011362084296742,54.72571699632314],[25.003033970775626,54.736424570850446],[24.980429091220415,54.737614301353446],[24.97448043870593,54.74951160638287],[24.987567474237906,54.7518910673871],[24.96853178619144,54.77330621644073],[24.94592690663632,54.77925486895397],[24.94354744563049,54.78877271297729],[24.962583133676954,54.811377592534015],[24.92808094909206,54.82208516706034],[24.91499391356008,54.811377592534015],[24.917373374565912,54.79710082649849],[24.891199303502045,54.801859748510694],[24.884060920484643,54.81256732303613],[24.89000957299913,54.82565435856846],[24.885250650987558,54.8363619330939],[24.90309660853102,54.839931124603],[24.901906878028193,54.84944896862632],[24.875732806964326,54.85301816013631],[24.866214962940294,54.86372573466272],[24.853127927408405,54.86491546516484],[24.847179274893918,54.882761422709365],[24.810297629303903,54.889899805726586],[24.8031592462865,54.90774576326934],[24.74248299063774,54.93391983433321],[24.70203215353827,54.93391983433321],[24.682996465491804,54.945817139362624],[24.66634023845126,54.955334983386834],[24.63064832336336,54.96723228841616],[24.623509940345958,54.976750132439484],[24.589007755761862,54.979129593443716],[24.555695301679794,54.99816528149134],[24.54379799665073,55.00649339501068],[24.51881365608987,55.018390700040094],[24.495019046031032,55.02314962205308],[24.46289632245268,55.03385719657852],[24.434071509000468,55.06053936720396],[24.405517976930504,55.06410855871306],[24.385292558381124,55.07124694173126]]]]}},{"type":"Feature","properties":{"kind":"district","id":"uyezd-1897-116","name":"Дисненский","provinceId":"gubernia-1897-72"},"geometry":{"type":"MultiPolygon","coordinates":[[[[27.38170199141056,55.81991301610746],[27.386813426164238,55.80421151107477],[27.386813426164238,55.78636555353202],[27.382054504151867,55.75543256045516],[27.366588007614414,55.72806875888909],[27.33684474504118,55.706653609835456],[27.29520417743906,55.68642819128581],[27.269030106375016,55.66858223374217],[27.215492233743745,55.64359789318131],[27.173851666142337,55.62575193563767],[27.150057056084123,55.59719840356771],[27.127452176528468,55.57578325451506],[27.101278105464424,55.57459352401294],[27.0846218784237,55.560316757978406],[27.064396459873787,55.548419452948096],[27.02394562277494,55.560316757978406],[26.963269367126177,55.56745514099474],[26.908541763992346,55.55793729697142],[26.86095254387512,55.55793729697142],[26.832399011805332,55.553178374960204],[26.809794132249678,55.54366053093688],[26.799086557723886,55.52819403439845],[26.783620061185633,55.5055891548436],[26.81574278476461,55.48774319729907],[26.802655749232187,55.47584589227063],[26.781240600179803,55.477035622773634],[26.76815356464827,55.469897239755525],[26.740789763080866,55.454430743218865],[26.76934329515074,55.44134370768556],[26.76934329515074,55.43063613315914],[26.782430330683162,55.415169636622494],[26.801466018729716,55.40565179259917],[26.81217359325551,55.397323679077964],[26.82288116778201,55.37114960801409],[26.835968203314433,55.36282149449289],[26.851434699851886,55.34735499795624],[26.87403957940754,55.324750118399606],[26.891136278902064,55.31820278677604],[26.883997895884573,55.307495212248824],[26.866151938341112,55.30987467325483],[26.831649753756928,55.30868494275272],[26.831649753756928,55.2944081767164],[26.832839484259843,55.27894168017975],[26.8364086757685,55.258716261629125],[26.826890831744468,55.259905992133106],[26.809044874201007,55.23373192106915],[26.80785514369809,55.21707569402683],[26.792388647160372,55.21826542453072],[26.779301611628483,55.19804000598107],[26.791198916657457,55.173055665419234],[26.82332164023581,55.15758916888169],[26.850685441803392,55.14331240284716],[26.870910860352684,55.13141509781694],[26.853064902809134,55.12308698429662],[26.862582746832366,55.10167183524486],[26.868531399346853,55.086205338706336],[26.923259002481128,55.11594860127931],[26.933966577007276,55.13617401982993],[26.94586388203625,55.13855348083594],[26.944674151533334,55.15283024687048],[26.957761187065312,55.17424539592233],[26.972037953100916,55.17543512642622],[26.941104960024678,55.19804000598107],[26.93515630751019,55.20993731100951],[26.94824334304208,55.21826542453072],[26.979176336118318,55.244439495594676],[27.007729868187926,55.25752653112701],[27.038662861263365,55.236111382073474],[27.069595854339603,55.23968057358248],[27.114805613450734,55.21231677201561],[27.13384130149711,55.18019404843655],[27.16477429457255,55.15401997737259],[27.20522513167202,55.13736375033204],[27.248055429776432,55.12308698429662],[27.27660896184693,55.12546644530263],[27.342044139507262,55.14926105536235],[27.39320255113288,55.161158360389905],[27.437222579740208,55.176624856928335],[27.456258267786673,55.161158360389905],[27.46934530331936,55.13855348083594],[27.470535033822276,55.104051296250866],[27.478863147342594,55.09096426071933],[27.49789883538897,55.09691291323364],[27.51574479293252,55.1183280622854],[27.582369701095857,55.106430757255985],[27.595456736627746,55.082636147198215],[27.658512453282338,55.077877225186995],[27.669220027808397,55.06003126764247],[27.683496793844,55.06003126764247],[27.683496793844,55.06597992015758],[27.710860595410782,55.06003126764247],[27.707291403902126,55.0350469270825],[27.751311432510253,55.02671881356129],[27.765588198545057,55.06122099814637],[27.787003347597263,55.09215399122154],[27.81793634067279,55.079066955689115],[27.841730950731538,55.06597992015758],[27.90478666738613,55.08501560820422],[27.92501208593542,55.12308698429662],[27.944047773981886,55.13022536731482],[27.944047773981886,55.14807132485837],[27.95832454001678,55.14331240284716],[27.970221845046552,55.13260482831994],[28.089194895337446,55.10167183524486],[28.129645732436916,55.09572318272966],[28.180804144062535,55.119517792789296],[28.247429052225783,55.12308698429662],[28.302459131760962,55.12022500348483],[28.273905599691176,55.15591691857211],[28.29294128773764,55.16781422360144],[28.317925628298415,55.17614233712176],[28.302459131760962,55.228490479251356],[28.307218053772623,55.24395697578801],[28.319115358801685,55.25347481981133],[28.357186734894793,55.26775158584773],[28.328633202824918,55.295115387413716],[28.33577158584241,55.31296134495736],[28.34885862137483,55.32366891948368],[28.325064011315906,55.333186763507],[28.29888994025186,55.33556622451398],[28.278664521702748,55.37839652261849],[28.254869911644533,55.37958625312061],[28.24416233711794,55.38910409714393],[28.253680181141263,55.39624248016204],[28.254869911644533,55.40695005468845],[28.277474791199477,55.40338086317846],[28.279854252205308,55.41051924619657],[28.271526138685346,55.43431385625532],[28.278664521702748,55.452159813798076],[28.258439103152924,55.4747646933547],[28.281043982708578,55.506887416932884],[28.302459131760962,55.529492296487646],[28.320437281582347,55.54973240306936],[28.29188374951256,55.54973240306936],[28.266899408951787,55.56043997759569],[28.2347766853729,55.57828593513933],[28.202653961793924,55.58423458765266],[28.172910699220868,55.58542431815566],[28.146736628156823,55.59851135368898],[28.1300804011161,55.616357311231724],[28.111044713069546,55.656808148331905],[28.093198755525552,55.67227464486856],[28.056317109935716,55.67941302788676],[28.003968967806916,55.69012060241309],[27.964707861211338,55.71986386498614],[27.943292712158865,55.73057143951158],[27.934964598638103,55.75079685806122],[27.938533790147293,55.76507362409576],[27.949241364673085,55.80552446119603],[27.92901594612326,55.84002664577933],[27.907600797070877,55.84597529829533],[27.88023699550436,55.83764718477412],[27.831458044884663,55.83050880175601],[27.81123262633484,55.81861149672748],[27.76007421470931,55.81623203572236],[27.725572030125303,55.80671419169904],[27.60897844083944,55.79838607817783],[27.545922724184848,55.80433473069205],[27.50071296507425,55.80314500018905],[27.435277787413916,55.81504230521935],[27.39240956593715,55.8330000516398],[27.38170199141056,55.81991301610746]]]]}},{"type":"Feature","properties":{"kind":"district","id":"uyezd-1897-188","name":"Лидский","provinceId":"gubernia-1897-72"},"geometry":{"type":"MultiPolygon","coordinates":[[[[24.824574395338708,53.43247993965543],[24.86740469344321,53.42891074814633],[24.926891218589144,53.40987506009969],[24.964962594682696,53.40273667708246],[24.967342055688526,53.40987506009969],[24.98399828272916,53.40154694657848],[24.987567474237906,53.39559829406515],[25.005413431781367,53.390839372053044],[25.02444911982863,53.39321883305914],[25.044674538377922,53.389649641549155],[25.049433460389494,53.406305868591474],[25.03991561636635,53.464602663234494],[25.08036645346582,53.45389508870808],[25.09345348899771,53.45032589719809],[25.143422170119614,53.452705358204184],[25.154129744646472,53.48006915977115],[25.13628378710221,53.500294578321686],[25.138663248108042,53.537176223911075],[25.127955673581894,53.5478837984374],[25.145801631125355,53.5478837984374],[25.16721678017845,53.56097083396894],[25.195770312248058,53.56097083396894],[25.217185461300264,53.572868138999155],[25.30998444052818,53.56691948648404],[25.36590177416537,53.5919038270458],[25.380178540200173,53.608560054086425],[25.52056673954416,53.60261140157123],[25.514618087029675,53.619267628611865],[25.541981888596368,53.66328765722026],[25.600278683239388,53.70135903331443],[25.62288356279451,53.72753310437839],[25.633591137320657,53.74656879242503],[25.63002194581191,53.770363402482886],[25.646678172853346,53.79415801254075],[25.619314371285853,53.80248612606195],[25.608606796759705,53.80843477857529],[25.58481218670167,53.81438343109129],[25.58243272569584,53.82033208360461],[25.58957110871324,53.831039658131914],[25.581242995192923,53.846506154668575],[25.570535420666864,53.869111034224225],[25.572914881672695,53.87862887824755],[25.590760839216156,53.87862887824755],[25.60741706625679,53.9083721408206],[25.590760839216156,53.914320793334824],[25.565776498654404,53.97380731848173],[25.521756470047077,53.98332516250408],[25.481305632947606,53.998791659041714],[25.43728560434028,53.997601928539595],[25.395645036737893,54.009499233568036],[25.3754196181886,54.024965730106466],[25.359953121650882,54.04519114865709],[25.359953121650882,54.05589872318252],[25.3682812351712,54.07255495022307],[25.364712043662454,54.09753929078491],[25.35043527762685,54.11776470933456],[25.361142852153797,54.14036958888941],[25.40635261126404,54.151077163414854],[25.458700753392485,54.17606150397749],[25.44442398735768,54.20818422755566],[25.438475334843105,54.230789107111406],[25.461080214398315,54.247445334151955],[25.505100243006442,54.26410156119259],[25.521756470047077,54.27956805773102],[25.516997548035505,54.28908590175434],[25.506289973509357,54.30217293728676],[25.5086694345151,54.31882916432731],[25.539602427590538,54.32239835583552],[25.539602427590538,54.33191619985884],[25.51818727853842,54.33667512187006],[25.506289973509357,54.337864852373954],[25.48249536345052,54.34381350488728],[25.45751102288957,54.32358808633764],[25.451562370375083,54.29265509326255],[25.43133695182579,54.28432697974135],[25.405162880761125,54.27956805773102],[25.39921422824655,54.262911830690385],[25.380178540200173,54.25458371716927],[25.36352231315954,54.26172210018649],[25.315933093042666,54.26053236968438],[25.26953360342871,54.27599886622192],[25.242169801862016,54.28789617125036],[25.22075465280981,54.30812158980098],[25.252877376388163,54.311690781310084],[25.24335953236493,54.32239835583552],[25.201718964762545,54.317639433824304],[25.194580581745143,54.32715727784674],[25.193390851242228,54.337864852373954],[25.176734624201593,54.35095188790548],[25.152940014143557,54.36641838444392],[25.148181092131185,54.38783353349568],[25.120817290564403,54.36641838444392],[25.09345348899771,54.348572426899395],[25.058951304412727,54.33072646935673],[25.029208041840203,54.32596754734365],[25.01969019781697,54.333105930360965],[25.000654509769795,54.32953673885275],[24.989946935243648,54.348572426899395],[24.967342055688526,54.350951887905495],[24.941167984624748,54.347382696397275],[24.911424722051336,54.347382696397275],[24.919752835571654,54.30098320678279],[24.926891218589144,54.29384482376459],[24.92808094909206,54.284326979741266],[24.90547606953685,54.278378327227045],[24.841230622379342,54.281947518737034],[24.8317127783562,54.29384482376459],[24.81386682081265,54.30336266778889],[24.79840032427493,54.30336266778889],[24.779364636227665,54.28313724923915],[24.712739728064417,54.284326979741266],[24.723447302590476,54.23792749012864],[24.78055436673058,54.21651234107688],[24.791261941256728,54.202235575041456],[24.77341598371318,54.201045844537475],[24.752000834660972,54.20461503604746],[24.725826763596306,54.201045844537475],[24.74010352963191,54.186769078502934],[24.730585685608766,54.17606150397749],[24.692514309515126,54.16654365995329],[24.646114819901168,54.16535392945117],[24.611612635316984,54.13085174486601],[24.600905060790836,54.118954439836685],[24.606853713305412,54.0904009077676],[24.57711045073209,54.0880214467616],[24.552126110171137,54.09634956028094],[24.533090422124673,54.09753929078492],[24.50334715955135,54.10229821279604],[24.522382847598525,54.036863035135895],[24.53903907463916,54.02853492161468],[24.590197486264778,54.021396538597365],[24.60209479129375,54.03210411312467],[24.61280236581981,54.04400141815311],[24.62826886235753,54.02853492161468],[24.69132457901221,54.02020680809525],[24.70679107554993,54.009499233568036],[24.717498650076077,53.97618677948685],[24.70679107554993,53.97380731848173],[24.69132457901221,53.98094570149896],[24.681806734988978,53.97380731848173],[24.680617004486063,53.952392169429],[24.641355897889508,53.95477163043509],[24.65801212493094,53.93692567289057],[24.66039158593677,53.927407828867246],[24.646114819901168,53.92978728987325],[24.63302778436919,53.94049486439967],[24.624699670848873,53.93573594238845],[24.62826886235753,53.913131062832704],[24.59971533028792,53.86554184271522],[24.618751018334386,53.856023998691896],[24.6199407488373,53.84412669366425],[24.59495640827635,53.84174723265824],[24.5699720677146,53.845316424166455],[24.542608266147816,53.846506154668575],[24.51405473407741,53.851265076681564],[24.495019046031032,53.860782920704885],[24.473603896978737,53.851265076681564],[24.468844974967165,53.83222938863403],[24.443860634405414,53.82509100561761],[24.428394137867695,53.83698831064525],[24.415307102335806,53.84055750215426],[24.40459952780966,53.83222938863403],[24.3938919532836,53.81557316159429],[24.390322761774854,53.78464016851743],[24.405789258312574,53.75013798393413],[24.44505036490833,53.734671487395616],[24.456947669938103,53.725153643372295],[24.437911981890927,53.698979572308424],[24.385563839763282,53.693030919793316],[24.385563839763282,53.67399523174667],[24.383184378757452,53.66090819621425],[24.38675357026611,53.64068277766549],[24.370097343224764,53.61450870660154],[24.392702222780684,53.608560054086425],[24.456947669938103,53.618077898109746],[24.495019046031032,53.62045735911576],[24.486690932510715,53.631164933641195],[24.509295812065837,53.631164933641195],[24.533090422124673,53.59666274905701],[24.591387216767693,53.56572975598193],[24.627079131854703,53.54907352894129],[24.65801212493094,53.52289945787565],[24.7044116145441,53.49434592580657],[24.728206224602935,53.482448620777156],[24.741293260134825,53.469361585244734],[24.75794948717546,53.46103347172539],[24.749621373655142,53.44556697518696],[24.78055436673058,53.43604913116364],[24.78589326280839,53.436049131163614],[24.801969515783675,53.43604913116364],[24.824574395338708,53.43247993965543]]]]}},{"type":"Feature","properties":{"kind":"district","id":"uyezd-1897-705","name":"Ошмянский","provinceId":"gubernia-1897-72"},"geometry":{"type":"MultiPolygon","coordinates":[[[[25.58957110871324,53.831039658131914],[25.619314371285853,53.82509100561761],[25.632401406817742,53.835798580143134],[25.62050410178868,53.84412669366425],[25.644298711847515,53.846506154668575],[25.669283052408467,53.859593190200904],[25.644298711847515,53.87862887824755],[25.64310898134469,53.90004402730118],[25.672852243917212,53.9048029493115],[25.738287421577546,53.88457753076274],[25.72401065554274,53.861972651207],[25.743046343589207,53.85007534617758],[25.794204755214736,53.84769588517246],[25.800153407729223,53.85483426818978],[25.816809634769857,53.848885615674575],[25.820378826278514,53.83817804114914],[25.854881010863497,53.82984992762793],[25.860829663377984,53.83698831064525],[25.850122088851926,53.84412669366425],[25.865588585389645,53.84769588517246],[25.91555726651146,53.82747046662193],[25.90960861399706,53.81676289209649],[25.919126458020205,53.81081423958129],[25.932213493552894,53.82152181410859],[25.982182174674797,53.80129639555797],[25.99407947970466,53.78226070751133],[26.02501247278001,53.778691516004095],[26.02977139479167,53.769173671980774],[26.08330926742303,53.74656879242503],[26.1237601045217,53.75727636695136],[26.133277948545732,53.74418933141894],[26.163021211118256,53.73586121789773],[26.182056899164632,53.71087687733775],[26.191574743187864,53.689461728284215],[26.186815821176292,53.678754153758774],[26.19514393469661,53.66090819621425],[26.234405041293165,53.64782116068183],[26.27128668688389,53.62402655062486],[26.312927254485388,53.60618059308033],[26.350998630579028,53.58000652201558],[26.350998630579028,53.57167840849615],[26.372413779631323,53.562160564472826],[26.392639198180614,53.56929894749014],[26.40334677270676,53.57881679151346],[26.444987340309147,53.57405786950127],[26.47235114187584,53.564540025477946],[26.522319822998455,53.56335029497494],[26.535406858530433,53.58476544402857],[26.554442546577697,53.59309355754791],[26.573478234624073,53.60142167106912],[26.610359880214087,53.59666274905701],[26.618687993734316,53.60618059308033],[26.643672334296067,53.595473018554],[26.647241525804723,53.5895243660389],[26.67341559686859,53.57881679151346],[26.659138830833786,53.60023194056522],[26.665087483348273,53.62997520313908],[26.676984788377336,53.66209792671815],[26.659138830833786,53.681133614763894],[26.662708022342443,53.7311022958866],[26.65081071731347,53.74418933141894],[26.616308532728574,53.75965582795745],[26.643672334296067,53.781070977008326],[26.638913412284495,53.81081423958129],[26.685312901897653,53.81795262259861],[26.663897752845358,53.83817804114914],[26.623446915746776,53.8643521122131],[26.59965230568794,53.856023998691896],[26.616308532728574,53.925028367861145],[26.64605179530181,53.94168459490179],[26.665087483348273,53.97618677948685],[26.610359880214087,54.009499233568036],[26.636533951278665,54.01544788608403],[26.663897752845358,54.02020680809525],[26.656759369827956,54.05351926217643],[26.616308532728574,54.05470899268041],[26.606790688705342,54.07612414173217],[26.647241525804723,54.083262524749486],[26.64010314278741,54.104677673802136],[26.661518291839528,54.110626326317245],[26.67579505787442,54.091590638269714],[26.718625355979633,54.101108482293924],[26.735281583020267,54.12252363134489],[26.76264538458785,54.15583608542784],[26.792388647160372,54.19985611403446],[26.774542689616823,54.229599376607425],[26.754317271066732,54.259342639180396],[26.730522661008695,54.28075778823313],[26.64248260379315,54.320018894829424],[26.56633985160667,54.32239835583552],[26.54849389406232,54.329536738852745],[26.547304163559406,54.36522865394002],[26.64010314278741,54.36998757595124],[26.643672334296067,54.389023263997885],[26.60203176669368,54.41281787405752],[26.596083114179194,54.42114598757686],[26.565150121103756,54.43304329260627],[26.540165780542093,54.43066383160018],[26.529458206015946,54.43780221461749],[26.54135551104492,54.4508892501508],[26.534217128027517,54.46754547719135],[26.519940361992713,54.47825305171776],[26.50328413495208,54.48063251272377],[26.491386829923016,54.49252981775319],[26.460453836846867,54.50323739227774],[26.437848957291656,54.52227308032438],[26.38074189315155,54.53654984636069],[26.365275396613832,54.549636881892226],[26.364085666111006,54.567482839436664],[26.3498089000762,54.57819041396308],[26.343860247561715,54.607933676535154],[26.34504997806454,54.65314343564567],[26.32244509850862,54.67455858469752],[26.32006563750288,54.704301847270486],[26.28675318342161,54.706681308276494],[26.283183991912864,54.72809645732923],[26.308168332473816,54.73047591833622],[26.295081296941927,54.74118349286165],[26.298650488450583,54.75546025889619],[26.28675318342161,54.75902945040618],[26.29151210543318,54.772116485936735],[26.25106126833371,54.779254868954055],[26.218938544755446,54.7982905570007],[26.205851509223468,54.7982905570007],[26.203472048217726,54.78520352147005],[26.207041239726383,54.760219180908294],[26.214179622743785,54.75070133688497],[26.203472048217726,54.74713214537677],[26.21774881425253,54.717388882803796],[26.21061043123504,54.70073265576316],[26.183246629667547,54.692404542242045],[26.15707255860368,54.69716346425317],[26.12138064351587,54.68764562022985],[26.10591414697815,54.65671262715477],[26.086878458931686,54.629348825586916],[26.04047896931773,54.622210442569695],[25.983371905177712,54.628159095083916],[25.959577295119676,54.625779634079684],[25.95124918159936,54.63291801709691],[25.90960861399706,54.63291801709691],[25.894142117459253,54.619830981563595],[25.87748589041862,54.617451520558475],[25.873916698909962,54.60674394603304],[25.832276131307577,54.59603637150574],[25.817999365272772,54.60317475452305],[25.78587664169442,54.59246717999664],[25.784686911191503,54.57581095295609],[25.782307450185762,54.547257420886126],[25.748994996103693,54.51156550579894],[25.728769577554402,54.49847847026652],[25.704974967495478,54.4972887397644],[25.679990626934526,54.50799631428984],[25.666903591402637,54.49847847026652],[25.693077662466504,54.465166016185336],[25.672852243917212,54.44613032813869],[25.66571386089972,54.42709464009117],[25.641919250841774,54.43066383160018],[25.631211676314827,54.41876652657085],[25.64548844235043,54.403300030034195],[25.6359705983264,54.39259245550787],[25.652626825367832,54.385454072489665],[25.662144669391065,54.35809027092271],[25.646678172853346,54.347382696397275],[25.6359705983264,54.329536738852745],[25.62526302380034,54.30812158980098],[25.578863534187093,54.304552398290994],[25.53841269708771,54.28670644074825],[25.521756470047077,54.27956805773102],[25.505100243006442,54.26410156119259],[25.461080214398315,54.247445334151955],[25.438475334843105,54.230789107111406],[25.44442398735768,54.20818422755566],[25.458700753392485,54.17606150397749],[25.40635261126404,54.151077163414854],[25.361142852153797,54.14036958888941],[25.35043527762685,54.11776470933456],[25.364712043662454,54.09753929078491],[25.3682812351712,54.07255495022307],[25.359953121650882,54.05589872318252],[25.359953121650882,54.04519114865709],[25.3754196181886,54.024965730106466],[25.395645036737893,54.009499233568036],[25.43728560434028,53.997601928539595],[25.481305632947606,53.998791659041714],[25.521756470047077,53.98332516250408],[25.565776498654404,53.97380731848173],[25.590760839216156,53.914320793334824],[25.60741706625679,53.9083721408206],[25.590760839216156,53.87862887824755],[25.572914881672695,53.87862887824755],[25.570535420666864,53.869111034224225],[25.581242995192923,53.846506154668575],[25.58957110871324,53.831039658131914]]]]}},{"type":"Feature","properties":{"kind":"district","id":"uyezd-1897-706","name":"Вилейский","provinceId":"gubernia-1897-72"},"geometry":{"type":"MultiPolygon","coordinates":[[[[26.735281583020267,54.12252363134489],[26.76502484559368,54.09753929078491],[26.786439994645797,54.104677673802136],[26.810234604703922,54.09634956028093],[26.799527030177774,54.077313872234285],[26.773352959113907,54.065416567205844],[26.817372987721324,54.05946791469162],[26.84116759778007,54.065416567205844],[26.853064902809134,54.04757060966132],[26.82570110124164,54.038052765638],[26.810234604703922,54.02615546061045],[26.866151938341112,54.003550581054704],[26.837598406271415,53.998791659041714],[26.810234604703922,54.00593004206071],[26.76740430659942,54.003550581054704],[26.766214576096505,53.97856624049295],[26.8364086757685,53.98451489300806],[26.91731034996664,53.98451489300806],[26.923259002481128,54.013068425078025],[26.941104960024678,54.04757060966132],[26.97560714460966,54.08921117726371],[26.9708482225972,54.10348794329825],[27.012488790199498,54.110626326317245],[27.02676555623439,54.13204147536821],[27.11361588294782,54.13204147536821],[27.130272109988454,54.149887432912735],[27.148118067531914,54.15464635492386],[27.14930779803483,54.13917985838721],[27.13384130149711,54.12966201436389],[27.124323457473878,54.10348794329825],[27.215932706198167,54.10824686531035],[27.214742975695252,54.09397009927493],[27.234968394244543,54.095159829778815],[27.234968394244543,54.08802144676159],[27.26828084832661,54.0904009077676],[27.275419231344014,54.11181605681945],[27.33966467850152,54.11776470933456],[27.33728521749569,54.101108482293924],[27.381305246103107,54.10943659581335],[27.38844362912042,54.1332312058721],[27.415807430688,54.14869770241053],[27.489570721868652,54.16297446844507],[27.537159941985525,54.17844096498359],[27.530021558967324,54.2200815325841],[27.51574479293252,54.239117220630746],[27.494329643880313,54.24268641213985],[27.5002782963948,54.2700502137077],[27.514555062429604,54.27480913571803],[27.510985870920948,54.31525997281821],[27.490760452371568,54.33905458287607],[27.5002782963948,54.37236703695724],[27.51336533192669,54.415197335063525],[27.5359702114827,54.44137140612748],[27.58117997059294,54.44732005864081],[27.59188754511909,54.45921736367014],[27.562144282546477,54.475873590710776],[27.53359075047687,54.49490927875831],[27.550246977517503,54.50085793127253],[27.59664646713066,54.50085793127253],[27.656132992276508,54.5317909243477],[27.672789219317142,54.563913647926675],[27.658512453282338,54.57819041396308],[27.653753531270677,54.60555421552906],[27.638287034732958,54.61150286804328],[27.628769190709725,54.6245899035757],[27.57166212656971,54.64005640011422],[27.55381616902616,54.637676939108125],[27.543108594500012,54.629348825586916],[27.53834967248844,54.65552289665088],[27.52288317594992,54.6709893931893],[27.53834967248844,54.69478400324805],[27.534780480979784,54.70906076928259],[27.550246977517503,54.72214780481501],[27.546677786008757,54.73523484034646],[27.619251346686582,54.78758298247526],[27.638287034732958,54.780444599457944],[27.65256380076785,54.77568567744673],[27.671599488814227,54.77568567744673],[27.70134275138755,54.79472136549337],[27.717998978428184,54.8030494790128],[27.74655251049868,54.80185974851068],[27.747742241001507,54.814946784043016],[27.75250116301308,54.847069507620304],[27.732275744463077,54.88871007522269],[27.776295773071205,54.90893549377323],[27.771536851059544,54.930350642825076],[27.77748550357412,54.97080147992437],[27.776295773071205,55.00054474249734],[27.763208737539227,55.024339352555195],[27.751311432510253,55.02671881356129],[27.707291403902126,55.0350469270825],[27.710860595410782,55.06003126764247],[27.683496793844,55.06597992015758],[27.683496793844,55.06003126764247],[27.669220027808397,55.06003126764247],[27.658512453282338,55.077877225186995],[27.595456736627746,55.082636147198215],[27.582369701095857,55.106430757255985],[27.51574479293252,55.1183280622854],[27.49789883538897,55.09691291323364],[27.478863147342594,55.09096426071933],[27.470535033822276,55.104051296250866],[27.46934530331936,55.13855348083594],[27.456258267786673,55.161158360389905],[27.437222579740208,55.176624856928335],[27.39320255113288,55.161158360389905],[27.342044139507262,55.14926105536235],[27.27660896184693,55.12546644530263],[27.248055429776432,55.12308698429662],[27.20522513167202,55.13736375033204],[27.16477429457255,55.15401997737259],[27.13384130149711,55.18019404843655],[27.114805613450734,55.21231677201561],[27.069595854339603,55.23968057358248],[27.038662861263365,55.236111382073474],[27.007729868187926,55.25752653112701],[26.979176336118318,55.244439495594676],[26.94824334304208,55.21826542453072],[26.93515630751019,55.20993731100951],[26.941104960024678,55.19804000598107],[26.972037953100916,55.17543512642622],[26.957761187065312,55.17424539592233],[26.944674151533334,55.15283024687048],[26.94586388203625,55.13855348083594],[26.933966577007276,55.13617401982993],[26.923259002481128,55.11594860127931],[26.868531399346853,55.086205338706336],[26.839977867277245,55.077877225186995],[26.826890831744468,55.093343721723656],[26.804285952189346,55.09929237423876],[26.792388647160372,55.06954911166579],[26.80547568269226,55.03980584909371],[26.826890831744468,54.9850782459589],[26.8364086757685,54.96366309690617],[26.857823824820706,54.96009390539716],[26.848305980797562,54.93748902584319],[26.85187517230622,54.89465872773691],[26.86139301632945,54.86610519566695],[26.86139301632945,54.8482592381242],[26.85663409431779,54.8482592381242],[26.847116250294647,54.856587351643626],[26.82332164023581,54.86134627365573],[26.82332164023581,54.844690046615185],[26.832839484259843,54.83993112460299],[26.8435470587859,54.81018786203002],[26.860203285826536,54.80185974851068],[26.867341668843938,54.78877271297738],[26.860203285826536,54.77687540794884],[26.85425463331205,54.76140891141041],[26.831649753756928,54.75902945040618],[26.82570110124164,54.75189106738709],[26.80785514369809,54.75664998940009],[26.76978376760525,54.74832187587888],[26.755507001569647,54.73523484034646],[26.734091852517352,54.73166564883833],[26.728143200002865,54.7209580743129],[26.74717888804933,54.71025049978648],[26.76026592358122,54.71144023028869],[26.766214576096505,54.70549157777438],[26.778111881125568,54.69835319475715],[26.791198916657457,54.67931750671051],[26.791198916657457,54.64957424413754],[26.76264538458785,54.63886666961024],[26.72457400849421,54.635297478103006],[26.721004816985463,54.618641251060595],[26.710297242459404,54.60198502401996],[26.718625355979633,54.58532879697941],[26.72933293050578,54.57343149195],[26.72457400849421,54.550826612394346],[26.72933293050578,54.530601193845584],[26.718625355979633,54.51632442781104],[26.69364101541877,54.4937195482553],[26.682933440891823,54.47825305171776],[26.679364249383166,54.465166016185336],[26.65081071731347,54.460407094173235],[26.628205837758347,54.456837902664134],[26.638913412284495,54.44256113662959],[26.62225718524386,54.43661248411537],[26.610359880214087,54.43661248411537],[26.609170149711172,54.424715179086846],[26.596083114179194,54.42114598757686],[26.60203176669368,54.41281787405752],[26.643672334296067,54.389023263997885],[26.64010314278741,54.36998757595124],[26.547304163559406,54.36522865394002],[26.54849389406232,54.329536738852745],[26.56633985160667,54.32239835583552],[26.64248260379315,54.320018894829424],[26.730522661008695,54.28075778823313],[26.754317271066732,54.259342639180396],[26.774542689616823,54.229599376607425],[26.792388647160372,54.19985611403446],[26.76264538458785,54.15583608542784],[26.735281583020267,54.12252363134489]]]]}},{"type":"Feature","properties":{"kind":"district","id":"uyezd-1897-708","name":"Виленский","provinceId":"gubernia-1897-72"},"geometry":{"type":"MultiPolygon","coordinates":[[[[24.434071509000468,55.06053936720396],[24.46289632245268,55.03385719657852],[24.495019046031032,55.02314962205308],[24.51881365608987,55.018390700040094],[24.54379799665073,55.00649339501068],[24.555695301679794,54.99816528149134],[24.589007755761862,54.979129593443716],[24.623509940345958,54.976750132439484],[24.63064832336336,54.96723228841616],[24.66634023845126,54.955334983386834],[24.682996465491804,54.945817139362624],[24.70203215353827,54.93391983433321],[24.74248299063774,54.93391983433321],[24.8031592462865,54.90774576326934],[24.810297629303903,54.889899805726586],[24.847179274893918,54.882761422709365],[24.853127927408405,54.86491546516484],[24.866214962940294,54.86372573466272],[24.875732806964326,54.85301816013631],[24.901906878028193,54.84944896862632],[24.90309660853102,54.839931124603],[24.885250650987558,54.8363619330939],[24.89000957299913,54.82565435856846],[24.884060920484643,54.81256732303613],[24.891199303502045,54.801859748510694],[24.917373374565912,54.79710082649849],[24.91499391356008,54.811377592534015],[24.92808094909206,54.82208516706034],[24.962583133676954,54.811377592534015],[24.94354744563049,54.78877271297729],[24.94592690663632,54.77925486895397],[24.96853178619144,54.77330621644073],[24.987567474237906,54.7518910673871],[24.97448043870593,54.74951160638287],[24.980429091220415,54.737614301353446],[25.003033970775626,54.736424570850446],[25.011362084296742,54.72571699632314],[25.044674538377922,54.72571699632314],[25.072038339944704,54.71619915229982],[25.08036645346582,54.69359427274408],[25.074417800950446,54.67931750671052],[25.086315105980308,54.649574244137554],[25.107730255032514,54.64481532212535],[25.113678907547,54.63767693910813],[25.130335134587636,54.61745152055849],[25.176734624201593,54.60674394603305],[25.210047078282862,54.59841583251185],[25.23622114934753,54.581759605471206],[25.25882602890256,54.571052030943996],[25.257636298399735,54.54487795988004],[25.260015759405476,54.52108334982218],[25.277861716949115,54.500857931272535],[25.285000099966428,54.479442782219884],[25.27429252544037,54.47111466870045],[25.255256837393905,54.46040709417324],[25.22551357482138,54.45088925015081],[25.19814977325389,54.436612484115386],[25.192201120739313,54.40448976053632],[25.148181092131185,54.38783353349568],[25.152940014143557,54.36641838444392],[25.176734624201593,54.35095188790548],[25.193390851242228,54.337864852373954],[25.194580581745143,54.32715727784674],[25.201718964762545,54.317639433824304],[25.24335953236493,54.32239835583552],[25.252877376388163,54.311690781310084],[25.22075465280981,54.30812158980098],[25.242169801862016,54.28789617125036],[25.26953360342871,54.27599886622192],[25.315933093042666,54.26053236968438],[25.36352231315954,54.26172210018649],[25.380178540200173,54.25458371716927],[25.39921422824655,54.262911830690385],[25.405162880761125,54.27956805773102],[25.43133695182579,54.28432697974135],[25.451562370375083,54.29265509326255],[25.45751102288957,54.32358808633764],[25.48249536345052,54.34381350488728],[25.506289973509357,54.337864852373954],[25.51818727853842,54.33667512187006],[25.539602427590538,54.33191619985884],[25.539602427590538,54.32239835583552],[25.5086694345151,54.31882916432731],[25.506289973509357,54.30217293728676],[25.516997548035505,54.28908590175434],[25.521756470047077,54.27956805773102],[25.53841269708771,54.28670644074825],[25.578863534187093,54.304552398290994],[25.62526302380034,54.30812158980098],[25.6359705983264,54.329536738852745],[25.646678172853346,54.347382696397275],[25.662144669391065,54.35809027092271],[25.652626825367832,54.385454072489665],[25.6359705983264,54.39259245550787],[25.64548844235043,54.403300030034195],[25.631211676314827,54.41876652657085],[25.641919250841774,54.43066383160018],[25.66571386089972,54.42709464009117],[25.672852243917212,54.44613032813869],[25.693077662466504,54.465166016185336],[25.666903591402637,54.49847847026652],[25.679990626934526,54.50799631428984],[25.704974967495478,54.4972887397644],[25.728769577554402,54.49847847026652],[25.748994996103693,54.51156550579894],[25.782307450185762,54.547257420886126],[25.784686911191503,54.57581095295609],[25.78587664169442,54.59246717999664],[25.817999365272772,54.60317475452305],[25.832276131307577,54.59603637150574],[25.873916698909962,54.60674394603304],[25.87748589041862,54.617451520558475],[25.894142117459253,54.619830981563595],[25.90960861399706,54.63291801709691],[25.95124918159936,54.63291801709691],[25.959577295119676,54.625779634079684],[25.983371905177712,54.628159095083916],[26.04047896931773,54.622210442569695],[26.086878458931686,54.629348825586916],[26.10591414697815,54.65671262715477],[26.12138064351587,54.68764562022985],[26.15707255860368,54.69716346425317],[26.183246629667547,54.692404542242045],[26.21061043123504,54.70073265576316],[26.21774881425253,54.717388882803796],[26.203472048217726,54.74713214537677],[26.214179622743785,54.75070133688497],[26.207041239726383,54.760219180908294],[26.203472048217726,54.78520352147005],[26.184436360170462,54.795911095996374],[26.17491851614723,54.80780840102402],[26.188005551679208,54.81613651454522],[26.15231363659211,54.83160301108365],[26.149934175586278,54.847069507620304],[26.124949835024616,54.8530181601363],[26.099965494463664,54.845879777117304],[26.04999681334105,54.83874139410088],[26.015494628756777,54.82208516706033],[25.99407947970466,54.82803381957455],[25.97147460014865,54.81970570605334],[25.975043791657395,54.81018786203002],[25.948869720593528,54.805428940019695],[25.93102376304998,54.795911095996374],[25.891762656453423,54.8066186705219],[25.878675620921534,54.81970570605334],[25.860829663377984,54.82565435856854],[25.835845322816322,54.83993112460299],[25.817999365272772,54.8530181601363],[25.804912329740795,54.86729492617084],[25.791825294208905,54.87562303969027],[25.776358797670387,54.87086411767905],[25.77992798917993,54.84944896862631],[25.756133379121096,54.83517220259186],[25.738287421577546,54.847069507620304],[25.73947715208046,54.854207890639394],[25.731149038560144,54.87562303969027],[25.708544159004223,54.87443330918815],[25.69902631498108,54.8910895362287],[25.682370087940356,54.90298684125811],[25.63835005933223,54.91488414628655],[25.634780867823483,54.931540373327195],[25.658575477882408,54.94700686986562],[25.70140577598682,54.97080147992437],[25.75494364861818,54.99578582048612],[25.79539448571765,55.014821508531874],[25.820378826278514,55.042185310099725],[25.85369128036067,55.042185310099725],[25.854881010863497,55.05527234563125],[25.87510642941279,55.05765180663637],[25.871537237904132,55.068359381163674],[25.858450202372243,55.080256686192115],[25.883434542933195,55.093343721723656],[25.898901039470914,55.093343721723656],[25.916746997014375,55.098102643736645],[25.921505919026835,55.106430757255985],[25.934592954558724,55.1123794097703],[25.95362864260519,55.13855348083594],[25.966715678137078,55.176624856928335],[25.975043791657395,55.225403807548034],[25.961956756125417,55.231352460062254],[25.963146486628332,55.240870304086464],[25.95124918159936,55.250388148109785],[25.91317780550572,55.22302434654193],[25.854881010863497,55.23373192106915],[25.819189095775688,55.23373192106915],[25.81086098225537,55.242060034588576],[25.773979336664645,55.24324976509247],[25.718062003028255,55.22302434654193],[25.675231704922954,55.253957339618],[25.635699316944862,55.28777789326067],[25.583351174816773,55.29015735426676],[25.56074629526112,55.27707031873523],[25.52743384117914,55.27231139672401],[25.519105727659266,55.275880588232226],[25.520295458161648,55.28420870175254],[25.473895968548756,55.31038277281641],[25.473895968548756,55.33774657438337],[25.458429472010593,55.33774657438337],[25.445342436478793,55.32228007784671],[25.40251213837376,55.318710886336724],[25.391804563847522,55.28420870175254],[25.353733187753704,55.28063951024344],[25.347784535239306,55.254465439179484],[25.334697499707506,55.254465439179484],[25.31209262015185,55.27826004923823],[25.26450340003498,55.27944977974133],[25.235949867964926,55.28420870175254],[25.210965527403708,55.27944977974133],[25.19906822237509,55.24970651716826],[25.149099541252653,55.25327570867648],[25.112217895661928,55.25089624767136],[25.08604382459824,55.20092756654866],[25.04797244850451,55.20330702755378],[25.018229185932075,55.191409722525336],[24.980157809838257,55.2116351410741],[24.946845355757077,55.2223427156014],[24.92186101519586,55.197358375039556],[24.907584249160877,55.16761511246659],[24.900445866143386,55.13549238888841],[24.89092802212033,55.114077239835765],[24.85761556803844,55.117646431343886],[24.845718263008933,55.109318317824545],[24.795749581886497,55.114077239835765],[24.733883595735353,55.120025892349986],[24.726745212717862,55.12954373637419],[24.721986290705935,55.16166645995237],[24.682725184109735,55.16047672945025],[24.6398948860047,55.16880484296959],[24.624428389467337,55.16642538196447],[24.6137208149411,55.15333834643294],[24.627997580976082,55.12597454486421],[24.61966946745541,55.102179934807324],[24.598254318402937,55.08909289927392],[24.57326997784172,55.06410855871306],[24.530439679736684,55.07838532474848],[24.48760938163165,55.06410855871306],[24.434071509000468,55.06053936720396]]]]}},{"type":"Feature","properties":{"kind":"district","id":"uyezd-1897-709","name":"Свенцянский","provinceId":"gubernia-1897-72"},"geometry":{"type":"MultiPolygon","coordinates":[[[[25.72000099158002,55.48179454478574],[25.68090907605537,55.48765261775041],[25.654735004991682,55.4959807312725],[25.649976082979844,55.48170396523619],[25.657114465997335,55.46504773819653],[25.6142841678923,55.45909908568045],[25.619043089904228,55.43411474512047],[25.592869018839828,55.422217440090165],[25.596438210348573,55.405561213050504],[25.53457222419663,55.38414606399786],[25.513157075144157,55.388904986009074],[25.517915997156173,55.36511037595024],[25.50125977011554,55.32584926935483],[25.523864649670394,55.318710886336724],[25.523864649670394,55.331797921869146],[25.53457222419663,55.334177382875154],[25.553607912243628,55.329418460863934],[25.557177103752373,55.33774657438337],[25.54171060721412,55.343695226899364],[25.54171060721412,55.36867956745934],[25.559556564757937,55.36867956745934],[25.572643600290537,55.36154118444212],[25.58097171381041,55.342505496395475],[25.603576593366064,55.344884957400595],[25.605956054371628,55.336556843880274],[25.565505217273046,55.31752115583363],[25.5488489902317,55.31752115583363],[25.54171060721412,55.30562385080519],[25.557177103752373,55.30086492879397],[25.596438210348573,55.31038277281641],[25.629750664430464,55.31990061683973],[25.657114465997335,55.29134708476977],[25.635699316944862,55.28777789326067],[25.675231704922954,55.253957339618],[25.718062003028255,55.22302434654193],[25.773979336664645,55.24324976509247],[25.81086098225537,55.242060034588576],[25.819189095775688,55.23373192106915],[25.854881010863497,55.23373192106915],[25.91317780550572,55.22302434654193],[25.95124918159936,55.250388148109785],[25.963146486628332,55.240870304086464],[25.961956756125417,55.231352460062254],[25.975043791657395,55.225403807548034],[25.966715678137078,55.176624856928335],[25.95362864260519,55.13855348083594],[25.934592954558724,55.1123794097703],[25.921505919026835,55.106430757255985],[25.916746997014375,55.098102643736645],[25.898901039470914,55.093343721723656],[25.883434542933195,55.093343721723656],[25.858450202372243,55.080256686192115],[25.871537237904132,55.068359381163674],[25.87510642941279,55.05765180663637],[25.854881010863497,55.05527234563125],[25.85369128036067,55.042185310099725],[25.820378826278514,55.042185310099725],[25.79539448571765,55.014821508531874],[25.75494364861818,54.99578582048612],[25.70140577598682,54.97080147992437],[25.658575477882408,54.94700686986562],[25.634780867823483,54.931540373327195],[25.63835005933223,54.91488414628655],[25.682370087940356,54.90298684125811],[25.69902631498108,54.8910895362287],[25.708544159004223,54.87443330918815],[25.731149038560144,54.87562303969027],[25.73947715208046,54.854207890639394],[25.738287421577546,54.847069507620304],[25.756133379121096,54.83517220259186],[25.77992798917993,54.84944896862631],[25.776358797670387,54.87086411767905],[25.791825294208905,54.87562303969027],[25.804912329740795,54.86729492617084],[25.817999365272772,54.8530181601363],[25.835845322816322,54.83993112460299],[25.860829663377984,54.82565435856854],[25.878675620921534,54.81970570605334],[25.891762656453423,54.8066186705219],[25.93102376304998,54.795911095996374],[25.948869720593528,54.805428940019695],[25.975043791657395,54.81018786203002],[25.97147460014865,54.81970570605334],[25.99407947970466,54.82803381957455],[26.015494628756777,54.82208516706033],[26.04999681334105,54.83874139410088],[26.099965494463664,54.845879777117304],[26.124949835024616,54.8530181601363],[26.149934175586278,54.847069507620304],[26.15231363659211,54.83160301108365],[26.188005551679208,54.81613651454522],[26.17491851614723,54.80780840102402],[26.184436360170462,54.795911095996374],[26.203472048217726,54.78520352147005],[26.205851509223468,54.7982905570007],[26.218938544755446,54.7982905570007],[26.25106126833371,54.779254868954055],[26.29151210543318,54.772116485936735],[26.28675318342161,54.75902945040618],[26.298650488450583,54.75546025889619],[26.295081296941927,54.74118349286165],[26.308168332473816,54.73047591833622],[26.283183991912864,54.72809645732923],[26.28675318342161,54.706681308276494],[26.32006563750288,54.704301847270486],[26.32244509850862,54.67455858469752],[26.34504997806454,54.65314343564567],[26.343860247561715,54.607933676535154],[26.3498089000762,54.57819041396308],[26.364085666111006,54.567482839436664],[26.365275396613832,54.549636881892226],[26.38074189315155,54.53654984636069],[26.437848957291656,54.52227308032438],[26.460453836846867,54.50323739227774],[26.491386829923016,54.49252981775319],[26.50328413495208,54.48063251272377],[26.519940361992713,54.47825305171776],[26.534217128027517,54.46754547719135],[26.54135551104492,54.4508892501508],[26.529458206015946,54.43780221461749],[26.540165780542093,54.43066383160018],[26.565150121103756,54.43304329260627],[26.596083114179194,54.42114598757686],[26.609170149711172,54.424715179086846],[26.610359880214087,54.43661248411537],[26.62225718524386,54.43661248411537],[26.638913412284495,54.44256113662959],[26.628205837758347,54.456837902664134],[26.65081071731347,54.460407094173235],[26.679364249383166,54.465166016185336],[26.682933440891823,54.47825305171776],[26.69364101541877,54.4937195482553],[26.718625355979633,54.51632442781104],[26.72933293050578,54.530601193845584],[26.72457400849421,54.550826612394346],[26.72933293050578,54.57343149195],[26.718625355979633,54.58532879697941],[26.710297242459404,54.60198502401996],[26.721004816985463,54.618641251060595],[26.72457400849421,54.635297478103006],[26.76264538458785,54.63886666961024],[26.791198916657457,54.64957424413754],[26.791198916657457,54.67931750671051],[26.778111881125568,54.69835319475715],[26.766214576096505,54.70549157777438],[26.76026592358122,54.71144023028869],[26.74717888804933,54.71025049978648],[26.728143200002865,54.7209580743129],[26.734091852517352,54.73166564883833],[26.755507001569647,54.73523484034646],[26.76978376760525,54.74832187587888],[26.80785514369809,54.75664998940009],[26.82570110124164,54.75189106738709],[26.831649753756928,54.75902945040618],[26.85425463331205,54.76140891141041],[26.860203285826536,54.77687540794884],[26.867341668843938,54.78877271297738],[26.860203285826536,54.80185974851068],[26.8435470587859,54.81018786203002],[26.832839484259843,54.83993112460299],[26.82332164023581,54.844690046615185],[26.82332164023581,54.86134627365573],[26.847116250294647,54.856587351643626],[26.85663409431779,54.8482592381242],[26.86139301632945,54.8482592381242],[26.86139301632945,54.86610519566695],[26.85187517230622,54.89465872773691],[26.848305980797562,54.93748902584319],[26.857823824820706,54.96009390539716],[26.8364086757685,54.96366309690617],[26.826890831744468,54.9850782459589],[26.80547568269226,55.03980584909371],[26.792388647160372,55.06954911166579],[26.804285952189346,55.09929237423876],[26.826890831744468,55.093343721723656],[26.839977867277245,55.077877225186995],[26.868531399346853,55.086205338706336],[26.862582746832366,55.10167183524486],[26.853064902809134,55.12308698429662],[26.870910860352684,55.13141509781694],[26.850685441803392,55.14331240284716],[26.82332164023581,55.15758916888169],[26.791198916657457,55.173055665419234],[26.779301611628483,55.19804000598107],[26.792388647160372,55.21826542453072],[26.80785514369809,55.21707569402683],[26.809044874201007,55.23373192106915],[26.826890831744468,55.259905992133106],[26.8364086757685,55.258716261629125],[26.832839484259843,55.27894168017975],[26.831649753756928,55.2944081767164],[26.831649753756928,55.30868494275272],[26.866151938341112,55.30987467325483],[26.883997895884573,55.307495212248824],[26.891136278902064,55.31820278677604],[26.87403957940754,55.324750118399606],[26.850244969349415,55.32593984890261],[26.834778472811163,55.33902688443503],[26.81812224577044,55.340216614938036],[26.789568713700564,55.34616526745323],[26.756256259619118,55.34616526745323],[26.72413353604023,55.34616526745323],[26.72056434453104,55.35568311147655],[26.70509784799359,55.35925230298468],[26.66821620240304,55.35568311147655],[26.626575634800833,55.35449338097257],[26.594452911222657,55.34735499795624],[26.56708910965543,55.35092418946445],[26.531397194568154,55.35568311147655],[26.486187435456756,55.36639068600288],[26.476669591433524,55.35925230298468],[26.426700910311265,55.37828799103132],[26.418372796790592,55.40684152310226],[26.377921959691566,55.43539505517222],[26.33985058359846,55.46751777875031],[26.308917590522842,55.47941508377885],[26.262518100908974,55.49012265830517],[26.233964568839188,55.47584589227063],[26.224446724815866,55.456810204223984],[26.176857504698816,55.44015397718246],[26.15068343363477,55.434205324669136],[26.13402720659396,55.43658478567434],[26.107853135530004,55.42111828913582],[26.07810987295686,55.40565179259917],[26.059074184910305,55.40922098410738],[26.02933092233796,55.4175490976277],[26.017433617308185,55.43301559416613],[25.98055197171835,55.42944640265614],[25.92582436858372,55.43658478567434],[25.910357872046266,55.42349775014281],[25.906788680537165,55.40208260108918],[25.88894272299397,55.38780583505464],[25.82707673684185,55.4116004451125],[25.78424643873708,55.41635936712558],[25.740226410129043,55.413979906119486],[25.72594964409415,55.4258772111489],[25.71762153057419,55.46513831774519],[25.72000099158002,55.48179454478574]]]]}}]}
