{"type":"FeatureCollection","features":[{"type":"Feature","properties":{"kind":"province","id":"gubernia-1897-14","name":"Люблинская губерния"},"geometry":{"type":"MultiPolygon","coordinates":[[[[24.16203304417281,50.63602540076592],[24.16488214237417,50.649659961882236],[24.125621035778416,50.65560861439734],[24.116103191754384,50.642521578864915],[24.095877773205093,50.6413318483628],[24.086359929181885,50.649659961882215],[24.085398833629046,50.66972755293956],[24.068742606588412,50.682814588471004],[24.063983684576485,50.70304000702074],[24.072311798097157,50.71612704255405],[24.066363145582137,50.72445515607437],[24.05446584055343,50.72683461707949],[24.044947996530375,50.71850650356006],[24.02234311697472,50.72564488657648],[24.027102038986648,50.762526532166675],[24.018773925465975,50.7768032982021],[24.004497159430993,50.77323410669398],[23.986651201887266,50.7768032982021],[23.973564166355377,50.76966491518399],[23.958097669817214,50.79821844725395],[23.959287400320395,50.817254135300594],[23.972374435852284,50.82558224882082],[23.977133357864123,50.835100092845124],[23.997358776413503,50.841048745359345],[24.02829176948903,50.83985901485634],[24.04732745753594,50.831530901336905],[24.0949166776521,50.84580766737056],[24.135367514751483,50.85770497240087],[24.136557245254664,50.87198173843443],[24.116331826704574,50.88506877396773],[24.084209103125865,50.89339688748805],[24.03424042200414,50.90410446201349],[24.005686889934175,50.920760689055015],[23.991410123899104,50.93503745509044],[23.95690793931412,50.97429856168672],[23.934303059759177,51.006421285264906],[23.917646832717832,51.01474939878425],[23.918836563221014,51.03140562582577],[23.924785215735323,51.04211320035209],[23.914077641209087,51.05044131387329],[23.90337006668285,51.075425654433275],[23.874816534612798,51.08375376795448],[23.866488421092658,51.10040999499502],[23.849832194052023,51.1337224490762],[23.864108960086828,51.142050562597404],[23.85340138556077,51.16227598114715],[23.828417044999817,51.17298355567258],[23.8129505484613,51.16822463366137],[23.77963809438003,51.20391654874944],[23.76417159784231,51.20391654874944],[23.749894831806706,51.217003584280974],[23.733238604766072,51.230090619813396],[23.70825426420512,51.277679839929114],[23.69754668967906,51.29433606696966],[23.67256234911731,51.299094988981764],[23.651147200065015,51.296715527975756],[23.645198547550528,51.28243876194122],[23.628542320509982,51.28005930093512],[23.59879905793666,51.28005930093512],[23.571435256369877,51.32526906004572],[23.554779029329243,51.33835609557805],[23.54288172429947,51.370478819157114],[23.470308163621645,51.37523774116922],[23.445323823060694,51.4002220817292],[23.417960021494,51.390704237705876],[23.434616248534635,51.372858280163214],[23.34419673031326,51.35382259211657],[23.315643198242853,51.37523774116922],[23.279951283155754,51.387135046197756],[23.259725864605663,51.387135046197756],[23.253777212091176,51.374048010665334],[23.28589993567024,51.34668420909926],[23.244259368067944,51.33597663457205],[23.183583112419182,51.36215070563591],[23.163357693869802,51.383565854688655],[23.119337665261675,51.385945315694656],[23.061040870619454,51.4026015427353],[23.009882458993925,51.42282696128494],[22.986087848935888,51.42044750027893],[22.9730008134032,51.40498100374042],[22.932451901629037,51.39507426605999],[22.912226483078946,51.39983318807121],[22.90627783056446,51.435525103160174],[22.880103759500592,51.45456079120593],[22.849170766425154,51.459319713218036],[22.83727346139538,51.44266348617749],[22.809909659828598,51.441473755673506],[22.784925319267646,51.56520572797668],[22.726628524624715,51.5794824940122],[22.68022903501067,51.59970791256184],[22.66714199947878,51.62588198362571],[22.68022903501067,51.631830636140904],[22.711162028086996,51.637779288655125],[22.731387446636287,51.656814976700886],[22.73376690764203,51.66514309022209],[22.706403106075335,51.68060958675963],[22.699264723057134,51.69726581380017],[22.665952268975865,51.715111771343814],[22.6469165809294,51.723439884865016],[22.627880892882224,51.723439884865016],[22.605276013327103,51.70559392732138],[22.571963559245834,51.68179931726263],[22.527943530637707,51.654435515695674],[22.494631076556438,51.63421009714692],[22.449421317445395,51.640158749660245],[22.416108863363416,51.60803602608118],[22.353053146709534,51.59851818205786],[22.347104494194248,51.58900033803454],[22.31855096212464,51.59732845155575],[22.306653657095577,51.592569529544534],[22.281669316533915,51.59970791256184],[22.236459557423583,51.59137979904064],[22.207906025353175,51.59137979904064],[22.17102437976325,51.585431146527306],[22.15555788322553,51.574723572],[22.11272758512023,51.56282626697156],[22.078225400536134,51.574723572],[22.031825910922088,51.569964649988876],[21.996133995834366,51.5794824940122],[21.953303697729865,51.60803602608118],[21.868832832023067,51.602087373567855],[21.834330647438083,51.611605217591176],[21.816484689894533,51.60446683457395],[21.81172576788296,51.58662087702942],[21.814874881708047,51.56573449708864],[21.835100300257427,51.533611773511446],[21.848187335789405,51.51695554647081],[21.866033293332865,51.48959174490305],[21.879120328865643,51.47769443987363],[21.91600197445557,51.46579713484519],[21.931468470993288,51.43129495026003],[21.93860685401069,51.389654382657646],[21.9742987690985,51.368239233604996],[21.980247421612987,51.35515219807435],[21.968350116584013,51.33968570153592],[21.925519818478712,51.32302947449537],[21.888638172888786,51.29923486443565],[21.856515449309633,51.292096481418426],[21.850566796795146,51.286147828904205],[21.851280635097304,51.27068133236568],[21.82867575554147,51.25640456633115],[21.80845033699209,51.24926618331392],[21.807260606489177,51.22547157325518],[21.78346599643114,51.18740019716278],[21.78346599643114,51.16955423961825],[21.776327613413027,51.14456989905828],[21.794173570957287,51.12315475000465],[21.787035187939885,51.10887798396922],[21.792983840454372,51.083893643409255],[21.78584545743697,51.06842714687082],[21.813209259003752,51.05652984184238],[21.812019528500837,51.03392496228575],[21.79893249296886,51.03035577077843],[21.795363301460203,51.00537143021667],[21.80369141498052,50.978007628648825],[21.809640067495007,50.96016167110608],[21.80845033699209,50.93993625255643],[21.827486025038557,50.91733137300157],[21.83224494705013,50.87688053590139],[21.84652171308502,50.86141403936287],[21.842952521576276,50.82810158528169],[21.867936862137938,50.81263508874504],[21.866033293332848,50.80192751421782],[21.86500246238789,50.779249233428104],[21.93723700372156,50.759757373068204],[21.971739188306632,50.759757373068204],[21.988395415347178,50.73715249351246],[22.018138677919612,50.71454761395672],[22.00981056439974,50.67647623786343],[22.100230082620847,50.65268162780558],[22.145439841732156,50.66814812434409],[22.2203928634159,50.66338920233288],[22.244187473473936,50.62055890422651],[22.312520798286528,50.61967145844966],[22.335796722198154,50.619369173723555],[22.408370282876376,50.60033348567691],[22.42026758790496,50.57177995360695],[22.4000421693558,50.48611935739706],[22.376247559297667,50.468273399854354],[22.35697754871876,50.45627509138103],[22.313191842642595,50.42901229325713],[22.32627887817523,50.41235606621734],[22.34650429672439,50.404027952697106],[22.347694027227703,50.39332037817002],[22.366729715273777,50.3909409171647],[22.363160523765032,50.379043612136286],[22.386955133823903,50.36357711559697],[22.39766270835014,50.34930034956341],[22.41193947438512,50.3540592715745],[22.41431893539078,50.344541427550325],[22.45120058098132,50.327885200510536],[22.454769772490067,50.33859277503609],[22.489271957074436,50.32431600900145],[22.513066567132512,50.31598789548036],[22.53329198568173,50.32193654799636],[22.543999560207965,50.327885200510536],[22.534481716184985,50.34573115805341],[22.541620099202476,50.355249002077414],[22.590399049821826,50.36119765459182],[22.61895258189179,50.35762846308273],[22.64155746144735,50.36119765459182],[22.69747479508419,50.3564387325805],[22.664162341003134,50.33859277503609],[22.632039617424425,50.33859277503609],[22.613003929377385,50.318367356487215],[22.632039617424425,50.307659781960126],[22.661782879996736,50.307659781960126],[22.70223371709625,50.30171112944572],[22.777186738779903,50.31003924296613],[22.871175448509803,50.30290085994881],[23.030599335901,50.293383015926395],[23.063911789982228,50.31122897346904],[23.09008586104659,50.33621331403009],[23.128157237139646,50.3540592715745],[23.160279960718356,50.39213064766693],[23.19597187580581,50.399269030684025],[23.20896480609355,50.39465863606621],[23.232853521396517,50.38618199515258],[23.24832001793397,50.38618199515258],[23.270924897489625,50.37428469012325],[23.30066816006277,50.369525768112034],[23.362534146213914,50.41116633571442],[23.378000642752077,50.41116633571442],[23.422020671359405,50.40759714420621],[23.474368813488294,50.41116633571442],[23.489835310025658,50.37309495962016],[23.539803991148183,50.40640741370321],[23.592152133276983,50.40640741370321],[23.594531594282547,50.39332037816989],[23.665915424457545,50.388561456158676],[23.693279226024327,50.40878687470921],[23.68257165149809,50.43377121527007],[23.683761382001272,50.464704208346134],[23.757524673181834,50.461135016837034],[23.790837127263725,50.475411782871575],[23.81463173732185,50.46827339985435],[23.828908503356832,50.45875555583005],[23.881256645484832,50.463514477843134],[23.914569099566723,50.48373989639278],[23.943122631636776,50.5301393860054],[24.0323524193555,50.53965723002872],[24.066854603939774,50.52181127248606],[24.082321100477937,50.53846749952572],[24.115633554559118,50.551554535058145],[24.108495171541627,50.57534914511689],[24.07042379544852,50.57534914511689],[24.072803256454172,50.58843618064842],[24.076372447962918,50.613420521209285],[24.12396166807979,50.613420521209285],[24.14418708662908,50.624128095735614],[24.16203304417281,50.63602540076592]]]]}},{"type":"Feature","properties":{"kind":"district","id":"uyezd-1897-166","name":"Яновский","provinceId":"gubernia-1897-14"},"geometry":{"type":"MultiPolygon","coordinates":[[[[21.86500246238789,50.779249233428104],[21.93723700372156,50.759757373068204],[21.971739188306632,50.759757373068204],[21.988395415347178,50.73715249351246],[22.018138677919612,50.71454761395672],[22.00981056439974,50.67647623786343],[22.100230082620847,50.65268162780558],[22.145439841732156,50.66814812434409],[22.2203928634159,50.66338920233288],[22.244187473473936,50.62055890422651],[22.31252079828649,50.619671458449645],[22.33163799765651,50.641974857715496],[22.37208883475598,50.637215935702415],[22.439903473422145,50.62055970866187],[22.47678511901216,50.643164588217616],[22.54578948818124,50.68837434732812],[22.558876523713128,50.70978949638175],[22.5636354457255,50.73477383694173],[22.58148140326905,50.73477383694173],[22.602896552321255,50.72168680141108],[22.64453711992364,50.714548418392084],[22.645726850426556,50.7312046454344],[22.670711190987507,50.76094790800559],[22.672887305198515,50.76675087923513],[22.674280382496164,50.77046575202891],[22.649296041935212,50.81329605013528],[22.613604126847402,50.85612634823978],[22.585050594777794,50.84898796522247],[22.56601490673133,50.85612634823978],[22.560066254216043,50.84065985170126],[22.537461374660833,50.83233173818192],[22.48749269353822,50.85374688723368],[22.48987215454405,50.893007993829976],[22.473215927503414,50.897766915842084],[22.475595388509245,50.91561287338483],[22.49938999856808,50.91561287338483],[22.502959190076737,50.937028022438454],[22.48749269353822,50.947735596963895],[22.495820807059335,50.95844317149111],[22.4720261970005,50.98937616456628],[22.393503983808188,51.00008373909172],[22.38279640928204,51.036965384681906],[22.34948395520006,51.04886268971133],[22.341155841679743,51.07860595228429],[22.281669316533897,51.0833648742964],[22.223372521891676,51.06551891675187],[22.25787470647577,51.051242150717336],[22.2602541674816,51.025068079653465],[22.21266494736553,51.02149888814526],[22.175783301774803,51.0405345761919],[22.12105569864053,51.05243188122043],[22.071087017517915,51.051242150717336],[21.9854264213082,51.041724306694015],[21.92237070465361,50.99532481708139],[21.812019528500837,51.03392496228575],[21.79893249296886,51.03035577077843],[21.795363301460203,51.00537143021667],[21.80369141498052,50.978007628648825],[21.809640067495007,50.96016167110608],[21.80845033699209,50.93993625255643],[21.827486025038557,50.91733137300157],[21.83224494705013,50.87688053590139],[21.84652171308502,50.86141403936287],[21.842952521576276,50.82810158528169],[21.867936862137938,50.81263508874504],[21.866033293332848,50.80192751421782],[21.86500246238789,50.779249233428104]]]]}},{"type":"Feature","properties":{"kind":"district","id":"uyezd-1897-167","name":"Белгорайский","provinceId":"gubernia-1897-14"},"geometry":{"type":"MultiPolygon","coordinates":[[[[22.31252079828649,50.619671458449645],[22.335796722198154,50.619369173723555],[22.408370282876376,50.60033348567691],[22.42026758790496,50.57177995360695],[22.4000421693558,50.48611935739706],[22.376247559297667,50.468273399854354],[22.35697754871876,50.45627509138103],[22.313191842642595,50.42901229325713],[22.32627887817523,50.41235606621734],[22.34650429672439,50.404027952697106],[22.347694027227703,50.39332037817002],[22.366729715273777,50.3909409171647],[22.363160523765032,50.379043612136286],[22.386955133823903,50.36357711559697],[22.39766270835014,50.34930034956341],[22.41193947438512,50.3540592715745],[22.41431893539078,50.344541427550325],[22.45120058098132,50.327885200510536],[22.454769772490067,50.33859277503609],[22.489271957074436,50.32431600900145],[22.513066567132512,50.31598789548036],[22.53329198568173,50.32193654799636],[22.543999560207965,50.327885200510536],[22.534481716184985,50.34573115805341],[22.541620099202476,50.355249002077414],[22.590399049821826,50.36119765459182],[22.61895258189179,50.35762846308273],[22.64155746144735,50.36119765459182],[22.69747479508419,50.3564387325805],[22.664162341003134,50.33859277503609],[22.632039617424425,50.33859277503609],[22.613003929377385,50.318367356487215],[22.632039617424425,50.307659781960126],[22.661782879996736,50.307659781960126],[22.70223371709625,50.30171112944572],[22.777186738779903,50.31003924296613],[22.871175448509803,50.30290085994881],[23.030599335901,50.293383015926395],[23.063911789982228,50.31122897346904],[23.09008586104659,50.33621331403009],[23.128157237139646,50.3540592715745],[23.160279960718356,50.39213064766693],[23.19597187580581,50.399269030684025],[23.208964806093604,50.39465863606631],[23.22023612305992,50.410524130797114],[23.248789655129542,50.454544159404634],[23.22975396708307,50.496184727007005],[23.182164746966293,50.493805266000095],[23.176216094451718,50.50689230153233],[23.15837013690816,50.52711772008297],[23.120298760814705,50.52711772008297],[23.113160377797215,50.51522041505365],[23.12624741332911,50.498564188013006],[23.13100633534077,50.484287421976774],[23.08109891711672,50.47358750531299],[23.082357944996374,50.463515282277626],[23.044286568902578,50.43258228920149],[23.00740492331272,50.43734121121366],[22.9752821997335,50.44804878573922],[22.976471930236414,50.46708447378671],[22.964574625207433,50.47184339579877],[22.941969745652386,50.45518716875813],[22.91103675257608,50.45280770775213],[22.883672951009203,50.45994609076939],[22.795632893793822,50.48493043132942],[22.75637178719728,50.48730989233542],[22.731387446636404,50.49444827535274],[22.708782567081187,50.49563800585668],[22.68260849601654,50.478981778816035],[22.66357280797007,50.48730989233542],[22.674280382496136,50.49920719736474],[22.692126340039692,50.51229423289715],[22.714731219595762,50.50634558038206],[22.736146368647894,50.51348396339938],[22.777786936250266,50.507535310885146],[22.798012354799653,50.51110450239514],[22.807530198822803,50.55036560899134],[22.81109939033155,50.57297048854616],[22.803961007314058,50.5896267155868],[22.75637178719728,50.59557536810195],[22.70759283657827,50.606282942627445],[22.696885262051353,50.61461105614859],[22.683798226519457,50.66101054576205],[22.667141999478815,50.677666772802695],[22.64453711992364,50.714548418392084],[22.602896552321255,50.72168680141108],[22.58148140326905,50.73477383694173],[22.5636354457255,50.73477383694173],[22.558876523713128,50.70978949638175],[22.54578948818124,50.68837434732812],[22.47678511901216,50.643164588217616],[22.439903473422145,50.62055970866187],[22.37208883475598,50.637215935702415],[22.33163799765651,50.641974857715496],[22.31252079828649,50.619671458449645]]]]}},{"type":"Feature","properties":{"kind":"district","id":"uyezd-1897-168","name":"Замостский","provinceId":"gubernia-1897-14"},"geometry":{"type":"MultiPolygon","coordinates":[[[[22.64453711992364,50.714548418392084],[22.667141999478815,50.677666772802695],[22.683798226519457,50.66101054576205],[22.696885262051353,50.61461105614859],[22.70759283657827,50.606282942627445],[22.75637178719728,50.59557536810195],[22.803961007314058,50.5896267155868],[22.81109939033155,50.57297048854616],[22.807530198822803,50.55036560899134],[22.798012354799653,50.51110450239514],[22.777786936250266,50.507535310885146],[22.736146368647894,50.51348396339938],[22.714731219595762,50.50634558038206],[22.692126340039692,50.51229423289715],[22.674280382496136,50.49920719736474],[22.66357280797007,50.48730989233542],[22.68260849601654,50.478981778816035],[22.708782567081187,50.49563800585668],[22.731387446636404,50.49444827535274],[22.75637178719728,50.48730989233542],[22.795632893793822,50.48493043132942],[22.883672951009203,50.45994609076939],[22.91103675257608,50.45280770775213],[22.941969745652386,50.45518716875813],[22.964574625207433,50.47184339579877],[22.976471930236414,50.46708447378671],[22.9752821997335,50.44804878573922],[23.00740492331272,50.43734121121366],[23.044286568902578,50.43258228920149],[23.082357944996374,50.463515282277626],[23.08109891711672,50.47358750531299],[23.13100633534077,50.484287421976774],[23.12624741332911,50.498564188013006],[23.113160377797215,50.51522041505365],[23.120298760814705,50.52711772008297],[23.15837013690816,50.52711772008297],[23.176216094451718,50.50689230153233],[23.182164746966293,50.493805266000095],[23.22975396708307,50.496184727007005],[23.226184775574325,50.51165122354456],[23.25949722965578,50.55686098265602],[23.304706988766725,50.56043017416425],[23.32017348530445,50.613968046795094],[23.367762705421228,50.618726968807096],[23.399885428999767,50.618726968807096],[23.437956805093222,50.662746997414786],[23.42368003905841,50.66750591942679],[23.42368003905841,50.685351876969435],[23.39631623749102,50.70557729551916],[23.408213542520002,50.71390540904031],[23.449854110122374,50.71985406155471],[23.459371954145524,50.72937190557889],[23.466510337163015,50.763874090162005],[23.440336266099052,50.76982274267641],[23.424869769561326,50.800755735753285],[23.4653206066601,50.805514657764604],[23.47721791168908,50.82455034581125],[23.454613032134034,50.82811953731925],[23.44866437961946,50.84953468637298],[23.449854110122374,50.88165740995203],[23.466510337163015,50.90783148101582],[23.437222902807434,50.93693377874126],[23.43927709587075,50.92632044791128],[23.405964641789467,50.91918206489396],[23.41786194681862,50.90371556835555],[23.350047308152284,50.90966422087064],[23.375031648713332,50.92751017841505],[23.375031648713332,50.9394074834446],[23.357185691169775,50.941786944448836],[23.34409865563788,50.94892532746792],[23.32387323708781,50.9394074834446],[23.32625269809364,50.92156152589996],[23.28937105250361,50.91323341237887],[23.25484268803058,50.85833127665404],[23.229884527357683,50.86207500075494],[23.16682881070318,50.86802365326827],[23.135895817627727,50.839470121199156],[23.115670399077658,50.846608504216476],[23.09306551952244,50.83352146868407],[23.08592713650495,50.83828039069539],[23.09068605851661,50.85017769572471],[23.106152555054337,50.85493661773762],[23.103773094048506,50.86564419226312],[23.108532016060167,50.88467988030976],[23.01454330633004,50.90133610735131],[23.02406115035336,50.88230041930376],[23.02168168934753,50.85493661773762],[22.97290273872784,50.83352146868407],[22.92412378810883,50.81091658912919],[22.865826993465816,50.800209014602956],[22.8206172343547,50.77641440454414],[22.787304780273416,50.76927602152682],[22.75161286518562,50.765706830017734],[22.75637178719728,50.75024033348018],[22.726628524624743,50.75499925549235],[22.698074992554268,50.75737871649841],[22.672887305198515,50.76675087923513],[22.670711190987507,50.76094790800559],[22.645726850426556,50.7312046454344],[22.64453711992364,50.714548418392084]]]]}},{"type":"Feature","properties":{"kind":"district","id":"uyezd-1897-169","name":"Красноставский","provinceId":"gubernia-1897-14"},"geometry":{"type":"MultiPolygon","coordinates":[[[[22.672887305198515,50.76675087923513],[22.698074992554268,50.75737871649841],[22.726628524624743,50.75499925549235],[22.75637178719728,50.75024033348018],[22.75161286518562,50.765706830017734],[22.787304780273416,50.76927602152682],[22.8206172343547,50.77641440454414],[22.865826993465816,50.800209014602956],[22.92412378810883,50.81091658912919],[22.97290273872784,50.83352146868407],[23.02168168934753,50.85493661773762],[23.02406115035336,50.88230041930376],[23.01454330633004,50.90133610735131],[23.108532016060167,50.88467988030976],[23.103773094048506,50.86564419226312],[23.106152555054337,50.85493661773762],[23.09068605851661,50.85017769572471],[23.08592713650495,50.83828039069539],[23.09306551952244,50.83352146868407],[23.115670399077658,50.846608504216476],[23.135895817627727,50.839470121199156],[23.16682881070318,50.86802365326827],[23.229884527357683,50.86207500075494],[23.25484268803058,50.85833127665404],[23.28937105250361,50.91323341237887],[23.32625269809364,50.92156152589996],[23.32387323708781,50.9394074834446],[23.34409865563788,50.94892532746792],[23.357185691169775,50.941786944448836],[23.375031648713332,50.9394074834446],[23.375031648713332,50.92751017841505],[23.350047308152284,50.90966422087064],[23.41786194681862,50.90371556835555],[23.405964641789467,50.91918206489396],[23.43927709587075,50.92632044791128],[23.437222902807434,50.93693377874126],[23.432138712853313,50.963202093502325],[23.363134343684145,51.01673996613404],[23.345288386140684,51.027447540658585],[23.31316566256153,51.07265729977097],[23.284612130491922,51.07741622178129],[23.283422399989007,51.04886268971133],[23.276284016971605,51.03220646267069],[23.245351023895367,51.041724306694015],[23.238212640877876,51.02625781015647],[23.210848839311183,51.03934484568801],[23.191813151264007,51.02149888814526],[23.170398002211712,51.041724306694015],[23.154931505673993,51.027447540658585],[23.128757434610215,51.025068079653465],[23.108532016060035,51.03220646267069],[23.10258336354555,51.05243188122043],[23.04071737739387,51.08217514379429],[23.062132526446966,51.11191840636725],[23.039527646890956,51.1261951724009],[23.026440611359067,51.13809247743121],[23.001456270798116,51.16307681799118],[22.974092469230623,51.11905678938368],[22.947918398166756,51.125005441898786],[22.902708639055714,51.104780023348255],[22.851550227430984,51.13571301642422],[22.777786936250244,51.07979568278827],[22.81228912083443,51.0405345761919],[22.808719929325683,51.00603239160682],[22.767079361723386,50.9988940085896],[22.755182056694323,50.962012362998436],[22.686177687525245,50.98104805104508],[22.610034935338675,50.946545866461776],[22.551738140695743,50.95963290199411],[22.51723595611156,50.95963290199411],[22.495820807059335,50.95844317149111],[22.48749269353822,50.947735596963895],[22.502959190076737,50.937028022438454],[22.49938999856808,50.91561287338483],[22.475595388509245,50.91561287338483],[22.473215927503414,50.897766915842084],[22.48987215454405,50.893007993829976],[22.48749269353822,50.85374688723368],[22.537461374660833,50.83233173818192],[22.560066254216043,50.84065985170126],[22.56601490673133,50.85612634823978],[22.585050594777794,50.84898796522247],[22.613604126847402,50.85612634823978],[22.649296041935212,50.81329605013528],[22.674280382496164,50.77046575202891],[22.672887305198515,50.76675087923513]]]]}},{"type":"Feature","properties":{"kind":"district","id":"uyezd-1897-170","name":"Ново-Александрийский","provinceId":"gubernia-1897-14"},"geometry":{"type":"MultiPolygon","coordinates":[[[[22.12105569864053,51.05243188122043],[22.123435159646377,51.09288271831972],[22.075845939530303,51.097641640330934],[22.11510704612606,51.14285139944154],[22.147229769705213,51.130954094413894],[22.169834649260334,51.12976436391],[22.17816276278065,51.15831789597996],[22.15793734423127,51.182112506037825],[22.165075727248762,51.20114819408447],[22.18887033730671,51.21185576861079],[22.199577911832858,51.22613253464622],[22.185301145798054,51.24278876168685],[22.20671629485035,51.261824449734384],[22.25787470647579,51.257065527721394],[22.280479586031,51.27610121576804],[22.284048777540455,51.29156771230646],[22.292376891060773,51.3141725918622],[22.31617150111881,51.35462342896061],[22.344725033188507,51.35581315946459],[22.370899104253084,51.34272612393217],[22.41253967185467,51.32131097487943],[22.424436976884444,51.334398010410965],[22.43038562939902,51.35462342896061],[22.424436976884444,51.37484884751123],[22.401832097328523,51.39507426605999],[22.38993479229955,51.41410995410752],[22.370899104253084,51.43671483366238],[22.326879075644868,51.431955911650185],[22.280479586031,51.43671483366238],[22.22694171340035,51.42481752863296],[22.223372521891694,51.44504294718261],[22.19362925931837,51.46645809623534],[22.190060067809625,51.484304053778004],[22.197198450827027,51.499770550316526],[22.223372521891694,51.502150011322534],[22.237649287926498,51.52237542987227],[22.241218479435243,51.55568788395336],[22.236459557423583,51.59137979904064],[22.207906025353175,51.59137979904064],[22.17102437976325,51.585431146527306],[22.15555788322553,51.574723572],[22.11272758512023,51.56282626697156],[22.078225400536134,51.574723572],[22.031825910922088,51.569964649988876],[21.996133995834366,51.5794824940122],[21.953303697729865,51.60803602608118],[21.868832832023067,51.602087373567855],[21.834330647438083,51.611605217591176],[21.816484689894533,51.60446683457395],[21.81172576788296,51.58662087702942],[21.814874881708047,51.56573449708864],[21.835100300257427,51.533611773511446],[21.848187335789405,51.51695554647081],[21.866033293332865,51.48959174490305],[21.879120328865643,51.47769443987363],[21.91600197445557,51.46579713484519],[21.931468470993288,51.43129495026003],[21.93860685401069,51.389654382657646],[21.9742987690985,51.368239233604996],[21.980247421612987,51.35515219807435],[21.968350116584013,51.33968570153592],[21.925519818478712,51.32302947449537],[21.888638172888786,51.29923486443565],[21.856515449309633,51.292096481418426],[21.850566796795146,51.286147828904205],[21.851280635097304,51.27068133236568],[21.82867575554147,51.25640456633115],[21.80845033699209,51.24926618331392],[21.807260606489177,51.22547157325518],[21.78346599643114,51.18740019716278],[21.78346599643114,51.16955423961825],[21.776327613413027,51.14456989905828],[21.794173570957287,51.12315475000465],[21.787035187939885,51.10887798396922],[21.792983840454372,51.083893643409255],[21.78584545743697,51.06842714687082],[21.813209259003752,51.05652984184238],[21.812019528500837,51.03392496228575],[21.92237070465361,50.99532481708139],[21.9854264213082,51.041724306694015],[22.071087017517915,51.051242150717336],[22.12105569864053,51.05243188122043]]]]}},{"type":"Feature","properties":{"kind":"district","id":"uyezd-1897-174","name":"Любартовский","provinceId":"gubernia-1897-14"},"geometry":{"type":"MultiPolygon","coordinates":[[[[22.43038562939902,51.35462342896061],[22.464887813983115,51.33677747141697],[22.493441346053523,51.332018549404864],[22.54459975767834,51.332018549404864],[22.561255984718976,51.287998520798254],[22.607655474332844,51.32012124437642],[22.635019275900426,51.30108555632978],[22.66714199947878,51.29632663431768],[22.701644184062964,51.30822393934701],[22.721869602613054,51.32488016638764],[22.746853943174006,51.31536232236432],[22.821806964857572,51.30346501733588],[22.884862681512164,51.28680879029436],[22.851550227430984,51.241599031184734],[22.876534567991847,51.22018388213111],[22.90627783056446,51.224942804144106],[22.952677320178328,51.21899415162899],[22.990748696272057,51.22256334313809],[23.032389263873554,51.22375307364021],[23.063322256949792,51.22851199565143],[23.046666029908447,51.30941366985099],[23.008594653815518,51.3070342088449],[22.98480004375748,51.3106034003531],[22.990748696272057,51.334398010410965],[22.90627783056446,51.35105423745151],[22.932451901629037,51.39507426605999],[22.912226483078946,51.39983318807121],[22.90627783056446,51.435525103160174],[22.880103759500592,51.45456079120593],[22.849170766425154,51.459319713218036],[22.83727346139538,51.44266348617749],[22.809909659828598,51.441473755673506],[22.784925319267646,51.56520572797668],[22.726628524624715,51.5794824940122],[22.68022903501067,51.59970791256184],[22.66714199947878,51.62588198362571],[22.68022903501067,51.631830636140904],[22.711162028086996,51.637779288655125],[22.731387446636287,51.656814976700886],[22.73376690764203,51.66514309022209],[22.706403106075335,51.68060958675963],[22.699264723057134,51.69726581380017],[22.665952268975865,51.715111771343814],[22.6469165809294,51.723439884865016],[22.627880892882224,51.723439884865016],[22.605276013327103,51.70559392732138],[22.571963559245834,51.68179931726263],[22.527943530637707,51.654435515695674],[22.494631076556438,51.63421009714692],[22.449421317445395,51.640158749660245],[22.416108863363416,51.60803602608118],[22.353053146709534,51.59851818205786],[22.347104494194248,51.58900033803454],[22.31855096212464,51.59732845155575],[22.306653657095577,51.592569529544534],[22.281669316533915,51.59970791256184],[22.236459557423583,51.59137979904064],[22.241218479435243,51.55568788395336],[22.237649287926498,51.52237542987227],[22.223372521891694,51.502150011322534],[22.197198450827027,51.499770550316526],[22.190060067809625,51.484304053778004],[22.19362925931837,51.46645809623534],[22.223372521891694,51.44504294718261],[22.22694171340035,51.42481752863296],[22.280479586031,51.43671483366238],[22.326879075644868,51.431955911650185],[22.370899104253084,51.43671483366238],[22.38993479229955,51.41410995410752],[22.401832097328523,51.39507426605999],[22.424436976884444,51.37484884751123],[22.43038562939902,51.35462342896061]]]]}},{"type":"Feature","properties":{"kind":"district","id":"uyezd-1897-175","name":"Томашевский","provinceId":"gubernia-1897-14"},"geometry":{"type":"MultiPolygon","coordinates":[[[[23.208964806093604,50.39465863606631],[23.232853521396517,50.38618199515258],[23.24832001793397,50.38618199515258],[23.270924897489625,50.37428469012325],[23.30066816006277,50.369525768112034],[23.362534146213914,50.41116633571442],[23.378000642752077,50.41116633571442],[23.422020671359405,50.40759714420621],[23.474368813488294,50.41116633571442],[23.489835310025658,50.37309495962016],[23.539803991148183,50.40640741370321],[23.592152133276983,50.40640741370321],[23.594531594282547,50.39332037816989],[23.665915424457545,50.388561456158676],[23.693279226024327,50.40878687470921],[23.68257165149809,50.43377121527007],[23.683761382001272,50.464704208346134],[23.757524673181834,50.461135016837034],[23.790837127263725,50.475411782871575],[23.81463173732185,50.46827339985435],[23.828908503356832,50.45875555583005],[23.881256645484832,50.463514477843134],[23.914569099566723,50.48373989639278],[23.943122631636776,50.5301393860054],[24.0323524193555,50.53965723002872],[24.066854603939774,50.52181127248606],[24.082321100477937,50.53846749952572],[24.115633554559118,50.551554535058145],[24.108495171541627,50.57534914511689],[24.07042379544852,50.57534914511689],[24.072803256454172,50.58843618064842],[24.076372447962918,50.613420521209285],[24.12396166807979,50.613420521209285],[24.14418708662908,50.624128095735614],[24.16203304417281,50.63602540076592],[24.16488214237417,50.649659961882236],[24.125621035778416,50.65560861439734],[24.116103191754384,50.642521578864915],[24.095877773205093,50.6413318483628],[24.08635992918186,50.649659961882236],[24.009027446492464,50.62824481283038],[23.982853375428597,50.640142117858915],[23.965007417884248,50.62229616031616],[23.948351190843614,50.61872696880706],[23.925746311288492,50.57708640120477],[23.88291601318328,50.561619904666244],[23.84960355910201,50.567568557181445],[23.86982897765139,50.60207074176651],[23.86982897765139,50.638952387356795],[23.856741942119413,50.642521578864915],[23.832947332060577,50.59612208925229],[23.78416838144159,50.590173436737096],[23.759184040879926,50.59493235874831],[23.75085592735961,50.61277831629284],[23.747286735850864,50.65441888389345],[23.71278455126668,50.65441888389345],[23.708025629255108,50.6817826854613],[23.722302395289912,50.703197834513944],[23.710405090260938,50.722233522559705],[23.660436409138324,50.716284870046366],[23.597380692483643,50.711525948033376],[23.51409955727976,50.71390540904027],[23.471269259174548,50.719854061554585],[23.459371954145524,50.72937190557889],[23.449854110122374,50.71985406155471],[23.408213542520002,50.71390540904031],[23.39631623749102,50.70557729551916],[23.42368003905841,50.685351876969435],[23.42368003905841,50.66750591942679],[23.437956805093222,50.662746997414786],[23.399885428999767,50.618726968807096],[23.367762705421228,50.618726968807096],[23.32017348530445,50.613968046795094],[23.304706988766725,50.56043017416425],[23.25949722965578,50.55686098265602],[23.226184775574325,50.51165122354456],[23.22975396708307,50.496184727007005],[23.248789655129542,50.454544159404634],[23.22023612305992,50.410524130797114],[23.208964806093604,50.39465863606631]]]]}},{"type":"Feature","properties":{"kind":"district","id":"uyezd-1897-176","name":"Грубешовский","provinceId":"gubernia-1897-14"},"geometry":{"type":"MultiPolygon","coordinates":[[[[23.459371954145524,50.72937190557889],[23.471269259174548,50.719854061554585],[23.51409955727976,50.71390540904027],[23.597380692483643,50.711525948033376],[23.660436409138324,50.716284870046366],[23.710405090260938,50.722233522559705],[23.722302395289912,50.703197834513944],[23.708025629255108,50.6817826854613],[23.71278455126668,50.65441888389345],[23.747286735850864,50.65441888389345],[23.75085592735961,50.61277831629284],[23.759184040879926,50.59493235874831],[23.78416838144159,50.590173436737096],[23.832947332060577,50.59612208925229],[23.856741942119413,50.642521578864915],[23.86982897765139,50.638952387356795],[23.86982897765139,50.60207074176651],[23.84960355910201,50.567568557181445],[23.88291601318328,50.561619904666244],[23.925746311288492,50.57708640120477],[23.948351190843614,50.61872696880706],[23.965007417884248,50.62229616031616],[23.982853375428597,50.640142117858915],[24.009027446492464,50.62824481283038],[24.08635992918186,50.649659961882236],[24.085398833629046,50.66972755293956],[24.068742606588412,50.682814588471004],[24.063983684576485,50.70304000702074],[24.072311798097157,50.71612704255405],[24.066363145582137,50.72445515607437],[24.05446584055343,50.72683461707949],[24.044947996530375,50.71850650356006],[24.02234311697472,50.72564488657648],[24.027102038986648,50.762526532166675],[24.018773925465975,50.7768032982021],[24.004497159430993,50.77323410669398],[23.986651201887266,50.7768032982021],[23.973564166355377,50.76966491518399],[23.966425783337886,50.78513141172242],[23.967615513840357,50.79226979473973],[23.958097669817214,50.79821844725395],[23.959287400320395,50.817254135300594],[23.972374435852284,50.82558224882082],[23.977133357864123,50.835100092845124],[23.997358776413503,50.841048745359345],[24.02829176948903,50.83985901485634],[24.04732745753594,50.831530901336905],[24.0949166776521,50.84580766737056],[24.135367514751483,50.85770497240087],[24.136557245254664,50.87198173843443],[24.116331826704574,50.88506877396773],[24.084209103125865,50.89339688748805],[24.03424042200414,50.90410446201349],[24.005686889934175,50.920760689055015],[23.991410123899104,50.93503745509044],[23.95690793931412,50.97429856168672],[23.934303059759177,51.006421285264906],[23.917646832717832,51.01474939878425],[23.918836563221014,51.03140562582577],[23.924785215735323,51.04211320035209],[23.914077641209087,51.05044131387329],[23.90337006668285,51.075425654433275],[23.874816534612798,51.08375376795448],[23.866488421092924,51.10040999499414],[23.83674515851978,51.10159972549714],[23.833175967011034,51.0885126899657],[23.799863512929143,51.07423592393027],[23.780827824882945,51.05638996638751],[23.773689441865454,51.02783643431755],[23.770120250356708,51.006421285264906],[23.753464023316162,51.002852093755806],[23.722531030239836,50.999282902247586],[23.68445965414673,51.000472632750686],[23.676131540626145,50.990954788726384],[23.682080193141164,50.97905748369794],[23.697546689678617,50.9647807176634],[23.69992615068489,50.9528834126331],[23.6927877676674,50.93979637710068],[23.649957469562455,50.94455529911376],[23.617834745983746,50.94693476011888],[23.608316901959892,50.93384772458646],[23.60712717145751,50.902914731510485],[23.59879905793675,50.88387904346473],[23.57381471737553,50.87674066044653],[23.544071454802385,50.88744823497383],[23.498861695691787,50.902914731510485],[23.466510337163015,50.90783148101582],[23.449854110122374,50.88165740995203],[23.44866437961946,50.84953468637298],[23.454613032134034,50.82811953731925],[23.47721791168908,50.82455034581125],[23.4653206066601,50.805514657764604],[23.424869769561326,50.800755735753285],[23.440336266099052,50.76982274267641],[23.466510337163015,50.763874090162005],[23.459371954145524,50.72937190557889]]]]}},{"type":"Feature","properties":{"kind":"district","id":"uyezd-1897-177","name":"Холмский","provinceId":"gubernia-1897-14"},"geometry":{"type":"MultiPolygon","coordinates":[[[[23.466510337163015,50.90783148101582],[23.498861695691787,50.902914731510485],[23.544071454802385,50.88744823497383],[23.57381471737553,50.87674066044653],[23.59879905793675,50.88387904346473],[23.60712717145751,50.902914731510485],[23.608316901959892,50.93384772458646],[23.617834745983746,50.94693476011888],[23.649957469562455,50.94455529911376],[23.6927877676674,50.93979637710068],[23.69992615068489,50.9528834126331],[23.697546689678617,50.9647807176634],[23.682080193141164,50.97905748369794],[23.676131540626145,50.990954788726384],[23.68445965414673,51.000472632750686],[23.722531030239836,50.999282902247586],[23.753464023316162,51.002852093755806],[23.770120250356708,51.006421285264906],[23.773689441865454,51.02783643431755],[23.780827824882945,51.05638996638751],[23.799863512929143,51.07423592393027],[23.833175967011034,51.0885126899657],[23.83674515851978,51.10159972549714],[23.866488421092924,51.10040999499414],[23.849832194052023,51.1337224490762],[23.864108960086828,51.142050562597404],[23.85340138556077,51.16227598114715],[23.828417044999817,51.17298355567258],[23.8129505484613,51.16822463366137],[23.77963809438003,51.20391654874944],[23.76417159784231,51.20391654874944],[23.749894831806706,51.217003584280974],[23.733238604766072,51.230090619813396],[23.70825426420512,51.277679839929114],[23.69754668967906,51.29433606696966],[23.67256234911731,51.299094988981764],[23.651147200065015,51.296715527975756],[23.645198547550528,51.28243876194122],[23.628542320509982,51.28005930093512],[23.59879905793666,51.28005930093512],[23.571435256369877,51.32526906004572],[23.554779029329243,51.33835609557805],[23.54288172429947,51.370478819157114],[23.470308163621645,51.37523774116922],[23.445323823060694,51.4002220817292],[23.417960021494,51.390704237705876],[23.434616248534635,51.372858280163214],[23.34419673031326,51.35382259211657],[23.315643198242853,51.37523774116922],[23.279951283155754,51.387135046197756],[23.259725864605663,51.387135046197756],[23.253777212091176,51.374048010665334],[23.28589993567024,51.34668420909926],[23.244259368067944,51.33597663457205],[23.183583112419182,51.36215070563591],[23.163357693869802,51.383565854688655],[23.119337665261675,51.385945315694656],[23.061040870619454,51.4026015427353],[23.009882458993925,51.42282696128494],[22.986087848935888,51.42044750027893],[22.9730008134032,51.40498100374042],[22.932451901629037,51.39507426605999],[22.90627783056446,51.35105423745151],[22.990748696272057,51.334398010410965],[22.98480004375748,51.3106034003531],[23.008594653815518,51.3070342088449],[23.046666029908447,51.30941366985099],[23.063322256949792,51.22851199565143],[23.032389263873554,51.22375307364021],[23.041907107896787,51.19876873307837],[23.02882007236481,51.18449196704383],[22.991938426774972,51.18449196704383],[23.001456270798116,51.16307681799118],[23.026440611359067,51.13809247743121],[23.039527646890956,51.1261951724009],[23.062132526446966,51.11191840636725],[23.04071737739387,51.08217514379429],[23.10258336354555,51.05243188122043],[23.108532016060035,51.03220646267069],[23.128757434610215,51.025068079653465],[23.154931505673993,51.027447540658585],[23.170398002211712,51.041724306694015],[23.191813151264007,51.02149888814526],[23.210848839311183,51.03934484568801],[23.238212640877876,51.02625781015647],[23.245351023895367,51.041724306694015],[23.276284016971605,51.03220646267069],[23.283422399989007,51.04886268971133],[23.284612130491922,51.07741622178129],[23.31316566256153,51.07265729977097],[23.345288386140684,51.027447540658585],[23.363134343684145,51.01673996613404],[23.432138712853313,50.963202093502325],[23.437222902807434,50.93693377874126],[23.466510337163015,50.90783148101582]]]]}},{"type":"Feature","properties":{"kind":"district","id":"uyezd-1897-178","name":"Люблинский","provinceId":"gubernia-1897-14"},"geometry":{"type":"MultiPolygon","coordinates":[[[[23.032389263873554,51.22375307364021],[22.990748696272057,51.22256334313809],[22.952677320178328,51.21899415162899],[22.90627783056446,51.224942804144106],[22.876534567991847,51.22018388213111],[22.851550227430984,51.241599031184734],[22.884862681512164,51.28680879029436],[22.821806964857572,51.30346501733588],[22.746853943174006,51.31536232236432],[22.721869602613054,51.32488016638764],[22.701644184062964,51.30822393934701],[22.66714199947878,51.29632663431768],[22.635019275900426,51.30108555632978],[22.607655474332844,51.32012124437642],[22.561255984718976,51.287998520798254],[22.54459975767834,51.332018549404864],[22.493441346053523,51.332018549404864],[22.464887813983115,51.33677747141697],[22.43038562939902,51.35462342896061],[22.424436976884444,51.334398010410965],[22.41253967185467,51.32131097487943],[22.370899104253084,51.34272612393217],[22.344725033188507,51.35581315946459],[22.31617150111881,51.35462342896061],[22.292376891060773,51.3141725918622],[22.284048777540455,51.29156771230646],[22.280479586031,51.27610121576804],[22.25787470647579,51.257065527721394],[22.20671629485035,51.261824449734384],[22.185301145798054,51.24278876168685],[22.199577911832858,51.22613253464622],[22.18887033730671,51.21185576861079],[22.165075727248762,51.20114819408447],[22.15793734423127,51.182112506037825],[22.17816276278065,51.15831789597996],[22.169834649260334,51.12976436391],[22.147229769705213,51.130954094413894],[22.11510704612606,51.14285139944154],[22.075845939530303,51.097641640330934],[22.123435159646377,51.09288271831972],[22.12105569864053,51.05243188122043],[22.175783301774803,51.0405345761919],[22.21266494736553,51.02149888814526],[22.2602541674816,51.025068079653465],[22.25787470647577,51.051242150717336],[22.223372521891676,51.06551891675187],[22.281669316533897,51.0833648742964],[22.341155841679743,51.07860595228429],[22.34948395520006,51.04886268971133],[22.38279640928204,51.036965384681906],[22.393503983808188,51.00008373909172],[22.4720261970005,50.98937616456628],[22.495820807059335,50.95844317149111],[22.51723595611156,50.95963290199411],[22.551738140695743,50.95963290199411],[22.610034935338675,50.946545866461776],[22.686177687525245,50.98104805104508],[22.755182056694323,50.962012362998436],[22.767079361723386,50.9988940085896],[22.808719929325683,51.00603239160682],[22.81228912083443,51.0405345761919],[22.777786936250244,51.07979568278827],[22.851550227430984,51.13571301642422],[22.902708639055714,51.104780023348255],[22.947918398166756,51.125005441898786],[22.974092469230623,51.11905678938368],[23.001456270798116,51.16307681799118],[22.991938426774972,51.18449196704383],[23.02882007236481,51.18449196704383],[23.041907107896787,51.19876873307837],[23.032389263873554,51.22375307364021]]]]}}]}
