{"type":"FeatureCollection","features":[{"type":"Feature","properties":{"kind":"province","id":"gubernia-1897-16","name":"Ломжинская губерния"},"geometry":{"type":"MultiPolygon","coordinates":[[[[22.408544345577475,52.61237449397099],[22.42929438022875,52.625343265628544],[22.454278720790413,52.641999492669086],[22.468555486825306,52.64794814518247],[22.470934947831136,52.66460437222488],[22.491160366380427,52.68126059926543],[22.510196054426803,52.70029628731207],[22.52328308995878,52.7121935923406],[22.54112904750313,52.713383322842716],[22.568492849069823,52.72171143636392],[22.575631232087225,52.72884981938114],[22.593477189630775,52.72766008887903],[22.60537449466055,52.74312658541657],[22.636307487735987,52.7538341599429],[22.66605075030931,52.75502389044501],[22.692224821373177,52.771680117485644],[22.70174266539641,52.797854188551376],[22.727916736460276,52.80380284106471],[22.77550595657706,52.82640772062134],[22.78026487858872,52.860909905204636],[22.800490297138012,52.87161747973096],[22.83380275122008,52.878755862748186],[22.8564076307752,52.89422235928582],[22.868304935804264,52.89422235928582],[22.855217900272287,52.87756613224518],[22.87425358831875,52.87756613224518],[22.888530354354355,52.88589424576639],[22.881391971336953,52.90136074230482],[22.88734062385144,52.90849912532213],[22.883771432342783,52.92515535236268],[22.903996850892074,52.93586292688811],[22.93611957447043,52.94657050141453],[22.926601730447196,52.97155484197628],[22.899237928880503,53.004867296057455],[22.873063857815836,53.0239029841041],[22.903996850892074,53.03817975013864],[22.933740113464598,53.04293867215074],[22.92303253893854,53.05840516868918],[22.931360652458768,53.0679230127125],[22.901617389886244,53.07268193472371],[22.88496116284561,53.079820317741024],[22.839751403734567,53.0714922042216],[22.812387602167874,53.075061395729804],[22.79573137512644,53.102425197297656],[22.807628680156213,53.12740953785763],[22.832613020717165,53.13335819037274],[22.832613020717165,53.14049657339005],[22.8492692477578,53.14168630389217],[22.863546013792604,53.13692738188095],[22.917083886423963,53.14406576489817],[22.930170921955852,53.13930684288785],[22.93849903547626,53.14763495640727],[22.959914184529264,53.150014417413374],[22.959914184529264,53.163101452944815],[22.944447687990746,53.169050105460016],[22.932550382961683,53.184516601998446],[22.914704425418133,53.20712148155419],[22.896858467874672,53.20593175105021],[22.87425358831875,53.20950094255842],[22.817146524179446,53.20712148155419],[22.769557304062573,53.20712148155419],[22.72672700595736,53.21188040356443],[22.695794012881922,53.20593175105021],[22.679137785841288,53.21544959507353],[22.656532906285367,53.21188040356443],[22.631548565724415,53.20474202054716],[22.611323147175124,53.19998309853506],[22.585149076110458,53.21188040356448],[22.55183662202919,53.21188040356448],[22.52328308995878,53.2225879780908],[22.48045279185428,53.20950094255838],[22.459037642802073,53.2213982475878],[22.448330068275215,53.21188040356448],[22.42691491922292,53.2190187865817],[22.435243032743237,53.24162366613744],[22.4471403377723,53.246382588149544],[22.451899259783897,53.25827989317807],[22.476883600345648,53.29516153876924],[22.462606834310844,53.31062803530767],[22.469745217328246,53.33085345385741],[22.482832252860135,53.33085345385741],[22.489970635877537,53.34275075888496],[22.48878090537471,53.37725294347003],[22.500678210403684,53.38558105699124],[22.50662686291817,53.39390917051058],[22.51495497643849,53.403427014533904],[22.526852281468262,53.40818593654512],[22.533990664485664,53.41770378056844],[22.531611203479923,53.43911892962117],[22.548267430520557,53.44030866012418],[22.56254419655536,53.44744704314238],[22.601805303151917,53.46648273118805],[22.61132314717515,53.48075949722356],[22.648204792765075,53.48789788024079],[22.666050750309335,53.484328688732575],[22.75647026853071,53.50098491577321],[22.79454164462355,53.51288222080254],[22.79930056663521,53.52121033432374],[22.823095176694046,53.52834871734106],[22.833802751220105,53.524779525831065],[22.854028169769485,53.5366768308604],[22.90637631189793,53.56285090192435],[22.931360652458793,53.57593793745677],[22.922107192992296,53.59603116372814],[22.91139961846535,53.611497660266664],[22.88046662538991,53.600790085740336],[22.869759050863763,53.63410253982143],[22.87808716438417,53.64005119233663],[22.87808716438417,53.67693283792593],[22.887605008407313,53.698347986979556],[22.876897433881254,53.7209528665353],[22.823359561249895,53.72214259703742],[22.810272525717917,53.751885859609494],[22.781718993648308,53.74712693759916],[22.767442227612705,53.73879882407796],[22.734129773531436,53.73879882407796],[22.7174735464908,53.73166044106074],[22.70557624146174,53.73166044106074],[22.700817319449367,53.74117828508406],[22.67940217039716,53.73403990206683],[22.64882014834481,53.75886891311986],[22.620660109947515,53.73036917661284],[22.54628520029455,53.70709267727304],[22.43326080251779,53.68924671973038],[22.393491307574525,53.67242327663736],[22.288795023317547,53.627213517525874],[22.228118767668875,53.59865998545591],[22.18528846956393,53.57010645338595],[22.113904639388842,53.53560426880176],[22.029433773682133,53.51180965874302],[22.018726199155896,53.490394509690276],[22.00206997211535,53.48206639617005],[21.984224014571623,53.492773970696376],[21.958049943507135,53.50229181472058],[21.899753148864825,53.49158424019337],[21.878337999812263,53.479686935164835],[21.871199616794506,53.44875394208887],[21.8236103966779,53.44399502007765],[21.761744410525957,53.46184097762031],[21.73676006996474,53.46541016912941],[21.72367303443285,53.476117743656715],[21.655858395766685,53.46541016912941],[21.52855723195494,53.45113340309487],[21.41940046430664,53.438776033171905],[21.402445798646227,53.43685663705946],[21.27633436533705,53.40473391348041],[21.2097094571738,53.38569822543377],[21.13356670498706,53.34643711883848],[21.04728754595061,53.30380506378515],[21.057535110368065,53.29635126927127],[21.07300160690579,53.295161538769264],[21.087278372940602,53.28564369474594],[21.10750379148999,53.28326423373994],[21.128918940542974,53.28564369474594],[21.145575167583615,53.27255665921439],[21.180077352167814,53.255900432171984],[21.214579536752694,53.24400312714357],[21.247891990833978,53.223777708594696],[21.280014714413028,53.20593175105029],[21.302619593968245,53.19284471551788],[21.319275821008887,53.18570633250056],[21.329983395534953,53.17023983596209],[21.31808609050597,53.164291183447915],[21.329983395534953,53.152393878419446],[21.34307043106753,53.157152800430595],[21.353778005593767,53.14168630389213],[21.368054771628522,53.12621980735547],[21.35020881408506,53.11551223282826],[21.316896360002993,53.11789169383427],[21.297860671956528,53.11670196333215],[21.290722288939126,53.103614927799725],[21.275255792401406,53.08695870075918],[21.25146118234257,53.08101004824496],[21.22052818926713,53.08338950925097],[21.21338980624973,53.09528681427852],[21.17769789116183,53.09528681427852],[21.147954628589307,53.0893381617643],[21.109883252495667,53.09290735327429],[21.112262713501497,53.111943041320046],[21.094416755957948,53.111943041320046],[21.084898911934804,53.101235466793725],[21.06586322388834,53.09528681427852],[21.06824268489417,53.06792301271254],[21.057535110368022,53.06078462969523],[21.04325834433242,53.05721543818524],[21.028981578297614,53.040559211144696],[20.9920999327076,53.03461055863136],[20.96949505315168,53.028661906116255],[20.962356670134277,53.015574870584715],[20.986151280193113,53.01200567907473],[21.001617776730832,53.00010837404629],[20.99923831572509,52.98464187750777],[21.008756159748234,52.96441645895901],[21.018274003771467,52.95727807594179],[21.01470481226281,52.91920669984752],[21.002807507233747,52.9049299338121],[21.00994589025115,52.89422235928578],[21.03017130880053,52.89065316777756],[21.01946373427438,52.88232505425822],[20.99447939371343,52.876376401743116],[20.964736131140107,52.8704277492288],[20.91833664152695,52.862099635707594],[20.88502418744488,52.85734071369647],[20.860039846884018,52.85020233067915],[20.861229577386844,52.8264077206213],[20.868367960404246,52.807372032574655],[20.9004906839826,52.802613110561666],[20.904059875491345,52.797854188551334],[20.899300953479685,52.790715805532244],[20.873126882415907,52.785956883522005],[20.830296584310638,52.77643903949776],[20.86003984688405,52.76097254295924],[20.83743496732884,52.74669577692559],[20.861229577386876,52.73717793290227],[20.879075534930426,52.751454698935916],[20.91833664152698,52.741936854912595],[20.93142367705887,52.752644429438924],[20.91833664152698,52.778818500504656],[20.939751790579187,52.789526075030096],[20.977823166672827,52.765731464972234],[20.996858854719292,52.765731464972234],[21.00518696823961,52.75621362094891],[21.059914571373884,52.77762877000076],[21.069432415397117,52.75621362094891],[21.102744869478297,52.76454173446834],[21.10155513897547,52.780008231006775],[21.15747247261257,52.784767153018876],[21.162231394624143,52.77405957849166],[21.177697891161863,52.769300656481334],[21.191974657196756,52.735988202398374],[21.207441153735274,52.735988202398374],[21.21101034524402,52.74907523793169],[21.28477363642467,52.75502389044502],[21.27525579240144,52.769300656481334],[21.30024013296239,52.775249308995555],[21.306188785476877,52.768110925978334],[21.321655282014596,52.770490386983454],[21.334742317547285,52.769300656481334],[21.350208814085093,52.769300656481334],[21.354967736096665,52.76454173446834],[21.36924450213147,52.768110925978334],[21.38471099866919,52.763352003966226],[21.397798034201077,52.75859308195501],[21.431110488283146,52.752644429438924],[21.446576984820865,52.74669577692559],[21.466802403370245,52.732419010889274],[21.471561325381817,52.71100386183841],[21.48583809141742,52.7026757483172],[21.492976474434823,52.68839898228266],[21.48345863041159,52.6562762587036],[21.471561325381817,52.61701515210731],[21.45847428984984,52.57894377601402],[21.46791220351083,52.57894377601402],[21.482268899908675,52.57894377601402],[21.497735396446394,52.58846162003734],[21.546514347066168,52.589651350539455],[21.56198084360396,52.59441027255249],[21.56673976561553,52.61106649959312],[21.573878148632932,52.61344596059913],[21.581016531650334,52.6063075775819],[21.59291383667931,52.60273838607192],[21.596483028188054,52.59203081154559],[21.60481114170837,52.59084108104348],[21.61789817724106,52.5979794640607],[21.644072248304926,52.59678973355858],[21.657159283836815,52.58727188953526],[21.677384702386195,52.62177407411856],[21.690471737918884,52.61820488260946],[21.695230659930456,52.625343265628544],[21.713076617474005,52.61939461311246],[21.728543114011725,52.63605084015487],[21.73211230552047,52.645568684178194],[21.75233772406976,52.647948145182426],[21.78089125614017,52.65984545021185],[21.79635775267789,52.65984545021185],[21.80587559670112,52.66817356373305],[21.81658317122727,52.67650167725239],[21.85703400832674,52.68245032976759],[21.89034646240792,52.68364006027148],[21.914141072466755,52.66817356373305],[21.949832987553766,52.66460437222484],[21.977196789121347,52.66698383322907],[21.992663285659066,52.65627625870363],[22.010509243202616,52.66103518071485],[22.02786531171549,52.66537419784373],[22.04382169728464,52.66936329423605],[22.052149810805044,52.66579410272695],[22.061667654828188,52.67055302473817],[22.093790378406542,52.68126059926547],[22.154466634055304,52.68482979077359],[22.20562504568092,52.67888113825937],[22.21871208121281,52.66936329423605],[22.243696421773762,52.67055302473817],[22.253214265797705,52.66579410272695],[22.27462941485,52.66817356373305],[22.288906180884805,52.66579410272695],[22.30318294691961,52.65746598920575],[22.318649443458128,52.65627625870363],[22.33292620949302,52.64913787568641],[22.353151628042312,52.641999492669086],[22.369807855082858,52.64318922317129],[22.375756507597433,52.632481648645765],[22.3591002805568,52.62415353512465],[22.388843543130122,52.60749730808402],[22.400740848159185,52.60749730808402],[22.408544345577475,52.61237449397099]]]]}},{"type":"Feature","properties":{"kind":"district","id":"uyezd-1897-117","name":"Остроленский","provinceId":"gubernia-1897-16"},"geometry":{"type":"MultiPolygon","coordinates":[[[[21.04728754595061,53.30380506378515],[21.057535110368065,53.29635126927127],[21.07300160690579,53.295161538769264],[21.087278372940602,53.28564369474594],[21.10750379148999,53.28326423373994],[21.128918940542974,53.28564369474594],[21.145575167583615,53.27255665921439],[21.180077352167814,53.255900432171984],[21.214579536752694,53.24400312714357],[21.247891990833978,53.223777708594696],[21.280014714413028,53.20593175105029],[21.302619593968245,53.19284471551788],[21.319275821008887,53.18570633250056],[21.329983395534953,53.17023983596209],[21.31808609050597,53.164291183447915],[21.329983395534953,53.152393878419446],[21.34307043106753,53.157152800430595],[21.353778005593767,53.14168630389213],[21.36805477162858,53.12621980735548],[21.390659651183796,53.11432250232616],[21.41207480023661,53.10480465830193],[21.440628332306403,53.09885600578775],[21.471561325381856,53.09171762277043],[21.47394078638837,53.07506139572979],[21.457284559347045,53.05959489919138],[21.42873102727725,53.051266785672],[21.429920757780167,53.03461055863136],[21.403746686716374,53.03104136712142],[21.37995207665773,53.04531813315782],[21.362106119114003,53.03580028913359],[21.354967736096683,53.0215235230981],[21.401367225709862,53.007246757063626],[21.42635156627159,53.00248783505231],[21.45133590683264,53.004867296057455],[21.482268899908604,52.99653918253807],[21.508442970972567,52.99891864354231],[21.494166204937756,52.97988295549567],[21.487027821920265,52.956088345437934],[21.47037159487894,52.94538077091153],[21.44895644582664,52.92515535236282],[21.42873102727725,52.92039643035065],[21.401367225709862,52.90611966431618],[21.39422884269237,52.87161747973096],[21.40969533923095,52.84425367816408],[21.42635156627159,52.83473583414076],[21.433489949288912,52.813320685088115],[21.447766715323723,52.80737203257479],[21.45640595327575,52.78381047452331],[21.49297647443484,52.791905536036325],[21.53223758103053,52.79666445804747],[21.570308957124155,52.78833634452815],[21.584585723158966,52.813320685088115],[21.604811141708353,52.82640772062143],[21.60600087221127,52.8513920611814],[21.579826801147476,52.87399694073713],[21.609570063720014,52.884704515262456],[21.629795482270083,52.87875586274828],[21.6524003618253,52.88708397626954],[21.680953893894923,52.88708397626954],[21.695230659930417,52.88113532375428],[21.732112305520445,52.88708397626954],[21.76304529859658,52.87875586274828],[21.813013979718505,52.91206831683132],[21.805875596701185,52.92277589135665],[21.852275086315046,52.95370888443193],[21.899864306431994,52.93824238789506],[21.92246918598704,52.95965753694793],[21.9058129589464,52.972744572478575],[21.882018348887584,52.97869322499366],[21.865362121846943,52.9846418775079],[21.852275086315046,53.00605702656139],[21.88558754039633,53.025092714608036],[21.907002689449314,53.01914406209295],[21.935556221518937,53.029851636619355],[21.9058129589464,53.03817975013868],[21.9058129589464,53.051266785672],[21.886777270899245,53.057215438185324],[21.870121043858603,53.04531813315782],[21.82967020676,53.04531813315782],[21.820152362735996,53.057215438185324],[21.796357752677864,53.10242519729775],[21.76542475960241,53.09290735327443],[21.71902526998855,53.09171762277043],[21.697610120936247,53.10123546679375],[21.672625780374688,53.125030076851715],[21.684523085404333,53.152393878419424],[21.67024631936873,53.170239835962086],[21.67024631936873,53.1892755240097],[21.653590092328095,53.20593175105025],[21.633364673778804,53.219018786581785],[21.60362141120548,53.226157169600874],[21.576257609638787,53.244003127143536],[21.546514347066175,53.24162366613753],[21.536996503042232,53.24876204915475],[21.513201892984107,53.25352097116686],[21.490597013429074,53.26660800669928],[21.47632024739418,53.290402616757135],[21.48107916940584,53.31181776580979],[21.472751055885436,53.33323291486164],[21.463233211861493,53.34631995039495],[21.47156132538181,53.39390917051067],[21.459664020352747,53.411755128055106],[21.42516183576865,53.42365243308363],[21.41940046430661,53.43877603317199],[21.402445798646227,53.43685663705946],[21.27633436533705,53.40473391348041],[21.2097094571738,53.38569822543377],[21.13356670498706,53.34643711883848],[21.04728754595061,53.30380506378515]]]]}},{"type":"Feature","properties":{"kind":"district","id":"uyezd-1897-118","name":"Маковский","provinceId":"gubernia-1897-16"},"geometry":{"type":"MultiPolygon","coordinates":[[[[21.36805477162858,53.12621980735548],[21.35020881408506,53.11551223282826],[21.316896360002993,53.11789169383427],[21.297860671956528,53.11670196333215],[21.290722288939126,53.103614927799725],[21.275255792401406,53.08695870075918],[21.25146118234257,53.08101004824496],[21.22052818926713,53.08338950925097],[21.21338980624973,53.09528681427852],[21.17769789116183,53.09528681427852],[21.147954628589307,53.0893381617643],[21.109883252495667,53.09290735327429],[21.112262713501497,53.111943041320046],[21.094416755957948,53.111943041320046],[21.084898911934804,53.101235466793725],[21.06586322388834,53.09528681427852],[21.06824268489417,53.06792301271254],[21.057535110368022,53.06078462969523],[21.04325834433242,53.05721543818524],[21.028981578297614,53.040559211144696],[20.9920999327076,53.03461055863136],[20.96949505315168,53.028661906116255],[20.962356670134277,53.015574870584715],[20.986151280193113,53.01200567907473],[21.001617776730832,53.00010837404629],[20.99923831572509,52.98464187750777],[21.008756159748234,52.96441645895901],[21.018274003771467,52.95727807594179],[21.01470481226281,52.91920669984752],[21.002807507233747,52.9049299338121],[21.00994589025115,52.89422235928578],[21.03017130880053,52.89065316777756],[21.01946373427438,52.88232505425822],[20.99447939371343,52.876376401743116],[20.964736131140107,52.8704277492288],[20.91833664152695,52.862099635707594],[20.88502418744488,52.85734071369647],[20.860039846884018,52.85020233067915],[20.861229577386844,52.8264077206213],[20.868367960404246,52.807372032574655],[20.9004906839826,52.802613110561666],[20.904059875491345,52.797854188551334],[20.899300953479685,52.790715805532244],[20.873126882415907,52.785956883522005],[20.830296584310606,52.7764390394977],[20.860039846884018,52.76097254295928],[20.837434967328807,52.74669577692563],[20.861229577386844,52.737177932902306],[20.879075534930394,52.75145469893596],[20.91833664152695,52.74193685491264],[20.931423677058838,52.75264442943896],[20.91833664152695,52.77881850050469],[20.939751790579155,52.789526075030125],[20.977823166672795,52.76573146497227],[20.99685885471926,52.76573146497227],[21.005186968239578,52.75621362094895],[21.059914571373852,52.7776287700008],[21.069432415397085,52.75621362094895],[21.102744869478265,52.76454173446838],[21.10155513897544,52.7800082310068],[21.15747247261254,52.78476715301891],[21.16223139462411,52.7740595784917],[21.17769789116183,52.76930065648137],[21.191974657196724,52.73598820239842],[21.207441153735243,52.73598820239842],[21.211010345243988,52.74907523793172],[21.28477363642464,52.75502389044506],[21.275255792401406,52.76930065648137],[21.300240132962358,52.77524930899559],[21.306188785476845,52.76811092597836],[21.321655282014564,52.77049038698348],[21.334742317547253,52.76930065648137],[21.35020881408506,52.76930065648137],[21.354967736096633,52.76454173446838],[21.369244502131437,52.76811092597836],[21.384710998669156,52.76335200396626],[21.397798034201045,52.75859308195504],[21.431110488283114,52.75264442943896],[21.460853750855637,52.7716801174856],[21.45640595327575,52.78381047452331],[21.447766715323723,52.80737203257479],[21.433489949288912,52.813320685088115],[21.42635156627159,52.83473583414076],[21.40969533923095,52.84425367816408],[21.39422884269237,52.87161747973096],[21.401367225709862,52.90611966431618],[21.42873102727725,52.92039643035065],[21.44895644582664,52.92515535236282],[21.47037159487894,52.94538077091153],[21.487027821920265,52.956088345437934],[21.494166204937756,52.97988295549567],[21.508442970972567,52.99891864354231],[21.482268899908604,52.99653918253807],[21.45133590683264,53.004867296057455],[21.42635156627159,53.00248783505231],[21.401367225709862,53.007246757063626],[21.354967736096683,53.0215235230981],[21.362106119114003,53.03580028913359],[21.37995207665773,53.04531813315782],[21.403746686716374,53.03104136712142],[21.429920757780167,53.03461055863136],[21.42873102727725,53.051266785672],[21.457284559347045,53.05959489919138],[21.47394078638837,53.07506139572979],[21.471561325381856,53.09171762277043],[21.440628332306403,53.09885600578775],[21.41207480023661,53.10480465830193],[21.390659651183796,53.11432250232616],[21.36805477162858,53.12621980735548]]]]}},{"type":"Feature","properties":{"kind":"district","id":"uyezd-1897-119","name":"Островский","provinceId":"gubernia-1897-16"},"geometry":{"type":"MultiPolygon","coordinates":[[[[21.431110488283114,52.75264442943896],[21.446576984820833,52.74669577692562],[21.466802403370213,52.7324190108893],[21.471561325381785,52.711003861838435],[21.48583809141739,52.702675748317226],[21.49297647443479,52.68839898228269],[21.48345863041156,52.65627625870363],[21.471561325381785,52.617015152107335],[21.458474289849807,52.57894377601405],[21.46791220351083,52.57894377601402],[21.482268899908643,52.57894377601405],[21.497735396446362,52.58846162003737],[21.54651434706615,52.589651350539484],[21.56198084360396,52.59441027255248],[21.56673976561553,52.611066499593115],[21.573878148632932,52.61344596059912],[21.581016531650334,52.6063075775819],[21.59291383667931,52.602738386071906],[21.596483028188054,52.592030811545584],[21.60481114170837,52.590841081043465],[21.61789817724106,52.59797946406069],[21.644072248304926,52.59678973355858],[21.657159283836815,52.58727188953526],[21.677384702386195,52.62177407411855],[21.690471737918884,52.61820488260945],[21.695230659930456,52.625343265628544],[21.713076617474005,52.619394613112455],[21.728543114011725,52.636050840154866],[21.73211230552047,52.64556868417819],[21.75233772406976,52.64794814518242],[21.78089125614017,52.65984545021183],[21.79635775267789,52.65984545021183],[21.80587559670112,52.66817356373304],[21.81658317122727,52.67650167725238],[21.85703400832674,52.682450329767576],[21.89034646240792,52.68364006027147],[21.914141072466755,52.66817356373304],[21.949832987553766,52.66460437222483],[21.977196789121347,52.66698383322906],[21.992663285659066,52.65627625870363],[22.010509243202616,52.66103518071484],[22.02786531171549,52.66537419784373],[22.043821697284596,52.66936329423605],[22.052149810805002,52.66579410272695],[22.061667654828145,52.67055302473816],[22.0937903784065,52.681260599265464],[22.15446663405526,52.68482979077359],[22.20562504568088,52.67888113825937],[22.218712081212768,52.66936329423605],[22.24369642177372,52.67055302473816],[22.253214265797663,52.66579410272695],[22.274629414849958,52.66817356373304],[22.288906180884762,52.66579410272695],[22.303182946919566,52.65746598920574],[22.318649443458085,52.65627625870363],[22.332926209492978,52.6491378756864],[22.35315162804227,52.641999492669086],[22.369807855082815,52.64318922317129],[22.37575650759739,52.632481648645765],[22.359100280556756,52.62415353512465],[22.38884354313008,52.607497308084014],[22.400740848159142,52.607497308084014],[22.408544345577475,52.61237449397099],[22.42929438022875,52.625343265628544],[22.454278720790413,52.641999492669136],[22.441191685257724,52.64675841468035],[22.432863571737496,52.66936329423609],[22.423345727714263,52.693157904293955],[22.42691491922292,52.72171143636392],[22.453088990286787,52.766921195474424],[22.432863571737496,52.814510415591926],[22.387653812627164,52.81570014609404],[22.37813596860322,52.82283852911135],[22.367428394077074,52.83235637313467],[22.380515429608963,52.844253678164],[22.374566777094476,52.856150983192535],[22.369807855082815,52.86447909671374],[22.361479741562587,52.876376401743066],[22.346013245024867,52.8906531677776],[22.346013245024867,52.90849912532213],[22.33530567049872,52.92872454387182],[22.268680762335382,52.9108785863273],[22.275819145352873,52.90017101180088],[22.252024535294836,52.889463437275445],[22.232988847247572,52.89541208978878],[22.219901811715683,52.884704515262456],[22.20800450668671,52.878755862748235],[22.199676393166303,52.88589424576644],[22.18777908813733,52.879945593252124],[22.1853996271315,52.872807210234896],[22.105687683436273,52.85020233067915],[22.092600647903584,52.872807210234896],[22.077134151365865,52.869238018725795],[22.081893073377525,52.85139206118127],[22.053339541307828,52.83116664263251],[22.02240654823159,52.83116664263251],[22.005750321190956,52.86566882721581],[21.976007058618432,52.863289366211575],[21.95578164006834,52.853771522188254],[21.95102271805668,52.83949475615194],[21.945074065542194,52.84068448665583],[21.918899994478327,52.862099635707594],[21.871310774361543,52.881135323754236],[21.83918805078319,52.89898128129877],[21.813013979718505,52.91206831683132],[21.76304529859658,52.87875586274828],[21.732112305520445,52.88708397626954],[21.695230659930417,52.88113532375428],[21.680953893894923,52.88708397626954],[21.6524003618253,52.88708397626954],[21.629795482270083,52.87875586274828],[21.609570063720014,52.884704515262456],[21.579826801147476,52.87399694073713],[21.60600087221127,52.8513920611814],[21.604811141708353,52.82640772062143],[21.584585723158966,52.813320685088115],[21.570308957124155,52.78833634452815],[21.53223758103053,52.79666445804747],[21.49297647443484,52.791905536036325],[21.45640595327575,52.78381047452331],[21.460853750855637,52.7716801174856],[21.431110488283114,52.75264442943896]]]]}},{"type":"Feature","properties":{"kind":"district","id":"uyezd-1897-181","name":"Ломжинский","provinceId":"gubernia-1897-16"},"geometry":{"type":"MultiPolygon","coordinates":[[[[22.451899259783897,53.25827989317807],[22.401930578662082,53.25827989317807],[22.382894890614818,53.24876204915475],[22.360290011059696,53.25114151016085],[22.346013245024892,53.242813396641424],[22.310321329936993,53.25352097116686],[22.301993216416676,53.26065935418417],[22.279388336861555,53.242813396641424],[22.230609386241767,53.235675013624196],[22.20205585417216,53.25114151016085],[22.159225556066858,53.24876204915475],[22.11758498846536,53.208311212056344],[22.08189307337755,53.22139824758779],[22.042631966781794,53.21425986457146],[22.006940051693896,53.22496743909689],[21.996232477167837,53.23686474412631],[21.984335172138774,53.234485283120215],[21.981955711133033,53.222587978090885],[21.9724378671098,53.22496743909689],[21.971248136606885,53.21425986457146],[21.94507406554222,53.222587978090885],[21.91176161146104,53.219018786581785],[21.88915673190503,53.22139824758779],[21.85346481681802,53.21544959507357],[21.818962632233035,53.19998309853514],[21.793978291672083,53.19879336803302],[21.783270717146024,53.20950094255846],[21.760665837590903,53.19522417652392],[21.753527454573412,53.17499875797517],[21.738060958034893,53.169050105459974],[21.717835539485602,53.154773339424544],[21.684523085404333,53.152393878419424],[21.672625780374688,53.125030076851715],[21.697610120936247,53.10123546679375],[21.71902526998855,53.09171762277043],[21.76542475960241,53.09290735327443],[21.796357752677864,53.10242519729775],[21.820152362735996,53.057215438185324],[21.82967020676,53.04531813315782],[21.870121043858603,53.04531813315782],[21.886777270899245,53.057215438185324],[21.9058129589464,53.051266785672],[21.9058129589464,53.03817975013868],[21.935556221518937,53.029851636619355],[21.907002689449314,53.01914406209295],[21.88558754039633,53.025092714608036],[21.852275086315046,53.00605702656139],[21.865362121846943,52.9846418775079],[21.882018348887584,52.97869322499366],[21.9058129589464,52.972744572478575],[21.92246918598704,52.95965753694793],[21.899864306431994,52.93824238789506],[21.852275086315046,52.95370888443193],[21.805875596701185,52.92277589135665],[21.813013979718505,52.91206831683132],[21.83918805078319,52.89898128129877],[21.871310774361543,52.881135323754236],[21.918899994478327,52.862099635707594],[21.945074065542194,52.84068448665583],[21.95102271805668,52.83949475615194],[21.95578164006834,52.853771522188254],[21.976007058618432,52.863289366211575],[22.005750321190956,52.86566882721581],[22.02240654823159,52.83116664263251],[22.053339541307828,52.83116664263251],[22.081893073377525,52.85139206118127],[22.077134151365865,52.869238018725795],[22.092600647903584,52.872807210234896],[22.105687683436273,52.85020233067915],[22.1853996271315,52.872807210234896],[22.18777908813733,52.879945593252124],[22.199676393166303,52.88589424576644],[22.20800450668671,52.878755862748235],[22.219901811715683,52.884704515262456],[22.232988847247572,52.89541208978878],[22.252024535294836,52.889463437275445],[22.275819145352873,52.90017101180088],[22.268680762335382,52.9108785863273],[22.33530567049872,52.92872454387182],[22.36029001105967,52.94062184890115],[22.3626694720655,52.95013969292447],[22.36029001105967,52.96441645895901],[22.39836138715331,52.98345214700565],[22.419776536205518,53.00605702656139],[22.46260683431082,53.033420828127376],[22.51376524593555,53.051266785671906],[22.542318778006045,53.05364624667712],[22.562544196555336,53.06078462969523],[22.568492849069823,53.08457923975308],[22.582769615104628,53.101235466793725],[22.595856650637316,53.11789169383427],[22.651773984273706,53.13573765137879],[22.664861019806395,53.15953226143665],[22.655343175782452,53.177378218981175],[22.641066409747648,53.179757679985414],[22.631548565724415,53.20474202054716],[22.611323147175124,53.19998309853506],[22.585149076110458,53.21188040356448],[22.55183662202919,53.21188040356448],[22.52328308995878,53.2225879780908],[22.48045279185428,53.20950094255838],[22.459037642802073,53.2213982475878],[22.448330068275215,53.21188040356448],[22.42691491922292,53.2190187865817],[22.435243032743237,53.24162366613744],[22.4471403377723,53.246382588149544],[22.451899259783897,53.25827989317807]]]]}},{"type":"Feature","properties":{"kind":"district","id":"uyezd-1897-183","name":"Кольненский","provinceId":"gubernia-1897-16"},"geometry":{"type":"MultiPolygon","coordinates":[[[[22.50662686291817,53.39390917051058],[22.462606834310844,53.39390917051058],[22.388843543130104,53.37487348246394],[22.3674283940771,53.38558105699124],[22.35434135854512,53.398668092521795],[22.33649540100166,53.39747836201968],[22.32102890446394,53.38796051799724],[22.31151106043991,53.39509890101456],[22.31864944345811,53.406996206043004],[22.31151106043991,53.42960108559785],[22.30080348591376,53.42960108559785],[22.28533698937604,53.42365243308363],[22.26273210982101,53.42484216358753],[22.24964507428903,53.41770378056844],[22.208004506686734,53.42722162459176],[22.20205585417216,53.43673946861508],[22.177071513611207,53.42603189408965],[22.14018986802048,53.412944858557225],[22.111636335950873,53.406996206043004],[22.069995768348488,53.38915024849936],[22.04382169728462,53.37963240447604],[22.002181129682324,53.38558105699124],[21.99266328565909,53.39509890101456],[22.006940051693896,53.41770378056844],[21.989094094150346,53.42603189408965],[21.96292002308577,53.422462702580546],[21.941504874033562,53.41770378056844],[21.924848646992928,53.42603189408965],[21.917710263975525,53.43792919911906],[21.91652053347261,53.45101623465148],[21.902243767437806,53.44863677364539],[21.883208079390542,53.45101623465148],[21.871199616794506,53.44875394208887],[21.8236103966779,53.44399502007765],[21.761744410525957,53.46184097762031],[21.73676006996474,53.46541016912941],[21.72367303443285,53.476117743656715],[21.655858395766685,53.46541016912941],[21.52855723195494,53.45113340309487],[21.41940046430661,53.43877603317199],[21.42516183576865,53.42365243308363],[21.459664020352747,53.411755128055106],[21.47156132538181,53.39390917051067],[21.463233211861493,53.34631995039495],[21.472751055885436,53.33323291486164],[21.48107916940584,53.31181776580979],[21.47632024739418,53.290402616757135],[21.490597013429074,53.26660800669928],[21.513201892984107,53.25352097116686],[21.536996503042232,53.24876204915475],[21.546514347066175,53.24162366613753],[21.576257609638787,53.244003127143536],[21.60362141120548,53.226157169600874],[21.633364673778804,53.219018786581785],[21.653590092328095,53.20593175105025],[21.67024631936873,53.1892755240097],[21.67024631936873,53.170239835962086],[21.684523085404333,53.152393878419424],[21.717835539485602,53.154773339424544],[21.738060958034893,53.169050105459974],[21.753527454573412,53.17499875797517],[21.760665837590903,53.19522417652392],[21.783270717146024,53.20950094255846],[21.793978291672083,53.19879336803302],[21.818962632233035,53.19998309853514],[21.85346481681802,53.21544959507357],[21.88915673190503,53.22139824758779],[21.91176161146104,53.219018786581785],[21.94507406554222,53.222587978090885],[21.971248136606885,53.21425986457146],[21.9724378671098,53.22496743909689],[21.981955711133033,53.222587978090885],[21.984335172138774,53.234485283120215],[21.996232477167837,53.23686474412631],[22.006940051693896,53.22496743909689],[22.042631966781794,53.21425986457146],[22.08189307337755,53.22139824758779],[22.11758498846536,53.208311212056344],[22.159225556066858,53.24876204915475],[22.20205585417216,53.25114151016085],[22.230609386241767,53.235675013624196],[22.279388336861555,53.242813396641424],[22.301993216416676,53.26065935418417],[22.310321329936993,53.25352097116686],[22.346013245024892,53.242813396641424],[22.360290011059696,53.25114151016085],[22.382894890614818,53.24876204915475],[22.401930578662082,53.25827989317807],[22.451899259783897,53.25827989317807],[22.476883600345648,53.29516153876924],[22.462606834310844,53.31062803530767],[22.469745217328246,53.33085345385741],[22.482832252860135,53.33085345385741],[22.489970635877537,53.34275075888496],[22.48878090537471,53.37725294347003],[22.500678210403684,53.38558105699124],[22.50662686291817,53.39390917051058]]]]}},{"type":"Feature","properties":{"kind":"district","id":"uyezd-1897-184","name":"Щучинский","provinceId":"gubernia-1897-16"},"geometry":{"type":"MultiPolygon","coordinates":[[[[22.931360652458793,53.57593793745677],[22.922107192992296,53.59603116372814],[22.91139961846535,53.611497660266664],[22.88046662538991,53.600790085740336],[22.869759050863763,53.63410253982143],[22.87808716438417,53.64005119233663],[22.87808716438417,53.67693283792593],[22.887605008407313,53.698347986979556],[22.876897433881254,53.7209528665353],[22.823359561249895,53.72214259703742],[22.810272525717917,53.751885859609494],[22.781718993648308,53.74712693759916],[22.767442227612705,53.73879882407796],[22.734129773531436,53.73879882407796],[22.7174735464908,53.73166044106074],[22.70557624146174,53.73166044106074],[22.700817319449367,53.74117828508406],[22.67940217039716,53.73403990206683],[22.64882014834481,53.75886891311986],[22.620660109947515,53.73036917661284],[22.54628520029455,53.70709267727304],[22.43326080251779,53.68924671973038],[22.393491307574525,53.67242327663736],[22.288795023317547,53.627213517525874],[22.228118767668875,53.59865998545591],[22.18528846956393,53.57010645338595],[22.113904639388842,53.53560426880176],[22.029433773682133,53.51180965874302],[22.018726199155896,53.490394509690276],[22.00206997211535,53.48206639617005],[21.984224014571623,53.492773970696376],[21.958049943507135,53.50229181472058],[21.899753148864825,53.49158424019337],[21.878337999812263,53.479686935164835],[21.871199616794506,53.44875394208887],[21.883208079390542,53.45101623465148],[21.902243767437806,53.44863677364539],[21.91652053347261,53.45101623465148],[21.917710263975525,53.43792919911906],[21.924848646992928,53.42603189408965],[21.941504874033562,53.41770378056844],[21.96292002308577,53.422462702580546],[21.989094094150346,53.42603189408965],[22.006940051693896,53.41770378056844],[21.99266328565909,53.39509890101456],[22.002181129682324,53.38558105699124],[22.04382169728462,53.37963240447604],[22.069995768348488,53.38915024849936],[22.111636335950873,53.406996206043004],[22.14018986802048,53.412944858557225],[22.177071513611207,53.42603189408965],[22.20205585417216,53.43673946861508],[22.208004506686734,53.42722162459176],[22.24964507428903,53.41770378056844],[22.26273210982101,53.42484216358753],[22.28533698937604,53.42365243308363],[22.30080348591376,53.42960108559785],[22.31151106043991,53.42960108559785],[22.31864944345811,53.406996206043004],[22.31151106043991,53.39509890101456],[22.32102890446394,53.38796051799724],[22.33649540100166,53.39747836201968],[22.35434135854512,53.398668092521795],[22.3674283940771,53.38558105699124],[22.388843543130104,53.37487348246394],[22.462606834310844,53.39390917051058],[22.50662686291817,53.39390917051058],[22.51495497643849,53.403427014533904],[22.526852281468262,53.40818593654512],[22.533990664485664,53.41770378056844],[22.531611203479923,53.43911892962117],[22.548267430520557,53.44030866012418],[22.56254419655536,53.44744704314238],[22.601805303151917,53.46648273118805],[22.61132314717515,53.48075949722356],[22.648204792765075,53.48789788024079],[22.666050750309335,53.484328688732575],[22.75647026853071,53.50098491577321],[22.79454164462355,53.51288222080254],[22.79930056663521,53.52121033432374],[22.823095176694046,53.52834871734106],[22.833802751220105,53.524779525831065],[22.854028169769485,53.5366768308604],[22.90637631189793,53.56285090192435],[22.931360652458793,53.57593793745677]]]]}},{"type":"Feature","properties":{"kind":"district","id":"uyezd-1897-710","name":"Мазовецкий","provinceId":"gubernia-1897-16"},"geometry":{"type":"MultiPolygon","coordinates":[[[[22.33530567049872,52.92872454387182],[22.346013245024867,52.90849912532213],[22.346013245024867,52.8906531677776],[22.361479741562587,52.876376401743066],[22.369807855082815,52.86447909671374],[22.374566777094476,52.856150983192535],[22.380515429608963,52.844253678164],[22.367428394077074,52.83235637313467],[22.37813596860322,52.82283852911135],[22.387653812627164,52.81570014609404],[22.432863571737496,52.814510415591926],[22.453088990286787,52.766921195474424],[22.42691491922292,52.72171143636392],[22.423345727714263,52.693157904293955],[22.432863571737496,52.66936329423609],[22.441191685257724,52.64675841468035],[22.454278720790413,52.641999492669136],[22.468555486825306,52.64794814518247],[22.470934947831136,52.66460437222488],[22.491160366380427,52.68126059926543],[22.510196054426803,52.70029628731207],[22.52328308995878,52.7121935923406],[22.54112904750313,52.713383322842716],[22.568492849069823,52.72171143636392],[22.575631232087225,52.72884981938114],[22.593477189630775,52.72766008887903],[22.60537449466055,52.74312658541657],[22.636307487735987,52.7538341599429],[22.66605075030931,52.75502389044501],[22.692224821373177,52.771680117485644],[22.70174266539641,52.797854188551376],[22.727916736460276,52.80380284106471],[22.77550595657706,52.82640772062134],[22.78026487858872,52.860909905204636],[22.800490297138012,52.87161747973096],[22.83380275122008,52.878755862748186],[22.8564076307752,52.89422235928582],[22.868304935804264,52.89422235928582],[22.855217900272287,52.87756613224518],[22.87425358831875,52.87756613224518],[22.888530354354355,52.88589424576639],[22.881391971336953,52.90136074230482],[22.88734062385144,52.90849912532213],[22.883771432342783,52.92515535236268],[22.903996850892074,52.93586292688811],[22.93611957447043,52.94657050141453],[22.926601730447196,52.97155484197628],[22.899237928880503,53.004867296057455],[22.873063857815836,53.0239029841041],[22.903996850892074,53.03817975013864],[22.933740113464598,53.04293867215074],[22.92303253893854,53.05840516868918],[22.931360652458768,53.0679230127125],[22.901617389886244,53.07268193472371],[22.88496116284561,53.079820317741024],[22.839751403734567,53.0714922042216],[22.812387602167874,53.075061395729804],[22.79573137512644,53.102425197297656],[22.807628680156213,53.12740953785763],[22.832613020717165,53.13335819037274],[22.832613020717165,53.14049657339005],[22.8492692477578,53.14168630389217],[22.863546013792604,53.13692738188095],[22.917083886423963,53.14406576489817],[22.930170921955852,53.13930684288785],[22.93849903547626,53.14763495640727],[22.959914184529264,53.150014417413374],[22.959914184529264,53.163101452944815],[22.944447687990746,53.169050105460016],[22.932550382961683,53.184516601998446],[22.914704425418133,53.20712148155419],[22.896858467874672,53.20593175105021],[22.87425358831875,53.20950094255842],[22.817146524179446,53.20712148155419],[22.769557304062573,53.20712148155419],[22.72672700595736,53.21188040356443],[22.695794012881922,53.20593175105021],[22.679137785841288,53.21544959507353],[22.656532906285367,53.21188040356443],[22.631548565724415,53.20474202054716],[22.641066409747648,53.179757679985414],[22.655343175782452,53.177378218981175],[22.664861019806395,53.15953226143665],[22.651773984273706,53.13573765137879],[22.595856650637316,53.11789169383427],[22.582769615104628,53.101235466793725],[22.568492849069823,53.08457923975308],[22.562544196555336,53.06078462969523],[22.542318778006045,53.05364624667712],[22.51376524593555,53.051266785671906],[22.46260683431082,53.033420828127376],[22.419776536205518,53.00605702656139],[22.39836138715331,52.98345214700565],[22.36029001105967,52.96441645895901],[22.3626694720655,52.95013969292447],[22.36029001105967,52.94062184890115],[22.33530567049872,52.92872454387182]]]]}}]}
