{"type":"FeatureCollection","features":[{"type":"Feature","properties":{"kind":"province","id":"gubernia-1897-73","name":"Ярославская губерния"},"geometry":{"type":"MultiPolygon","coordinates":[[[[37.56101523788716,57.849124669874946],[37.536030897326484,57.8312787123314],[37.50390817374759,57.8312787123314],[37.46583679765449,57.821760868308075],[37.46821625866032,57.80510464126655],[37.49558006022674,57.78963814472812],[37.54197954984061,57.76822299567627],[37.53246170581738,57.753946229641734],[37.547928202355635,57.73491054159509],[37.581240656437075,57.73491054159509],[37.60265580548938,57.71825431455366],[37.65619367812073,57.70397754851912],[37.664521791640695,57.6897007824837],[37.672849905161456,57.68256239946736],[37.65262448661163,57.67661374695216],[37.60027634448355,57.64092183186399],[37.562204968390525,57.61593749130411],[37.56101523788716,57.601660725267706],[37.58243038693955,57.58619422873105],[37.5943276919695,57.570727732191735],[37.62288122403929,57.5588304271632],[37.64191691208584,57.54812285263688],[37.66928071365315,57.54574339163176],[37.721628855781155,57.517189859561796],[37.77397699790916,57.50410282403026],[37.819186757019665,57.49220551899995],[37.827514870540426,57.47198010045031],[37.819186757019665,57.458893064918776],[37.821566218025495,57.438667646369126],[37.86950795088386,57.412185126656325],[37.86117983736389,57.401477552129116],[37.90519986597193,57.39195970810668],[37.94089178105921,57.36935482855094],[37.96944531312899,57.36340617603672],[38.007516689222186,57.326524530446434],[38.02298318576035,57.3491294100013],[38.05153671783014,57.36459590653972],[38.08484917191167,57.36459590653972],[38.0872286329175,57.336042374469756],[38.1050745904615,57.325334799943434],[38.137197314039675,57.327714260948554],[38.18359680365354,57.340801296481956],[38.22285791024992,57.34793967949829],[38.25973955584047,57.37768294207126],[38.300190392939406,57.3526986015095],[38.30494931495107,57.31343749491313],[38.297810931933576,57.29678126787347],[38.30138012344268,57.28012504083195],[38.282344435395416,57.259899622282305],[38.23713467628481,57.245622856248744],[38.191924917174305,57.23253582071534],[38.163371385104426,57.20517201914936],[38.138387044542945,57.16591091255307],[38.17288922912766,57.173049295569406],[38.20382222220337,57.15877252953575],[38.23118602377068,57.12308061444671],[38.23237575427315,57.104044926400064],[38.24308332879974,57.08619896885651],[38.2621190168463,57.08025031634317],[38.28749884623916,57.08285531115601],[38.32200103082387,57.08285531115601],[38.368400520437746,57.08761423316723],[38.400523244015915,57.09832180769444],[38.41480001005161,57.09594234668932],[38.4397843506123,57.10664992121387],[38.46714815217961,57.09237315517933],[38.45525084715055,57.06262989260637],[38.46238923016795,57.045973665565725],[38.49689141475275,57.04121474355451],[38.50997845028438,57.02931743852607],[38.55280874838915,57.02931743852607],[38.57065470593314,57.02217905550787],[38.546860095874926,57.01147148098154],[38.544480634869096,56.998384445450014],[38.58136228045973,56.998384445450014],[38.62300284806114,57.00195363695822],[38.66702287666918,57.02455851651308],[38.74316562885619,57.01623040299276],[38.76114377867758,57.0205927481702],[38.778989736221575,57.01107490414688],[38.792076771753194,57.01107490414688],[38.805163807285524,57.0205927481702],[38.83609680036123,57.0205927481702],[38.83847626136706,57.01226463464989],[38.820630303823776,57.00631598213567],[38.82538922583544,56.99917759911844],[38.86584006293438,57.00155706012356],[38.89082440349506,57.00869544314176],[38.91104982204489,57.00988517364388],[38.930085510091445,56.983711102579925],[38.937223893108936,56.973003528053596],[38.97886446071114,56.973003528053596],[38.9871925742319,56.96824460604238],[39.02645368082748,56.95991649252207],[39.03835098585663,56.96586514503726],[39.06095586541228,56.95277810950395],[39.08594020597377,56.93493215196031],[39.1025964330145,56.94326026548063],[39.125201312569345,56.93850134346941],[39.131149965084276,56.92660403844097],[39.160893227657425,56.90994781139945],[39.20610298676793,56.88258400983249],[39.22275921380874,56.8504612862544],[39.251312745878536,56.8504612862544],[39.251312745878536,56.839753711727994],[39.27272789493092,56.839753711727994],[39.30485061850989,56.82428721518956],[39.322696576053886,56.815959101668355],[39.320317115048056,56.807630988148034],[39.34054253359717,56.79811314412471],[39.35243983862623,56.80287206613682],[39.39170094522261,56.79692341362171],[39.39170094522261,56.78145691708506],[39.413116094275,56.78145691708506],[39.413116094275,56.77312880356385],[39.43572097383065,56.76718015104875],[39.43810043483648,56.752903385015095],[39.45951558388886,56.743385540991774],[39.4999664209878,56.74100607998568],[39.5071048040052,56.76718015104875],[39.538037797081614,56.76836988155175],[39.540417258087444,56.78621583909539],[39.55826321563073,56.78621583909539],[39.57610917317473,56.808820718652015],[39.59871405272967,56.819528293178344],[39.61893947127949,56.81001044915502],[39.63797515932605,56.808820718652015],[39.63797515932605,56.82071802368135],[39.655821116870044,56.82071802368135],[39.667718421899195,56.808820718652015],[39.679615726928255,56.808820718652015],[39.704600067489736,56.815959101668355],[39.72006656402719,56.831425598206785],[39.75218928760617,56.8504612862544],[39.7581379401203,56.86711751329406],[39.77955308917339,56.889722392849805],[39.824762848283996,56.89210185385581],[39.859265032868706,56.899240236873126],[39.860454763371266,56.931362960452105],[39.87116233789786,56.94326026548063],[39.860454763371266,56.957537031516054],[39.87116233789786,56.96824460604238],[39.9116131749968,56.975382989058716],[39.92470021052842,56.96586514503726],[39.96515104762807,56.967054875538494],[39.96872023913646,56.97895218056871],[40.015119728750236,56.99203921610024],[40.02225811176773,57.046766819235046],[40.02820676428266,57.08126900381835],[40.09007275043389,57.11696091890642],[40.12695439602453,57.14075552896428],[40.12219547401287,57.16573986952612],[40.144800353567724,57.17406798304732],[40.13351994583697,57.200991143686274],[40.170401591426725,57.21288844871649],[40.187057818467444,57.234303597767365],[40.198955123497306,57.227165214751025],[40.23048298182385,57.23653434246077],[40.22602149243845,57.246349619109466],[40.270636386297326,57.2508111084953],[40.268851790543216,57.26241098090033],[40.22512919456135,57.26330327877618],[40.19568336461367,57.25973408726806],[40.151960768631895,57.29274910872297],[40.1617760452805,57.30970276838978],[40.189437279473275,57.312379662022934],[40.22869838606974,57.31594885353026],[40.246544343613735,57.340189612526984],[40.27331327992941,57.35967144951248],[40.3063283013854,57.369486726161085],[40.28848234384141,57.383763492196515],[40.311979521274154,57.3949172156617],[40.32030763479412,57.41276317320623],[40.334584400829016,57.427039939239876],[40.36194820239633,57.430609130749865],[40.34529197535561,57.44488589678352],[40.325066556805695,57.46630104583616],[40.325066556805695,57.496044308409225],[40.33101520932071,57.52459784047919],[40.36789685491126,57.547946301599964],[40.392881195471944,57.56043847187906],[40.40894255726183,57.5756075357922],[40.402696472121434,57.59166889758129],[40.38038902519125,57.60594566361574],[40.391988897594935,57.62022242965126],[40.391988897594935,57.636283791440256],[40.36968145066545,57.634499195685706],[40.36075847189377,57.65323745110706],[40.36700455703336,57.67019111077387],[40.34023562071857,57.69071396194889],[40.34915859949017,57.71480600463292],[40.377811275768174,57.728339189103316],[40.43372860940528,57.746185146646866],[40.48012809901914,57.75808245167629],[40.526527588633016,57.75808245167629],[40.60742926283089,57.77473867871781],[40.662156865965514,57.79020517525437],[40.66810551847965,57.81994843782743],[40.63955198640977,57.83660466486886],[40.64074171691313,57.8603992749277],[40.61218818484255,57.897280920517005],[40.62884441188398,57.92464472208396],[40.65620821345058,57.943680410130604],[40.67408463505856,57.98002639592774],[40.69906897562005,57.99906208397438],[40.725243046684,58.0026312754826],[40.73595062120988,58.02642588554134],[40.75498630925715,58.045461573587986],[40.77521172780617,58.04903076509886],[40.82993933094001,58.064497261635516],[40.834698252952464,58.08353294968216],[40.85968259351315,58.08234321917915],[40.84540582747826,58.09780971571581],[40.841836635969955,58.109707020745226],[40.86682097653064,58.109707020745226],[40.89180531709212,58.1025686377288],[40.88942585608629,58.1358810918091],[40.8715798985423,58.16919354589205],[40.90132316111536,58.203695730475346],[40.93225615419097,58.194177886452024],[40.958430225255015,58.192988155949905],[40.952481572740886,58.22630061003109],[40.98579402682233,58.22749034053507],[40.990552948833994,58.25604387260592],[41.02029621140714,58.275079560650695],[41.04528055196782,58.29887417070954],[41.102387616108196,58.30006390121254],[41.12380276516067,58.31315093674398],[41.11428492113735,58.33099689428762],[41.104767077114026,58.359550426357586],[41.094059502587434,58.39286288043877],[41.11190546013152,58.41189856848541],[41.11190546013152,58.420226682006614],[41.0952492330908,58.42379587351483],[41.07264435353514,58.43450344804204],[41.07026489252931,58.44759048357358],[41.089300580575866,58.45591859709478],[41.11666438214318,58.46424671061501],[41.05717785699697,58.48566185966686],[41.05122920448275,58.50231808670829],[40.9941221403423,58.54633811531589],[40.964378877769946,58.56180461185431],[40.931066423688506,58.573701916882754],[40.89773471,58.573719430000004],[40.88463471,58.58801943],[40.77163471,58.58681943],[40.678834710000004,58.59151943],[40.61813471,58.58201943],[40.576534710000004,58.54511943],[40.55273471,58.55111943],[40.42903471,58.53681943],[40.40523471,58.55111943],[40.39573471,58.53441943],[40.34453471,58.53441943],[40.299334710000004,58.55821943],[40.22433471,58.54991943],[40.18513471,58.57251943],[40.17203471,58.58081943],[40.13513471,58.589119430000004],[40.11593471,58.60531943],[40.13253471,58.62321943],[40.15283471,58.64581943],[40.12063471,58.663619430000004],[40.10753471,58.669619430000004],[40.10643471,58.66011943],[40.09333471,58.65531943],[40.06953471,58.66011943],[40.05283471,58.67081943],[40.07663471,58.67671943],[40.05523471,58.68741943],[40.03623471,58.701719430000004],[40.03503471,58.729119430000004],[40.02433471,58.75881943],[40.011234710000004,58.75881943],[39.99933471,58.74931943],[39.94223471,58.75641943],[39.88863471,58.75881943],[39.86373471,58.77671943],[39.85893471,58.793319430000004],[39.83753471,58.80281943],[39.83993471,58.820719430000004],[39.80183471,58.836119430000004],[39.77803471,58.83501943],[39.75303471,58.82901943],[39.72563471,58.831419430000004],[39.72093471,58.842119430000004],[39.67333471,58.863519430000004],[39.66853471,58.87781943],[39.62693471,58.89321943],[39.61863471,58.88971943],[39.60913471,58.890919430000004],[39.60793471,58.89801943],[39.59123893,58.8968386],[39.58291082,58.88732075],[39.57458271,58.8968386],[39.55911621,58.8968386],[39.53770106,58.88732075],[39.51509618,58.88732075],[39.49606049,58.88018237],[39.46988642,58.88613102],[39.45323019,58.89921806],[39.41991774,58.89921806],[39.39017448,58.88494129],[39.373518250000004,58.911115360000004],[39.33306741,58.91944348],[39.3247393,58.912305090000004],[39.321170110000004,58.8968386],[39.30689334,58.88732075],[39.28547819,58.8968386],[39.25811439,58.89564887],[39.24145817,58.91825375],[39.22242248,58.92063321],[39.22242248,58.93015105],[39.20457652,58.93253051],[39.19743814,58.92063321],[39.1843511,58.9360997],[39.16650514,58.93490997],[39.153418110000004,58.94680728],[39.11653646,58.94680728],[39.08560347,58.93372024],[39.02373748,58.93847916],[38.99994287,58.95870458],[38.985666110000004,58.95632512],[38.97614826,58.94918674],[38.96306123,58.94799701],[38.94164608,58.95513539],[38.94045635,58.964653240000004],[38.92974877,58.968222430000004],[38.91547201,58.96227377],[38.90119524,58.96227377],[38.90238497,58.968222430000004],[38.88453901,58.97298135],[38.879780090000004,58.968222430000004],[38.86312387,58.969412160000005],[38.85598548,58.97655054],[38.86669306,58.99915542],[38.84170872,59.00510407],[38.82862168,58.99201704],[38.74772001,58.99320677],[38.7203562,58.99201704],[38.67871564,59.00510407],[38.62517776,58.99558623],[38.62398803,59.00391434],[38.58234747,59.00748353],[38.5835372,58.99320677],[38.55855286,58.98725811],[38.52761986,58.99915542],[38.52880959,59.01343219],[38.51215337,59.021760300000004],[38.45742576,59.01581165],[38.40745708,59.01224246],[38.39379952,59.034579380000004],[38.327174610178055,59.02863072773019],[38.299810808611454,59.00483611767144],[38.304569730623115,58.99293881264202],[38.3188464966581,58.991749082139904],[38.316467035652266,58.98223123811658],[38.304569730623115,58.97390312459538],[38.303380000119844,58.95962635856173],[38.3188464966581,58.9477290535324],[38.311708113640606,58.928693365485756],[38.29148269509078,58.93464201799998],[38.268877815535035,58.93464201799998],[38.26173943251763,58.94534959252542],[38.24151401396852,58.9417804010172],[38.23199616994529,58.93226255699388],[38.20463236837797,58.92988309598876],[38.21177075139546,58.917985790958454],[38.20463236837797,58.90489875542701],[38.167750722787424,58.90370902492391],[38.149904765244145,58.88348360637427],[38.12373069418018,58.86444791832763],[38.167750722787424,58.86920684033885],[38.183217219325584,58.85730953531041],[38.17131991429643,58.85255061329919],[38.15347395675244,58.850171152292205],[38.122540963676826,58.82042788972101],[38.168940453290695,58.79425381865626],[38.145145843232484,58.78473597463294],[38.104695006132744,58.764510556083195],[38.07495174356049,58.754992712059874],[38.04520848098734,58.756182442562974],[38.033311175958275,58.74904405954477],[38.05591605551385,58.72762891049203],[38.03450090646075,58.72049052747481],[38.0011884523793,58.71097268345149],[37.97977330332692,58.70502403093727],[37.990480877853514,58.696695917416946],[38.008326835396794,58.69312672590873],[37.98691168634441,58.684798612388505],[37.93932246622798,58.675280768365184],[37.95478896276623,58.66814238534698],[37.94289165773637,58.65267588880855],[37.911958664660666,58.6348299312658],[37.882215402088406,58.613414782212175],[37.86436944454432,58.612225051709174],[37.83462618197118,58.63958885327702],[37.808452110907226,58.63958885327702],[37.77989857883735,58.6288812787507],[37.76919100431085,58.6348299312658],[37.74896558576174,58.64434777528912],[37.73349908922357,58.63839912277402],[37.71327367067366,58.636019661768806],[37.70137636564459,58.59318936366253],[37.68472013860387,58.544410413044695],[37.66211525904893,58.50633903695141],[37.645459032008205,58.4920622709151],[37.63713091848744,58.4587498168348],[37.61714376198201,58.43797273963263],[37.62547187550197,58.4225062430942],[37.58977996041469,58.409419207562664],[37.56598535035648,58.40466028555056],[37.53743181828669,58.41774732108209],[37.513637208228474,58.409419207562664],[37.448202030568055,58.403470555047555],[37.416079306989076,58.3808656754927],[37.40418200196002,58.36658890945638],[37.372059278381045,58.35588133493095],[37.37086954787857,58.33208672487309],[37.38990523592513,58.30234346230012],[37.3732490088844,58.278548852241286],[37.34112628530542,58.277359121738286],[37.36016197335198,58.23809801514199],[37.37086954787857,58.21906232709535],[37.374438739386875,58.1988369085457],[37.41132038497751,58.196457447540496],[37.42797661201823,58.182180681505955],[37.455340413585546,58.17980122049906],[37.46842744911717,58.171473106978745],[37.48746313716443,58.17861148999597],[37.52910370476593,58.165524454463636],[37.5267242437601,58.15362714943599],[37.50055017269605,58.12864280887425],[37.47318637112954,58.091761163283074],[37.455340413585546,58.08700224127274],[37.46604798811134,58.06320763121311],[37.48270421515277,58.06082817020799],[37.49341178967865,58.04655140417346],[37.48389394565533,58.015618411096504],[37.46604798811134,58.00966975858317],[37.48627340666116,57.96921892148388],[37.51223628726835,57.95620041513757],[37.53008224481155,57.95620041513757],[37.51937467028576,57.94430311010727],[37.505097904250064,57.94430311010727],[37.48368275519768,57.94906203212035],[37.46583679765449,57.92764688306761],[37.48368275519768,57.90861119502097],[37.52651305330325,57.906231734013986],[37.53484116682321,57.893144698482544],[37.55149739386393,57.893144698482544],[37.55149739386393,57.88362685445922],[37.56577415989882,57.86459116641258],[37.56101523788716,57.849124669874946]]]]}},{"type":"Feature","properties":{"kind":"district","id":"uyezd-1897-44","name":"Моложский","provinceId":"gubernia-1897-73"},"geometry":{"type":"MultiPolygon","coordinates":[[[[37.56101523788716,57.849124669874946],[37.59147331796434,57.84065946806642],[37.60812954500507,57.84184919856854],[37.61645765852583,57.83233135454522],[37.63668307707485,57.8311416240431],[37.68665175819702,57.83590054605521],[37.719964212279265,57.84422865957455],[37.74018963082838,57.86207461711818],[37.75446639686328,57.86207461711818],[37.77231235440727,57.8715924611415],[37.78658912044225,57.8656438086264],[37.81514265251204,57.8668335391294],[37.844885915085186,57.84660812057976],[37.89128540469905,57.84779785108276],[37.90913136224225,57.85850542561006],[37.93530543330629,57.85850542561006],[37.93649516380956,57.84898758158674],[37.96385896537687,57.84898758158674],[37.98408438392599,57.85374650359787],[38.016207107504876,57.85255677309486],[38.036432526054696,57.8656438086264],[38.05070929208968,57.86802326963338],[38.04119144806636,57.88230003566783],[38.057847675107084,57.889438418686034],[38.059037405609644,57.89776653220635],[38.04832983108385,57.910853567737796],[38.04714010058049,57.92988925578444],[38.03286333454569,57.93107898628753],[38.04476063957475,57.95725305735229],[38.08402174617113,57.975099014895925],[38.0852114766736,57.99175524193558],[38.07569363265037,57.99770389445078],[38.08640120717696,58.0072217384741],[38.10186770371441,58.00603200797198],[38.10662662572678,58.01317039098832],[38.12566231377333,58.0072217384741],[38.14350827131662,58.0084114689771],[38.14350827131662,58.0155498519953],[38.15897476785479,58.0155498519953],[38.18752829992466,58.003652546965],[38.23392778953853,58.0012730859589],[38.23987644205266,58.01792931300042],[38.2696197046258,58.02030877400554],[38.26367105211158,58.040534192555285],[38.28627593166644,58.04410338406527],[38.29817323669559,58.03339580953886],[38.31126027222801,58.045293114568274],[38.30174242820469,58.06313907211191],[38.29953635134377,58.07049266164805],[38.294604045187285,58.08693368216977],[38.32315757725708,58.122625597256075],[38.34814191781856,58.1380920937945],[38.373126258379244,58.1380920937945],[38.40049005994656,58.1440407463097],[38.41476682598145,58.16545589536146],[38.44094089704549,58.179732661396],[38.45759712408622,58.21423484598107],[38.47187389012112,58.22613215101049],[38.49923769168843,58.22851161201561],[38.51708364923242,58.22256295950228],[38.55515502532562,58.204717001957746],[38.605123706447785,58.192819696929305],[38.601554514939394,58.21185538497595],[38.613451819968546,58.224942420507396],[38.615831280974376,58.24992676106923],[38.637246430026764,58.264203527103774],[38.62653885550017,58.27015217961888],[38.639625891032594,58.28323921515042],[38.64438481304417,58.32725924375792],[38.64081562153507,58.355812775827886],[38.67888699762888,58.359381967337875],[38.70387133818966,58.36414088934821],[38.73480433126527,58.36295115884511],[38.7895319343999,58.37246900286843],[38.799049778423225,58.39388415192117],[38.77287570735918,58.39745334343116],[38.72290702623612,58.39626361292815],[38.69792268567544,58.42600687550112],[38.67769726712561,58.42838633650624],[38.699112416178,58.44147337203778],[38.64438481304417,58.44028364153566],[38.62772858600344,58.47478582611896],[38.62059020298595,58.499770166680705],[38.590846940412895,58.509288010704026],[38.590846940412895,58.51880585472735],[38.57300098286881,58.52356477673857],[38.55396529482226,58.51642639372223],[38.52303230174664,58.508098280201914],[38.51827337973498,58.517616124225235],[38.481391734144346,58.51880585472735],[38.45997658509205,58.539031273277],[38.49447876967677,58.55330803931153],[38.51232472722085,58.56996426635217],[38.47782254263613,58.57710264937028],[38.42190520899894,58.5866204933936],[38.3921619464258,58.61993294747478],[38.30293215870725,58.63183025250509],[38.30293215870725,58.64015836602452],[38.32315757725708,58.64015836602452],[38.34219326530363,58.64134809652752],[38.32077811625125,58.653245401557825],[38.287465662169794,58.67109135910138],[38.28389647066069,58.69131677765111],[38.26605051311741,58.70202435217744],[38.26129159110504,58.73295734525252],[38.26486078261414,58.7734081823519],[38.26129159110504,58.800771983918864],[38.19942560495372,58.78887467888856],[38.18157964740973,58.79839252291188],[38.168940453290695,58.79425381865626],[38.145145843232484,58.78473597463294],[38.104695006132744,58.764510556083195],[38.07495174356049,58.754992712059874],[38.04520848098734,58.756182442562974],[38.033311175958275,58.74904405954477],[38.05591605551385,58.72762891049203],[38.03450090646075,58.72049052747481],[38.0011884523793,58.71097268345149],[37.97977330332692,58.70502403093727],[37.990480877853514,58.696695917416946],[38.008326835396794,58.69312672590873],[37.98691168634441,58.684798612388505],[37.93932246622798,58.675280768365184],[37.95478896276623,58.66814238534698],[37.94289165773637,58.65267588880855],[37.911958664660666,58.6348299312658],[37.882215402088406,58.613414782212175],[37.86436944454432,58.612225051709174],[37.83462618197118,58.63958885327702],[37.808452110907226,58.63958885327702],[37.77989857883735,58.6288812787507],[37.76919100431085,58.6348299312658],[37.74896558576174,58.64434777528912],[37.73349908922357,58.63839912277402],[37.71327367067366,58.636019661768806],[37.70137636564459,58.59318936366253],[37.68472013860387,58.544410413044695],[37.66211525904893,58.50633903695141],[37.645459032008205,58.4920622709151],[37.63713091848744,58.4587498168348],[37.61714376198201,58.43797273963263],[37.62547187550197,58.4225062430942],[37.58977996041469,58.409419207562664],[37.56598535035648,58.40466028555056],[37.53743181828669,58.41774732108209],[37.513637208228474,58.409419207562664],[37.448202030568055,58.403470555047555],[37.416079306989076,58.3808656754927],[37.40418200196002,58.36658890945638],[37.372059278381045,58.35588133493095],[37.37086954787857,58.33208672487309],[37.38990523592513,58.30234346230012],[37.3732490088844,58.278548852241286],[37.34112628530542,58.277359121738286],[37.36016197335198,58.23809801514199],[37.37086954787857,58.21906232709535],[37.374438739386875,58.1988369085457],[37.41132038497751,58.196457447540496],[37.42797661201823,58.182180681505955],[37.455340413585546,58.17980122049906],[37.46842744911717,58.171473106978745],[37.48746313716443,58.17861148999597],[37.52910370476593,58.165524454463636],[37.5267242437601,58.15362714943599],[37.50055017269605,58.12864280887425],[37.47318637112954,58.091761163283074],[37.455340413585546,58.08700224127274],[37.46604798811134,58.06320763121311],[37.48270421515277,58.06082817020799],[37.49341178967865,58.04655140417346],[37.48389394565533,58.015618411096504],[37.46604798811134,58.00966975858317],[37.48627340666116,57.96921892148388],[37.51223628726835,57.95620041513757],[37.53008224481155,57.95620041513757],[37.51937467028576,57.94430311010727],[37.505097904250064,57.94430311010727],[37.48368275519768,57.94906203212035],[37.46583679765449,57.92764688306761],[37.48368275519768,57.90861119502097],[37.52651305330325,57.906231734013986],[37.53484116682321,57.893144698482544],[37.55149739386393,57.893144698482544],[37.55149739386393,57.88362685445922],[37.56577415989882,57.86459116641258],[37.56101523788716,57.849124669874946]]]]}},{"type":"Feature","properties":{"kind":"district","id":"uyezd-1897-45","name":"Пошехонский","provinceId":"gubernia-1897-73"},"geometry":{"type":"MultiPolygon","coordinates":[[[[39.80895961503771,58.39715178546252],[39.81847745906103,58.40666962948584],[39.81371853704937,58.41618747350916],[39.793493118499455,58.42927450904061],[39.81490826755184,58.457828041110574],[39.795872579505286,58.474484268152096],[39.77088823894461,58.48876103418752],[39.78397527447623,58.49708914770686],[39.81014934554018,58.511365913742374],[39.862497487669074,58.5149351052505],[39.8755845232006,58.535160523800144],[39.90294832476792,58.538729715310225],[39.92912239583197,58.55895513385987],[39.95648619739928,58.56728324738019],[39.97314242444,58.56133459486499],[39.985039729469065,58.57085243888831],[39.99574730399486,58.59464704894617],[40.036198141094594,58.59702650995315],[40.04928517662621,58.614872467495815],[40.07189005618187,58.614872467495815],[40.094494935736726,58.61725192850102],[40.11591008478991,58.60535462347249],[40.13256631183063,58.623200581016135],[40.15279173037975,58.64580546057098],[40.12066900680148,58.66365141811551],[40.107581971269056,58.66960007063062],[40.10639224076659,58.66008222660641],[40.09330520523426,58.655323304594305],[40.06951059517604,58.66008222660641],[40.052854368135314,58.67078980113274],[40.07664897819345,58.67673845364784],[40.055233829141144,58.687446028174264],[40.036198141094594,58.7017227942088],[40.03500841059123,58.72908659577567],[40.024300836065535,58.758829858348726],[40.01121380053311,58.758829858348726],[39.99931649550396,58.749312014325405],[39.94220943136439,58.756450397343514],[39.88867155873302,58.758829858348726],[39.86368721817154,58.776675815892276],[39.85892829615988,58.7933320429338],[39.8375131471075,58.80284988695712],[39.83989260811333,58.82069584449978],[39.80182123202022,58.8361623410383],[39.7780266219621,58.834972610536184],[39.753042281400525,58.8290239580201],[39.72567847983329,58.831403419026195],[39.72091955782163,58.842110993553405],[39.67333033770521,58.86352614260615],[39.668571415693634,58.87780290863971],[39.626930848091334,58.89326940517823],[39.61860273457147,58.88970021366913],[39.60908489054815,58.89088994417311],[39.607895160044876,58.898028327189444],[39.591238933004064,58.89683859668635],[39.58291081948339,58.88732075266303],[39.57458270596342,58.89683859668635],[39.55911620942517,58.89683859668635],[39.53770106037279,58.88732075266303],[39.51509618081714,58.88732075266303],[39.49606049277058,58.88018236964581],[39.46988642170653,58.88613102216091],[39.453230194665906,58.89921805769245],[39.41991774058437,58.89921805769245],[39.39017447801122,58.88494129165791],[39.3735182509705,58.911115362722754],[39.333067413871646,58.919443476243075],[39.324739300350885,58.91230509322398],[39.321170108842495,58.89683859668635],[39.306893342807605,58.88732075266303],[39.285478193755225,58.89683859668635],[39.258114392187906,58.89564886618423],[39.24145816514718,58.918253745739094],[39.22242247710072,58.920633206746075],[39.22242247710072,58.930151050769396],[39.20457651955664,58.932530511774516],[39.19743813653915,58.920633206746075],[39.18435110100681,58.93609970328273],[39.166505143463525,58.934909972780616],[39.1534181079311,58.94680727780906],[39.11653646234056,58.94680727780906],[39.08560346926494,58.933720242277516],[39.02373748311362,58.93847916428874],[38.9999428730554,58.95870458283936],[38.98566610702051,58.95632512183238],[38.976148262997285,58.94918673881604],[38.96306122746486,58.94799700831206],[38.941646078412475,58.95513539132937],[38.940456347909205,58.96465323535269],[38.92974877338341,58.96822242686268],[38.91547200734843,58.96227377434748],[38.90119524131363,58.96227377434748],[38.9023849718161,58.96822242686268],[38.884539014272015,58.9729813488739],[38.87978009226045,58.96822242686268],[38.86312386521972,58.969412157363905],[38.85598548220223,58.97655054038202],[38.86669305672882,58.999155419936876],[38.84170871616733,59.005104072451985],[38.82862168063571,58.992017036920544],[38.747720006437035,58.993206767423544],[38.720356204869816,58.992017036920544],[38.67871563726831,59.005104072451985],[38.625177764637044,58.995586228428664],[38.623988034133774,59.003914341948985],[38.582347466532276,59.00748353345719],[38.583537197034744,58.993206767423544],[38.558552856473355,58.987258114908435],[38.527619863397646,58.999155419936876],[38.528809593901,59.013432185972306],[38.51215336686028,59.02176029949351],[38.45742576372565,59.0158116469784],[38.407457082603486,59.01224245547019],[38.39379951834175,59.03457938024441],[38.327174610178055,59.02863072773019],[38.299810808611454,59.00483611767144],[38.304569730623115,58.99293881264202],[38.3188464966581,58.991749082139904],[38.316467035652266,58.98223123811658],[38.304569730623115,58.97390312459538],[38.303380000119844,58.95962635856173],[38.3188464966581,58.9477290535324],[38.311708113640606,58.928693365485756],[38.29148269509078,58.93464201799998],[38.268877815535035,58.93464201799998],[38.26173943251763,58.94534959252542],[38.24151401396852,58.9417804010172],[38.23199616994529,58.93226255699388],[38.20463236837797,58.92988309598876],[38.21177075139546,58.917985790958454],[38.20463236837797,58.90489875542701],[38.167750722787424,58.90370902492391],[38.149904765244145,58.88348360637427],[38.12373069418018,58.86444791832763],[38.167750722787424,58.86920684033885],[38.183217219325584,58.85730953531041],[38.17131991429643,58.85255061329919],[38.15347395675244,58.850171152292205],[38.122540963676826,58.82042788972101],[38.168940453290695,58.79425381865626],[38.18157964740973,58.79839252291188],[38.19942560495372,58.78887467888856],[38.26129159110504,58.800771983918864],[38.26486078261414,58.7734081823519],[38.26129159110504,58.73295734525252],[38.26605051311741,58.70202435217744],[38.28389647066069,58.69131677765111],[38.287465662169794,58.67109135910138],[38.32077811625125,58.653245401557825],[38.34219326530363,58.64134809652752],[38.32315757725708,58.64015836602452],[38.30293215870725,58.64015836602452],[38.30293215870725,58.63183025250509],[38.3921619464258,58.61993294747478],[38.42190520899894,58.5866204933936],[38.47782254263613,58.57710264937028],[38.51232472722085,58.56996426635217],[38.49447876967677,58.55330803931153],[38.45997658509205,58.539031273277],[38.481391734144346,58.51880585472735],[38.51827337973498,58.517616124225235],[38.52303230174664,58.508098280201914],[38.55396529482226,58.51642639372223],[38.57300098286881,58.52356477673857],[38.590846940412895,58.51880585472735],[38.590846940412895,58.509288010704026],[38.62059020298595,58.499770166680705],[38.62772858600344,58.47478582611896],[38.64438481304417,58.44028364153566],[38.699112416178,58.44147337203778],[38.67769726712561,58.42838633650624],[38.69792268567544,58.42600687550112],[38.72290702623612,58.39626361292815],[38.77287570735918,58.39745334343116],[38.799049778423225,58.39388415192117],[38.83338060264728,58.400720976970646],[38.877400631254616,58.40310043797763],[38.91785146835426,58.40310043797763],[38.90000551081027,58.381685288924004],[38.88691847527865,58.360270139871346],[38.969009879979794,58.350752295848025],[39.03444505763942,58.34242418232771],[39.090362391276514,58.32100903327684],[39.12248511485549,58.318629572269856],[39.130813228376255,58.309111728246535],[39.15579756893693,58.313870650258636],[39.2129046330774,58.300783614726214],[39.252165739672975,58.27936846567356],[39.29380630727518,58.27104035215325],[39.32949822236246,58.28055819617657],[39.36162094594144,58.27579927416535],[39.38541555599956,58.26747116064503],[39.38422582549709,58.24843547259839],[39.40207178304037,58.236538167569066],[39.38898474750875,58.224640862540625],[39.40207178304037,58.21036409650422],[39.42467666259603,58.2151230185173],[39.472265882712364,58.22107167103054],[39.50319887578807,58.2139332880142],[39.51866537232624,58.21988194052754],[39.51747564182297,58.230589515053865],[39.526993485847,58.232968976059965],[39.53056267735539,58.24843547259839],[39.50319887578807,58.25438412511359],[39.50795779779973,58.274609543661455],[39.54959836540185,58.27104035215325],[39.591238933004064,58.26866089114715],[39.597187585518284,58.28174792668055],[39.6209821955773,58.27341981316023],[39.65667411066457,58.27223008265723],[39.67570979871104,58.26628143014203],[39.69712494776342,58.26628143014203],[39.71259144430167,58.28531711818867],[39.72805794083912,58.28531711818867],[39.73043740184487,58.29959388422321],[39.72091955782163,58.310301458749535],[39.73400659335405,58.32219876377806],[39.70902225279248,58.3376652603165],[39.73043740184487,58.39001340244432],[39.74709362888568,58.400720976970646],[39.80895961503771,58.39715178546252]]]]}},{"type":"Feature","properties":{"kind":"district","id":"uyezd-1897-46","name":"Даниловский","provinceId":"gubernia-1897-73"},"geometry":{"type":"MultiPolygon","coordinates":[[[[39.69712494776342,58.26628143014203],[39.70561354162173,58.24944114937989],[39.72583896017076,58.25182061038687],[39.76034114475547,58.23278492234023],[39.761530875258835,58.22207734781391],[39.782946024311215,58.22207734781391],[39.84362227995998,58.191144354736956],[39.82339686141007,58.17329839719332],[39.863847698509005,58.14712432613034],[39.90191907460211,58.13641675160402],[39.918575301643635,58.122139985569476],[39.953077486227556,58.11143241104217],[39.98520020980653,58.10786321953405],[39.9756823657833,58.09358645349951],[40.01970239439133,58.099535106012844],[40.057773770484445,58.07574049595401],[40.088706763560054,58.06741238243467],[40.060153231490276,58.06027399941647],[40.083947841548394,58.043617772375924],[40.091086224565885,58.02577181483317],[40.12439867864734,58.03053073684438],[40.1362959836764,58.01030531829474],[40.13391652267057,57.96628528968635],[40.14224463619142,57.94011121862328],[40.15295221071792,57.90798849504333],[40.14938301920882,57.884193884985464],[40.1327267921681,57.86634792744094],[40.14581382770043,57.84374304788618],[40.16960843775864,57.83660466486886],[40.17317762926703,57.802102480284674],[40.19816196982852,57.78306679223803],[40.18626466479945,57.76997975670659],[40.201731161336824,57.75808245167629],[40.23980253743073,57.74499541614475],[40.28501229654124,57.749754338156855],[40.33022205565183,57.749754338156855],[40.377811275768174,57.728339189103316],[40.43372860940528,57.746185146646866],[40.48012809901914,57.75808245167629],[40.526527588633016,57.75808245167629],[40.60742926283089,57.77473867871781],[40.662156865965514,57.79020517525437],[40.66810551847965,57.81994843782743],[40.63955198640977,57.83660466486886],[40.64074171691313,57.8603992749277],[40.61218818484255,57.897280920517005],[40.62884441188398,57.92464472208396],[40.65620821345058,57.943680410130604],[40.674084635058534,57.98002639592778],[40.6467208334912,58.00382100598654],[40.62054676242724,58.00976965850077],[40.59913161337482,58.008579927997744],[40.57890619482498,58.03237453805741],[40.57414727281338,58.04665130409103],[40.51822993917699,58.05973833962253],[40.501573712135496,58.09067133269855],[40.49205586811223,58.116845403762454],[40.50514290364464,58.13350163080395],[40.526558052697,58.13350163080395],[40.50752236465041,58.147778396838476],[40.499194251129666,58.170383276395114],[40.4896764071064,58.18347031192661],[40.50871209515293,58.191798425446905],[40.4896764071064,58.19655734745811],[40.46588179704821,58.19655734745811],[40.443276917493336,58.213213574499605],[40.43137961246424,58.22868007103807],[40.407585002405256,58.22868007103807],[40.407585002405256,58.24295683707169],[40.37189308731797,58.24295683707169],[40.34809847725978,58.25009522008986],[40.32311413669834,58.27507956065074],[40.27552491658196,58.29292551819435],[40.25173030652377,58.309581745235846],[40.211279469424824,58.31909958925917],[40.20295135590408,58.30244336221767],[40.18153620685172,58.30482282322464],[40.17439782383423,58.3167201282522],[40.15298267478187,58.3167201282522],[40.15298267478187,58.32742770277946],[40.130377795226195,58.32861743328249],[40.108962646173836,58.31315093674402],[40.04947612102836,58.32385851127037],[40.032819893987664,58.31553039775099],[40.014973936443596,58.32385851127037],[39.99593824839707,58.31315093674402],[39.98285121286466,58.31790985875614],[39.965005255321444,58.33456608579763],[39.91622630470175,58.33575581629884],[39.87458573709955,58.35717096535245],[39.855550049052965,58.375016922895156],[39.829375977988946,58.37977584490727],[39.80895961503771,58.39715178546252],[39.74709362888568,58.400720976970646],[39.73043740184487,58.39001340244432],[39.70902225279248,58.3376652603165],[39.73400659335405,58.32219876377806],[39.72091955782163,58.310301458749535],[39.73043740184487,58.29959388422321],[39.72805794083912,58.28531711818867],[39.71259144430167,58.28531711818867],[39.69712494776342,58.26628143014203]]]]}},{"type":"Feature","properties":{"kind":"district","id":"uyezd-1897-47","name":"Ярославский","provinceId":"gubernia-1897-73"},"geometry":{"type":"MultiPolygon","coordinates":[[[[39.130577131879235,57.45321401030472],[39.168648507972335,57.44488589678352],[39.16745877746987,57.432988591754984],[39.17459716048736,57.419901556223536],[39.19244311803055,57.428229669742876],[39.20671988406545,57.42941940024686],[39.22932476362119,57.4020555986799],[39.24717072116518,57.38658910214049],[39.25787829569097,57.37350206660994],[39.26977560072004,57.36041503107663],[39.29475994128153,57.36041503107663],[39.31855455133974,57.342569073533966],[39.349487544415354,57.344948534539085],[39.37804107648523,57.341379343029985],[39.39945622553832,57.32829230749756],[39.443476254145565,57.344948534539085],[39.411353530567474,57.35803557007053],[39.423250835596534,57.363984222586616],[39.45894275068382,57.363984222586616],[39.48154763023947,57.354466378563295],[39.50296277929185,57.36041503107663],[39.55531092141985,57.356845839568415],[39.583864453489724,57.338999882023884],[39.592192567010486,57.31282581096091],[39.60765906354786,57.31639500246912],[39.63859205662427,57.3080668889488],[39.69569912076393,57.3021182364337],[39.707596425793085,57.29260039241038],[39.721873191827974,57.3009285059306],[39.739719149371965,57.29379012291427],[39.726632113839635,57.274754434867624],[39.726632113839635,57.261667399334314],[39.739719149371965,57.256908477324075],[39.746857532389456,57.24144198078555],[39.76827268144184,57.21407817921771],[39.79325702200253,57.21407817921771],[39.81467217105571,57.22716521475102],[39.8432257031255,57.2319241367641],[39.863451121674615,57.22597548424801],[39.86821004368618,57.208129526704376],[39.895573845253494,57.19385276066984],[39.92888629933495,57.19385276066984],[39.99432147699537,57.212888448716484],[40.05618746314749,57.186714377651725],[40.09425883924051,57.20337060469316],[40.10615614426966,57.195042491171066],[40.13351994583697,57.20099114368627],[40.170401591426725,57.212888448716484],[40.187057818467444,57.23430359776735],[40.198955123497306,57.22716521475102],[40.23048298182385,57.236534342460764],[40.22602149243845,57.24634961910946],[40.270636386297326,57.2508111084953],[40.268851790543216,57.26241098090033],[40.22512919456135,57.26330327877618],[40.19568336461367,57.25973408726806],[40.151960768631895,57.29274910872297],[40.1617760452805,57.30970276838978],[40.189437279473275,57.312379662022934],[40.22869838606974,57.31594885353026],[40.246544343613735,57.340189612526984],[40.27331327992941,57.35967144951248],[40.3063283013854,57.369486726161085],[40.28848234384141,57.383763492196515],[40.311979521274154,57.3949172156617],[40.32030763479412,57.41276317320623],[40.334584400829016,57.427039939239876],[40.36194820239633,57.430609130749865],[40.34529197535561,57.44488589678352],[40.325066556805695,57.46630104583616],[40.325066556805695,57.496044308409225],[40.33101520932071,57.52459784047919],[40.36789685491126,57.547946301599964],[40.392881195471944,57.56043847187906],[40.40894255726183,57.5756075357922],[40.402696472121434,57.59166889758129],[40.38038902519125,57.60594566361574],[40.391988897594935,57.62022242965126],[40.391988897594935,57.636283791440256],[40.36968145066545,57.634499195685706],[40.36075847189377,57.65323745110706],[40.36700455703336,57.67019111077387],[40.34023562071857,57.69071396194889],[40.34915859949017,57.71480600463292],[40.377811275768174,57.728339189103316],[40.33022205565183,57.749754338156855],[40.28501229654124,57.749754338156855],[40.23980253743073,57.74499541614475],[40.201731161336824,57.75808245167629],[40.18626466479945,57.76997975670659],[40.19816196982852,57.78306679223803],[40.17317762926703,57.802102480284674],[40.16960843775864,57.83660466486886],[40.14581382770043,57.84374304788618],[40.1327267921681,57.86634792744094],[40.11210479678379,57.86248130330655],[40.08831018672558,57.84820453727211],[40.07641288169651,57.831548310232364],[40.052618271638295,57.81846127469905],[40.04666961912417,57.798235856149404],[40.024064739568516,57.797046125647284],[40.024064739568516,57.806563969670606],[40.00978797353362,57.807753700172725],[40.00145986001286,57.799425586652404],[39.99789066850455,57.77325151558943],[39.96338848391975,57.75897474955312],[39.93126576034078,57.762543941063996],[39.905091689276816,57.77563097659455],[39.906281419780086,57.79109747313218],[39.900332767265155,57.804184508663624],[39.867020313183716,57.804184508663624],[39.857502469160394,57.794666664642165],[39.84084624211975,57.78990774262908],[39.84560516413133,57.805374239167605],[39.832518128598906,57.807753700172725],[39.82181055407311,57.78990774262908],[39.7837391779793,57.78990774262908],[39.70640669528972,57.74826717502768],[39.63621259561844,57.747077444524585],[39.56006984343151,57.719713642957714],[39.50891143180607,57.68759091937954],[39.50772170130351,57.66855523133201],[39.47678870822781,57.66498603982291],[39.47084005571297,57.67331415334323],[39.41254326106994,57.66974496183501],[39.40302541704671,57.63643250775383],[39.37804107648523,57.62453520272352],[39.34472862240378,57.59955086216364],[39.30784697681395,57.580515174117],[39.29475994128153,57.567428138583594],[39.2745345227317,57.565048677578474],[39.28762155826412,57.53887460651363],[39.27215506172587,57.52102864897097],[39.25549883468514,57.52102864897097],[39.24717072116518,57.50794161343944],[39.22694530261536,57.49842376941612],[39.19006365702472,57.49842376941612],[39.14485389791422,57.493664847403124],[39.131766862381795,57.46630104583616],[39.130577131879235,57.45321401030472]]]]}},{"type":"Feature","properties":{"kind":"district","id":"uyezd-1897-48","name":"Угличский","provinceId":"gubernia-1897-73"},"geometry":{"type":"MultiPolygon","coordinates":[[[[39.30784697681395,57.580515174117],[39.273785433156085,57.58492158338593],[39.247611362092044,57.609905923947764],[39.22381675203391,57.63132107300042],[39.16670968789346,57.66582325758558],[39.131017772806175,57.67415137110492],[39.03583933257261,57.68485894563222],[38.97873226843295,57.68961786764335],[38.969214424409714,57.7110330166952],[38.92876358731078,57.72293032172551],[38.88831275021184,57.70865355568999],[38.87403598417624,57.73006870474184],[38.85381056562713,57.73958654876516],[38.8895024807144,57.7550530453036],[38.91448682127589,57.76338115882302],[38.909727899264226,57.77170927234512],[38.89664086373189,57.77170927234512],[38.86927706216458,57.76338115882302],[38.8371543385864,57.76100169781782],[38.80860080651652,57.7990730739111],[38.78718565746343,57.803831995923204],[38.78004727444594,57.82643687547806],[38.755062933885256,57.8526109465429],[38.716991557791346,57.858559599056235],[38.64084880560513,57.83476498899927],[38.62419257856441,57.83952391100959],[38.59920823800293,57.82762660598107],[38.60158769900876,57.813349839946525],[38.595639046494625,57.806211456929304],[38.590880124482965,57.79193469089299],[38.5754136279448,57.79193469089299],[38.565895783921476,57.76576061982992],[38.45644057765302,57.75981196731481],[38.45168165564136,57.73839681826305],[38.4433535421214,57.727689243736634],[38.406471896530846,57.71936113021552],[38.37553890345524,57.67296164060191],[38.385056747478465,57.647977300041944],[38.393384860998516,57.624182689982305],[38.360072406916984,57.60395727143257],[38.34698537138536,57.58254212238081],[38.30653453428571,57.56707562584238],[38.30534480378315,57.544470746286635],[38.28749884623916,57.53495290226331],[38.2898783072449,57.49807125667303],[38.2720323497017,57.47427664661517],[38.200648519526354,57.463569072088845],[38.18875121449729,57.44334365354009],[38.13759280287176,57.43501554001888],[38.11617765381946,57.42549769599556],[38.10903927080197,57.401703085936816],[38.10665980979614,57.37552901487375],[38.08484917191167,57.36459590653972],[38.0872286329175,57.336042374469756],[38.1050745904615,57.325334799943434],[38.137197314039675,57.327714260948554],[38.18359680365354,57.340801296481956],[38.22285791024992,57.34793967949829],[38.25973955584047,57.37768294207126],[38.300190392939406,57.3526986015095],[38.30494931495107,57.31343749491313],[38.297810931933576,57.29678126787347],[38.30138012344268,57.28012504083195],[38.282344435395416,57.259899622282305],[38.23713467628481,57.245622856248744],[38.191924917174305,57.23253582071534],[38.163371385104426,57.20517201914936],[38.138387044542945,57.16591091255307],[38.17288922912766,57.173049295569406],[38.20382222220337,57.15877252953575],[38.23118602377068,57.12308061444671],[38.23237575427315,57.104044926400064],[38.24308332879974,57.08619896885651],[38.2621190168463,57.08025031634318],[38.28749884623916,57.082855311155996],[38.32200103082387,57.082855311155996],[38.368400520437746,57.087614233167216],[38.400523244015915,57.09832180769443],[38.41480001005161,57.09594234668931],[38.4397843506123,57.10664992121386],[38.46714815217961,57.09237315517932],[38.45525084715055,57.06262989260635],[38.46238923016795,57.04597366556572],[38.49689141475275,57.041214743554505],[38.50997845028438,57.029317438526064],[38.55280874838915,57.029317438526064],[38.57065470593314,57.02217905550786],[38.546860095874926,57.011471480981534],[38.544480634869096,56.99838444545],[38.58136228045973,56.99838444545],[38.62300284806114,57.00195363695821],[38.66702287666918,57.02455851651307],[38.74316562885619,57.01623040299275],[38.76114377867758,57.020592748170195],[38.75638485666592,57.03486951420473],[38.73021078560187,57.04200789722293],[38.7290210550986,57.05985385476649],[38.69570860101716,57.08959711733954],[38.67429345196477,57.10030469186498],[38.68143183498226,57.112201996894306],[38.71355455856115,57.12885822393494],[38.72307240258438,57.14551445097638],[38.72426213308694,57.15384256449758],[38.74210809063102,57.166929600029114],[38.75757458716919,57.168119330531226],[38.796835693764855,57.166929600029114],[38.812302190303015,57.15979121701091],[38.8337173393554,57.1633604085209],[38.85513248840779,57.164550139023994],[38.86940925444268,57.17168852204122],[38.8337173393554,57.18596528807576],[38.83252760885293,57.20738043712752],[38.82538922583544,57.21570855064873],[38.844424913881994,57.23474423869537],[38.86821952394021,57.25140046573689],[38.87059898494604,57.25972857925721],[38.85037356639613,57.26567723177054],[38.86108114092272,57.27757453679987],[38.86702979343685,57.2930410333383],[38.8515632968994,57.31564591289315],[38.82300976482961,57.319215104401366],[38.800404885273956,57.332302139934676],[38.775420544712475,57.34300971446011],[38.775420544712475,57.35847621099765],[38.805163807285524,57.37275297703308],[38.89558332550743,57.37870162954819],[38.92532658807987,57.384650282062495],[38.92532658807987,57.39773731759394],[38.91342928305072,57.40249623960605],[38.90748063053658,57.41558327513758],[38.928895779588885,57.42272165815578],[38.944362276126334,57.421531927652694],[38.94793146763553,57.41201408362937],[38.975295269202746,57.40487570061126],[38.98481311322607,57.41796273614457],[39.03835098585663,57.410824353126365],[39.094268319493736,57.41439354463458],[39.096647780499566,57.428670310670896],[39.11806292955195,57.42748058016789],[39.130577131879235,57.45321401030472],[39.131766862381795,57.46630104583616],[39.14485389791422,57.493664847403124],[39.19006365702472,57.49842376941612],[39.22694530261536,57.49842376941612],[39.24717072116518,57.50794161343944],[39.25549883468514,57.52102864897097],[39.27215506172587,57.52102864897097],[39.28762155826412,57.53887460651363],[39.2745345227317,57.565048677578474],[39.29475994128153,57.567428138583594],[39.30784697681395,57.580515174117]]]]}},{"type":"Feature","properties":{"kind":"district","id":"uyezd-1897-49","name":"Мышкинский","provinceId":"gubernia-1897-73"},"geometry":{"type":"MultiPolygon","coordinates":[[[[38.45644057765302,57.75981196731481],[38.46635499851074,57.79193469089299],[38.48420095605482,57.81453957044962],[38.4782523035398,57.82524714497595],[38.47587284253406,57.849041755032914],[38.49133933907222,57.86807744307956],[38.47944203404316,57.8906823226353],[38.48895987806639,57.91923585470526],[38.48420095605482,57.939461273254906],[38.45207823247584,57.951358578285216],[38.433042544429284,57.97277372733698],[38.433042544429284,58.015604025441476],[38.399730090347845,58.03463971348812],[38.34619221771648,58.050106210026556],[38.29953635134377,58.07049266164805],[38.30174242820469,58.06313907211191],[38.31126027222801,58.045293114568274],[38.29817323669559,58.03339580953886],[38.28627593166644,58.04410338406527],[38.26367105211158,58.040534192555285],[38.2696197046258,58.02030877400554],[38.23987644205266,58.01792931300042],[38.23392778953853,58.0012730859589],[38.18752829992466,58.003652546965],[38.15897476785479,58.0155498519953],[38.14350827131662,58.0155498519953],[38.14350827131662,58.0084114689771],[38.12566231377333,58.0072217384741],[38.10662662572678,58.01317039098832],[38.10186770371441,58.00603200797198],[38.08640120717696,58.0072217384741],[38.07569363265037,57.99770389445078],[38.0852114766736,57.99175524193558],[38.08402174617113,57.975099014895925],[38.04476063957475,57.95725305735229],[38.03286333454569,57.93107898628753],[38.04714010058049,57.92988925578444],[38.04832983108385,57.910853567737796],[38.059037405609644,57.89776653220635],[38.057847675107084,57.889438418686034],[38.04119144806636,57.88230003566783],[38.05070929208968,57.86802326963338],[38.036432526054696,57.8656438086264],[38.016207107504876,57.85255677309486],[37.98408438392599,57.85374650359787],[37.96385896537687,57.84898758158674],[37.93649516380956,57.84898758158674],[37.93530543330629,57.85850542561006],[37.90913136224225,57.85850542561006],[37.89128540469905,57.84779785108276],[37.844885915085186,57.84660812057976],[37.81514265251204,57.8668335391294],[37.78658912044225,57.8656438086264],[37.77231235440727,57.8715924611415],[37.75446639686328,57.86207461711818],[37.74018963082838,57.86207461711818],[37.719964212279265,57.84422865957455],[37.68665175819702,57.83590054605521],[37.63668307707485,57.8311416240431],[37.61645765852583,57.83233135454522],[37.60812954500507,57.84184919856854],[37.59147331796434,57.84065946806642],[37.56101523788716,57.849124669874946],[37.536030897326484,57.8312787123314],[37.50390817374759,57.8312787123314],[37.46583679765449,57.821760868308075],[37.46821625866032,57.80510464126655],[37.49558006022674,57.78963814472812],[37.54197954984061,57.76822299567627],[37.53246170581738,57.753946229641734],[37.547928202355635,57.73491054159509],[37.581240656437075,57.73491054159509],[37.60265580548938,57.71825431455366],[37.65619367812073,57.70397754851912],[37.664521791640695,57.6897007824837],[37.672849905161456,57.68256239946736],[37.65262448661163,57.67661374695216],[37.60027634448355,57.64092183186399],[37.562204968390525,57.61593749130411],[37.56101523788716,57.601660725267706],[37.58243038693955,57.58619422873105],[37.5943276919695,57.570727732191735],[37.62288122403929,57.5588304271632],[37.64191691208584,57.54812285263688],[37.66928071365315,57.54574339163176],[37.721628855781155,57.517189859561796],[37.77397699790916,57.50410282403026],[37.819186757019665,57.49220551899995],[37.827514870540426,57.47198010045031],[37.819186757019665,57.458893064918776],[37.821566218025495,57.438667646369126],[37.86950795088386,57.412185126656325],[37.86117983736389,57.401477552129116],[37.90519986597193,57.39195970810668],[37.94089178105921,57.36935482855094],[37.96944531312899,57.36340617603672],[38.007516689222186,57.326524530446434],[38.02298318576035,57.3491294100013],[38.05153671783014,57.36459590653972],[38.08484917191167,57.36459590653972],[38.10665980979614,57.37552901487375],[38.10903927080197,57.401703085936816],[38.11617765381946,57.42549769599556],[38.13759280287176,57.43501554001888],[38.18875121449729,57.44334365354009],[38.200648519526354,57.463569072088845],[38.2720323497017,57.47427664661517],[38.2898783072449,57.49807125667303],[38.28749884623916,57.53495290226331],[38.30534480378315,57.544470746286635],[38.30653453428571,57.56707562584238],[38.34698537138536,57.58254212238081],[38.360072406916984,57.60395727143257],[38.393384860998516,57.624182689982305],[38.385056747478465,57.647977300041944],[38.37553890345524,57.67296164060191],[38.406471896530846,57.71936113021552],[38.4433535421214,57.727689243736634],[38.45168165564136,57.73839681826305],[38.45644057765302,57.75981196731481]]]]}},{"type":"Feature","properties":{"kind":"district","id":"uyezd-1897-59","name":"Любимский","provinceId":"gubernia-1897-73"},"geometry":{"type":"MultiPolygon","coordinates":[[[[41.10238761610822,58.300063901212525],[41.12380276516063,58.31315093674402],[41.11428492113731,58.33099689428764],[41.10476707711405,58.3595504263576],[41.09405950258747,58.39286288043877],[41.11190546013154,58.41189856848541],[41.11190546013154,58.420226682006614],[41.09524923309078,58.42379587351479],[41.07264435353511,58.43450344804205],[41.07026489252928,58.44759048357355],[41.089300580575866,58.45591859709475],[41.11666438214314,58.46424671061504],[41.05717785699693,58.485661859666834],[41.05122920448275,58.50231808670833],[40.99412214034231,58.54633811531585],[40.964378877769946,58.56180461185431],[40.93106642368849,58.57370191688278],[40.89775396960624,58.57370191688278],[40.88466693407463,58.58797868291731],[40.77164253629786,58.58678895241428],[40.67884355707014,58.591547874427306],[40.61816730142141,58.582030030403985],[40.57652673381915,58.54514838481282],[40.55273212376096,58.55109703732796],[40.42900015145841,58.53682027129253],[40.405205541399425,58.55109703732796],[40.39568769737616,58.53444081028647],[40.344529285751435,58.53444081028647],[40.29931952664015,58.55823542034432],[40.224366504956436,58.549907306824025],[40.185105398360065,58.57251218638066],[40.17201836282845,58.580840299900956],[40.135136717237856,58.58916841342034],[40.11591008478991,58.60535462347249],[40.094494935736726,58.61725192850102],[40.07189005618187,58.614872467495815],[40.04928517662621,58.614872467495815],[40.036198141094594,58.59702650995315],[39.99574730399486,58.59464704894617],[39.985039729469065,58.57085243888831],[39.97314242444,58.56133459486499],[39.95648619739928,58.56728324738019],[39.92912239583197,58.55895513385987],[39.90294832476792,58.538729715310225],[39.8755845232006,58.535160523800144],[39.862497487669074,58.5149351052505],[39.81014934554018,58.511365913742374],[39.78397527447623,58.49708914770686],[39.77088823894461,58.48876103418752],[39.795872579505286,58.474484268152096],[39.81490826755184,58.457828041110574],[39.793493118499455,58.42927450904061],[39.81371853704937,58.41618747350916],[39.81847745906103,58.40666962948584],[39.80895961503771,58.39715178546252],[39.829375977988946,58.37977584490727],[39.855550049052965,58.375016922895156],[39.87458573709955,58.35717096535245],[39.91622630470175,58.33575581629884],[39.965005255321444,58.33456608579763],[39.98285121286466,58.31790985875614],[39.99593824839707,58.31315093674402],[40.014973936443596,58.32385851127037],[40.032819893987664,58.31553039775099],[40.04947612102836,58.32385851127037],[40.108962646173836,58.31315093674402],[40.130377795226195,58.32861743328249],[40.15298267478187,58.32742770277946],[40.15298267478187,58.3167201282522],[40.17439782383423,58.3167201282522],[40.18153620685172,58.30482282322464],[40.20295135590408,58.30244336221767],[40.211279469424824,58.31909958925917],[40.25173030652377,58.309581745235846],[40.27552491658196,58.29292551819435],[40.32311413669834,58.27507956065074],[40.34809847725978,58.25009522008986],[40.37189308731797,58.24295683707169],[40.407585002405256,58.24295683707169],[40.407585002405256,58.22868007103807],[40.43137961246424,58.22868007103807],[40.443276917493336,58.213213574499605],[40.46588179704821,58.19655734745811],[40.4896764071064,58.19655734745811],[40.50871209515293,58.191798425446905],[40.4896764071064,58.18347031192661],[40.499194251129666,58.170383276395114],[40.50752236465041,58.147778396838476],[40.526558052697,58.13350163080395],[40.50514290364464,58.13350163080395],[40.49205586811223,58.116845403762454],[40.501573712135496,58.09067133269855],[40.51822993917699,58.05973833962253],[40.57414727281338,58.04665130409103],[40.57890619482498,58.03237453805741],[40.59913161337482,58.008579927997744],[40.62054676242724,58.00976965850077],[40.6467208334912,58.00382100598654],[40.674084635058534,57.98002639592778],[40.69906897562004,57.99906208397442],[40.725243046684,58.0026312754826],[40.73595062120984,58.02642588554136],[40.75498630925716,58.045461573588],[40.77521172780621,58.049030765098905],[40.82993933094002,58.06449726163555],[40.83469825295248,58.083532949682194],[40.859682593513185,58.082343219179165],[40.84540582747826,58.09780971571581],[40.84183663596991,58.10970702074519],[40.86682097653062,58.10970702074519],[40.89180531709212,58.10256863772884],[40.88942585608629,58.1358810918091],[40.87157989854228,58.169193545892085],[40.901323161115386,58.203695730475374],[40.93225615419101,58.19417788645205],[40.95843022525503,58.192988155949934],[40.95248157274085,58.2263006100311],[40.98579402682236,58.22749034053504],[40.990552948833965,58.256043872605915],[41.02029621140713,58.27507956065074],[41.045280551967835,58.298874170709496],[41.10238761610822,58.300063901212525]]]]}},{"type":"Feature","properties":{"kind":"district","id":"uyezd-1897-66","name":"Ростовский","provinceId":"gubernia-1897-73"},"geometry":{"type":"MultiPolygon","coordinates":[[[[40.13351994583697,57.20099114368627],[40.10615614426966,57.195042491171066],[40.09425883924051,57.20337060469316],[40.05618746314749,57.186714377651725],[39.99432147699537,57.212888448716484],[39.92888629933495,57.19385276066984],[39.895573845253494,57.19385276066984],[39.86821004368618,57.208129526704376],[39.863451121674615,57.22597548424801],[39.8432257031255,57.2319241367641],[39.81467217105571,57.22716521475102],[39.79325702200253,57.21407817921771],[39.76827268144184,57.21407817921771],[39.746857532389456,57.24144198078555],[39.739719149371965,57.256908477324075],[39.726632113839635,57.261667399334314],[39.726632113839635,57.274754434867624],[39.739719149371965,57.29379012291427],[39.721873191827974,57.3009285059306],[39.707596425793085,57.29260039241038],[39.69569912076393,57.3021182364337],[39.63859205662427,57.3080668889488],[39.60765906354786,57.31639500246912],[39.592192567010486,57.31282581096091],[39.583864453489724,57.338999882023884],[39.55531092141985,57.356845839568415],[39.50296277929185,57.36041503107663],[39.48154763023947,57.354466378563295],[39.45894275068382,57.363984222586616],[39.423250835596534,57.363984222586616],[39.411353530567474,57.35803557007053],[39.443476254145565,57.344948534539085],[39.39945622553832,57.32829230749756],[39.37804107648523,57.341379343029985],[39.349487544415354,57.344948534539085],[39.31855455133974,57.342569073533966],[39.29475994128153,57.36041503107663],[39.26977560072004,57.36041503107663],[39.25787829569097,57.37350206660994],[39.24717072116518,57.38658910214049],[39.22932476362119,57.4020555986799],[39.20671988406545,57.42941940024686],[39.19244311803055,57.428229669742876],[39.17459716048736,57.419901556223536],[39.16745877746987,57.432988591754984],[39.168648507972335,57.44488589678352],[39.130577131879235,57.45321401030472],[39.11806292955195,57.42748058016789],[39.096647780499566,57.428670310670896],[39.094268319493736,57.41439354463458],[39.03835098585663,57.410824353126365],[38.98481311322607,57.41796273614457],[38.975295269202746,57.40487570061126],[38.94793146763553,57.41201408362937],[38.944362276126334,57.421531927652694],[38.928895779588885,57.42272165815578],[38.90748063053658,57.41558327513758],[38.91342928305072,57.40249623960605],[38.92532658807987,57.39773731759394],[38.92532658807987,57.384650282062495],[38.89558332550743,57.37870162954819],[38.805163807285524,57.37275297703308],[38.775420544712475,57.35847621099765],[38.775420544712475,57.34300971446011],[38.800404885273956,57.332302139934676],[38.82300976482961,57.319215104401366],[38.8515632968994,57.31564591289315],[38.86702979343685,57.2930410333383],[38.86108114092272,57.27757453679987],[38.85037356639613,57.26567723177054],[38.87059898494604,57.25972857925721],[38.86821952394021,57.25140046573689],[38.844424913881994,57.23474423869537],[38.82538922583544,57.21570855064873],[38.83252760885293,57.20738043712752],[38.8337173393554,57.18596528807576],[38.86940925444268,57.17168852204122],[38.85513248840779,57.164550139023994],[38.8337173393554,57.1633604085209],[38.812302190303015,57.15979121701091],[38.796835693764855,57.166929600029114],[38.75757458716919,57.168119330531226],[38.74210809063102,57.166929600029114],[38.72426213308694,57.15384256449758],[38.72307240258438,57.14551445097638],[38.71355455856115,57.12885822393494],[38.68143183498226,57.112201996894306],[38.67429345196477,57.10030469186498],[38.69570860101716,57.08959711733954],[38.7290210550986,57.05985385476649],[38.73021078560187,57.04200789722293],[38.75638485666592,57.03486951420473],[38.76114377867758,57.020592748170195],[38.778989736221575,57.011074904146874],[38.792076771753194,57.011074904146874],[38.805163807285524,57.020592748170195],[38.83609680036123,57.020592748170195],[38.83847626136706,57.01226463464988],[38.820630303823776,57.00631598213566],[38.82538922583544,56.99917759911843],[38.86584006293438,57.00155706012355],[38.89082440349506,57.008695443141754],[38.91104982204489,57.009885173643866],[38.930085510091445,56.98371110257992],[38.937223893108936,56.97300352805359],[38.97886446071114,56.97300352805359],[38.9871925742319,56.968244606042376],[39.02645368082748,56.959916492522055],[39.03835098585663,56.965865145037256],[39.06095586541228,56.95277810950394],[39.08594020597377,56.934932151960304],[39.1025964330145,56.94326026548062],[39.125201312569345,56.938501343469405],[39.131149965084276,56.92660403844096],[39.160893227657425,56.90994781139944],[39.20610298676793,56.882584009832485],[39.22275921380874,56.850461286254394],[39.251312745878536,56.850461286254394],[39.251312745878536,56.83975371172798],[39.27272789493092,56.83975371172798],[39.30485061850989,56.82428721518955],[39.322696576053886,56.81595910166834],[39.320317115048056,56.80763098814803],[39.34054253359717,56.798113144124706],[39.35243983862623,56.802872066136814],[39.39170094522261,56.7969234136217],[39.39170094522261,56.78145691708505],[39.413116094275,56.78145691708505],[39.413116094275,56.77312880356384],[39.43572097383065,56.767180151048734],[39.43810043483648,56.75290338501509],[39.45951558388886,56.74338554099177],[39.4999664209878,56.74100607998567],[39.5071048040052,56.767180151048734],[39.538037797081614,56.768369881551735],[39.540417258087444,56.78621583909538],[39.55826321563073,56.78621583909538],[39.57610917317473,56.80882071865201],[39.59871405272967,56.81952829317834],[39.61893947127949,56.810010449155016],[39.63797515932605,56.80882071865201],[39.63797515932605,56.82071802368134],[39.655821116870044,56.82071802368134],[39.667718421899195,56.80882071865201],[39.679615726928255,56.80882071865201],[39.704600067489736,56.81595910166834],[39.72006656402719,56.83142559820678],[39.75218928760617,56.850461286254394],[39.7581379401203,56.86711751329405],[39.77955308917339,56.88972239284979],[39.824762848283996,56.892101853855806],[39.859265032868706,56.89924023687311],[39.860454763371266,56.93136296045209],[39.87116233789786,56.94326026548062],[39.860454763371266,56.95753703151605],[39.87116233789786,56.968244606042376],[39.9116131749968,56.97538298905871],[39.92470021052842,56.965865145037256],[39.96515104762807,56.96705487553848],[39.96872023913646,56.9789521805687],[40.015119728750236,56.99203921610023],[40.02225811176773,57.04676681923504],[40.02820676428266,57.081269003818335],[40.09007275043389,57.116960918906415],[40.12695439602453,57.14075552896427],[40.12219547401287,57.16573986952611],[40.144800353567724,57.174067983047316],[40.13351994583697,57.20099114368627]]]]}},{"type":"Feature","properties":{"kind":"district","id":"uyezd-1897-673","name":"Романово-Борисоглебский","provinceId":"gubernia-1897-73"},"geometry":{"type":"MultiPolygon","coordinates":[[[[39.40207178304037,58.21036409650422],[39.40386263480805,58.188114948365154],[39.38006802474984,58.17145872132372],[39.37649883324074,58.15004357227098],[39.35865287569746,58.122679770704025],[39.24205928641159,58.10364408265738],[39.19803925780356,58.07628028108953],[39.17424464774534,58.07628028108953],[39.14807057668129,58.05724459304289],[39.13141434964057,58.05724459304289],[39.11713758360568,58.035829443991126],[39.14212192416645,58.02274240845959],[39.14093219366389,57.96801480532487],[39.094532704050025,57.95849696130155],[39.08858405153589,57.92042558520916],[39.061220249968486,57.89663097515041],[39.04694348393369,57.86569798207435],[39.050512675441986,57.84428283302259],[39.062409980471045,57.83238552799228],[39.062409980471045,57.79074496039087],[39.01838995186381,57.7550530453036],[39.00411318582891,57.72887897423884],[39.00411318582891,57.71698166921031],[38.969214424409714,57.7110330166952],[38.97873226843295,57.68961786764335],[39.03583933257261,57.68485894563222],[39.131017772806175,57.67415137110492],[39.16670968789346,57.66582325758558],[39.22381675203391,57.63132107300042],[39.247611362092044,57.609905923947764],[39.273785433156085,57.58492158338593],[39.30784697681395,57.580515174117],[39.34472862240378,57.59955086216364],[39.37804107648523,57.62453520272352],[39.40302541704671,57.63643250775383],[39.41254326106994,57.66974496183501],[39.47084005571297,57.67331415334323],[39.47678870822781,57.66498603982291],[39.50772170130351,57.66855523133201],[39.50891143180607,57.68759091937954],[39.56006984343151,57.719713642957714],[39.63621259561844,57.747077444524585],[39.70640669528972,57.74826717502768],[39.7837391779793,57.78990774262908],[39.82181055407311,57.78990774262908],[39.832518128598906,57.807753700172725],[39.84560516413133,57.805374239167605],[39.84084624211975,57.78990774262908],[39.857502469160394,57.794666664642165],[39.867020313183716,57.804184508663624],[39.900332767265155,57.804184508663624],[39.906281419780086,57.79109747313218],[39.905091689276816,57.77563097659455],[39.93126576034078,57.762543941063996],[39.96338848391975,57.75897474955312],[39.99789066850455,57.77325151558943],[40.00145986001286,57.799425586652404],[40.00978797353362,57.807753700172725],[40.024064739568516,57.806563969670606],[40.024064739568516,57.797046125647284],[40.04666961912417,57.798235856149404],[40.052618271638295,57.81846127469905],[40.07641288169651,57.831548310232364],[40.08831018672558,57.84820453727211],[40.11210479678379,57.86248130330655],[40.1327267921681,57.86634792744094],[40.14938301920882,57.884193884985464],[40.15295221071792,57.90798849504333],[40.14224463619142,57.94011121862328],[40.13391652267057,57.96628528968635],[40.1362959836764,58.01030531829474],[40.12439867864734,58.03053073684438],[40.091086224565885,58.02577181483317],[40.083947841548394,58.043617772375924],[40.060153231490276,58.06027399941647],[40.088706763560054,58.06741238243467],[40.057773770484445,58.07574049595401],[40.01970239439133,58.099535106012844],[39.9756823657833,58.09358645349951],[39.98520020980653,58.10786321953405],[39.953077486227556,58.11143241104217],[39.918575301643635,58.122139985569476],[39.90191907460211,58.13641675160402],[39.863847698509005,58.14712432613034],[39.82339686141007,58.17329839719332],[39.84362227995998,58.191144354736956],[39.782946024311215,58.22207734781391],[39.761530875258835,58.22207734781391],[39.76034114475547,58.23278492234023],[39.72583896017076,58.25182061038687],[39.70561354162173,58.24944114937989],[39.69712494776342,58.26628143014203],[39.67570979871104,58.26628143014203],[39.65667411066457,58.27223008265723],[39.6209821955773,58.27341981316023],[39.597187585518284,58.28174792668055],[39.591238933004064,58.26866089114715],[39.54959836540185,58.27104035215325],[39.50795779779973,58.274609543661455],[39.50319887578807,58.25438412511359],[39.53056267735539,58.24843547259839],[39.526993485847,58.232968976059965],[39.51747564182297,58.230589515053865],[39.51866537232624,58.21988194052754],[39.50319887578807,58.2139332880142],[39.472265882712364,58.22107167103054],[39.42467666259603,58.2151230185173],[39.40207178304037,58.21036409650422]]]]}},{"type":"Feature","properties":{"kind":"district","id":"uyezd-1897-674","name":"Рыбинский","provinceId":"gubernia-1897-73"},"geometry":{"type":"MultiPolygon","coordinates":[[[[38.799049778423225,58.39388415192117],[38.7895319343999,58.37246900286843],[38.73480433126527,58.36295115884511],[38.70387133818966,58.36414088934821],[38.67888699762888,58.359381967337875],[38.64081562153507,58.355812775827886],[38.64438481304417,58.32725924375792],[38.639625891032594,58.28323921515042],[38.62653885550017,58.27015217961888],[38.637246430026764,58.264203527103774],[38.615831280974376,58.24992676106923],[38.613451819968546,58.224942420507396],[38.601554514939394,58.21185538497595],[38.605123706447785,58.192819696929305],[38.55515502532562,58.204717001957746],[38.51708364923242,58.22256295950228],[38.49923769168843,58.22851161201561],[38.47187389012112,58.22613215101049],[38.45759712408622,58.21423484598107],[38.44094089704549,58.179732661396],[38.41476682598145,58.16545589536146],[38.40049005994656,58.1440407463097],[38.373126258379244,58.1380920937945],[38.34814191781856,58.1380920937945],[38.32315757725708,58.122625597256075],[38.294604045187285,58.08693368216977],[38.29953635134377,58.07049266164805],[38.34619221771648,58.050106210026556],[38.399730090347845,58.03463971348812],[38.433042544429284,58.015604025441476],[38.433042544429284,57.97277372733698],[38.45207823247584,57.951358578285216],[38.48420095605482,57.939461273254906],[38.48895987806639,57.91923585470526],[38.47944203404316,57.8906823226353],[38.49133933907222,57.86807744307956],[38.47587284253406,57.849041755032914],[38.4782523035398,57.82524714497595],[38.48420095605482,57.81453957044962],[38.46635499851074,57.79193469089299],[38.45644057765302,57.75981196731481],[38.565895783921476,57.76576061982992],[38.5754136279448,57.79193469089299],[38.590880124482965,57.79193469089299],[38.595639046494625,57.806211456929304],[38.60158769900876,57.813349839946525],[38.59920823800293,57.82762660598107],[38.62419257856441,57.83952391100959],[38.64084880560513,57.83476498899927],[38.716991557791346,57.858559599056235],[38.755062933885256,57.8526109465429],[38.78004727444594,57.82643687547806],[38.78718565746343,57.803831995923204],[38.80860080651652,57.7990730739111],[38.8371543385864,57.76100169781782],[38.86927706216458,57.76338115882302],[38.89664086373189,57.77170927234512],[38.909727899264226,57.77170927234512],[38.91448682127589,57.76338115882302],[38.8895024807144,57.7550530453036],[38.85381056562713,57.73958654876516],[38.87403598417624,57.73006870474184],[38.88831275021184,57.70865355568999],[38.92876358731078,57.72293032172551],[38.969214424409714,57.7110330166952],[39.00411318582891,57.71698166921031],[39.00411318582891,57.72887897423884],[39.01838995186381,57.7550530453036],[39.062409980471045,57.79074496039087],[39.062409980471045,57.83238552799228],[39.050512675441986,57.84428283302259],[39.04694348393369,57.86569798207435],[39.061220249968486,57.89663097515041],[39.08858405153589,57.92042558520916],[39.094532704050025,57.95849696130155],[39.14093219366389,57.96801480532487],[39.14212192416645,58.02274240845959],[39.11713758360568,58.035829443991126],[39.13141434964057,58.05724459304289],[39.14807057668129,58.05724459304289],[39.17424464774534,58.07628028108953],[39.19803925780356,58.07628028108953],[39.24205928641159,58.10364408265738],[39.35865287569746,58.122679770704025],[39.37649883324074,58.15004357227098],[39.38006802474984,58.17145872132372],[39.40386263480805,58.188114948365154],[39.40207178304037,58.21036409650422],[39.38898474750875,58.224640862540625],[39.40207178304037,58.236538167569066],[39.38422582549709,58.24843547259839],[39.38541555599956,58.26747116064503],[39.36162094594144,58.27579927416535],[39.32949822236246,58.28055819617657],[39.29380630727518,58.27104035215325],[39.252165739672975,58.27936846567356],[39.2129046330774,58.300783614726214],[39.15579756893693,58.313870650258636],[39.130813228376255,58.309111728246535],[39.12248511485549,58.318629572269856],[39.090362391276514,58.32100903327684],[39.03444505763942,58.34242418232771],[38.969009879979794,58.350752295848025],[38.88691847527865,58.360270139871346],[38.90000551081027,58.381685288924004],[38.91785146835426,58.40310043797763],[38.877400631254616,58.40310043797763],[38.83338060264728,58.400720976970646],[38.799049778423225,58.39388415192117]]]]}}]}
