{"type":"FeatureCollection","features":[{"type":"Feature","properties":{"kind":"province","id":"gubernia-1897-63","name":"Эриванская губерния"},"geometry":{"type":"MultiPolygon","coordinates":[[[[43.601232402500564,40.51156788202844],[43.62026809054694,40.50561922951324],[43.63097566507389,40.54607006661173],[43.645252431108695,40.54725979711563],[43.65120108362318,40.56034683264805],[43.660718927646414,40.563916024156256],[43.66428811915516,40.580572251196806],[43.68213407669862,40.586520903711914],[43.69284165122477,40.60555659175856],[43.70235949524871,40.61031551376978],[43.72258491379809,40.636489584833726],[43.72615410530683,40.653145811874275],[43.74281033234738,40.65790473388638],[43.75232817637061,40.69478637947666],[43.789209821961336,40.71977072003841],[43.79277901347008,40.742375599594155],[43.81419416252229,40.7602215571369],[43.81062497101363,40.79829293323019],[43.79515847447591,40.806621046751395],[43.77374332542362,40.83041565680925],[43.755897367879356,40.84469242284371],[43.74043087134164,40.88395352944097],[43.76065628989093,40.92321463603726],[43.77374332542362,40.92321463603726],[43.77612278642945,40.944629785089106],[43.786830360955506,40.95652709011844],[43.79753793548166,40.9767525086672],[43.77731251693236,41.00173684922993],[43.77850224743528,41.013634154257474],[43.79277901347008,41.013634154257474],[43.807055779504886,41.02553145928681],[43.828470928557095,41.03861849481923],[43.791589282967166,41.0707412183983],[43.755897367879356,41.11238178600068],[43.794233128528845,41.14305039452027],[43.835873696131145,41.15732716055392],[43.88703210775676,41.162086082566915],[43.92153429234086,41.1561374300518],[43.96436459044616,41.14186066401638],[43.959605668434584,41.119255784460634],[43.95365701592001,41.09189198289367],[43.98459000899554,41.071666564344916],[43.99767704452743,41.04311303227495],[44.02979976810658,41.0264568052344],[44.05121491715879,41.02169788322319],[44.05597383917045,41.000282734170455],[44.06549168319359,40.97767785461471],[44.09047602375534,40.97053947159748],[44.12378847783661,40.976488124110816],[44.15710093191859,40.97053947159748],[44.20587988253758,40.94317567002963],[44.239192336619645,40.93246809550331],[44.28321236522697,40.92651944298909],[44.3486475428874,40.92057079047389],[44.36173457841929,40.927709173492985],[44.34626808188157,40.95031405304686],[44.39147784099261,40.94912432254385],[44.43668760010365,40.92413998198299],[44.484276820219726,40.915811868463564],[44.502122777763276,40.919381059971776],[44.553281189388805,40.92295025147999],[44.598490948499844,40.90510429393724],[44.618716367049224,40.87774049236939],[44.636562324592774,40.845617768790326],[44.665115856663185,40.82301288923556],[44.700807771750284,40.81111558420703],[44.7507764528729,40.79802854867372],[44.78051971544542,40.76828528610075],[44.81978082204198,40.73021391000836],[44.78289917645125,40.71117822196172],[44.74125860884969,40.68381442039389],[44.765581988020195,40.66187050223019],[44.808412286125495,40.62141966512991],[44.850052853727085,40.62379912613592],[44.87384746378583,40.6261785871429],[44.879796116300405,40.64402454468566],[44.85957069775023,40.67495753776261],[44.87384746378583,40.69756241731737],[44.919057222896164,40.70945972234581],[44.94285183295491,40.70351106983257],[44.98330267005358,40.68209592077894],[45.0415994646966,40.655921849714986],[45.122501138894656,40.61309155161048],[45.17128008951444,40.59643532456994],[45.174849281023185,40.61666074311958],[45.180797933537676,40.630937509153235],[45.20816173510437,40.630937509153235],[45.24266391968935,40.62141966512991],[45.27716610427345,40.60119424658116],[45.297391522823624,40.569071523002094],[45.305719636343945,40.55122556545943],[45.33070397690489,40.54170772143611],[45.37115481400428,40.544087182440336],[45.411605651102946,40.53813852992701],[45.452056488202416,40.52505149439369],[45.48774840328943,40.50244661483973],[45.529388970891816,40.46080604723734],[45.58173711302026,40.4334422456695],[45.634085255147994,40.40964763561173],[45.65669013470382,40.37871464253655],[45.7197458513585,40.37276599002145],[45.7542480359426,40.36086868499203],[45.80778590857396,40.337074074934165],[45.85775458969666,40.343022727447504],[45.91605138433968,40.32279730889874],[45.94460491640929,40.32279730889874],[45.941035724900544,40.29424377682976],[45.962450873952754,40.24665455671217],[45.95531249093544,40.22999832967163],[45.964830334958585,40.20620371961288],[45.96007141294701,40.19668587559045],[45.958881682444094,40.14909665547384],[45.91605138433968,40.14195827245662],[45.90415407930982,40.13838908094654],[45.89939515729825,40.121732853905996],[45.90177461830408,40.091989591333025],[45.872031355731465,40.05510794574363],[45.81611402209437,39.98967276808348],[45.73402261739331,39.9932419595916],[45.650741482189424,39.9968111511007],[45.622848911509365,39.97830423216603],[45.70137112470243,39.95807881361631],[45.745391153309754,39.92595609003733],[45.79298037342663,39.87598740891463],[45.77751387688892,39.8700387564013],[45.750150075321415,39.874797678411625],[45.7489603448185,39.86052091237798],[45.73825277029245,39.82720845829502],[45.71802735174306,39.80222411773505],[45.6989916636966,39.79151654320872],[45.67995597564942,39.78913708220263],[45.6704381316262,39.766532202646886],[45.67757651464359,39.74154786208513],[45.69304301118132,39.71775325202816],[45.68590462816391,39.69514837247242],[45.668058670620454,39.657076996378244],[45.65378190458556,39.63685157782949],[45.65973055710005,39.60710831525652],[45.683525167158166,39.59996993223832],[45.73825277029245,39.596400740729216],[45.77275495487734,39.570226669665345],[45.791790642923715,39.532155293572956],[45.802498217449866,39.488135264964555],[45.80844686996444,39.461961193900606],[45.794170103929545,39.44054604484795],[45.77989333789475,39.4215103568022],[45.783462529403494,39.39771574674256],[45.802498217449866,39.38700817221712],[45.844138785052166,39.38581844171501],[45.87745123913352,39.3691622146726],[45.93098911176479,39.32752164707199],[45.95954264383448,39.323952455562],[45.97738860137804,39.30967568952747],[45.98214752339041,39.28469134896571],[45.9678707573548,39.25018916438242],[45.97500914037221,39.23115347633578],[45.994044828419376,39.21449724929523],[45.99761401992812,39.19546156124761],[45.99047563691073,39.17285668169284],[45.97619887087512,39.15144153263921],[45.989285906407815,39.11693934805592],[46.02616755199773,39.061022014418995],[46.055910814571064,39.044365787376584],[46.08922326865242,38.99915602826607],[46.07851569412627,38.975361418208216],[46.067808119600116,38.95870519116767],[46.08446434664076,38.945618155635245],[46.11658707021911,38.94204896412704],[46.145140602289516,38.94442842513313],[46.18083251737653,38.90278785753075],[46.18055633722382,38.853733401792866],[46.156761727165076,38.85611286279887],[46.1365363086157,38.852543671290746],[46.10322385453452,38.86563070682131],[46.08656762749352,38.87871774235373],[46.068721669949795,38.87752801185161],[46.02470164134168,38.896563699897364],[45.99019945675775,38.88704585587404],[45.96045619418426,38.89775343040037],[45.93309239261711,38.90846100492758],[45.89502101652393,38.89180477788615],[45.8557599099279,38.906081543920685],[45.84029341338973,38.920358309956995],[45.79627338478241,38.929876153979436],[45.77128904422101,38.94891184202608],[45.73202793762499,38.93939399800364],[45.70109494454866,38.96199887755752],[45.62733165336783,38.96080914705452],[45.595208929789564,38.96913726057572],[45.5833116247606,38.98579348761626],[45.571414319730906,38.98698321811936],[45.538101865649736,38.97508591308994],[45.51073806408259,38.991742140130576],[45.47861534050344,38.996501062143565],[45.46671803547456,39.01434701968721],[45.44649261692517,39.02505459421265],[45.43816450340468,39.05003893477351],[45.41080070183763,39.06074650929983],[45.39414447479665,39.071454083827135],[45.367970403733125,39.078592466844356],[45.34179633266882,39.089300041369796],[45.338227141159635,39.12380222595398],[45.345365524177296,39.148786566516705],[45.3322784886455,39.153545488527925],[45.32395037512501,39.16663252406035],[45.30610441758118,39.17377090707669],[45.293017382048674,39.19161686462121],[45.27636115500849,39.18090929009391],[45.2299616653948,39.19042713411812],[45.19545948081007,39.21065255266785],[45.174044331757784,39.21541147467907],[45.15024972169921,39.221360127194174],[45.15143945220204,39.24277527624692],[45.13121403365257,39.2689493473099],[45.13359349465823,39.28560557435133],[45.11812699812086,39.303451531894964],[45.101470771079875,39.307020723403184],[45.08243508303323,39.32248721994161],[45.05983020347749,39.34033317748525],[45.040794515430846,39.362938057040104],[45.02056909688119,39.376025092572526],[45.00034367833199,39.384353206092754],[44.98844637330302,39.399819702630296],[44.96346203274162,39.399819702630296],[44.95156472771265,39.4105272771576],[44.949185266706195,39.42956296520424],[44.93609823117448,39.43194242621025],[44.93490850067165,39.449788383753884],[44.917062543127926,39.455737036268104],[44.90159604658977,39.48072137682995],[44.899216585584114,39.50213652588082],[44.91468308212228,39.52355167493436],[44.90516523809896,39.53187978845379],[44.88018089753747,39.56281278153074],[44.88256035854313,39.57946900857128],[44.874232245022625,39.5830382000795],[44.862334939993744,39.5961252356128],[44.8432992519471,39.59969442712093],[44.84091979094154,39.619919845670665],[44.78976137931575,39.617540384664565],[44.78305092424351,39.62089561220064],[44.744551620204874,39.64014526421943],[44.7409824286964,39.66988852679328],[44.73384404567874,39.68892421483992],[44.67078832902405,39.703200980873575],[44.66364994600718,39.716288016406],[44.64223479695417,39.72223666892022],[44.597025037844105,39.79718969060378],[44.57679961929411,39.80908699563311],[44.513743902640044,39.7614977755165],[44.45782656900303,39.71985720791598],[44.412616809892086,39.68059610131871],[44.38287354731858,39.66275014377605],[44.3495610932374,39.65561176075785],[44.260331305518505,39.72223666892022],[44.169911787297565,39.71033936389178],[44.05212846750871,39.74603127897985],[43.983124098339175,39.73294424344743],[43.90817107665562,39.7246161299272],[43.85225374301861,39.74841073998506],[43.855822934527794,39.77815400255714],[43.80823371441127,39.767446428031704],[43.78086991284414,39.757928584009264],[43.7451779977566,39.767446428031704],[43.70829635216623,39.774584811048925],[43.64643036601437,39.786482116078346],[43.61430764243602,39.786482116078346],[43.592892493383005,39.79005130758647],[43.57742599684565,39.80075888211377],[43.546493003769314,39.840019988710054],[43.52388812421428,39.851917293739476],[43.50128324465925,39.853107024242476],[43.49295513113867,39.83288160569283],[43.49295513113867,39.80075888211377],[43.479868095606165,39.78291292457013],[43.45964267705678,39.78291292457013],[43.437037797501745,39.79243076859257],[43.41919183995793,39.81622537865042],[43.413243187443086,39.8590556767567],[43.401345882414205,39.92211139340996],[43.38112046386473,39.95423411698903],[43.34899774028567,39.97802872704688],[43.27642417960767,39.99349522358531],[43.26099600188137,39.99445948469352],[43.26215920916981,40.01188107080361],[43.2692975921873,40.039244872370475],[43.28595381922784,40.06779840444044],[43.29904085476045,40.07969570946897],[43.302610046269194,40.10230058902462],[43.309748429286685,40.11776708556226],[43.34425061387104,40.115387624558025],[43.36447603242033,40.128474660089466],[43.382321989964055,40.122526007575246],[43.394219294993476,40.122526007575246],[43.420393366057965,40.10586978053372],[43.44775716762466,40.10468005003072],[43.48820800472333,40.108249241538935],[43.51914099779975,40.113008163551044],[43.55364318238402,40.118956816066145],[43.59052482797466,40.116577355061025],[43.63097566507332,40.11419789405493],[43.654770275131895,40.120146546570126],[43.65833946664094,40.14156169562192],[43.67023677166956,40.15464873115344],[43.68570326820772,40.15702819215946],[43.710687608768936,40.15583846165645],[43.716636261283334,40.1689254971879],[43.704738956254715,40.1808228022182],[43.703549225751445,40.19272010724673],[43.68332380720216,40.202237951270945],[43.68451353770454,40.260534745912985],[43.67856488519023,40.26767312893021],[43.6476318921147,40.270052589936306],[43.62621674306214,40.29979585250838],[43.604801594009665,40.33429803709346],[43.609560516020885,40.37474887419373],[43.62264755155339,40.38902564022737],[43.62859620406779,40.418768902800345],[43.60718105501523,40.43542512984187],[43.589335097471505,40.44851216537429],[43.5631610264071,40.45921973989972],[43.54769452986983,40.469927314425604],[43.55959183489898,40.474686236437265],[43.558402104396066,40.48182461945538],[43.5750583314367,40.49967057699813],[43.591714558477335,40.49967057699813],[43.601232402500564,40.51156788202844]]]]}},{"type":"Feature","properties":{"kind":"district","id":"uyezd-1897-402","name":"Эчмиадзинский","provinceId":"gubernia-1897-63"},"geometry":{"type":"MultiPolygon","coordinates":[[[[43.654770275132165,40.12014654656915],[43.668914848888775,40.10111085852162],[43.71650406900565,40.09278274500228],[43.7188835300114,40.08207517047498],[43.751006253589836,40.07731624846385],[43.7974057432037,40.08207517047498],[43.80216466521536,40.06898813494442],[43.83666684979954,40.0594702909211],[43.84737442432561,40.046383255387795],[43.859271729355385,40.04519352488479],[43.894963644442484,40.02853729784415],[43.9175685239976,40.02377837583205],[43.95563990009124,40.02496810633603],[43.96991666612604,40.016639992814824],[44.025833999763236,40.02853729784415],[44.04367995730678,40.02258864532993],[44.1079254044643,40.035675680861466],[44.132909745025955,40.02853729784415],[44.18287842614785,40.040434602874456],[44.23641629877922,40.03329621985537],[44.250693064814016,40.041624333376575],[44.27805686638152,40.044003794382675],[44.31612824247445,40.027347567342034],[44.332784469515076,40.00950160979751],[44.35657907957392,40.00831187929539],[44.395840186169664,39.98927619124875],[44.4094819898491,39.99122502034598],[44.39980595451293,40.01756533876138],[44.38077026646655,40.05682644535776],[44.37363188344906,40.09608755195404],[44.37839080546072,40.127020545030106],[44.39028811048969,40.15557407710096],[44.39385730199844,40.179368687158814],[44.44858490513271,40.205542758222684],[44.48903574223139,40.232906559790536],[44.516399543798876,40.261460091859604],[44.537814692851086,40.287634162923474],[44.560419572406296,40.31023904247833],[44.585403912967955,40.30429038996411],[44.587783373973785,40.342361766057394],[44.593732026488276,40.357828262595824],[44.605629331517335,40.38400233365978],[44.61276771453474,40.40898667422153],[44.593732026488276,40.42683263176419],[44.59968067900276,40.439919667296614],[44.616336906043486,40.450627241823916],[44.60206014000859,40.45895535534326],[44.57231687743527,40.46133481634935],[44.56636822492078,40.48274996540111],[44.54852226737723,40.493457539928414],[44.534245501342426,40.513682958478064],[44.52115846581054,40.54104676004405],[44.54257361486275,40.580307866640425],[44.511640621787215,40.595774363177966],[44.47475897619658,40.63384573927214],[44.41765191205648,40.63265600877003],[44.38195999696938,40.68262468989175],[44.347457812384484,40.671917115365424],[44.327232393835104,40.65645061882788],[44.30700697528581,40.62551762575093],[44.271315060198,40.6148100512255],[44.239192336619645,40.585066788652526],[44.20825934354341,40.55770298708468],[44.201120960526005,40.51725214998628],[44.142824165882985,40.519631610992285],[44.127357669345265,40.48988834842021],[44.08214791023423,40.493457539928414],[44.04407653414138,40.498216461939634],[44.00838461905349,40.493457539928414],[43.97031324296064,40.4779910433899],[43.89773968228282,40.50892403646685],[43.860858036692186,40.527959724513494],[43.84420180965155,40.51011376696896],[43.860858036692186,40.47918077389299],[43.851340192668864,40.457765624841144],[43.829925043616655,40.42802236226817],[43.77043851847081,40.41850451824485],[43.75497202193309,40.40065856070032],[43.69072657477558,40.38995098617489],[43.6562243901906,40.373294759134254],[43.62767085812099,40.37091529812736],[43.60956051602085,40.37474887419282],[43.60480159400964,40.33429803709343],[43.626216743062116,40.29979585250837],[43.647631892114674,40.270052589936284],[43.6785648851902,40.267673128930184],[43.684513537704504,40.26053474591296],[43.68332380720213,40.20223795127092],[43.703549225751416,40.192720107246714],[43.70473895625469,40.18082280221818],[43.71663626128331,40.16892549718787],[43.71068760876891,40.15583846165643],[43.68570326820769,40.15702819215943],[43.67023677166952,40.15464873115343],[43.65833946664091,40.14156169562189],[43.654770275132165,40.12014654656915]]]]}},{"type":"Feature","properties":{"kind":"district","id":"uyezd-1897-403","name":"Александропольский","provinceId":"gubernia-1897-63"},"geometry":{"type":"MultiPolygon","coordinates":[[[[43.60956051602085,40.37474887419282],[43.62767085812099,40.37091529812736],[43.6562243901906,40.373294759134254],[43.69072657477558,40.38995098617489],[43.75497202193309,40.40065856070032],[43.77043851847081,40.41850451824485],[43.829925043616655,40.42802236226817],[43.851340192668864,40.457765624841144],[43.860858036692186,40.47918077389299],[43.84420180965155,40.51011376696896],[43.860858036692186,40.527959724513494],[43.89773968228282,40.50892403646685],[43.97031324296064,40.4779910433899],[44.00838461905349,40.493457539928414],[44.04407653414138,40.498216461939634],[44.08214791023423,40.493457539928414],[44.127357669345265,40.48988834842021],[44.142824165882985,40.519631610992285],[44.201120960526005,40.51725214998628],[44.20825934354341,40.55770298708468],[44.239192336619645,40.585066788652526],[44.271315060198,40.6148100512255],[44.30700697528581,40.62551762575093],[44.327232393835104,40.65645061882788],[44.347457812384484,40.671917115365424],[44.38195999696938,40.68262468989175],[44.36887296143749,40.69928091693238],[44.35935511741346,40.72069606598504],[44.36887296143749,40.74330094554078],[44.39623676300427,40.75162905906021],[44.43906706110948,40.748059867551106],[44.50331250826619,40.739731754030785],[44.59254229598536,40.71474741347082],[44.67582343118933,40.70403983894449],[44.74125860884966,40.683814420393865],[44.78289917645125,40.71117822196172],[44.81978082204198,40.73021391000836],[44.78051971544542,40.76828528610075],[44.7507764528729,40.79802854867372],[44.700807771750284,40.81111558420703],[44.665115856663185,40.82301288923556],[44.636562324592774,40.845617768790326],[44.618716367049224,40.87774049236939],[44.598490948499844,40.90510429393724],[44.553281189388805,40.92295025147999],[44.502122777763276,40.919381059971776],[44.484276820219726,40.915811868463564],[44.43668760010365,40.92413998198299],[44.39147784099261,40.94912432254385],[44.34626808188157,40.95031405304686],[44.36173457841929,40.927709173492985],[44.3486475428874,40.92057079047389],[44.28321236522697,40.92651944298909],[44.239192336619645,40.93246809550331],[44.20587988253758,40.94317567002963],[44.15710093191859,40.97053947159748],[44.12378847783661,40.976488124110816],[44.09047602375534,40.97053947159748],[44.06549168319359,40.97767785461471],[44.05597383917045,41.000282734170455],[44.05121491715879,41.02169788322319],[44.02979976810658,41.0264568052344],[43.99767704452743,41.04311303227495],[43.98459000899554,41.071666564344916],[43.95365701592001,41.09189198289367],[43.959605668434584,41.119255784460634],[43.96436459044616,41.14186066401638],[43.92153429234086,41.1561374300518],[43.88703210775676,41.162086082566915],[43.835873696131145,41.15732716055392],[43.794233128528845,41.14305039452027],[43.755897367879356,41.1123817860007],[43.791589282967166,41.07074121839831],[43.828470928557095,41.03861849481925],[43.807055779504886,41.025531459286825],[43.79277901347008,41.013634154257495],[43.77850224743528,41.013634154257495],[43.77731251693236,41.00173684922994],[43.79753793548166,40.97675250866722],[43.786830360955506,40.956527090118456],[43.77612278642945,40.94462978508913],[43.77374332542362,40.92321463603727],[43.76065628989093,40.92321463603727],[43.74043087134164,40.88395352944099],[43.755897367879356,40.84469242284372],[43.77374332542362,40.83041565680927],[43.79515847447591,40.80662104675142],[43.81062497101363,40.79829293323021],[43.81419416252229,40.76022155713692],[43.79277901347008,40.74237559959417],[43.789209821961336,40.719770720038426],[43.75232817637061,40.69478637947668],[43.74281033234738,40.6579047338864],[43.72615410530683,40.653145811874296],[43.72258491379809,40.63648958483375],[43.70235949524871,40.61031551376979],[43.69284165122477,40.60555659175857],[43.68213407669862,40.58652090371193],[43.66428811915516,40.58057225119683],[43.660718927646414,40.56391602415628],[43.65120108362318,40.560346832648065],[43.645252431108695,40.54725979711564],[43.63097566507389,40.54607006661175],[43.62026809054694,40.50561922951326],[43.601232402500564,40.51156788202846],[43.591714558477335,40.49967057699815],[43.5750583314367,40.49967057699815],[43.558402104396066,40.481824619455395],[43.55959183489898,40.474686236437286],[43.547694529869716,40.46992731442514],[43.56316102640707,40.45921973989971],[43.589335097471476,40.44851216537427],[43.607181055015204,40.435425129841846],[43.62859620406776,40.41876890280032],[43.62264755155337,40.38902564022736],[43.60956051602085,40.37474887419282]]]]}},{"type":"Feature","properties":{"kind":"district","id":"uyezd-1897-404","name":"Эриванский","provinceId":"gubernia-1897-63"},"geometry":{"type":"MultiPolygon","coordinates":[[[[44.78305092424351,39.62089561220064],[44.798365672989746,39.62971319481217],[44.84119597109424,39.63447211682339],[44.88402626919945,39.64398996084671],[44.92566683680104,39.67968187593399],[44.9649279433976,39.72013271303239],[44.993481475467206,39.755824628121445],[45.01608635502312,39.770101394155986],[45.048209078601474,39.812931692260484],[45.060106383630455,39.8617106428801],[45.07795234117481,39.904540940984596],[45.06962422765449,39.93190474255245],[45.06843449715157,39.96164800512541],[45.07914207167772,40.00804749473804],[45.023224738040525,40.03303183529988],[45.01132743301156,40.08181078591949],[44.98991228395846,40.10203620446825],[44.991102014461376,40.12107189251577],[45.00061985848541,40.141297311064534],[45.017276085526035,40.17223030414148],[45.0065685109999,40.210301680234764],[44.98991228395846,40.22100925476109],[44.945892255351126,40.223388715767186],[44.91852845378355,40.24242440381383],[44.900682496240094,40.24361413431595],[44.87093923366757,40.230527098784414],[44.834057588076746,40.20673248872478],[44.81026297801871,40.20554275822266],[44.81026297801871,40.23171682928662],[44.7674326799135,40.25551143934439],[44.78408890695414,40.298341737450755],[44.7531559138787,40.30785958147408],[44.741258608849634,40.293582815437674],[44.718653729294516,40.303100659460995],[44.72341265130609,40.34712068807036],[44.69842831074442,40.35306934058458],[44.672254239680555,40.3578282625958],[44.669874778674725,40.372105028630344],[44.62466501956368,40.378053681144564],[44.605629331517335,40.38400233365978],[44.593732026488276,40.357828262595824],[44.587783373973785,40.342361766057394],[44.585403912967955,40.30429038996411],[44.560419572406296,40.31023904247833],[44.537814692851086,40.287634162923474],[44.516399543798876,40.261460091859604],[44.48903574223139,40.232906559790536],[44.44858490513271,40.205542758222684],[44.39385730199844,40.179368687158814],[44.39028811048969,40.15557407710096],[44.37839080546072,40.127020545030106],[44.37363188344906,40.09608755195404],[44.38077026646655,40.05682644535776],[44.39980595451293,40.01756533876138],[44.4094819898491,39.99122502034598],[44.4124964132111,39.99165565225485],[44.431532101257474,39.98927619124875],[44.454136980812606,39.98332753873365],[44.46127536383,39.99403511325908],[44.476741860367724,39.98451726923576],[44.49220835690625,39.953584276160676],[44.519572158473025,39.94049724062914],[44.53503865501074,39.9202718220795],[44.54455649903389,39.889338829003435],[44.57905868361887,39.870303140955905],[44.588576527642104,39.825093381845306],[44.57429976160721,39.83699068687473],[44.57073057009855,39.82033445983507],[44.57679961929411,39.80908699563311],[44.597025037844105,39.79718969060378],[44.64223479695417,39.72223666892022],[44.66364994600718,39.716288016406],[44.67078832902405,39.703200980873575],[44.73384404567874,39.68892421483992],[44.7409824286964,39.66988852679328],[44.744551620204874,39.64014526421943],[44.78305092424351,39.62089561220064]]]]}},{"type":"Feature","properties":{"kind":"district","id":"uyezd-1897-405","name":"Сурмалинский","provinceId":"gubernia-1897-63"},"geometry":{"type":"MultiPolygon","coordinates":[[[[44.4094819898491,39.99122502034598],[44.395840186169664,39.98927619124875],[44.35657907957392,40.00831187929539],[44.332784469515076,40.00950160979751],[44.31612824247445,40.027347567342034],[44.27805686638152,40.044003794382675],[44.250693064814016,40.041624333376575],[44.23641629877922,40.03329621985537],[44.18287842614785,40.040434602874456],[44.132909745025955,40.02853729784415],[44.1079254044643,40.035675680861466],[44.04367995730678,40.02258864532993],[44.025833999763236,40.02853729784415],[43.96991666612604,40.016639992814824],[43.95563990009124,40.02496810633603],[43.9175685239976,40.02377837583205],[43.894963644442484,40.02853729784415],[43.859271729355385,40.04519352488479],[43.84737442432561,40.046383255387795],[43.83666684979954,40.0594702909211],[43.80216466521536,40.06898813494442],[43.7974057432037,40.08207517047498],[43.751006253589836,40.07731624846385],[43.7188835300114,40.08207517047498],[43.71650406900565,40.09278274500228],[43.668914848888775,40.10111085852162],[43.654770275132165,40.12014654656915],[43.63097566507332,40.11419789405493],[43.59052482797466,40.116577355061025],[43.55364318238402,40.118956816066145],[43.51914099779975,40.113008163551044],[43.48820800472333,40.108249241538935],[43.44775716762466,40.10468005003072],[43.420393366057965,40.10586978053372],[43.394219294993476,40.122526007575246],[43.382321989964055,40.122526007575246],[43.36447603242033,40.128474660089466],[43.34425061387104,40.115387624558025],[43.309748429286685,40.11776708556226],[43.302610046269194,40.10230058902462],[43.29904085476045,40.07969570946897],[43.28595381922784,40.06779840444044],[43.2692975921873,40.039244872370475],[43.26215920916981,40.01188107080361],[43.26099600188137,39.99445948469352],[43.27642417960767,39.99349522358531],[43.34899774028567,39.97802872704688],[43.38112046386473,39.95423411698903],[43.401345882414205,39.92211139340996],[43.413243187443086,39.8590556767567],[43.41919183995793,39.81622537865042],[43.437037797501745,39.79243076859257],[43.45964267705678,39.78291292457013],[43.479868095606165,39.78291292457013],[43.49295513113867,39.80075888211377],[43.49295513113867,39.83288160569283],[43.50128324465925,39.853107024242476],[43.52388812421428,39.851917293739476],[43.546493003769314,39.840019988710054],[43.57742599684565,39.80075888211377],[43.592892493383005,39.79005130758647],[43.61430764243602,39.786482116078346],[43.64643036601437,39.786482116078346],[43.70829635216623,39.774584811048925],[43.7451779977566,39.767446428031704],[43.78086991284414,39.757928584009264],[43.80823371441127,39.767446428031704],[43.855822934527794,39.77815400255714],[43.85225374301861,39.74841073998506],[43.90817107665562,39.7246161299272],[43.983124098339175,39.73294424344743],[44.05212846750871,39.74603127897985],[44.169911787297565,39.71033936389178],[44.260331305518505,39.72223666892022],[44.3495610932374,39.65561176075785],[44.38287354731858,39.66275014377605],[44.412616809892086,39.68059610131871],[44.45782656900303,39.71985720791598],[44.513743902640044,39.7614977755165],[44.57679961929411,39.80908699563311],[44.57073057009855,39.82033445983507],[44.57429976160721,39.83699068687473],[44.588576527642104,39.825093381845306],[44.57905868361887,39.870303140955905],[44.54455649903389,39.889338829003435],[44.53503865501074,39.9202718220795],[44.519572158473025,39.94049724062914],[44.49220835690625,39.953584276160676],[44.476741860367724,39.98451726923576],[44.46127536383,39.99403511325908],[44.454136980812606,39.98332753873365],[44.431532101257474,39.98927619124875],[44.4124964132111,39.99165565225485],[44.4094819898491,39.99122502034598]]]]}},{"type":"Feature","properties":{"kind":"district","id":"uyezd-1897-406","name":"Шаруро-Даралагезский","provinceId":"gubernia-1897-63"},"geometry":{"type":"MultiPolygon","coordinates":[[[[45.02056909688119,39.376025092572526],[45.025604199046356,39.39295682473224],[45.04107069558408,39.4072335907658],[45.08033180218064,39.43697685333885],[45.12197236978221,39.45006388887127],[45.16123347637868,39.461961193900606],[45.20287404398027,39.48099688194725],[45.21715081001588,39.496463378485764],[45.2266686540391,39.533345024075956],[45.243324881079744,39.532155293572956],[45.261170838623286,39.530965563068975],[45.2754476046581,39.5440525986014],[45.279016796167554,39.56665747815714],[45.26830922164069,39.61067750676562],[45.27782706566464,39.62852346430828],[45.296862753711096,39.63328238632127],[45.323036824774974,39.62614400330219],[45.34445197382718,39.62257481179495],[45.36467739237726,39.64755915235492],[45.376574697406326,39.6416104998407],[45.39798984645853,39.61543642877586],[45.43368176154634,39.594021279724984],[45.453907180095726,39.570226669665345],[45.495547747698026,39.540483407092296],[45.51815262725323,39.53929367659018],[45.54075750680835,39.55000125111562],[45.556224003346074,39.57141640016924],[45.59786457094846,39.56427801715202],[45.62522837251515,39.57736505268257],[45.65973055710005,39.60710831525652],[45.65378190458556,39.63685157782949],[45.668058670620454,39.657076996378244],[45.68590462816391,39.69514837247242],[45.69304301118132,39.71775325202816],[45.67757651464359,39.74154786208513],[45.6704381316262,39.766532202646886],[45.67995597564942,39.78913708220263],[45.6989916636966,39.79151654320872],[45.71802735174306,39.80222411773505],[45.73825277029245,39.82720845829502],[45.7489603448185,39.86052091237798],[45.750150075321415,39.874797678411625],[45.77751387688892,39.8700387564013],[45.79298037342663,39.87598740891463],[45.745391153309754,39.92595609003733],[45.70137112470243,39.95807881361631],[45.62284891150932,39.978304232166046],[45.602623492960035,40.00447830322992],[45.58001861340482,40.02232426077444],[45.54908562032858,40.01756533876144],[45.516962896750314,40.000909111720816],[45.48602990367408,39.98782207618937],[45.37062604489175,39.96402746613151],[45.32065736376914,39.9556993526103],[45.24689407258849,39.95213016110209],[45.20287404398027,39.93428420355854],[45.16123347637868,39.900971749475495],[45.11840317827347,39.9021614799785],[45.07795234117481,39.904540940984596],[45.060106383630455,39.8617106428801],[45.048209078601474,39.812931692260484],[45.01608635502312,39.770101394155986],[44.993481475467206,39.755824628121445],[44.9649279433976,39.72013271303239],[44.92566683680104,39.67968187593399],[44.88402626919945,39.64398996084671],[44.84119597109424,39.63447211682339],[44.798365672989746,39.62971319481217],[44.78305092424351,39.62089561220064],[44.78976137931575,39.617540384664565],[44.84091979094154,39.619919845670665],[44.8432992519471,39.59969442712093],[44.862334939993744,39.5961252356128],[44.874232245022625,39.5830382000795],[44.88256035854313,39.57946900857128],[44.88018089753747,39.56281278153074],[44.90516523809896,39.53187978845379],[44.91468308212228,39.52355167493436],[44.899216585584114,39.50213652588082],[44.90159604658977,39.48072137682995],[44.917062543127926,39.455737036268104],[44.93490850067165,39.449788383753884],[44.93609823117448,39.43194242621025],[44.949185266706195,39.42956296520424],[44.95156472771265,39.4105272771576],[44.96346203274162,39.399819702630296],[44.98844637330302,39.399819702630296],[45.00034367833199,39.384353206092754],[45.02056909688119,39.376025092572526]]]]}},{"type":"Feature","properties":{"kind":"district","id":"uyezd-1897-407","name":"Новобаязетский","provinceId":"gubernia-1897-63"},"geometry":{"type":"MultiPolygon","coordinates":[[[[44.605629331517335,40.38400233365978],[44.62466501956368,40.378053681144564],[44.669874778674725,40.372105028630344],[44.672254239680555,40.3578282625958],[44.69842831074442,40.35306934058458],[44.72341265130609,40.34712068807036],[44.718653729294516,40.303100659460995],[44.741258608849634,40.293582815437674],[44.7531559138787,40.30785958147408],[44.78408890695414,40.298341737450755],[44.7674326799135,40.25551143934439],[44.81026297801871,40.23171682928662],[44.81026297801871,40.20554275822266],[44.834057588076746,40.20673248872478],[44.87093923366757,40.230527098784414],[44.900682496240094,40.24361413431595],[44.91852845378355,40.24242440381383],[44.945892255351126,40.223388715767186],[44.98991228395846,40.22100925476109],[45.0065685109999,40.210301680234764],[45.017276085526035,40.17223030414148],[45.00061985848541,40.141297311064534],[44.991102014461376,40.12107189251577],[44.98991228395846,40.10203620446825],[45.01132743301156,40.08181078591949],[45.023224738040525,40.03303183529988],[45.07914207167772,40.00804749473804],[45.06843449715157,39.96164800512541],[45.06962422765449,39.93190474255245],[45.07795234117481,39.904540940984596],[45.11840317827347,39.9021614799785],[45.16123347637868,39.900971749475495],[45.20287404398027,39.93428420355854],[45.24689407258849,39.95213016110209],[45.32065736376914,39.9556993526103],[45.37062604489175,39.96402746613151],[45.48602990367408,39.98782207618937],[45.516962896750314,40.000909111720816],[45.54908562032858,40.01756533876144],[45.58001861340482,40.02232426077444],[45.602623492960035,40.00447830322992],[45.62284891150932,39.978304232166046],[45.650741482189424,39.9968111511007],[45.73402261739331,39.9932419595916],[45.81611402209437,39.98967276808348],[45.872031355731465,40.05510794574363],[45.90177461830408,40.091989591333025],[45.89939515729825,40.121732853905996],[45.90415407930982,40.13838908094654],[45.91605138433968,40.14195827245662],[45.958881682444094,40.14909665547384],[45.96007141294701,40.19668587559045],[45.964830334958585,40.20620371961288],[45.95531249093544,40.22999832967163],[45.962450873952754,40.24665455671217],[45.941035724900544,40.29424377682976],[45.94460491640929,40.32279730889874],[45.91605138433968,40.32279730889874],[45.85775458969666,40.343022727447504],[45.80778590857396,40.337074074934165],[45.7542480359426,40.36086868499203],[45.7197458513585,40.37276599002145],[45.65669013470382,40.37871464253655],[45.634085255147994,40.40964763561173],[45.58173711302026,40.4334422456695],[45.529388970891816,40.46080604723734],[45.48774840328943,40.50244661483973],[45.452056488202416,40.52505149439369],[45.411605651102946,40.53813852992701],[45.37115481400428,40.544087182440336],[45.33070397690489,40.54170772143611],[45.305719636343945,40.55122556545943],[45.297391522823624,40.569071523002094],[45.27716610427345,40.60119424658116],[45.24266391968935,40.62141966512991],[45.20816173510437,40.630937509153235],[45.180797933537676,40.630937509153235],[45.174849281023185,40.61666074311958],[45.17128008951444,40.59643532456994],[45.122501138894656,40.61309155161048],[45.0415994646966,40.655921849714986],[44.98330267005358,40.68209592077894],[44.94285183295491,40.70351106983257],[44.919057222896164,40.70945972234581],[44.87384746378583,40.69756241731737],[44.85957069775023,40.67495753776261],[44.879796116300405,40.64402454468566],[44.87384746378583,40.6261785871429],[44.850052853727085,40.62379912613592],[44.808412286125495,40.62141966512991],[44.765581988020195,40.66187050223019],[44.74125860884966,40.683814420393865],[44.67582343118933,40.70403983894449],[44.59254229598536,40.71474741347082],[44.50331250826619,40.739731754030785],[44.43906706110948,40.748059867551106],[44.39623676300427,40.75162905906021],[44.36887296143749,40.74330094554078],[44.35935511741346,40.72069606598504],[44.36887296143749,40.69928091693238],[44.38195999696938,40.68262468989175],[44.41765191205648,40.63265600877003],[44.47475897619658,40.63384573927214],[44.511640621787215,40.595774363177966],[44.54257361486275,40.580307866640425],[44.52115846581054,40.54104676004405],[44.534245501342426,40.513682958478064],[44.54852226737723,40.493457539928414],[44.56636822492078,40.48274996540111],[44.57231687743527,40.46133481634935],[44.60206014000859,40.45895535534326],[44.616336906043486,40.450627241823916],[44.59968067900276,40.439919667296614],[44.593732026488276,40.42683263176419],[44.61276771453474,40.40898667422153],[44.605629331517335,40.38400233365978]]]]}},{"type":"Feature","properties":{"kind":"district","id":"uyezd-1897-778","name":"Нахичеванский","provinceId":"gubernia-1897-63"},"geometry":{"type":"MultiPolygon","coordinates":[[[[45.02056909688119,39.376025092572526],[45.040794515430846,39.362938057040104],[45.05983020347749,39.34033317748525],[45.08243508303323,39.32248721994161],[45.101470771079875,39.307020723403184],[45.11812699812086,39.303451531894964],[45.13359349465823,39.28560557435133],[45.13121403365257,39.2689493473099],[45.15143945220204,39.24277527624692],[45.15024972169921,39.221360127194174],[45.174044331757784,39.21541147467907],[45.19545948081007,39.21065255266785],[45.2299616653948,39.19042713411812],[45.27636115500849,39.18090929009391],[45.293017382048674,39.19161686462121],[45.30610441758118,39.17377090707669],[45.32395037512501,39.16663252406035],[45.3322784886455,39.153545488527925],[45.345365524177296,39.148786566516705],[45.338227141159635,39.12380222595398],[45.34179633266882,39.089300041369796],[45.367970403733125,39.078592466844356],[45.39414447479665,39.071454083827135],[45.41080070183763,39.06074650929983],[45.43816450340468,39.05003893477351],[45.44649261692517,39.02505459421265],[45.46671803547456,39.01434701968721],[45.47861534050344,38.996501062143565],[45.51073806408259,38.991742140130576],[45.538101865649736,38.97508591308994],[45.571414319730906,38.98698321811936],[45.5833116247606,38.98579348761626],[45.595208929789564,38.96913726057572],[45.62733165336783,38.96080914705452],[45.70109494454866,38.96199887755752],[45.73202793762499,38.93939399800364],[45.77128904422101,38.94891184202608],[45.79627338478241,38.929876153979436],[45.84029341338973,38.920358309956995],[45.8557599099279,38.906081543920685],[45.89502101652393,38.89180477788615],[45.93309239261711,38.90846100492758],[45.96045619418426,38.89775343040037],[45.99019945675775,38.88704585587404],[46.02470164134168,38.896563699897364],[46.068721669949795,38.87752801185161],[46.08656762749352,38.87871774235373],[46.10322385453452,38.86563070682131],[46.1365363086157,38.852543671290746],[46.156761727165076,38.85611286279887],[46.18055633722382,38.853733401792866],[46.18083251737653,38.90278785753075],[46.145140602289516,38.94442842513313],[46.11658707021911,38.94204896412704],[46.08446434664076,38.945618155635245],[46.067808119600116,38.95870519116767],[46.07851569412627,38.975361418208216],[46.08922326865242,38.99915602826607],[46.055910814571064,39.044365787376584],[46.02616755199773,39.061022014418995],[45.989285906407815,39.11693934805592],[45.97619887087512,39.15144153263921],[45.99047563691073,39.17285668169284],[45.99761401992812,39.19546156124761],[45.994044828419376,39.21449724929523],[45.97500914037221,39.23115347633578],[45.9678707573548,39.25018916438242],[45.98214752339041,39.28469134896571],[45.97738860137804,39.30967568952747],[45.95954264383448,39.323952455562],[45.93098911176479,39.32752164707199],[45.87745123913352,39.3691622146726],[45.844138785052166,39.38581844171501],[45.802498217449866,39.38700817221712],[45.783462529403494,39.39771574674256],[45.77989333789475,39.4215103568022],[45.794170103929545,39.44054604484795],[45.80844686996444,39.461961193900606],[45.802498217449866,39.488135264964555],[45.791790642923715,39.532155293572956],[45.77275495487734,39.570226669665345],[45.73825277029245,39.596400740729216],[45.683525167158166,39.59996993223832],[45.65973055710005,39.60710831525652],[45.62522837251515,39.57736505268257],[45.59786457094846,39.56427801715202],[45.556224003346074,39.57141640016924],[45.54075750680835,39.55000125111562],[45.51815262725323,39.53929367659018],[45.495547747698026,39.540483407092296],[45.453907180095726,39.570226669665345],[45.43368176154634,39.594021279724984],[45.39798984645853,39.61543642877586],[45.376574697406326,39.6416104998407],[45.36467739237726,39.64755915235492],[45.34445197382718,39.62257481179495],[45.323036824774974,39.62614400330219],[45.296862753711096,39.63328238632127],[45.27782706566464,39.62852346430828],[45.26830922164069,39.61067750676562],[45.279016796167554,39.56665747815714],[45.2754476046581,39.5440525986014],[45.261170838623286,39.530965563068975],[45.243324881079744,39.532155293572956],[45.2266686540391,39.533345024075956],[45.21715081001588,39.496463378485764],[45.20287404398027,39.48099688194725],[45.16123347637868,39.461961193900606],[45.12197236978221,39.45006388887127],[45.08033180218064,39.43697685333885],[45.04107069558408,39.4072335907658],[45.025604199046356,39.39295682473224],[45.02056909688119,39.376025092572526]]]]}}]}
