{"type":"FeatureCollection","features":[{"type":"Feature","properties":{"kind":"province","id":"gubernia-1897-21","name":"Гродненская губерния"},"geometry":{"type":"MultiPolygon","coordinates":[[[[23.655906122076676,51.49302106095729],[23.66598211127443,51.51661003858318],[23.655274536748284,51.547543031658265],[23.633859387695278,51.55825060618557],[23.64099777071268,51.601080904290065],[23.606495586128496,51.62963443636003],[23.632669657192363,51.64510093289668],[23.649325884233797,51.63558308887336],[23.662412919765686,51.63915228038335],[23.673120494291833,51.65818796842902],[23.705243217870187,51.65699823792601],[23.784955161565414,51.673654464966646],[23.794473005589357,51.64510093289668],[23.82659572916771,51.65818796842902],[23.848010878219917,51.64985985490968],[23.865856835764266,51.64985985490968],[23.903928211857107,51.64510093289668],[23.878943871296244,51.62606524485004],[23.876564410290413,51.6117884788155],[23.881323332301985,51.601080904290065],[23.93843039644209,51.601080904290065],[24.00267584359951,51.58561440775155],[24.01457314862857,51.60346036529607],[24.04550614170401,51.61416793982151],[24.080008326288993,51.62844470585605],[24.108561858358602,51.664136620943324],[24.15734080897839,51.689120961505076],[24.24657059669676,51.71886422407805],[24.275124128766457,51.72719233759925],[24.297729008322378,51.735520451118674],[24.294159816813632,51.76407398318864],[24.294952970481976,51.81695089442931],[24.30922973651678,51.84074550448895],[24.32945515506687,51.86097092303771],[24.366336800656885,51.881196341587355],[24.406787637756356,51.885955263599456],[24.466274162902202,51.890714185610676],[24.54598610659743,51.89547310762278],[24.611421284257762,51.90737041265131],[24.66020023487675,51.9026114906401],[24.679235922923926,51.90856014315342],[24.686374305941417,51.949010980253696],[24.706599724490708,51.997789930872415],[24.699461341473306,52.029912654451394],[24.73634298706323,52.05013807300113],[24.76727598013956,52.04062022897781],[24.824383044279575,52.08582998808832],[24.8541263068521,52.082260796580194],[24.88149010841888,52.088209449094414],[24.954063669096705,52.0727429525559],[25.000463158710573,52.0727429525559],[25.002842619716404,52.05608672551535],[25.040913995810044,52.039430498475696],[25.02901669078098,52.01206669690873],[25.088503215926117,51.99541046986632],[25.114677286990784,51.99065154785599],[25.13847189704882,51.9966002003703],[25.193199500183095,51.9966002003703],[25.19438923068592,51.97518505131757],[25.2146146492353,51.96923639880245],[25.218183840744047,51.962098015785145],[25.195578961188836,51.95495963276792],[25.182491925656947,51.91212933466342],[25.184871386662778,51.876437419576135],[25.20509680521207,51.874057958570134],[25.21937357124696,51.883575802593455],[25.236029798288307,51.87286822806615],[25.24453698030945,51.874144305369526],[25.28361901840438,51.880006611084355],[25.32406985550385,51.885955263599456],[25.385935841655527,51.890714185610676],[25.454940210824606,51.891903916112796],[25.48468347339722,51.8990422991301],[25.506098622449336,51.91688825667463],[25.533462424016918,51.935923944721274],[25.557257034074954,51.95495963276792],[25.566774878098187,51.971615859808466],[25.557257034074954,51.97637478181968],[25.551308381560467,51.98827208684909],[25.58105164413299,52.02039481042807],[25.57629272212133,52.038240767972596],[25.553687842566298,52.05608672551535],[25.529893232508172,52.07750187456898],[25.534652154519833,52.083450527082306],[25.55606730357204,52.07869160507109],[25.570344069606843,52.12390136418249],[25.631020325255605,52.15483435725855],[25.58343110513882,52.17624950631031],[25.588190027151192,52.19290573335095],[25.557257034074954,52.20480303838028],[25.59413867966568,52.22145926542091],[25.6595738573261,52.19409546385306],[25.70359388593343,52.188146811339735],[25.715491190962492,52.197664655363056],[25.68574792838988,52.205992768882396],[25.66552250984059,52.222648995923024],[25.658384126823186,52.24168468397056],[25.67028143185216,52.25001279749176],[25.709542538448005,52.252392258495995],[25.734526879009668,52.29522255660227],[25.74166526202707,52.30474040062559],[25.76189068057645,52.347570698730095],[25.760700950073534,52.36303719526862],[25.736906340015498,52.37493450029616],[25.684558197887053,52.3915907273376],[25.579861913630076,52.388021535828585],[25.568096800879026,52.39648184162709],[25.535974077300672,52.436932678727274],[25.502661623219403,52.48690135984909],[25.477677282657652,52.49879866487753],[25.481246474166397,52.51664462242206],[25.47529782165182,52.54519815449203],[25.505041084225144,52.56423384253867],[25.522887041768783,52.57137222555589],[25.555009765347048,52.56661330354379],[25.612116829487153,52.596356566117734],[25.593081141440777,52.61896144567348],[25.609737368481323,52.62728955919282],[25.654947127592365,52.634427942210124],[25.681121198656232,52.6284792896968],[25.710864461229555,52.6260998286907],[25.756074220339798,52.63918686422223],[25.804853170959586,52.64870470824555],[25.863149965602606,52.68677608433795],[25.921446760245626,52.715329616408354],[25.92025702974191,52.730796112946344],[25.907169994209934,52.823595092174436],[25.90835972471285,52.85333835474741],[25.891703497672214,52.902117305367014],[25.867908887614178,52.912824879892455],[25.75012556782531,52.984208710066916],[25.697777425696867,53.02109035565719],[25.772730447380432,53.09961256885075],[25.728710418773105,53.13768394494306],[25.72990014927602,53.15315044148158],[25.7072952697201,53.17218612952822],[25.722761766258618,53.192411548076976],[25.756074220339798,53.204308853107285],[25.778679099895008,53.22453427165604],[25.80128397945093,53.23881103769058],[25.822699128503135,53.284020796802864],[25.78819694391895,53.300677023843505],[25.728710418773105,53.31852298138617],[25.69182877318238,53.33279974742257],[25.645429283569133,53.3363689389298],[25.609737368481323,53.35778408798254],[25.596650332949434,53.38752735055551],[25.608547637978496,53.41727061312936],[25.6228244040133,53.46604956374907],[25.590701680434947,53.49222363481293],[25.555009765347048,53.53029501090533],[25.572855722891397,53.55289989046018],[25.588322219429116,53.582643153033146],[25.55382003484422,53.59573018856557],[25.520566739544204,53.60261140157129],[25.380178540200173,53.608560054086425],[25.36590177416537,53.5919038270458],[25.30998444052818,53.56691948648404],[25.217185461300264,53.572868138999155],[25.195770312248058,53.56097083396894],[25.16721678017845,53.56097083396894],[25.145801631125355,53.5478837984374],[25.127955673581894,53.5478837984374],[25.138663248108042,53.537176223911075],[25.13628378710221,53.500294578321686],[25.154129744646472,53.48006915977115],[25.143422170119614,53.452705358204184],[25.09345348899771,53.45032589719809],[25.08036645346582,53.45389508870808],[25.03991561636635,53.464602663234494],[25.049433460389494,53.406305868591474],[25.044674538377922,53.389649641549155],[25.02444911982863,53.39321883305914],[25.005413431781367,53.390839372053044],[24.987567474237906,53.39559829406515],[24.98399828272916,53.40154694657848],[24.967342055688526,53.40987506009969],[24.964962594682696,53.40273667708246],[24.926891218589144,53.40987506009969],[24.86740469344321,53.42891074814633],[24.824574395338708,53.43247993965543],[24.801969515783675,53.43604913116364],[24.78589326280839,53.436049131163614],[24.78055436673058,53.43604913116364],[24.749621373655142,53.44556697518696],[24.75794948717546,53.46103347172539],[24.741293260134825,53.469361585244734],[24.728206224602935,53.482448620777156],[24.7044116145441,53.49434592580657],[24.65801212493094,53.52289945787565],[24.627079131854703,53.54907352894129],[24.591387216767693,53.56572975598193],[24.533090422124673,53.59666274905701],[24.509295812065837,53.631164933641195],[24.486690932510715,53.631164933641195],[24.495019046031032,53.62045735911576],[24.456947669938103,53.618077898109746],[24.392702222780684,53.608560054086425],[24.370097343224764,53.61450870660154],[24.38675357026611,53.64068277766549],[24.383184378757452,53.66090819621425],[24.385563839763282,53.67399523174667],[24.385563839763282,53.693030919793316],[24.437911981890927,53.698979572308424],[24.456947669938103,53.725153643372295],[24.44505036490833,53.734671487395616],[24.405789258312574,53.75013798393413],[24.390322761774854,53.78464016851743],[24.3938919532836,53.81557316159429],[24.40459952780966,53.83222938863403],[24.415307102335806,53.84055750215426],[24.428394137867695,53.83698831064525],[24.443860634405414,53.82509100561761],[24.468844974967165,53.83222938863403],[24.473603896978737,53.851265076681564],[24.495019046031032,53.860782920704885],[24.51405473407741,53.851265076681564],[24.542608266147816,53.846506154668575],[24.5699720677146,53.845316424166455],[24.59495640827635,53.84174723265824],[24.6199407488373,53.84412669366425],[24.618751018334386,53.856023998691896],[24.59971533028792,53.86554184271522],[24.62826886235753,53.913131062832704],[24.624699670848873,53.93573594238845],[24.63302778436919,53.94049486439967],[24.646114819901168,53.92978728987325],[24.66039158593677,53.927407828867246],[24.65801212493094,53.93692567289057],[24.641355897889508,53.95477163043509],[24.680617004486063,53.952392169429],[24.681806734988978,53.97380731848173],[24.69132457901221,53.98094570149896],[24.70679107554993,53.97380731848173],[24.717498650076077,53.97618677948685],[24.70679107554993,54.009499233568036],[24.69132457901221,54.02020680809525],[24.62826886235753,54.02853492161468],[24.61280236581981,54.04400141815311],[24.60209479129375,54.03210411312467],[24.590197486264778,54.021396538597365],[24.53903907463916,54.02853492161468],[24.522382847598525,54.03686303513588],[24.496208776533948,54.02377599960347],[24.499777968042604,54.01425815558015],[24.48312174100197,53.98570462351019],[24.477173088487483,53.97380731848175],[24.412927641329976,53.960720282948344],[24.401030336301,53.966668935463545],[24.38080491775171,53.961910013452325],[24.390322761774854,53.95358189993112],[24.336784889143495,53.936925672890574],[24.290385399529537,53.94525378641178],[24.26183186745984,53.957151091440224],[24.214242647343056,53.9964121980374],[24.19044803728502,54.01068896407193],[24.171412349238555,54.019017077591364],[24.13453070364783,54.01187869457405],[24.090510675039702,54.00117112004861],[24.01674738385905,53.99403273703139],[23.983434929777694,53.98570462351019],[23.95369166720437,53.97856624049287],[23.934567850972712,53.98864222969045],[23.901255396891443,53.976744924661915],[23.896496474879783,53.95532977560927],[23.883409439347094,53.94343247057896],[23.87151213431812,53.94105300957473],[23.857235368283316,53.94938112309407],[23.842958602248533,53.952950314602276],[23.81202560917221,53.937483818064706],[23.782282346599686,53.922017321528045],[23.773954233079458,53.8994124419723],[23.7406417789973,53.89227405895508],[23.74302124000313,53.87680756241665],[23.7834720771026,53.86015133537602],[23.792989921125834,53.844684838838475],[23.81440507017804,53.841115647329374],[23.810835878669295,53.829218342300045],[23.835820219231046,53.80185454073309],[23.807266687160638,53.770921547657025],[23.79655911263449,53.751885859609494],[23.772764502576543,53.72809124955252],[23.76562611955905,53.71381448351621],[23.770385041570712,53.67693283792593],[23.759677467044565,53.66146634138839],[23.733503395979987,53.63767173133053],[23.715657438436438,53.62577442630209],[23.676396331839882,53.629343617809326],[23.663309296307993,53.66146634138839],[23.614530345688205,53.67693283792593],[23.569320586577962,53.67574310742381],[23.50150594791171,53.67931229893291],[23.471762685338387,53.69596852597355],[23.440829692262948,53.70429663949289],[23.400378855163478,53.69715825647566],[23.37182532309387,53.73047071055862],[23.352789635047493,53.73998855458194],[23.34327179102426,53.72809124955252],[23.2825955353755,53.70667610049898],[23.258800925316663,53.71500421402019],[23.236196045761453,53.709055561505],[23.201693861177358,53.71381448351621],[23.11484353446393,53.68050202943503],[23.07439269736526,53.66384580239448],[23.05892620082754,53.66384580239448],[23.055357009318794,53.63291280931931],[23.00776778920201,53.621015504289986],[22.95660937757639,53.611497660266664],[22.922107192992296,53.59603116372814],[22.931360652458793,53.57593793745677],[22.90637631189793,53.56285090192435],[22.854028169769485,53.5366768308604],[22.833802751220105,53.524779525831065],[22.823095176694046,53.52834871734106],[22.79930056663521,53.52121033432374],[22.79454164462355,53.51288222080254],[22.75647026853071,53.50098491577321],[22.666050750309335,53.484328688732575],[22.648204792765075,53.48789788024079],[22.61132314717515,53.48075949722356],[22.601805303151917,53.46648273118805],[22.56254419655536,53.44744704314238],[22.548267430520557,53.44030866012418],[22.531611203479923,53.43911892962117],[22.533990664485664,53.41770378056844],[22.526852281468262,53.40818593654512],[22.51495497643849,53.403427014533904],[22.50662686291817,53.39390917051058],[22.500678210403684,53.38558105699124],[22.48878090537471,53.37725294347003],[22.489970635877537,53.34275075888496],[22.482832252860135,53.33085345385741],[22.469745217328246,53.33085345385741],[22.462606834310844,53.31062803530767],[22.476883600345648,53.29516153876924],[22.451899259783897,53.25827989317807],[22.4471403377723,53.246382588149544],[22.435243032743237,53.24162366613744],[22.42691491922292,53.2190187865817],[22.448330068275215,53.21188040356448],[22.459037642802073,53.2213982475878],[22.48045279185428,53.20950094255838],[22.52328308995878,53.2225879780908],[22.55183662202919,53.21188040356448],[22.585149076110458,53.21188040356448],[22.611323147175124,53.19998309853506],[22.631548565724415,53.20474202054716],[22.656532906285367,53.21188040356443],[22.679137785841288,53.21544959507353],[22.695794012881922,53.20593175105021],[22.72672700595736,53.21188040356443],[22.769557304062573,53.20712148155419],[22.817146524179446,53.20712148155419],[22.87425358831875,53.20950094255842],[22.896858467874672,53.20593175105021],[22.914704425418133,53.20712148155419],[22.932550382961683,53.184516601998446],[22.944447687990746,53.169050105460016],[22.959914184529264,53.163101452944815],[22.959914184529264,53.150014417413374],[22.93849903547626,53.14763495640727],[22.930170921955852,53.13930684288785],[22.917083886423963,53.14406576489817],[22.863546013792604,53.13692738188095],[22.8492692477578,53.14168630389217],[22.832613020717165,53.14049657339005],[22.832613020717165,53.13335819037274],[22.807628680156213,53.12740953785763],[22.79573137512644,53.102425197297656],[22.812387602167874,53.075061395729804],[22.839751403734567,53.0714922042216],[22.88496116284561,53.079820317741024],[22.901617389886244,53.07268193472371],[22.931360652458768,53.0679230127125],[22.92303253893854,53.05840516868918],[22.933740113464598,53.04293867215074],[22.903996850892074,53.03817975013864],[22.873063857815836,53.0239029841041],[22.899237928880503,53.004867296057455],[22.926601730447196,52.97155484197628],[22.93611957447043,52.94657050141453],[22.903996850892074,52.93586292688811],[22.883771432342783,52.92515535236268],[22.88734062385144,52.90849912532213],[22.881391971336953,52.90136074230482],[22.888530354354355,52.88589424576639],[22.87425358831875,52.87756613224518],[22.855217900272287,52.87756613224518],[22.868304935804264,52.89422235928582],[22.8564076307752,52.89422235928582],[22.83380275122008,52.878755862748186],[22.800490297138012,52.87161747973096],[22.78026487858872,52.860909905204636],[22.77550595657706,52.82640772062134],[22.727916736460276,52.80380284106471],[22.70174266539641,52.797854188551376],[22.692224821373177,52.771680117485644],[22.66605075030931,52.75502389044501],[22.636307487735987,52.7538341599429],[22.60537449466055,52.74312658541657],[22.593477189630775,52.72766008887903],[22.575631232087225,52.72884981938114],[22.568492849069823,52.72171143636392],[22.54112904750313,52.713383322842716],[22.52328308995878,52.7121935923406],[22.510196054426803,52.70029628731207],[22.491160366380427,52.68126059926543],[22.470934947831136,52.66460437222488],[22.468555486825306,52.64794814518247],[22.454278720790413,52.641999492669086],[22.42929438022875,52.625343265628544],[22.408544345577475,52.61237449397099],[22.416108863363416,52.596702074004476],[22.44347266493091,52.58837396048327],[22.455369969959882,52.566958811431505],[22.46845700549177,52.5610101589164],[22.480354310520834,52.54435393187666],[22.50176945957384,52.53721554885943],[22.513666764602903,52.51104147779547],[22.508907842591242,52.493195520250055],[22.51961541711739,52.46702144918619],[22.54222029667251,52.45988306616888],[22.530322991643537,52.43965764762012],[22.543410027175426,52.41229384605227],[22.574343020251664,52.39682734951562],[22.586240325280727,52.405155463035044],[22.596947899806786,52.40039654102383],[22.605276013327103,52.39563761901172],[22.670711190987525,52.38493004448629],[22.679039304507754,52.39563761901172],[22.7254387941218,52.377791661468976],[22.748043673676833,52.38374031398328],[22.77659720574733,52.36946354794786],[22.836083730892465,52.362325164930546],[22.851550227430984,52.36946354794786],[22.86820645447153,52.36470462593664],[22.90627783056446,52.37898139197118],[22.955056781184158,52.36589435643876],[22.96457462520739,52.350427859900236],[22.98480004375748,52.331392171853594],[23.027728416537474,52.33178106551168],[23.04438464357811,52.32107349098624],[23.050333296092596,52.28419184539507],[23.08007655866592,52.28062265388597],[23.07531763665426,52.29489941992237],[23.09554305520364,52.28895076740717],[23.12052739576459,52.28895076740717],[23.13599389230311,52.28062265388597],[23.175254998898865,52.283002114892064],[23.190721495436584,52.26872534885841],[23.19429068694533,52.23541289477546],[23.26567451712095,52.21042855421548],[23.296607510196388,52.21518747622572],[23.296607510196388,52.2092388237115],[23.334678886289318,52.20329017119817],[23.34657619131909,52.21042855421548],[23.371560531879954,52.20091071019216],[23.398924333446736,52.19258259667096],[23.41558056048817,52.17830583063642],[23.452462206078096,52.18782367465974],[23.47982600764559,52.169977717115216],[23.48458492965725,52.152131759572555],[23.511948731223942,52.140234454542245],[23.526225497258835,52.13309607152591],[23.55834822083799,52.11881930548951],[23.608316901958162,52.1093014614665],[23.619024476486743,52.095024695432585],[23.628542320510007,52.072419815876856],[23.645198547550592,52.072419815876856],[23.646388278053223,52.05338412783021],[23.659475313585176,52.052194397327185],[23.670182888111867,52.03791763129266],[23.659475313585176,52.028399787270246],[23.66780342710581,52.01650248224087],[23.679700732134393,52.01174356022875],[23.688028845655822,51.99508733318635],[23.670182888111867,51.98081056715182],[23.658285583082545,51.95582622659185],[23.64281908654459,51.95939541810003],[23.63211151201864,51.953446765586705],[23.64162935604196,51.94035973005339],[23.63211151201864,51.92608296401886],[23.604747710451363,51.9272726945228],[23.604747710451363,51.91418565898948],[23.62973205101264,51.89633970144496],[23.624973129001376,51.87373482189105],[23.604747710451363,51.8725450913862],[23.609506632462626,51.84994021183229],[23.602368249445362,51.84280182881321],[23.607127171456625,51.82971479328171],[23.626162859504007,51.82733533227747],[23.63211151201864,51.814248296744154],[23.621403937492744,51.780935842662984],[23.613075823971258,51.76546934612543],[23.55715849033487,51.76308988511937],[23.532174149773596,51.746433658079695],[23.535743341282227,51.726208239530024],[23.550020107317607,51.72382877852306],[23.55120983782018,51.70003416846339],[23.55358929882624,51.672670366898274],[23.542881724299548,51.66315252287404],[23.53812280228749,51.64768602633558],[23.544071454802385,51.62389141627769],[23.551209837820497,51.5905789621966],[23.575004447878623,51.57154327414996],[23.595229866427914,51.547748664090236],[23.620214206989576,51.51800540151904],[23.627352590007067,51.49540052196241],[23.655906122076676,51.49302106095729]]]]}},{"type":"Feature","properties":{"kind":"district","id":"uyezd-1897-182","name":"Белостокский","provinceId":"gubernia-1897-21"},"geometry":{"type":"MultiPolygon","coordinates":[[[[22.631548565724415,53.20474202054716],[22.656532906285367,53.21188040356443],[22.679137785841288,53.21544959507353],[22.695794012881922,53.20593175105021],[22.72672700595736,53.21188040356443],[22.769557304062573,53.20712148155419],[22.817146524179446,53.20712148155419],[22.87425358831875,53.20950094255842],[22.896858467874672,53.20593175105021],[22.914704425418133,53.20712148155419],[22.932550382961683,53.184516601998446],[22.944447687990746,53.169050105460016],[22.959914184529264,53.163101452944815],[22.959914184529264,53.150014417413374],[22.93849903547626,53.14763495640727],[22.930170921955852,53.13930684288785],[22.917083886423963,53.14406576489817],[22.863546013792604,53.13692738188095],[22.8492692477578,53.14168630389217],[22.832613020717165,53.14049657339005],[22.832613020717165,53.13335819037274],[22.807628680156213,53.12740953785763],[22.79573137512644,53.102425197297656],[22.812387602167874,53.075061395729804],[22.839751403734567,53.0714922042216],[22.88496116284561,53.079820317741024],[22.901617389886244,53.07268193472371],[22.931360652458768,53.0679230127125],[22.92303253893854,53.05840516868918],[22.933740113464598,53.04293867215074],[22.903996850892074,53.03817975013864],[22.873063857815836,53.0239029841041],[22.899237928880503,53.004867296057455],[22.926601730447196,52.97155484197628],[22.93611957447043,52.94657050141453],[22.903996850892074,52.93586292688811],[22.920329534595652,52.92379683897525],[22.939365222642028,52.92379683897525],[22.956021449682662,52.91665845595802],[22.970298215717467,52.9071406119347],[23.005990130805365,52.901191959419506],[23.05357935092215,52.90238168992251],[23.090460996512164,52.91546872545404],[23.13210156411446,52.90833034243681],[23.159465365681243,52.91308926444803],[23.182070245236364,52.91070980344283],[23.210623777306772,52.95235037104521],[23.285576798990427,52.94521198802701],[23.28200760748168,52.964247676073654],[23.302233026030972,52.96662713707975],[23.341494132627528,52.963057945571535],[23.365288742685564,52.967816867583636],[23.405739579785035,52.97614498110307],[23.439052033866304,52.972575789594856],[23.494969367503494,52.9832833641203],[23.542558587620277,52.9832833641203],[23.59014780773644,52.967816867583636],[23.619891070309762,52.965437406577635],[23.617511609303932,52.935694144004664],[23.64368568036771,52.935694144004664],[23.69484409199333,52.93926333551367],[23.701700594417996,52.950690839553516],[23.70198247501073,52.95116064054132],[23.692464630987498,52.9975601301567],[23.69722355299907,53.034441775746004],[23.71744897154845,53.03920069775722],[23.710310588531048,53.07132342133628],[23.696033822496243,53.09868722290413],[23.690085169981757,53.1236715634641],[23.67108872930447,53.12638534070392],[23.656772715899688,53.12843048547621],[23.609183495783615,53.13437913799132],[23.544938048626108,53.15698401754706],[23.503297481023722,53.18910674112435],[23.459277452415595,53.195055393640345],[23.416447154311182,53.20219377665766],[23.412877962802437,53.18434781911313],[23.39146281374943,53.187917010622144],[23.379565508720457,53.199814315651565],[23.358150359668162,53.19862458514767],[23.316509792065865,53.23074730872665],[23.29985356502523,53.23074730872665],[23.29271518200774,53.22241919520731],[23.27486922446428,53.21766027319431],[23.229659465353237,53.206952698668786],[23.224900543341576,53.196245124143346],[23.195157280769052,53.196245124143346],[23.191588089260307,53.16650186157038],[23.174931862218962,53.16055320905527],[23.153516713166667,53.16888132257648],[23.151137252160925,53.19862458514767],[23.171362670710305,53.20100404615368],[23.157085904675412,53.21766027319431],[23.140429677634778,53.22598838671543],[23.13210156411446,53.25335218828327],[23.199916202780713,53.27119814582603],[23.204675124792285,53.27952625934634],[23.18088051473345,53.28547491186056],[23.159465365681243,53.31640790493751],[23.173742131716047,53.31878736594352],[23.155896174172497,53.342581976001384],[23.120204259085487,53.334253862480175],[23.054769081425064,53.34496143700748],[23.050010159413493,53.36994577756745],[23.052389620419234,53.425863111206155],[23.05119988991632,53.45203718227002],[23.057148542430895,53.499626402385736],[23.061907464442466,53.515092898924166],[23.048820428910577,53.53650804797691],[23.05595881192798,53.54840535300535],[23.041682045892376,53.58290753759051],[23.01788743583434,53.59242538161383],[22.991713364770472,53.595994573121956],[22.978626329238583,53.59123565110985],[22.931360652458793,53.57593793745677],[22.90637631189793,53.56285090192435],[22.854028169769485,53.5366768308604],[22.833802751220105,53.524779525831065],[22.823095176694046,53.52834871734106],[22.79930056663521,53.52121033432374],[22.79454164462355,53.51288222080254],[22.75647026853071,53.50098491577321],[22.666050750309335,53.484328688732575],[22.648204792765075,53.48789788024079],[22.61132314717515,53.48075949722356],[22.601805303151917,53.46648273118805],[22.56254419655536,53.44744704314238],[22.548267430520557,53.44030866012418],[22.531611203479923,53.43911892962117],[22.533990664485664,53.41770378056844],[22.526852281468262,53.40818593654512],[22.51495497643849,53.403427014533904],[22.50662686291817,53.39390917051058],[22.500678210403684,53.38558105699124],[22.48878090537471,53.37725294347003],[22.489970635877537,53.34275075888496],[22.482832252860135,53.33085345385741],[22.469745217328246,53.33085345385741],[22.462606834310844,53.31062803530767],[22.476883600345648,53.29516153876924],[22.451899259783897,53.25827989317807],[22.4471403377723,53.246382588149544],[22.435243032743237,53.24162366613744],[22.42691491922292,53.2190187865817],[22.448330068275215,53.21188040356448],[22.459037642802073,53.2213982475878],[22.48045279185428,53.20950094255838],[22.52328308995878,53.2225879780908],[22.55183662202919,53.21188040356448],[22.585149076110458,53.21188040356448],[22.611323147175124,53.19998309853506],[22.631548565724415,53.20474202054716]]]]}},{"type":"Feature","properties":{"kind":"district","id":"uyezd-1897-185","name":"Бельский","provinceId":"gubernia-1897-21"},"geometry":{"type":"MultiPolygon","coordinates":[[[[22.408544345577475,52.61237449397099],[22.416108863363416,52.596702074004476],[22.44347266493091,52.58837396048327],[22.455369969959882,52.566958811431505],[22.46845700549177,52.5610101589164],[22.480354310520834,52.54435393187666],[22.50176945957384,52.53721554885943],[22.513666764602903,52.51104147779547],[22.508907842591242,52.493195520250055],[22.51961541711739,52.46702144918619],[22.54222029667251,52.45988306616888],[22.530322991643537,52.43965764762012],[22.543410027175426,52.41229384605227],[22.574343020251664,52.39682734951562],[22.586240325280727,52.405155463035044],[22.596947899806786,52.40039654102383],[22.605276013327103,52.39563761901172],[22.670711190987525,52.38493004448629],[22.679039304507754,52.39563761901172],[22.7254387941218,52.377791661468976],[22.748043673676833,52.38374031398328],[22.77659720574733,52.36946354794786],[22.836083730892465,52.362325164930546],[22.851550227430984,52.36946354794786],[22.86820645447153,52.36470462593664],[22.90627783056446,52.37898139197118],[22.955056781184158,52.36589435643876],[22.96457462520739,52.350427859900236],[22.98480004375748,52.331392171853594],[23.027728416537474,52.33178106551168],[23.04438464357811,52.32107349098624],[23.050333296092596,52.28419184539507],[23.08007655866592,52.28062265388597],[23.07531763665426,52.29489941992237],[23.09554305520364,52.28895076740717],[23.12052739576459,52.28895076740717],[23.13599389230311,52.28062265388597],[23.175254998898865,52.283002114892064],[23.17078983750517,52.298923940388676],[23.180307681528312,52.32390828095052],[23.145805496944128,52.33699531648196],[23.126769808897752,52.3512720825165],[23.12439034789192,52.370307770563144],[23.120821156383176,52.39172291961499],[23.089888163307027,52.39053318911279],[23.07680112777505,52.40005103313611],[23.09226762431277,52.455968366773035],[23.10416492934183,52.455968366773035],[23.105354659844746,52.47619378532366],[23.085129241295455,52.482142437836984],[23.06371409224316,52.49047055135819],[23.067283283751905,52.55114680700713],[23.062524361740245,52.56661330354379],[23.069662744757736,52.578510608573204],[23.069662744757736,52.593977105111634],[23.060144900734414,52.60111548812895],[23.06133463123733,52.61539225416348],[23.111303312360032,52.596356566117734],[23.133908191915154,52.58445926108831],[23.138667113926815,52.55233653750925],[23.185066603539973,52.55233653750925],[23.21124067460455,52.572561956058095],[23.20886121359881,52.53687004097082],[23.239794206674247,52.533300849462606],[23.270727199750397,52.52497273594149],[23.308798575843326,52.4952294733703],[23.349249412942797,52.522593274936284],[23.38970025004138,52.5380597714748],[23.407546207585728,52.55471599851535],[23.406356477082813,52.57613114756711],[23.42777162613502,52.59278737460774],[23.433720278649595,52.607064140644056],[23.46822246323449,52.61896144567348],[23.496775995304098,52.6213409066777],[23.512242491841818,52.62728955919282],[23.518191144356393,52.63918686422223],[23.520570605362224,52.665360935286984],[23.52176033586505,52.69748365886517],[23.56459063397035,52.724847460431235],[23.572918747490668,52.79266209909838],[23.59552362704579,52.83906158871109],[23.63597446414526,52.85095889374131],[23.650251230180064,52.87594323430315],[23.67166637923227,52.88546107832647],[23.660958804706212,52.914014610396436],[23.64368568036771,52.935694144004664],[23.617511609303932,52.935694144004664],[23.619891070309762,52.965437406577635],[23.59014780773644,52.967816867583636],[23.542558587620277,52.9832833641203],[23.494969367503494,52.9832833641203],[23.439052033866304,52.972575789594856],[23.405739579785035,52.97614498110307],[23.365288742685564,52.967816867583636],[23.341494132627528,52.963057945571535],[23.302233026030972,52.96662713707975],[23.28200760748168,52.964247676073654],[23.285576798990427,52.94521198802701],[23.210623777306772,52.95235037104521],[23.182070245236364,52.91070980344283],[23.159465365681243,52.91308926444803],[23.13210156411446,52.90833034243681],[23.090460996512164,52.91546872545404],[23.05357935092215,52.90238168992251],[23.005990130805365,52.901191959419506],[22.970298215717467,52.9071406119347],[22.956021449682662,52.91665845595802],[22.939365222642028,52.92379683897525],[22.920329534595652,52.92379683897525],[22.903996850892074,52.93586292688811],[22.883771432342783,52.92515535236268],[22.88734062385144,52.90849912532213],[22.881391971336953,52.90136074230482],[22.888530354354355,52.88589424576639],[22.87425358831875,52.87756613224518],[22.855217900272287,52.87756613224518],[22.868304935804264,52.89422235928582],[22.8564076307752,52.89422235928582],[22.83380275122008,52.878755862748186],[22.800490297138012,52.87161747973096],[22.78026487858872,52.860909905204636],[22.77550595657706,52.82640772062134],[22.727916736460276,52.80380284106471],[22.70174266539641,52.797854188551376],[22.692224821373177,52.771680117485644],[22.66605075030931,52.75502389044501],[22.636307487735987,52.7538341599429],[22.60537449466055,52.74312658541657],[22.593477189630775,52.72766008887903],[22.575631232087225,52.72884981938114],[22.568492849069823,52.72171143636392],[22.54112904750313,52.713383322842716],[22.52328308995878,52.7121935923406],[22.510196054426803,52.70029628731207],[22.491160366380427,52.68126059926543],[22.470934947831136,52.66460437222488],[22.468555486825306,52.64794814518247],[22.454278720790413,52.641999492669136],[22.42929438022875,52.625343265628544],[22.408544345577475,52.61237449397099]]]]}},{"type":"Feature","properties":{"kind":"district","id":"uyezd-1897-186","name":"Соколский","provinceId":"gubernia-1897-21"},"geometry":{"type":"MultiPolygon","coordinates":[[[[22.931360652458793,53.57593793745677],[22.978626329238583,53.59123565110985],[22.991713364770472,53.595994573121956],[23.01788743583434,53.59242538161383],[23.041682045892376,53.58290753759051],[23.05595881192798,53.54840535300535],[23.048820428910577,53.53650804797691],[23.061907464442466,53.515092898924166],[23.057148542430895,53.499626402385736],[23.05119988991632,53.45203718227002],[23.052389620419234,53.425863111206155],[23.050010159413493,53.36994577756745],[23.054769081425064,53.34496143700748],[23.120204259085487,53.334253862480175],[23.155896174172497,53.342581976001384],[23.173742131716047,53.31878736594352],[23.159465365681243,53.31640790493751],[23.18088051473345,53.28547491186056],[23.204675124792285,53.27952625934634],[23.199916202780713,53.27119814582603],[23.13210156411446,53.25335218828327],[23.140429677634778,53.22598838671543],[23.157085904675412,53.21766027319431],[23.171362670710305,53.20100404615368],[23.151137252160925,53.19862458514767],[23.153516713166667,53.16888132257648],[23.174931862218962,53.16055320905527],[23.191588089260307,53.16650186157038],[23.195157280769052,53.196245124143346],[23.224900543341576,53.196245124143346],[23.229659465353237,53.206952698668786],[23.27486922446428,53.21766027319431],[23.29271518200774,53.22241919520731],[23.29985356502523,53.23074730872665],[23.316509792065865,53.23074730872665],[23.358150359668162,53.19862458514767],[23.379565508720457,53.199814315651565],[23.39146281374943,53.187917010622144],[23.412877962802437,53.18434781911313],[23.416447154311182,53.20219377665766],[23.459277452415595,53.195055393640345],[23.503297481023722,53.18910674112435],[23.544938048626108,53.15698401754706],[23.609183495783615,53.13437913799132],[23.656772715899688,53.12843048547621],[23.67108872930447,53.12638534070392],[23.67166637923227,53.136494214440944],[23.724014521360715,53.13768394494306],[23.741860478904265,53.217395888638734],[23.706168563817254,53.24356995970268],[23.703789102811424,53.26379537825233],[23.726393982366545,53.28164133579686],[23.72520425186363,53.293538640825304],[23.735911826389778,53.30662567635683],[23.753757783934038,53.298297562837405],[23.773983202483418,53.32685109490737],[23.787070238015307,53.32685109490737],[23.779931854997905,53.34588678295312],[23.764465358460185,53.35421489647433],[23.76803454996893,53.39109654206372],[23.793018890529794,53.40061438608704],[23.784690777009565,53.444634414695436],[23.804916195558857,53.4803263297836],[23.782311316003735,53.48508525179571],[23.78588050751248,53.50174147883625],[23.81205457857626,53.532674471911335],[23.833469727629264,53.53386420241354],[23.8501259546699,53.54814096844986],[23.815623770085004,53.5671766564965],[23.815623770085004,53.58740207504614],[23.762085897454355,53.59573018856557],[23.75018859242538,53.62309399013342],[23.733503395979987,53.63767173133053],[23.715657438436438,53.62577442630209],[23.676396331839882,53.629343617809326],[23.663309296307993,53.66146634138839],[23.614530345688205,53.67693283792593],[23.569320586577962,53.67574310742381],[23.50150594791171,53.67931229893291],[23.471762685338387,53.69596852597355],[23.440829692262948,53.70429663949289],[23.400378855163478,53.69715825647566],[23.37182532309387,53.73047071055862],[23.352789635047493,53.73998855458194],[23.34327179102426,53.72809124955252],[23.2825955353755,53.70667610049898],[23.258800925316663,53.71500421402019],[23.236196045761453,53.709055561505],[23.201693861177358,53.71381448351621],[23.11484353446393,53.68050202943503],[23.07439269736526,53.66384580239448],[23.05892620082754,53.66384580239448],[23.055357009318794,53.63291280931931],[23.00776778920201,53.621015504289986],[22.95660937757639,53.611497660266664],[22.922107192992296,53.59603116372814],[22.931360652458793,53.57593793745677]]]]}},{"type":"Feature","properties":{"kind":"district","id":"uyezd-1897-187","name":"Гродненский","provinceId":"gubernia-1897-21"},"geometry":{"type":"MultiPolygon","coordinates":[[[[23.690085169981757,53.1236715634641],[23.716876138343313,53.12578663991462],[23.719255599349143,53.11745852639341],[23.735911826389778,53.11864825689642],[23.76089616695153,53.1222174484064],[23.858454068190216,53.08771526382134],[23.838228649640925,53.08176661130622],[23.81205457857626,53.078197419798016],[23.804916195558857,53.04964388772716],[23.820382692097375,53.03774658269961],[23.898904905289687,53.03298766068653],[23.927458437359295,53.05559254024227],[23.939355742388358,53.07700768929412],[23.94411466439993,53.09961256885075],[23.989324423510972,53.150770980475485],[24.003601189545776,53.16623747701303],[24.066656906200457,53.15790936349369],[24.088072055252574,53.17575532103635],[24.11424612631724,53.19003208707275],[24.12733316184913,53.220965080147835],[24.139230466878193,53.25903645624112],[24.161835346433314,53.267364569760545],[24.192768339509552,53.299487293339524],[24.22370133258499,53.291159179820184],[24.25939324767289,53.31971271188925],[24.276049474713524,53.32804082541046],[24.302223545777302,53.33993813043979],[24.32006950332165,53.36135327949155],[24.27010082219895,53.39823492508272],[24.331966808350714,53.40180411659094],[24.415247943554597,53.41489115212336],[24.448560397636577,53.420839804636685],[24.464026894174296,53.41251169111726],[24.492580426243993,53.41608088262547],[24.519944227811486,53.40537330810004],[24.579430752956533,53.40656303860215],[24.63058916458215,53.3887170810594],[24.688885959225082,53.39704519457883],[24.745993023365187,53.40775276910604],[24.77573628593771,53.4232192656427],[24.78589326280839,53.436049131163614],[24.78055436673058,53.43604913116364],[24.749621373655142,53.44556697518696],[24.75794948717546,53.46103347172539],[24.741293260134825,53.469361585244734],[24.728206224602935,53.482448620777156],[24.7044116145441,53.49434592580657],[24.65801212493094,53.52289945787565],[24.627079131854703,53.54907352894129],[24.591387216767693,53.56572975598193],[24.533090422124673,53.59666274905701],[24.509295812065837,53.631164933641195],[24.486690932510715,53.631164933641195],[24.495019046031032,53.62045735911576],[24.456947669938103,53.618077898109746],[24.392702222780684,53.608560054086425],[24.370097343224764,53.61450870660154],[24.38675357026611,53.64068277766549],[24.383184378757452,53.66090819621425],[24.385563839763282,53.67399523174667],[24.385563839763282,53.693030919793316],[24.437911981890927,53.698979572308424],[24.456947669938103,53.725153643372295],[24.44505036490833,53.734671487395616],[24.405789258312574,53.75013798393413],[24.390322761774854,53.78464016851743],[24.3938919532836,53.81557316159429],[24.40459952780966,53.83222938863403],[24.415307102335806,53.84055750215426],[24.428394137867695,53.83698831064525],[24.443860634405414,53.82509100561761],[24.468844974967165,53.83222938863403],[24.473603896978737,53.851265076681564],[24.495019046031032,53.860782920704885],[24.51405473407741,53.851265076681564],[24.542608266147816,53.846506154668575],[24.5699720677146,53.845316424166455],[24.59495640827635,53.84174723265824],[24.6199407488373,53.84412669366425],[24.618751018334386,53.856023998691896],[24.59971533028792,53.86554184271522],[24.62826886235753,53.913131062832704],[24.624699670848873,53.93573594238845],[24.63302778436919,53.94049486439967],[24.646114819901168,53.92978728987325],[24.66039158593677,53.927407828867246],[24.65801212493094,53.93692567289057],[24.641355897889508,53.95477163043509],[24.680617004486063,53.952392169429],[24.681806734988978,53.97380731848173],[24.69132457901221,53.98094570149896],[24.70679107554993,53.97380731848173],[24.717498650076077,53.97618677948685],[24.70679107554993,54.009499233568036],[24.69132457901221,54.02020680809525],[24.62826886235753,54.02853492161468],[24.61280236581981,54.04400141815311],[24.60209479129375,54.03210411312467],[24.590197486264778,54.021396538597365],[24.53903907463916,54.02853492161468],[24.522382847598525,54.036863035135895],[24.496208776533948,54.02377599960347],[24.499777968042604,54.01425815558015],[24.48312174100197,53.98570462351019],[24.477173088487483,53.97380731848175],[24.412927641329976,53.960720282948344],[24.401030336301,53.966668935463545],[24.38080491775171,53.961910013452325],[24.390322761774854,53.95358189993112],[24.336784889143495,53.936925672890574],[24.290385399529537,53.94525378641178],[24.26183186745984,53.957151091440224],[24.214242647343056,53.9964121980374],[24.19044803728502,54.01068896407193],[24.171412349238555,54.019017077591364],[24.13453070364783,54.01187869457405],[24.090510675039702,54.00117112004861],[24.01674738385905,53.99403273703139],[23.983434929777694,53.98570462351019],[23.95369166720437,53.97856624049287],[23.934567850972712,53.98864222969045],[23.901255396891443,53.976744924661915],[23.896496474879783,53.95532977560927],[23.883409439347094,53.94343247057896],[23.87151213431812,53.94105300957473],[23.857235368283316,53.94938112309407],[23.842958602248537,53.95295031460225],[23.81202560917221,53.937483818064706],[23.782282346599686,53.922017321528045],[23.773954233079458,53.8994124419723],[23.7406417789973,53.89227405895508],[23.74302124000313,53.87680756241665],[23.7834720771026,53.86015133537602],[23.792989921125834,53.844684838838475],[23.81440507017804,53.841115647329374],[23.810835878669295,53.829218342300045],[23.835820219231046,53.80185454073309],[23.807266687160638,53.770921547657025],[23.79655911263449,53.751885859609494],[23.772764502576543,53.72809124955252],[23.76562611955905,53.71381448351621],[23.770385041570712,53.67693283792593],[23.759677467044565,53.66146634138839],[23.733503395979987,53.63767173133053],[23.75018859242538,53.62309399013342],[23.762085897454355,53.59573018856557],[23.815623770085004,53.58740207504614],[23.815623770085004,53.5671766564965],[23.8501259546699,53.54814096844986],[23.833469727629264,53.53386420241354],[23.81205457857626,53.532674471911335],[23.78588050751248,53.50174147883625],[23.782311316003735,53.48508525179571],[23.804916195558857,53.4803263297836],[23.784690777009565,53.444634414695436],[23.793018890529794,53.40061438608704],[23.76803454996893,53.39109654206372],[23.764465358460185,53.35421489647433],[23.779931854997905,53.34588678295312],[23.787070238015307,53.32685109490737],[23.773983202483418,53.32685109490737],[23.753757783934038,53.298297562837405],[23.735911826389778,53.30662567635683],[23.72520425186363,53.293538640825304],[23.726393982366545,53.28164133579686],[23.703789102811424,53.26379537825233],[23.706168563817254,53.24356995970268],[23.741860478904265,53.217395888638734],[23.724014521360715,53.13768394494306],[23.67166637923227,53.136494214440944],[23.67108872930447,53.12638534070392],[23.690085169981757,53.1236715634641]]]]}},{"type":"Feature","properties":{"kind":"district","id":"uyezd-1897-189","name":"Волковыский","provinceId":"gubernia-1897-21"},"geometry":{"type":"MultiPolygon","coordinates":[[[[24.78589326280839,53.436049131163614],[24.77573628593771,53.4232192656427],[24.745993023365187,53.40775276910604],[24.688885959225082,53.39704519457883],[24.63058916458215,53.3887170810594],[24.579430752956533,53.40656303860215],[24.519944227811486,53.40537330810004],[24.492580426243993,53.41608088262547],[24.464026894174296,53.41251169111726],[24.448560397636577,53.420839804636685],[24.415247943554597,53.41489115212336],[24.331966808350714,53.40180411659094],[24.27010082219895,53.39823492508272],[24.32006950332165,53.36135327949155],[24.302223545777302,53.33993813043979],[24.276049474713524,53.32804082541046],[24.25939324767289,53.31971271188925],[24.22370133258499,53.291159179820184],[24.192768339509552,53.299487293339524],[24.161835346433314,53.267364569760545],[24.139230466878193,53.25903645624112],[24.12733316184913,53.220965080147835],[24.11424612631724,53.19003208707275],[24.088072055252574,53.17575532103635],[24.066656906200457,53.15790936349369],[24.003601189545776,53.16623747701303],[23.989324423510972,53.150770980475485],[23.94411466439993,53.09961256885075],[23.939355742388358,53.07700768929412],[23.927458437359295,53.05559254024227],[23.898904905289687,53.03298766068653],[23.820382692097375,53.03774658269961],[23.804916195558857,53.04964388772716],[23.81205457857626,53.078197419798016],[23.838228649640925,53.08176661130622],[23.858454068190216,53.08771526382134],[23.76089616695153,53.1222174484064],[23.735911826389778,53.11864825689642],[23.719255599349143,53.11745852639341],[23.716876138343313,53.12578663991462],[23.690085169981757,53.1236715634641],[23.696033822496243,53.09868722290413],[23.710310588531048,53.07132342133628],[23.71744897154845,53.03920069775722],[23.69722355299907,53.034441775746004],[23.692464630987498,52.9975601301567],[23.70198247501073,52.95116064054132],[23.701700594417996,52.950690839553516],[23.72996317387529,52.948516794979724],[23.74780913141955,52.9401886814603],[23.77041401097476,52.94375787296762],[23.782311316003735,52.9389989509564],[23.806105926061772,52.922342723915776],[23.88819733076354,52.90687622737734],[23.91318167132449,52.908065957881234],[23.927458437359295,52.89973784436003],[23.978616848984913,52.886650808828584],[23.98218604049357,52.868804851284054],[24.00003199803712,52.85571781575341],[24.016688225077754,52.85333835474741],[24.09164124676132,52.816456709156235],[24.126143431346303,52.80931832613892],[24.155886693918827,52.79742102111048],[24.154696963415912,52.77600587205783],[24.16540453794206,52.76648802803451],[24.215373219064674,52.756970184010214],[24.265341900187376,52.7545907230042],[24.31055165929842,52.7545907230042],[24.38431495047907,52.77481614155385],[24.42476578757774,52.749831800993874],[24.54968749038401,52.761729106023296],[24.619881590056004,52.76767775853662],[24.66152215765839,52.76410856702752],[24.673419462687363,52.77957506356596],[24.721008682803436,52.78671344658326],[24.729336796324553,52.82121563116834],[24.738854640347785,52.83549239720288],[24.77573628593771,52.88189188681737],[24.782874668955202,52.914014610396436],[24.77097736392614,52.953275716990944],[24.790013051972515,52.96160383051206],[24.805479548511034,52.94732706447761],[24.8316536195749,52.95089625598662],[24.845930385609705,52.962793561014266],[24.856637960135853,52.965173022020274],[24.86972499566854,52.953275716990944],[24.88995041421792,52.953275716990944],[24.90541691075564,52.94613733397363],[24.91850394628753,52.95565517799695],[24.93159098181942,52.980639518558704],[24.91850394628753,52.993726554091126],[24.91374502427587,53.00919305062965],[24.93634990383108,53.03179793018441],[24.937539634333994,53.048454157225045],[24.92088340729336,53.060351462253486],[24.911365563270127,53.078197419798016],[24.87210445667437,53.10437149086188],[24.84236119410105,53.142442866955165],[24.814997392534266,53.18527316505967],[24.794771973984176,53.204308853107285],[24.807859009516864,53.22929319366726],[24.79358224348126,53.23762130718838],[24.7888233214696,53.25665699523502],[24.797151434990006,53.26974403076744],[24.79358224348126,53.292348910322296],[24.78644386046386,53.32328190339925],[24.797151434990006,53.36254300999376],[24.814997392534266,53.39704519457883],[24.824574395338708,53.43247993965543],[24.801969515783675,53.43604913116364],[24.78589326280839,53.436049131163614]]]]}},{"type":"Feature","properties":{"kind":"district","id":"uyezd-1897-190","name":"Пружанский","provinceId":"gubernia-1897-21"},"geometry":{"type":"MultiPolygon","coordinates":[[[[23.496775995304098,52.6213409066777],[23.516869221575554,52.59384491283255],[23.565648172195342,52.570050302774696],[23.604909278791098,52.56410165025959],[23.637032002370162,52.545065962212945],[23.673913647960177,52.55339407573406],[23.707226102042156,52.56172218925526],[23.720313137574134,52.574809224786804],[23.747676939140828,52.578378416295905],[23.814301847304165,52.56291191975738],[23.85118349289489,52.52840973517231],[23.88211648597033,52.49747674209723],[23.970156543185873,52.48914862857602],[24.008227919279513,52.50223566410844],[24.04154037336078,52.5236508131611],[24.028453337828804,52.53673784869352],[24.020125224308487,52.56172218925526],[24.080801479957337,52.549824884225046],[24.071283635934105,52.51651243014387],[24.043919834367323,52.50937404712567],[24.0570068698993,52.503425394612336],[24.027263607325978,52.47725132354847],[24.008227919279513,52.46416428801605],[24.015366302296915,52.44036967795641],[24.043919834367323,52.4368004864482],[24.0570068698993,52.42133398990977],[24.037971181852036,52.40705722387523],[23.992761422741793,52.404677762869134],[23.974915465198244,52.388021535828585],[23.94517220262492,52.37017557828584],[23.933274897595858,52.37017557828584],[23.957069507653983,52.348760429232215],[23.98086411771273,52.33924258520889],[23.99871007525628,52.36184746476464],[24.026073876823062,52.36898584778194],[24.053437678390555,52.38207288331526],[24.081991210460252,52.37731396130315],[24.09269878498631,52.36303719526862],[24.062955522413787,52.37017557828584],[24.061765791910872,52.36422692577073],[24.066524713922533,52.35470908174741],[24.0570068698993,52.338052854706774],[24.071283635934105,52.32377608867135],[24.066524713922533,52.31901716666013],[24.04748902587598,52.31901716666013],[24.020125224308487,52.29879174811049],[24.004658727770767,52.26428956352541],[24.08793986297465,52.23930522296544],[24.147426388120586,52.270238216040525],[24.18430803371131,52.28094579056596],[24.192636147231628,52.29284309559627],[24.23070752332447,52.30474040062559],[24.244984289359273,52.29998147861349],[24.262830246903622,52.31306851414502],[24.25569186388622,52.32734528017956],[24.27829674344134,52.3499501597353],[24.28662485696166,52.38207288331526],[24.321127041545843,52.41181614588645],[24.4234438647969,52.420144259407564],[24.41868494278533,52.43561075594609],[24.435341169825964,52.44393886946543],[24.46151524088983,52.4368004864482],[24.471033084913774,52.44393886946543],[24.471033084913774,52.45226698298663],[24.49720715597764,52.44750806097541],[24.53051961005891,52.44631833047152],[24.554314220117746,52.43917994745421],[24.63997481632746,52.426092911922765],[24.659010504373835,52.414195606892456],[24.67804619242101,52.3915907273376],[24.720876490525512,52.3915907273376],[24.725635412537173,52.4022983018649],[24.737532717566147,52.40110857136092],[24.755378675110496,52.38207288331526],[24.781552746174363,52.37612423079917],[24.80296789522657,52.37255503929194],[24.82081385277083,52.36065773426252],[24.84579819333178,52.35589881224952],[24.860074959366585,52.338052854706774],[24.90171552696897,52.32496581917533],[24.969530165635135,52.31187878364291],[25.01117073323672,52.32853501068345],[25.025447499272325,52.340432315712874],[25.06470860586808,52.35470908174741],[25.06470860586808,52.36303719526862],[25.08493402441737,52.37255503929194],[25.108800895764627,52.38979222415327],[25.079117564181608,52.42265591269096],[25.061271606637348,52.43812240922939],[25.06365106764318,52.451209444761815],[25.044615379596713,52.45477863627003],[25.01725157802993,52.499988395381514],[25.02795915255608,52.5273521969475],[25.056512684625687,52.57970033907709],[25.051753762614116,52.588028452596525],[25.071979181163407,52.603494949134955],[25.08625594719901,52.6213409066777],[25.080307294684523,52.65941228277188],[24.97918020193629,52.64989443874856],[24.942298556346366,52.660602013273994],[24.91374502427587,52.6689301267952],[24.88995041421792,52.6689301267952],[24.837602272089477,52.65465336076066],[24.814997392534266,52.65703282176578],[24.730526526827468,52.676068509812424],[24.71506003028895,52.68915554534396],[24.688885959225082,52.71889880791693],[24.667470810172876,52.73555503495756],[24.635348086593723,52.755780453508095],[24.619881590056004,52.76767775853662],[24.54968749038401,52.761729106023296],[24.42476578757774,52.749831800993874],[24.38431495047907,52.77481614155385],[24.31055165929842,52.7545907230042],[24.265341900187376,52.7545907230042],[24.215373219064674,52.756970184010214],[24.16540453794206,52.76648802803451],[24.154696963415912,52.77600587205783],[24.155886693918827,52.79742102111048],[24.126143431346303,52.80931832613892],[24.09164124676132,52.816456709156235],[24.016688225077754,52.85333835474741],[24.00003199803712,52.85571781575341],[23.98218604049357,52.868804851284054],[23.978616848984913,52.886650808828584],[23.927458437359295,52.89973784436003],[23.91318167132449,52.908065957881234],[23.88819733076354,52.90687622737734],[23.806105926061772,52.922342723915776],[23.782311316003735,52.9389989509564],[23.77041401097476,52.94375787296762],[23.74780913141955,52.9401886814603],[23.72996317387529,52.948516794979724],[23.701700594417996,52.950690839553516],[23.69484409199333,52.93926333551367],[23.64368568036771,52.935694144004664],[23.660958804706212,52.914014610396436],[23.67166637923227,52.88546107832647],[23.650251230180064,52.87594323430315],[23.63597446414526,52.85095889374131],[23.59552362704579,52.83906158871109],[23.572918747490668,52.79266209909838],[23.56459063397035,52.724847460431235],[23.52176033586505,52.69748365886517],[23.520570605362224,52.665360935286984],[23.518191144356393,52.63918686422223],[23.512242491841818,52.62728955919282],[23.496775995304098,52.6213409066777]]]]}},{"type":"Feature","properties":{"kind":"district","id":"uyezd-1897-192","name":"Брестский","provinceId":"gubernia-1897-21"},"geometry":{"type":"MultiPolygon","coordinates":[[[[23.655906122076676,51.49302106095729],[23.66598211127443,51.51661003858318],[23.655274536748284,51.547543031658265],[23.633859387695278,51.55825060618557],[23.64099777071268,51.601080904290065],[23.606495586128496,51.62963443636003],[23.632669657192363,51.64510093289668],[23.649325884233797,51.63558308887336],[23.662412919765686,51.63915228038335],[23.673120494291833,51.65818796842902],[23.705243217870187,51.65699823792601],[23.784955161565414,51.673654464966646],[23.794473005589357,51.64510093289668],[23.82659572916771,51.65818796842902],[23.848010878219917,51.64985985490968],[23.865856835764266,51.64985985490968],[23.903928211857107,51.64510093289668],[23.878943871296244,51.62606524485004],[23.876564410290413,51.6117884788155],[23.881323332301985,51.601080904290065],[23.93843039644209,51.601080904290065],[24.00267584359951,51.58561440775155],[24.01457314862857,51.60346036529607],[24.04550614170401,51.61416793982151],[24.080008326288993,51.62844470585605],[24.108561858358602,51.664136620943324],[24.15734080897839,51.689120961505076],[24.24657059669676,51.71886422407805],[24.275124128766457,51.72719233759925],[24.297729008322378,51.735520451118674],[24.294159816813632,51.76407398318864],[24.294952970481976,51.81695089442931],[24.243794558856358,51.8157611639272],[24.21524102678675,51.82052008593931],[24.190256686225798,51.83717631297985],[24.21999994879841,51.866919575552814],[24.256881594389135,51.878816880582235],[24.264019977406537,51.883575802593455],[24.254502133383305,51.8990422991301],[24.280676204447172,51.9061806821492],[24.283055665452913,51.887144994101575],[24.312798928025526,51.877627150078254],[24.33659353808436,51.8990422991301],[24.368716261662627,51.8990422991301],[24.388941680212007,51.93473421421916],[24.313988658528352,51.95495963276792],[24.292573509476235,51.93711367522339],[24.243794558856358,51.95852882427702],[24.272348090926855,51.98708235634698],[24.30685027551104,52.01682561891995],[24.308040006013954,52.03110238495449],[24.29614270098489,52.04180995947992],[24.262830246903622,52.03110238495449],[24.223569140307067,52.00254885288541],[24.12125231705672,52.00016939187931],[24.10340635951237,52.02515373243929],[24.071283635934105,52.05132780350324],[24.0570068698993,52.05013807300113],[24.010607380285343,52.088209449094414],[23.923757053572714,52.082260796580194],[23.905911096029165,52.090588910099534],[23.94041328061335,52.12628082518859],[23.897582982508048,52.14174732172524],[23.863080797923864,52.13103974719891],[23.840475918368742,52.12390136418249],[23.84880403188906,52.14412678273125],[23.821440230321567,52.185767350333634],[23.827388882836054,52.197664655363056],[23.87378837245001,52.22502845693001],[23.94279274161909,52.232166839946345],[23.968966812682957,52.23811549246146],[23.96301816016838,52.25001279749176],[23.910670018040737,52.253581988999976],[23.918998131561054,52.279756060063846],[23.949931124636493,52.27856632956173],[23.961828429665555,52.28213552106994],[23.957069507653983,52.3071198616308],[23.967777082180042,52.308309592132915],[23.986812770227306,52.29403282609838],[24.020125224308487,52.29879174811049],[24.04748902587598,52.31901716666013],[24.066524713922533,52.31901716666013],[24.071283635934105,52.32377608867135],[24.0570068698993,52.338052854706774],[24.066524713922533,52.35470908174741],[24.061765791910872,52.36422692577073],[24.062955522413787,52.37017557828584],[24.09269878498631,52.36303719526862],[24.081991210460252,52.37731396130315],[24.053437678390555,52.38207288331526],[24.026073876823062,52.36898584778194],[23.99871007525628,52.36184746476464],[23.98086411771273,52.33924258520889],[23.957069507653983,52.348760429232215],[23.933274897595858,52.37017557828584],[23.94517220262492,52.37017557828584],[23.974915465198244,52.388021535828585],[23.992761422741793,52.404677762869134],[24.037971181852036,52.40705722387523],[24.0570068698993,52.42133398990977],[24.043919834367323,52.4368004864482],[24.015366302296915,52.44036967795641],[24.008227919279513,52.46416428801605],[24.027263607325978,52.47725132354847],[24.0570068698993,52.503425394612336],[24.043919834367323,52.50937404712567],[24.071283635934105,52.51651243014387],[24.080801479957337,52.549824884225046],[24.020125224308487,52.56172218925526],[24.028453337828804,52.53673784869352],[24.04154037336078,52.5236508131611],[24.008227919279513,52.50223566410844],[23.970156543185873,52.48914862857602],[23.88211648597033,52.49747674209723],[23.85118349289489,52.52840973517231],[23.814301847304165,52.56291191975738],[23.747676939140828,52.578378416295905],[23.720313137574134,52.574809224786804],[23.707226102042156,52.56172218925526],[23.673913647960177,52.55339407573406],[23.637032002370162,52.545065962212945],[23.604909278791098,52.56410165025959],[23.565648172195342,52.570050302774696],[23.516869221575554,52.59384491283255],[23.496775995304098,52.6213409066777],[23.46822246323449,52.61896144567348],[23.433720278649595,52.607064140644056],[23.42777162613502,52.59278737460774],[23.406356477082813,52.57613114756711],[23.407546207585728,52.55471599851535],[23.38970025004138,52.5380597714748],[23.349249412942797,52.522593274936284],[23.308798575843326,52.4952294733703],[23.270727199750397,52.52497273594149],[23.239794206674247,52.533300849462606],[23.20886121359881,52.53687004097082],[23.21124067460455,52.572561956058095],[23.185066603539973,52.55233653750925],[23.138667113926815,52.55233653750925],[23.133908191915154,52.58445926108831],[23.111303312360032,52.596356566117734],[23.06133463123733,52.61539225416348],[23.060144900734414,52.60111548812895],[23.069662744757736,52.593977105111634],[23.069662744757736,52.578510608573204],[23.062524361740245,52.56661330354379],[23.067283283751905,52.55114680700713],[23.06371409224316,52.49047055135819],[23.085129241295455,52.482142437836984],[23.105354659844746,52.47619378532366],[23.10416492934183,52.455968366773035],[23.09226762431277,52.455968366773035],[23.07680112777505,52.40005103313611],[23.089888163307027,52.39053318911279],[23.120821156383176,52.39172291961499],[23.12439034789192,52.370307770563144],[23.126769808897752,52.3512720825165],[23.145805496944128,52.33699531648196],[23.180307681528312,52.32390828095052],[23.17078983750517,52.298923940388676],[23.175254998898865,52.283002114892064],[23.190721495436584,52.26872534885841],[23.19429068694533,52.23541289477546],[23.26567451712095,52.21042855421548],[23.296607510196388,52.21518747622572],[23.296607510196388,52.2092388237115],[23.334678886289318,52.20329017119817],[23.34657619131909,52.21042855421548],[23.371560531879954,52.20091071019216],[23.398924333446736,52.19258259667096],[23.41558056048817,52.17830583063642],[23.452462206078096,52.18782367465974],[23.47982600764559,52.169977717115216],[23.48458492965725,52.152131759572555],[23.511948731223942,52.140234454542245],[23.526225497258835,52.13309607152591],[23.55834822083799,52.11881930548951],[23.608316901959803,52.10930146146619],[23.619024476486743,52.095024695432585],[23.628542320510007,52.072419815876856],[23.645198547550592,52.072419815876856],[23.646388278053223,52.05338412783021],[23.659475313585176,52.052194397327185],[23.670182888111867,52.03791763129266],[23.659475313585176,52.028399787270246],[23.66780342710581,52.01650248224087],[23.679700732134393,52.01174356022875],[23.688028845655822,51.99508733318635],[23.670182888111867,51.98081056715182],[23.658285583082545,51.95582622659185],[23.64281908654459,51.95939541810003],[23.63211151201864,51.953446765586705],[23.64162935604196,51.94035973005339],[23.63211151201864,51.92608296401886],[23.604747710451363,51.9272726945228],[23.604747710451363,51.91418565898948],[23.62973205101264,51.89633970144496],[23.624973129001376,51.87373482189105],[23.604747710451363,51.8725450913862],[23.609506632462626,51.84994021183229],[23.602368249445362,51.84280182881321],[23.607127171456625,51.82971479328171],[23.626162859504007,51.82733533227747],[23.63211151201864,51.814248296744154],[23.621403937492744,51.780935842662984],[23.613075823971258,51.76546934612543],[23.55715849033487,51.76308988511937],[23.532174149773596,51.746433658079695],[23.535743341282227,51.726208239530024],[23.550020107317607,51.72382877852306],[23.55120983782018,51.70003416846339],[23.55358929882624,51.672670366898274],[23.542881724299548,51.66315252287404],[23.53812280228749,51.64768602633558],[23.544071454802385,51.62389141627769],[23.551209837820497,51.5905789621966],[23.575004447878623,51.57154327414996],[23.595229866427914,51.547748664090236],[23.620214206989576,51.51800540151904],[23.627352590007067,51.49540052196241],[23.655906122076676,51.49302106095729]]]]}},{"type":"Feature","properties":{"kind":"district","id":"uyezd-1897-719","name":"Слонимский","provinceId":"gubernia-1897-21"},"geometry":{"type":"MultiPolygon","coordinates":[[[[24.619881590056004,52.76767775853662],[24.635348086593723,52.755780453508095],[24.667470810172876,52.73555503495756],[24.688885959225082,52.71889880791693],[24.71506003028895,52.68915554534396],[24.730526526827468,52.676068509812424],[24.814997392534266,52.65703282176578],[24.837602272089477,52.65465336076066],[24.88995041421792,52.6689301267952],[24.91374502427587,52.6689301267952],[24.942298556346366,52.660602013273994],[24.97918020193629,52.64989443874856],[25.080307294684523,52.65941228277188],[25.08625594719901,52.6213409066777],[25.071979181163407,52.603494949134955],[25.051753762614116,52.588028452596525],[25.056512684625687,52.57970033907709],[25.02795915255608,52.5273521969475],[25.01725157802993,52.499988395381514],[25.044615379596713,52.45477863627003],[25.06365106764318,52.451209444761815],[25.061271606637348,52.43812240922939],[25.079117564181608,52.42265591269096],[25.108800895764627,52.38979222415327],[25.112430018262877,52.38577426710166],[25.12908624530351,52.38577426710166],[25.16001923837975,52.365548848551036],[25.174296004414554,52.365548848551036],[25.17548573491747,52.39172291961499],[25.234972260063316,52.383394806095566],[25.26471552263584,52.38577426710166],[25.32539177828469,52.3976715721301],[25.369411806892817,52.39886130263399],[25.418190757511805,52.39886130263399],[25.436036715056066,52.40718941615342],[25.463400516622848,52.41313806866764],[25.481246474166397,52.40837914665731],[25.4883848571838,52.40124076363831],[25.520507580762953,52.40599968565131],[25.535974077300672,52.39648184162709],[25.568096800879026,52.39648184162709],[25.535974077300672,52.436932678727274],[25.502661623219403,52.48690135984909],[25.477677282657652,52.49879866487753],[25.481246474166397,52.51664462242206],[25.47529782165182,52.54519815449203],[25.505041084225144,52.56423384253867],[25.522887041768783,52.57137222555589],[25.555009765347048,52.56661330354379],[25.612116829487153,52.596356566117734],[25.593081141440777,52.61896144567348],[25.609737368481323,52.62728955919282],[25.654947127592365,52.634427942210124],[25.681121198656232,52.6284792896968],[25.710864461229555,52.6260998286907],[25.756074220339798,52.63918686422223],[25.804853170959586,52.64870470824555],[25.863149965602606,52.68677608433795],[25.921446760245537,52.715329616407914],[25.92025702974191,52.730796112946344],[25.907169994209934,52.823595092174436],[25.90835972471285,52.85333835474741],[25.891703497672214,52.902117305367014],[25.867908887614178,52.912824879892455],[25.75012556782531,52.984208710066916],[25.697777425696867,53.02109035565719],[25.772730447380432,53.09961256885075],[25.728710418773105,53.13768394494306],[25.72990014927602,53.15315044148158],[25.7072952697201,53.17218612952822],[25.722761766258618,53.192411548076976],[25.756074220339798,53.204308853107285],[25.778679099895008,53.22453427165604],[25.80128397945093,53.23881103769058],[25.822699128503135,53.284020796802864],[25.78819694391895,53.300677023843505],[25.728710418773105,53.31852298138617],[25.69182877318238,53.33279974742257],[25.645429283569133,53.3363689389298],[25.609737368481323,53.35778408798254],[25.596650332949434,53.38752735055551],[25.608547637978496,53.41727061312936],[25.6228244040133,53.46604956374907],[25.590701680434947,53.49222363481293],[25.555009765347048,53.53029501090533],[25.572855722891397,53.55289989046018],[25.588322219429116,53.582643153033146],[25.55382003484422,53.59573018856557],[25.52056673954416,53.60261140157123],[25.380178540200173,53.608560054086425],[25.36590177416537,53.5919038270458],[25.30998444052818,53.56691948648404],[25.217185461300264,53.572868138999155],[25.195770312248058,53.56097083396894],[25.16721678017845,53.56097083396894],[25.145801631125355,53.5478837984374],[25.127955673581894,53.5478837984374],[25.138663248108042,53.537176223911075],[25.13628378710221,53.500294578321686],[25.154129744646472,53.48006915977115],[25.143422170119614,53.452705358204184],[25.09345348899771,53.45032589719809],[25.08036645346582,53.45389508870808],[25.03991561636635,53.464602663234494],[25.049433460389494,53.406305868591474],[25.044674538377922,53.389649641549155],[25.02444911982863,53.39321883305914],[25.005413431781367,53.390839372053044],[24.987567474237906,53.39559829406515],[24.98399828272916,53.40154694657848],[24.967342055688526,53.40987506009969],[24.964962594682696,53.40273667708246],[24.926891218589144,53.40987506009969],[24.86740469344321,53.42891074814633],[24.824574395338708,53.43247993965543],[24.814997392534266,53.39704519457883],[24.797151434990006,53.36254300999376],[24.78644386046386,53.32328190339925],[24.79358224348126,53.292348910322296],[24.797151434990006,53.26974403076744],[24.7888233214696,53.25665699523502],[24.79358224348126,53.23762130718838],[24.807859009516864,53.22929319366726],[24.794771973984176,53.204308853107285],[24.814997392534266,53.18527316505967],[24.84236119410105,53.142442866955165],[24.87210445667437,53.10437149086188],[24.911365563270127,53.078197419798016],[24.92088340729336,53.060351462253486],[24.937539634333994,53.048454157225045],[24.93634990383108,53.03179793018441],[24.91374502427587,53.00919305062965],[24.91850394628753,52.993726554091126],[24.93159098181942,52.980639518558704],[24.91850394628753,52.95565517799695],[24.90541691075564,52.94613733397363],[24.88995041421792,52.953275716990944],[24.86972499566854,52.953275716990944],[24.856637960135853,52.965173022020274],[24.845930385609705,52.962793561014266],[24.8316536195749,52.95089625598662],[24.805479548511034,52.94732706447761],[24.790013051972515,52.96160383051206],[24.77097736392614,52.953275716990944],[24.782874668955202,52.914014610396436],[24.77573628593771,52.88189188681737],[24.738854640347785,52.83549239720288],[24.729336796324553,52.82121563116834],[24.721008682803436,52.78671344658326],[24.673419462687363,52.77957506356596],[24.66152215765839,52.76410856702752],[24.619881590056004,52.76767775853662]]]]}},{"type":"Feature","properties":{"kind":"district","id":"uyezd-1897-720","name":"Кобринский","provinceId":"gubernia-1897-21"},"geometry":{"type":"MultiPolygon","coordinates":[[[[25.108800895764627,52.38979222415327],[25.08493402441737,52.37255503929194],[25.06470860586808,52.36303719526862],[25.06470860586808,52.35470908174741],[25.025447499272325,52.340432315712874],[25.01117073323672,52.32853501068345],[24.969530165635135,52.31187878364291],[24.90171552696897,52.32496581917533],[24.860074959366585,52.338052854706774],[24.84579819333178,52.35589881224952],[24.82081385277083,52.36065773426252],[24.80296789522657,52.37255503929194],[24.781552746174363,52.37612423079917],[24.755378675110496,52.38207288331526],[24.737532717566147,52.40110857136092],[24.725635412537173,52.4022983018649],[24.720876490525512,52.3915907273376],[24.67804619242101,52.3915907273376],[24.659010504373835,52.414195606892456],[24.63997481632746,52.426092911922765],[24.554314220117746,52.43917994745421],[24.53051961005891,52.44631833047152],[24.49720715597764,52.44750806097541],[24.471033084913774,52.45226698298663],[24.471033084913774,52.44393886946543],[24.46151524088983,52.4368004864482],[24.435341169825964,52.44393886946543],[24.41868494278533,52.43561075594609],[24.4234438647969,52.420144259407564],[24.321127041545843,52.41181614588645],[24.28662485696166,52.38207288331526],[24.27829674344134,52.3499501597353],[24.25569186388622,52.32734528017956],[24.262830246903622,52.31306851414502],[24.244984289359273,52.29998147861349],[24.23070752332447,52.30474040062559],[24.192636147231628,52.29284309559627],[24.18430803371131,52.28094579056596],[24.147426388120586,52.270238216040525],[24.08793986297465,52.23930522296544],[24.004658727770767,52.26428956352541],[24.020125224308487,52.29879174811049],[23.986812770227306,52.29403282609838],[23.967777082180042,52.308309592132915],[23.957069507653983,52.3071198616308],[23.961828429665555,52.28213552106994],[23.949931124636493,52.27856632956173],[23.918998131561054,52.279756060063846],[23.910670018040737,52.253581988999976],[23.96301816016838,52.25001279749176],[23.968966812682957,52.23811549246146],[23.94279274161909,52.232166839946345],[23.87378837245001,52.22502845693001],[23.827388882836054,52.197664655363056],[23.821440230321567,52.185767350333634],[23.84880403188906,52.14412678273125],[23.840475918368742,52.12390136418249],[23.863080797923864,52.13103974719891],[23.897582982508048,52.14174732172524],[23.94041328061335,52.12628082518859],[23.905911096029165,52.090588910099534],[23.923757053572714,52.082260796580194],[24.010607380285343,52.088209449094414],[24.0570068698993,52.05013807300113],[24.071283635934105,52.05132780350324],[24.10340635951237,52.02515373243929],[24.12125231705672,52.00016939187931],[24.223569140307067,52.00254885288541],[24.262830246903622,52.03110238495449],[24.29614270098489,52.04180995947992],[24.308040006013954,52.03110238495449],[24.30685027551104,52.01682561891995],[24.272348090926855,51.98708235634698],[24.243794558856358,51.95852882427702],[24.292573509476235,51.93711367522339],[24.313988658528352,51.95495963276792],[24.388941680212007,51.93473421421916],[24.368716261662627,51.8990422991301],[24.33659353808436,51.8990422991301],[24.312798928025526,51.877627150078254],[24.283055665452913,51.887144994101575],[24.280676204447172,51.9061806821492],[24.254502133383305,51.8990422991301],[24.264019977406537,51.883575802593455],[24.256881594389135,51.878816880582235],[24.21999994879841,51.866919575552814],[24.190256686225798,51.83717631297985],[24.21524102678675,51.82052008593931],[24.243794558856358,51.8157611639272],[24.294952970481976,51.81695089442931],[24.30922973651678,51.84074550448895],[24.32945515506687,51.86097092303771],[24.366336800656885,51.881196341587355],[24.406787637756356,51.885955263599456],[24.466274162902202,51.890714185610676],[24.54598610659743,51.89547310762278],[24.611421284257762,51.90737041265131],[24.66020023487675,51.9026114906401],[24.679235922923926,51.90856014315342],[24.686374305941417,51.949010980253696],[24.706599724490708,51.997789930872415],[24.699461341473306,52.029912654451394],[24.73634298706323,52.05013807300113],[24.76727598013956,52.04062022897781],[24.824383044279575,52.08582998808832],[24.8541263068521,52.082260796580194],[24.88149010841888,52.088209449094414],[24.954063669096705,52.0727429525559],[25.000463158710573,52.0727429525559],[25.002842619716404,52.05608672551535],[25.040913995810044,52.039430498475696],[25.02901669078098,52.01206669690873],[25.088503215926117,51.99541046986632],[25.114677286990784,51.99065154785599],[25.13847189704882,51.9966002003703],[25.193199500183095,51.9966002003703],[25.19438923068592,51.97518505131757],[25.2146146492353,51.96923639880245],[25.218183840744047,51.962098015785145],[25.195578961188836,51.95495963276792],[25.182491925656947,51.91212933466342],[25.184871386662778,51.876437419576135],[25.20509680521207,51.874057958570134],[25.21937357124696,51.883575802593455],[25.236029798288307,51.87286822806615],[25.24453698030945,51.874144305369526],[25.28361901840438,51.880006611084355],[25.32406985550385,51.885955263599456],[25.385935841655527,51.890714185610676],[25.454940210824606,51.891903916112796],[25.48468347339722,51.8990422991301],[25.506098622449336,51.91688825667463],[25.533462424016918,51.935923944721274],[25.557257034074954,51.95495963276792],[25.566774878098187,51.971615859808466],[25.557257034074954,51.97637478181968],[25.551308381560467,51.98827208684909],[25.58105164413299,52.02039481042807],[25.57629272212133,52.038240767972596],[25.553687842566298,52.05608672551535],[25.529893232508172,52.07750187456898],[25.534652154519833,52.083450527082306],[25.55606730357204,52.07869160507109],[25.570344069606843,52.12390136418249],[25.631020325255605,52.15483435725855],[25.58343110513882,52.17624950631031],[25.588190027151192,52.19290573335095],[25.557257034074954,52.20480303838028],[25.59413867966568,52.22145926542091],[25.6595738573261,52.19409546385306],[25.70359388593343,52.188146811339735],[25.715491190962492,52.197664655363056],[25.68574792838988,52.205992768882396],[25.66552250984059,52.222648995923024],[25.658384126823186,52.24168468397056],[25.67028143185216,52.25001279749176],[25.709542538448005,52.252392258495995],[25.734526879009668,52.29522255660227],[25.74166526202707,52.30474040062559],[25.76189068057645,52.347570698730095],[25.760700950073534,52.36303719526862],[25.736906340015498,52.37493450029616],[25.684558197887053,52.3915907273376],[25.579861913630076,52.388021535828585],[25.568096800879026,52.39648184162709],[25.535974077300672,52.39648184162709],[25.520507580762953,52.40599968565131],[25.4883848571838,52.40124076363831],[25.481246474166397,52.40837914665731],[25.463400516622848,52.41313806866764],[25.436036715056066,52.40718941615342],[25.418190757511805,52.39886130263399],[25.369411806892817,52.39886130263399],[25.32539177828469,52.3976715721301],[25.26471552263584,52.38577426710166],[25.234972260063316,52.383394806095566],[25.17548573491747,52.39172291961499],[25.174296004414554,52.365548848551036],[25.16001923837975,52.365548848551036],[25.12908624530351,52.38577426710166],[25.112430018262877,52.38577426710166],[25.108800895764627,52.38979222415327]]]]}}]}
