{"type":"FeatureCollection","features":[{"type":"Feature","properties":{"kind":"province","id":"gubernia-1897-23","name":"Могилевская губерния"},"geometry":{"type":"MultiPolygon","coordinates":[[[[31.391442386786828,53.11940958092511],[31.35812993270556,53.13368634695965],[31.354560741196813,53.15153230450231],[31.37835535125494,53.16342960953173],[31.381924542763596,53.174137184058054],[31.390252656283913,53.181275567075275],[31.392632117289743,53.1955523331108],[31.392632117289743,53.21577775166044],[31.409288344331088,53.21815721266645],[31.45687756444725,53.21220856015134],[31.485431096517658,53.21101882964922],[31.516364089593097,53.20982909914524],[31.53302031663373,53.2015009856259],[31.556814926692567,53.2015009856259],[31.582988997756434,53.21577775166044],[31.609163068820212,53.23362370920496],[31.679357168492206,53.20863936864313],[31.745982076655455,53.19198314160258],[31.766207495205634,53.169378262046834],[31.788812374760756,53.13130688595355],[31.79436894872526,53.12939681365323],[31.826883750854396,53.11821985042113],[31.903026503040877,53.10394308438659],[31.93990814863089,53.092045779357264],[31.97322060271287,53.07657928281874],[32.011291978805716,53.07301009131062],[32.03627631936746,53.08847658784816],[32.0600709294255,53.08609712684206],[32.07791688696905,53.07538955231663],[32.11598826306269,53.07301009131062],[32.1659569441845,53.08490739633995],[32.18142344072302,53.115840389415126],[32.21235643379855,53.12773769444445],[32.23139212184493,53.113460928409914],[32.2504278098921,53.11821985042113],[32.24566888788053,53.13368634695965],[32.25756619290959,53.13963499947476],[32.29563756900244,53.14082472997687],[32.3289500230845,53.15034257400019],[32.343226789119306,53.175326914562035],[32.414610619294216,53.207449638141014],[32.47052795293132,53.24671074473641],[32.49194310198361,53.27169508529825],[32.52049663405322,53.29905888686521],[32.57165504567875,53.30143834787122],[32.60734696076665,53.31214592239665],[32.63114157082468,53.31928430541397],[32.657098625728935,53.32761766418021],[32.69635973232469,53.33356631669541],[32.75108733545896,53.33594577770142],[32.73086191690958,53.36806850127871],[32.741569491435726,53.39186311133834],[32.741569491435726,53.40613987737288],[32.743948952441556,53.43231394843674],[32.73443110841833,53.443021522962184],[32.70825703735366,53.42993448743074],[32.67613431377531,53.42160637391131],[32.62854509365852,53.42160637391131],[32.60712994460623,53.40613987737288],[32.590473717565594,53.40613987737288],[32.57143802951842,53.42993448743074],[32.576196951529994,53.444211253466165],[32.56429964650101,53.462057211008826],[32.544074227951725,53.47157505503215],[32.541694766945895,53.47990316855433],[32.51790015688786,53.48942101257765],[32.527418000911,53.50845670062429],[32.55359207197487,53.528682119173055],[32.48696716381162,53.56080484275212],[32.432239560677345,53.60601460186174],[32.423911447157025,53.65122436097411],[32.45127524872452,53.682157354049195],[32.48220824179996,53.678588162540095],[32.49410554682902,53.68572654555741],[32.498864468840594,53.69881358108974],[32.483397972302875,53.70357250310194],[32.476259589285476,53.72617738265759],[32.51195150437248,53.7333157656749],[32.51908988739078,53.751161723217564],[32.49529527733185,53.75830010623488],[32.48934662481745,53.77852552478541],[32.498864468840594,53.79399202132393],[32.5131412348754,53.824925014399014],[32.48458770280579,53.827304475405114],[32.465552014759325,53.852288815965],[32.416773064139626,53.88322180904194],[32.40011683709899,53.89511911407136],[32.4286703691686,53.904636958094684],[32.434619021683176,53.89511911407136],[32.47744931978839,53.902257497088584],[32.48458770280579,53.917723993627106],[32.481018511297044,53.92843156815255],[32.45603417073609,53.92843156815255],[32.442947135203404,53.94032887318187],[32.416773064139626,53.94389806469097],[32.40368602860774,53.989107823801575],[32.38940926257284,54.050973809953604],[32.34538923396472,54.054543001461724],[32.32873300692408,54.04621488794052],[32.32040489340376,54.054543001461724],[32.33349192893574,54.074768420010486],[32.356096808490776,54.078337611519586],[32.36442492201118,54.08785545554291],[32.36204546100535,54.09856303007021],[32.33230219843283,54.10570141308743],[32.32873300692408,54.13068575364741],[32.3156459713921,54.14496251968372],[32.302558935859416,54.17113659074768],[32.259728637755,54.1782749737649],[32.21451887864396,54.19017227879432],[32.19786265160333,54.20325931432674],[32.17763723305394,54.23419230740094],[32.16336046701834,54.24252042092215],[32.13361720444582,54.25203826494449],[32.10268421137038,54.2686944919869],[32.078889601311545,54.27821233601022],[32.065802565779656,54.300817215565075],[32.0265414591839,54.307955598582296],[31.969434395043795,54.32937074763415],[31.93969113247047,54.33888859165747],[31.868307302295563,54.361493471213215],[31.834994848214293,54.37101131523654],[31.8076310466468,54.357924279704115],[31.796923472120653,54.31747344260562],[31.786215897594595,54.27464314450121],[31.76955967055396,54.26274583947179],[31.74219586898638,54.27940206651233],[31.71840125892843,54.304386407074176],[31.69341691836739,54.306765868080184],[31.686278535349988,54.296058293552974],[31.689847726858734,54.28178152751843],[31.6731914998173,54.28059179701445],[31.66010446428541,54.26750476148301],[31.66248392529124,54.26036637846569],[31.643448237244776,54.25322799544847],[31.613704974672164,54.23181284639671],[31.5887206341105,54.230623115892726],[31.58634117310467,54.24371015142515],[31.569684946064037,54.25917664796269],[31.529234108964566,54.275832875003324],[31.493542193877555,54.29724802405686],[31.461419470298402,54.307955598582296],[31.428107016217133,54.302006946068076],[31.38765617911775,54.32104263411472],[31.35196426403074,54.32342209512082],[31.323410731961044,54.32937074763415],[31.307944235422525,54.34602697467656],[31.301995582908038,54.365062662723204],[31.27344205083834,54.38171888976375],[31.247267979773763,54.387667542277086],[31.249647440779505,54.40551349982161],[31.231801483236044,54.441205414908794],[31.23299121373887,54.47094867748186],[31.265113937318024,54.50188167055782],[31.256785823797795,54.54233250765632],[31.256785823797795,54.55541954318865],[31.244888518767933,54.56969630922319],[31.246078249270848,54.595870380287145],[31.234180944241785,54.62680337336312],[31.206817142675092,54.6315622953762],[31.203247951166347,54.64821852241674],[31.156848461552478,54.666064479959495],[31.144348142434332,54.67476744007675],[31.15208953954084,54.67558232398278],[31.186591724125776,54.6720131324746],[31.197299298651842,54.68628989850913],[31.255596093294855,54.70532558655577],[31.275821511844185,54.70532558655577],[31.290098277878997,54.71127423907001],[31.312703157434157,54.70770504756183],[31.34244642000749,54.713653700076975],[31.373379413082887,54.70770504756183],[31.394794562135928,54.71008450856789],[31.42334809420555,54.69580774253245],[31.4316762077259,54.680341245993986],[31.45547081778392,54.67320286297672],[31.46855785331661,54.66606447995946],[31.493542193877545,54.66249528845128],[31.493207582173284,54.67061659334831],[31.481644888848564,54.680341245993986],[31.47688596683696,54.69461801202942],[31.505439498906583,54.72912019661362],[31.482834619351422,54.741017501643],[31.48045515834565,54.75291480667238],[31.464988661807922,54.76243265069661],[31.44357351275488,54.76362238119873],[31.434055668731673,54.800504026789895],[31.368620491071283,54.81478079282442],[31.361482108053906,54.833816480871064],[31.375758874088717,54.84928297740953],[31.39717402314176,54.86950839595829],[31.361482108053906,54.88140570098676],[31.324600462463934,54.89330300601614],[31.29842639139929,54.907579772052486],[31.29842639139929,54.92185653808701],[31.310323696428327,54.931374382110334],[31.31746207944576,54.940892226133656],[31.285339355867393,54.94922033965304],[31.241319327259248,54.96587656669362],[31.221093908709918,54.98729171574632],[31.224663100218606,55.01465551731326],[31.24369878826502,55.039639857875045],[31.230611752733125,55.04677824089231],[31.2329912137389,55.06343446793471],[31.20919660368088,55.083659886483474],[31.204437681669276,55.10150584402618],[31.18540199362286,55.12173126257767],[31.167556036078565,55.12292099307979],[31.13781277350597,55.138387489617344],[31.115207893950867,55.15266425565187],[31.10687978042978,55.170510213196394],[31.090223553389137,55.17407940470548],[31.071187865342722,55.16575129118428],[31.043824063775958,55.17407940470548],[31.022408914722973,55.168130752190336],[31.01289107069971,55.17645886570972],[30.98314780812717,55.170510213196394],[30.964238779523043,55.16468567302127],[30.95947985751144,55.13970133245948],[30.9475825524824,55.11828618340769],[30.899993332366307,55.11590672240163],[30.872629530798804,55.10638887837831],[30.840506807220436,55.07426615479926],[30.828609502191455,55.0623688497717],[30.828609502191455,55.048092083735355],[30.81314300565373,55.04095370071809],[30.790538126097772,55.05047154474141],[30.764364055033923,55.04452289222627],[30.702498068882278,55.06355858027382],[30.69654941636776,55.07664561580532],[30.678703458824202,55.081404537816525],[30.662047231783617,55.07664561580532],[30.62754504719868,55.0849737293247],[30.612078550660954,55.07902507680956],[30.57519690507098,55.07664561580532],[30.54783310350348,55.068317502285936],[30.489536308860465,55.06593804127806],[30.482397925843088,55.05404073624959],[30.434808705726994,55.06355858027382],[30.409824365165264,55.059989388764734],[30.409824365165264,55.038574239712034],[30.39078867711885,55.02191801267054],[30.372942719574553,55.01477962965237],[30.35628649253391,55.01477962965237],[30.346768648510704,55.02429747367569],[30.294420506383005,55.02429747367569],[30.255159399786464,55.02310774317357],[30.214708562687054,55.01715909065845],[30.184965300114175,55.025487204178674],[30.143324732511967,55.04690235323142],[30.121909583459583,55.05879965826172],[30.083838207366476,55.07069696329016],[30.038628448255967,55.05404073624864],[30.021972221215155,55.0492818142384],[30.00888518568282,55.05166127524352],[30.00412626367116,55.08021480731348],[29.987470036630437,55.09568130385102],[29.985090575624696,55.107578608879464],[29.977952192607205,55.12066564441287],[29.99698788065376,55.12066564441287],[30.01007491618538,55.11828618340677],[30.030300334735205,55.14089106296163],[30.00888518568282,55.14208079346463],[29.99817761115623,55.15992675100915],[29.967244618080613,55.16587540352249],[29.930362972490066,55.16944459503247],[29.90537863192938,55.17539324754581],[29.879204560865336,55.181341900060914],[29.874445638853675,55.189670013581235],[29.874445638853675,55.20394677961578],[29.858979142315512,55.208705701628766],[29.83637426275977,55.20632624062276],[29.805441269684152,55.193239205089355],[29.778077468117637,55.17539324754581],[29.753093127556152,55.17182405603759],[29.7376266310179,55.16825486452947],[29.729298517497938,55.16349594251728],[29.732471132171845,55.15173082976614],[29.737230054183506,55.145782177251036],[29.737230054183506,55.1338848722225],[29.726522479657714,55.11841837568407],[29.695589486582097,55.10890053166164],[29.65513864948236,55.09224430462109],[29.633723500429976,55.062501042048126],[29.6016007768518,55.02323993545175],[29.570667783775384,54.99349667287878],[29.538589124289672,54.95723192458628],[29.515984244734017,54.941765428047844],[29.47910259914427,54.91440162648178],[29.448169606067854,54.891796746925145],[29.42437499600964,54.8727610588785],[29.406529038466356,54.85253564032885],[29.392252272431463,54.8787097113937],[29.38035496740231,54.89060701642214],[29.389872811425633,54.904883782458455],[29.363698740360878,54.91321189597788],[29.337524669296833,54.91440162648178],[29.32324790326194,54.90964270446878],[29.31373005923862,54.89893512994335],[29.306591676221217,54.879899441896704],[29.304212215215387,54.85253564032885],[29.306591676221217,54.82041291675068],[29.26376137811645,54.80018749820103],[29.21379269699428,54.815653994738575],[29.157875363357178,54.8251718387619],[29.11623479575488,54.83231022177921],[29.07102503664437,54.818033455745564],[29.06388665362688,54.81089507272736],[29.06269692312361,54.80018749820103],[29.042471504573786,54.793049115183805],[29.040092043567956,54.815653994738575],[29.015107703007182,54.82279237775589],[29.00796931998978,54.84777671831853],[28.980605518422465,54.84420752680854],[28.968708213393313,54.83231022177921],[28.929447106797024,54.81446426423557],[28.879478425674765,54.80137722870404],[28.871150312154004,54.788290193173495],[28.887699848413185,54.75844117499305],[28.941237721044633,54.74059521745039],[28.91387391947705,54.704903302362226],[28.916253380482882,54.691816266830784],[28.94718637355912,54.6466065077193],[28.935289068529258,54.62162216715755],[28.945996643056205,54.613294053638114],[28.98763721065779,54.60496594011691],[28.99596532417811,54.58711998257425],[29.006672898704167,54.57641240804695],[28.993585863172278,54.56213564201241],[29.00072424618968,54.546669145473984],[28.990016671663533,54.538341031953664],[29.00310370719551,54.50740803887858],[28.98049882764039,54.4790527952255],[28.947979527227464,54.459818818761086],[28.917046534152025,54.450300974737765],[28.89087246308736,54.43483447820111],[28.89801084610476,54.41579879015447],[28.89563138509893,54.40271175462205],[28.930133569683914,54.36464037852876],[28.98248171181156,54.36464037852876],[29.046727158969066,54.3289484634406],[29.06576284701633,54.308723044891835],[29.08360880455988,54.27422086030677],[29.069332038525076,54.26113382477435],[29.057434733496013,54.238528945219485],[29.10383422310917,54.251615980751026],[29.14428506020864,54.243287867231594],[29.182356436301482,54.26113382477435],[29.22875592591544,54.24804678924281],[29.25136080547056,54.25399544175801],[29.276345146032313,54.26946193829555],[29.294191103575862,54.26232355527735],[29.32036517463964,54.240908406225586],[29.341780323692646,54.236149484213485],[29.390559274311634,54.25994409427223],[29.444097146942994,54.23733921471737],[29.43219984191402,54.22068298767496],[29.44528687744591,54.1968883776171],[29.476219870522147,54.18974999459988],[29.48335825353955,54.170714306553236],[29.46551229599529,54.157627271020814],[29.46789175700103,54.14454023548839],[29.48097879253372,54.13859158297417],[29.497635019574354,54.10765858989909],[29.540465317678855,54.088622901852446],[29.584485346286982,54.079105057829125],[29.571398310755093,54.03746449022674],[29.555931814217374,54.005341766647675],[29.535706395667283,53.99225473111525],[29.558311275223204,53.97797796508169],[29.532137204158538,53.95775254653196],[29.49882475007727,53.96132173804106],[29.453614990966226,53.94466551099865],[29.441893942307818,53.924660412913006],[29.438324750799072,53.905624724866364],[29.440704211804903,53.87945065380241],[29.48472424041303,53.88301984531062],[29.513277772482727,53.87112254028307],[29.55134914857628,53.859225235252765],[29.58109241114889,53.86517388776796],[29.610835673722214,53.86517388776796],[29.628681631265675,53.86993280977909],[29.641768666797653,53.860414965755766],[29.628681631265675,53.842569008212216],[29.613215134727955,53.824723050667686],[29.642958397300568,53.81401547614225],[29.669132468365145,53.79497978809561],[29.657235163335372,53.7866516745744],[29.639389205791822,53.783082483067076],[29.58347187215472,53.81163601513616],[29.554918340085024,53.80568736262104],[29.539451843547305,53.79854897960374],[29.54540049606179,53.774754369545875],[29.559677262096596,53.75452895099711],[29.588230794166293,53.73787272395657],[29.626302170259933,53.71645757490295],[29.682219503897123,53.71645757490295],[29.694116808926097,53.68433485132388],[29.709583305463816,53.660540241267],[29.682219503897123,53.64388401422458],[29.682219503897123,53.63079697869394],[29.678650312388378,53.622468865172735],[29.661994085346944,53.62008940416673],[29.684598964902865,53.60224344662397],[29.692927078423182,53.58677695008555],[29.684598964902865,53.57844883656434],[29.661994085346944,53.57131045354711],[29.6524762413238,53.55703368751258],[29.59893836869315,53.54751584348926],[29.5739540281314,53.554654226506486],[29.558663787964335,53.54656112148043],[29.574130284502054,53.532284355445],[29.561043248970165,53.51443839790225],[29.52416160338015,53.48707459633529],[29.507505376339516,53.452572411750225],[29.543197291426527,53.451382681248106],[29.574130284502054,53.445434028733],[29.61101193009269,53.42044968817116],[29.625288696127583,53.38832696459307],[29.62052977411601,53.362152893528226],[29.602683816572462,53.34311720548158],[29.622909235121753,53.31575340391551],[29.625288696127583,53.27530256681533],[29.637186001156557,53.2241441551914],[29.5907865115434,53.24317984323804],[29.558663787964335,53.24317984323804],[29.550335674444018,53.226523616195635],[29.566991901484563,53.19321116211445],[29.602683816572462,53.19083170110844],[29.659790880712567,53.17774466557691],[29.675257377250286,53.148001403003946],[29.706190370325725,53.1289657149573],[29.65622168920382,53.11111975741464],[29.65146276719216,53.094463530372224],[29.66454980272414,53.0825662253437],[29.7180876753555,53.08375595584582],[29.77162554798606,52.992146707121705],[29.76329743446574,52.98024940209237],[29.775194739494804,52.969541827566935],[29.79185096653615,52.93147045147268],[29.825163420617418,52.90529638040881],[29.823973690114503,52.86722500431641],[29.844199108663883,52.8113076706786],[29.833491534137735,52.77918494709954],[29.848958030675455,52.743493032012346],[29.815645576594275,52.71493949994327],[29.766866625974487,52.70423192541605],[29.721656866864155,52.69947300340484],[29.741882285413535,52.6804373153582],[29.759728242957085,52.65307351379212],[29.787092044524577,52.65307351379212],[29.81527103180638,52.660531361480956],[29.82478887582961,52.68908489355092],[29.85810132991079,52.70455139008935],[29.877137017958056,52.74857141869597],[29.892603514495775,52.76046872372628],[29.918777585559642,52.76046872372628],[29.94257219561839,52.750950879702955],[29.937813273606817,52.70931031210057],[29.963987344670684,52.677187588521505],[30.02585333082236,52.667669744498184],[30.088909047476953,52.668859475002165],[30.105565274517588,52.66410055298908],[30.086529586471123,52.63792648192521],[30.13054961507854,52.59033726180861],[30.155533955640202,52.580819417786174],[30.176949104692497,52.584388609295274],[30.193605331733043,52.586768070299506],[30.20193344525345,52.56773238225286],[30.253091856878978,52.55940426873352],[30.256661048387723,52.5498864247102],[30.24000482134709,52.54750696370411],[30.23524589933543,52.53560965867567],[30.287594041463162,52.509435587611705],[30.297111885487105,52.47850259453476],[30.350649758117665,52.44756960145879],[30.348270297111924,52.42734418290914],[30.353029219123496,52.40117011184519],[30.431551432316606,52.359529544242804],[30.429171971310776,52.339304125693154],[30.464863886397875,52.32978628166983],[30.48984822695874,52.33216574267682],[30.531488794561124,52.32383762915561],[30.53981690808144,52.31788897664228],[30.506504454000172,52.31075059362319],[30.49698660997623,52.30004301909776],[30.52197095053798,52.290525175074436],[30.52197095053798,52.28219706155323],[30.531488794561124,52.26554083451268],[30.516022298023405,52.25364352948415],[30.51721202852632,52.23460784143751],[30.54219636908727,52.24055649395271],[30.564801248642393,52.22271053640818],[30.55290394361342,52.204864578865426],[30.5862163976954,52.19296727383512],[30.5933547807128,52.17512131629246],[30.620718582279583,52.14537805371852],[30.674256454910942,52.14061913170739],[30.683774298934086,52.13229101818618],[30.66235914988197,52.13110128768407],[30.657600227870308,52.123962904666755],[30.699240795471805,52.09421964209379],[30.70043052597472,52.07994287605836],[30.699240795471805,52.06090718801261],[30.70756890899221,52.056148266000505],[30.724225136033557,52.06566611002383],[30.73612244106262,52.06090718801261],[30.731363519051047,52.0478201524793],[30.711138100501667,52.04068176946198],[30.711138100501667,52.03116392543866],[30.74920947659451,52.02283581191932],[30.755158129108995,52.00617958487691],[30.777763008664206,51.98000551381304],[30.79679869671138,51.98714389683027],[30.802747349225957,51.971677400293615],[30.79203977469981,51.95145198174397],[30.821693668168482,51.958364802357224],[30.858575313759207,51.977400490403866],[30.871662349291185,51.97859022090687],[30.874041810296927,51.99048752593629],[30.904974803373165,52.00476429197083],[30.894267228846306,52.01428213599415],[30.918061838905054,52.041645937561995],[30.912113186390656,52.053543242591324],[30.93114887443703,52.06900973912798],[30.940666718460264,52.083286505164295],[30.971599711536502,52.08566596616852],[31.025137584167062,52.083286505164295],[31.062019229757787,52.08804542717462],[31.088193300821654,52.10470165421516],[31.12745440741821,52.10470165421516],[31.164336053008135,52.08804542717462],[31.182182010552484,52.073768661140974],[31.207166351113436,52.07138920013496],[31.228581500165642,52.052353512087436],[31.245237727206277,52.048784320579216],[31.286878294808663,52.044025398568],[31.30353452184921,52.0797173136543],[31.314242096375356,52.11184003723426],[31.33089832341679,52.122547611758804],[31.332088053919705,52.14277303030943],[31.360641585989313,52.14039356930333],[31.441543260187455,52.145152491315436],[31.468907061754948,52.12849626427489],[31.492701671812984,52.114219498239464],[31.51411682086519,52.121357881256685],[31.528393586900084,52.10708111522215],[31.575982807016867,52.10351192371305],[31.62357202713374,52.09280434918762],[31.66640232523824,52.09875300170094],[31.709232623343453,52.08566596616852],[31.74016561641969,52.09161461868372],[31.785375375529934,52.10470165421516],[31.832964595646807,52.10708111522215],[31.871035971739648,52.10589138471826],[31.9031586953188,52.0904248881816],[31.929332766382668,52.07733785264918],[31.94585680114538,52.08553377389122],[31.956564375671437,52.10337973143575],[31.95061572315695,52.11289757545907],[31.958943836677268,52.12003595847638],[31.960133567180183,52.1295538024997],[31.944667070642463,52.13907164652302],[31.942287609636633,52.14621002954025],[31.93276976561349,52.14621002954025],[31.916113538572766,52.162866256580884],[31.926821113098914,52.181901944627526],[31.94585680114538,52.20093763267319],[31.943477340139548,52.22592197323503],[31.93039030460766,52.24614739178557],[31.8768524319763,52.21402466820659],[31.829263211860138,52.22592197323503],[31.779294530737523,52.249716583293775],[31.715049083580016,52.260424157820104],[31.6151117213355,52.28183930687284],[31.618680912844244,52.29611607290738],[31.594886302785408,52.3056339169307],[31.603214416305725,52.340136101515775],[31.607973338317297,52.37463828609907],[31.611542529826043,52.39962262666082],[31.641285792399366,52.40319181816992],[31.669839324468974,52.412709662193244],[31.685305821007493,52.42460696722266],[31.649613905919683,52.46029888230896],[31.621060373849986,52.45910915180596],[31.603214416305725,52.47219618733838],[31.6151117213355,52.50669837192345],[31.603214416305725,52.522164868461886],[31.647234444913853,52.56499516656638],[31.593696572282493,52.584030854613026],[31.57109169272737,52.60544600366488],[31.56157384870414,52.626861152717524],[31.502087323558293,52.67920929484624],[31.483051635511828,52.69943471339499],[31.486620827020573,52.73869581999138],[31.486620827020573,52.75535204703192],[31.4949489405408,52.791043962119105],[31.48781055752349,52.82078722469217],[31.518743550598927,52.83863318223669],[31.52826139462216,52.85409967877512],[31.5235024726105,52.867186714306655],[31.516364089593097,52.867186714306655],[31.502087323558293,52.862427792294554],[31.46520567796748,52.865996983802674],[31.433082954389214,52.8862224023533],[31.402149961312976,52.91001701241116],[31.343853166670755,52.91001701241116],[31.314109904097432,52.912396473418056],[31.278417989010332,52.9314321614647],[31.28436664152482,52.954037041018665],[31.297453677056797,52.97545219007131],[31.318868826109092,52.97664192057529],[31.33195586164098,52.98734949510073],[31.310540712588686,52.99686733912494],[31.277228258507506,53.00519545264437],[31.218931463864486,53.026610601697016],[31.21774173336157,53.03850790672546],[31.246295265431268,53.05040521175488],[31.303402329571373,53.04326682873766],[31.36764777672879,53.03969763722944],[31.4318932238863,53.03612844572034],[31.450928911932674,53.05159494225886],[31.45211864243559,53.07301009131062],[31.440221337406616,53.08966631835116],[31.433082954389214,53.100373892878466],[31.391442386786828,53.11940958092511]]]]}},{"type":"Feature","properties":{"kind":"district","id":"uyezd-1897-253","name":"Гомельский","provinceId":"gubernia-1897-23"},"geometry":{"type":"MultiPolygon","coordinates":[[[[31.502087323558293,52.67920929484624],[31.435245399234624,52.658989121542604],[31.394794562135953,52.63757397248898],[31.318651809948584,52.63757397248898],[31.27582151184417,52.6530404690275],[31.227042561224472,52.64590208601018],[31.196109568148945,52.6554199300335],[31.16160738356405,52.6554199300335],[31.149710078534987,52.64352262500418],[31.07475705685142,52.63876370299296],[30.99385538265328,52.63876370299296],[30.95340454555381,52.654230199529614],[30.885589906887645,52.663748043552935],[30.829672573250456,52.658989121542604],[30.77256550911115,52.6577993910396],[30.732114672011768,52.6577993910396],[30.744011977040742,52.674455618080145],[30.730924941508853,52.681594001097466],[30.69642275692467,52.67326588757626],[30.641695153790394,52.65185073852538],[30.579829167638806,52.67683507908536],[30.512014528972554,52.70776807216133],[30.453717734329622,52.69349130612591],[30.41564635823678,52.668506965565925],[30.44895881231796,52.64590208601018],[30.382333904154713,52.62567666745965],[30.364487946611163,52.61377936243112],[30.358539294096676,52.55429283728607],[30.331175492529184,52.56975933382273],[30.266930045371588,52.572138794828824],[30.284776002915937,52.55548256778819],[30.27644788939562,52.54834418477097],[30.256661048387723,52.5498864247102],[30.24000482134709,52.54750696370411],[30.23524589933543,52.53560965867567],[30.287594041463162,52.509435587611705],[30.297111885487105,52.47850259453476],[30.350649758117665,52.44756960145879],[30.348270297111924,52.42734418290914],[30.353029219123496,52.40117011184519],[30.431551432316606,52.359529544242804],[30.429171971310776,52.339304125693154],[30.464863886397875,52.32978628166983],[30.48984822695874,52.33216574267682],[30.531488794561124,52.32383762915561],[30.53981690808144,52.31788897664228],[30.506504454000172,52.31075059362319],[30.49698660997623,52.30004301909776],[30.52197095053798,52.290525175074436],[30.52197095053798,52.28219706155323],[30.531488794561124,52.26554083451268],[30.516022298023405,52.25364352948415],[30.51721202852632,52.23460784143751],[30.54219636908727,52.24055649395271],[30.564801248642393,52.22271053640818],[30.55290394361342,52.204864578865426],[30.5862163976954,52.19296727383512],[30.5933547807128,52.17512131629246],[30.620718582279583,52.14537805371852],[30.674256454910942,52.14061913170739],[30.683774298934086,52.13229101818618],[30.66235914988197,52.13110128768407],[30.657600227870308,52.123962904666755],[30.699240795471805,52.09421964209379],[30.70043052597472,52.07994287605836],[30.699240795471805,52.06090718801261],[30.70756890899221,52.056148266000505],[30.724225136033557,52.06566611002383],[30.73612244106262,52.06090718801261],[30.731363519051047,52.0478201524793],[30.711138100501667,52.04068176946198],[30.711138100501667,52.03116392543866],[30.74920947659451,52.02283581191932],[30.755158129108995,52.00617958487691],[30.777763008664206,51.98000551381304],[30.79679869671138,51.98714389683027],[30.802747349225957,51.971677400293615],[30.79203977469981,51.95145198174397],[30.821693668168482,51.958364802357224],[30.858575313759207,51.977400490403866],[30.871662349291185,51.97859022090687],[30.874041810296927,51.99048752593629],[30.904974803373165,52.00476429197083],[30.894267228846306,52.01428213599415],[30.918061838905054,52.041645937561995],[30.912113186390656,52.053543242591324],[30.93114887443703,52.06900973912798],[30.940666718460264,52.083286505164295],[30.971599711536502,52.08566596616852],[31.025137584167062,52.083286505164295],[31.062019229757787,52.08804542717462],[31.088193300821654,52.10470165421516],[31.12745440741821,52.10470165421516],[31.164336053008135,52.08804542717462],[31.182182010552484,52.073768661140974],[31.207166351113436,52.07138920013496],[31.228581500165642,52.052353512087436],[31.245237727206277,52.048784320579216],[31.286878294808663,52.044025398568],[31.30353452184921,52.0797173136543],[31.314242096375356,52.11184003723426],[31.33089832341679,52.122547611758804],[31.332088053919705,52.14277303030943],[31.360641585989313,52.14039356930333],[31.441543260187455,52.145152491315436],[31.468907061754948,52.12849626427489],[31.492701671812984,52.114219498239464],[31.51411682086519,52.121357881256685],[31.528393586900084,52.10708111522215],[31.575982807016867,52.10351192371305],[31.62357202713374,52.09280434918762],[31.66640232523824,52.09875300170094],[31.709232623343453,52.08566596616852],[31.74016561641969,52.09161461868372],[31.785375375529934,52.10470165421516],[31.832964595646807,52.10708111522215],[31.871035971739648,52.10589138471826],[31.9031586953188,52.0904248881816],[31.929332766382668,52.07733785264918],[31.94585680114538,52.08553377389122],[31.956564375671437,52.10337973143575],[31.95061572315695,52.11289757545907],[31.958943836677268,52.12003595847638],[31.960133567180183,52.1295538024997],[31.944667070642463,52.13907164652302],[31.942287609636633,52.14621002954025],[31.93276976561349,52.14621002954025],[31.916113538572766,52.162866256580884],[31.926821113098914,52.181901944627526],[31.94585680114538,52.20093763267319],[31.943477340139548,52.22592197323503],[31.93039030460766,52.24614739178557],[31.8768524319763,52.21402466820659],[31.829263211860138,52.22592197323503],[31.779294530737523,52.249716583293775],[31.715049083580016,52.260424157820104],[31.6151117213355,52.28183930687284],[31.618680912844244,52.29611607290738],[31.594886302785408,52.3056339169307],[31.603214416305725,52.340136101515775],[31.607973338317297,52.37463828609907],[31.611542529826043,52.39962262666082],[31.641285792399366,52.40319181816992],[31.669839324468974,52.412709662193244],[31.685305821007493,52.42460696722266],[31.649613905919683,52.46029888230896],[31.621060373849986,52.45910915180596],[31.603214416305725,52.47219618733838],[31.6151117213355,52.50669837192345],[31.603214416305725,52.522164868461886],[31.647234444913853,52.56499516656638],[31.593696572282493,52.584030854613026],[31.57109169272737,52.60544600366488],[31.56157384870414,52.626861152717524],[31.502087323558293,52.67920929484624]]]]}},{"type":"Feature","properties":{"kind":"district","id":"uyezd-1897-255","name":"Быховский","provinceId":"gubernia-1897-23"},"geometry":{"type":"MultiPolygon","coordinates":[[[[29.625288696127583,53.38832696459307],[29.68634155994926,53.365689040274475],[29.71132590051101,53.364499309770494],[29.74939727660385,53.370447962284715],[29.755345929118427,53.34189443021475],[29.779140539176375,53.33951496920874],[29.783899461188835,53.372827423291696],[29.821970837281675,53.36093011826139],[29.84695517784254,53.36093011826139],[29.868370326895633,53.35736092675327],[29.901682780976813,53.363309579268375],[29.94570280958503,53.35260200474205],[29.977825533163383,53.33118685568931],[30.027794214285997,53.31809982015689],[30.046829902332462,53.31809982015689],[30.071814242894124,53.30858197613357],[30.143198073069033,53.32047928116299],[30.178889988156133,53.32999712518542],[30.232427860787492,53.303823054121466],[30.2538430098397,53.28835655758481],[30.33474468403784,53.26932086953728],[30.360918755102507,53.266941408531274],[30.42873339376867,53.24790572048463],[30.49535830193192,53.227680301934896],[30.506065876458067,53.211024074894354],[30.521532372995786,53.206265152882246],[30.567931862609743,53.220541918918556],[30.566742132106828,53.2395776069652],[30.577449706632976,53.2740797915485],[30.616710813228732,53.290736018589044],[30.6500232673108,53.27289006104638],[30.692853565416012,53.25385437299885],[30.77256550911115,53.2360084154561],[30.855846644315122,53.21578299690557],[30.878451523870243,53.211024074894354],[30.887969367893476,53.22292137992466],[30.90700505594065,53.231249493444],[30.934368857507433,53.24076733746732],[30.933179127004518,53.25504410350186],[30.94269697102775,53.277648983058484],[30.972440233600274,53.290736018589044],[30.981958077624217,53.31572035915089],[30.974819694606904,53.362119848765374],[30.97600942510982,53.40851933837898],[30.990286191144623,53.452539366985505],[31.03430621975195,53.46681613302191],[31.02478837572872,53.49299020408577],[30.995045113156195,53.504887509114305],[30.99385538265328,53.520354005651846],[30.983147808127132,53.5465280767166],[30.985527269132962,53.57270214778056],[30.936748318513263,53.5881686443181],[30.92960993549586,53.601255679850524],[30.9177126304668,53.62267082890415],[30.9177126304668,53.63694759493771],[30.939127779519005,53.64646543896103],[30.93198939650169,53.671449779522874],[30.956973737062555,53.677398432037975],[30.997424574162025,53.66431139650467],[31.02121918422006,53.66431139650467],[31.023598645225803,53.682157354049195],[31.022408914722977,53.69405465907862],[30.97838888611556,53.71665953863427],[30.956973737062555,53.71428007762737],[30.897487211916708,53.71428007762737],[30.85346718330929,53.70833142511306],[30.82848284274754,53.71546980813038],[30.798739580175017,53.71190061662128],[30.780893622631556,53.71309034712526],[30.722596827988536,53.73212603517092],[30.68333572139198,53.74164387919424],[30.64764380630497,53.73688495718302],[30.603623777696754,53.73926441818912],[30.539378330539336,53.73926441818912],[30.491789110423174,53.73926441818912],[30.433492315780242,53.746402801206344],[30.379954443148883,53.755920645229665],[30.3525906415821,53.748782262211556],[30.326416570517523,53.73688495718302],[30.27882735040145,53.73569522668091],[30.25860193185136,53.746402801206344],[30.252653279336783,53.760679567240885],[30.226479208273005,53.757110375731784],[30.18245917966479,53.748782262211556],[30.14200834256612,53.75830010623488],[30.107506157981224,53.76543848925397],[30.09560885295225,53.748782262211556],[30.045640171829547,53.749971992715444],[30.00162014322213,53.75830010623488],[29.989722838192357,53.77138714176819],[29.99924068221639,53.77852552478541],[30.051588824344034,53.77495633327729],[30.049209363338292,53.79756121283205],[30.007568795736706,53.79875094333417],[29.977825533163383,53.79280229081995],[29.956410384111088,53.79875094333417],[29.94570280958503,53.81421743987269],[29.91239035550296,53.834442858422335],[29.89216493695367,53.835632588924454],[29.870749787901374,53.836822319428435],[29.87193951840429,53.85347854646898],[29.848144908345454,53.86537585149742],[29.8160221847671,53.87251423451562],[29.78508919169166,53.85347854646898],[29.74463835459228,53.84634016345176],[29.732741049563217,53.833253127918354],[29.748207546100936,53.818976361883905],[29.705377247995724,53.80469959584937],[29.669132468365145,53.79497978809561],[29.657235163335372,53.7866516745744],[29.639389205791822,53.783082483067076],[29.58347187215472,53.81163601513616],[29.554918340085024,53.80568736262104],[29.539451843547305,53.79854897960374],[29.54540049606179,53.774754369545875],[29.559677262096596,53.75452895099711],[29.588230794166293,53.73787272395657],[29.626302170259933,53.71645757490295],[29.682219503897123,53.71645757490295],[29.694116808926097,53.68433485132388],[29.709583305463816,53.660540241267],[29.682219503897123,53.64388401422458],[29.682219503897123,53.63079697869394],[29.678650312388378,53.622468865172735],[29.661994085346944,53.62008940416673],[29.684598964902865,53.60224344662397],[29.692927078423182,53.58677695008555],[29.684598964902865,53.57844883656434],[29.661994085346944,53.57131045354711],[29.6524762413238,53.55703368751258],[29.59893836869315,53.54751584348926],[29.5739540281314,53.554654226506486],[29.558663787964335,53.54656112148043],[29.574130284502054,53.532284355445],[29.561043248970165,53.51443839790225],[29.52416160338015,53.48707459633529],[29.507505376339516,53.452572411750225],[29.543197291426527,53.451382681248106],[29.574130284502054,53.445434028733],[29.61101193009269,53.42044968817116],[29.625288696127583,53.38832696459307]]]]}},{"type":"Feature","properties":{"kind":"district","id":"uyezd-1897-256","name":"Чериковский","provinceId":"gubernia-1897-23"},"geometry":{"type":"MultiPolygon","coordinates":[[[[31.794368948725264,53.12939681365333],[31.80644131614389,53.14677862773715],[31.807631046646804,53.163434854777734],[31.82904619569979,53.183660273328314],[31.86592784128976,53.20150623087102],[31.90875813939499,53.21340353590131],[31.928983557944377,53.2181624579116],[31.958726820517654,53.22173164942069],[31.970624125546692,53.236008415456126],[31.971813856049607,53.2562338340058],[31.990849544096022,53.26099275601882],[31.997987927113456,53.25028518149065],[32.03843876421291,53.26099275601882],[32.040818225218686,53.27883871356153],[32.04914633873898,53.303823054121494],[32.03843876421291,53.31572035915087],[32.050336069241894,53.33832523870569],[32.02892092018965,53.34070469971266],[32.007505771136664,53.35260200474204],[31.967054934038003,53.36568904027445],[31.939691132470443,53.38472472832109],[31.925414366435632,53.38472472832109],[31.899240295371783,53.39781176385168],[31.87187649380428,53.40495014686894],[31.85165107525495,53.432313948436786],[31.836184578717223,53.45967775000463],[31.84927161424912,53.48109289905642],[31.84808188374626,53.50726697012033],[31.823097543185327,53.53582050219029],[31.81952835167658,53.55366645973481],[31.76004182653071,53.5667534952654],[31.725539641945772,53.5881686443181],[31.72316018094,53.61077352387383],[31.70888341490513,53.63218867292744],[31.72316018094,53.644085977955],[31.72078071993417,53.65598328298438],[31.725539641945772,53.671449779522845],[31.713642336916735,53.703572503101896],[31.72316018094,53.73212603517095],[31.721970450437084,53.769007680762115],[31.73743694697481,53.78209471629452],[31.742195868986414,53.79756121283208],[31.757662365524936,53.80350986534722],[31.76242128753654,53.822545553394775],[31.771939131559748,53.83682231942839],[31.78621589759456,53.85109908546292],[31.781456975582955,53.87608342602471],[31.770749401056833,53.90344722759073],[31.72316018094,53.9272418376504],[31.693416918367404,53.92843156815252],[31.67200176931442,53.91534453262011],[31.633930393221533,53.921293185135255],[31.591100095116303,53.93556995116978],[31.56016710204085,53.93438022066766],[31.519716264941394,53.94032887318281],[31.506629229409498,53.95103644770825],[31.512577881924017,53.966502944244894],[31.486403810860168,53.97840024927427],[31.462609200801353,53.99267701531062],[31.42334809420555,54.00219485933394],[31.456660548286834,54.03431758291117],[31.428107016217155,54.040266235428135],[31.413830250182343,54.05692246246781],[31.37218968258003,54.053353270957814],[31.30080585240512,54.053353270957814],[31.240129596756333,53.99862566782576],[31.202058220663503,53.94627752569704],[31.18064307161046,53.899878036081645],[31.174694419095943,53.85823746848018],[31.156848461552443,53.824925014399014],[31.142571695517574,53.7856639078027],[31.12591546847699,53.73450549617701],[31.128294929482763,53.692864928574636],[31.022408914722977,53.69405465907862],[31.023598645225803,53.682157354049195],[31.02121918422006,53.66431139650467],[30.997424574162025,53.66431139650467],[30.956973737062555,53.677398432037975],[30.93198939650169,53.671449779522874],[30.939127779519005,53.64646543896103],[30.9177126304668,53.63694759493771],[30.9177126304668,53.62267082890415],[30.92960993549586,53.601255679850524],[30.936748318513263,53.5881686443181],[30.985527269132962,53.57270214778056],[30.983147808127132,53.5465280767166],[30.99385538265328,53.520354005651846],[30.995045113156195,53.504887509114305],[31.02478837572872,53.49299020408577],[31.03430621975195,53.46681613302191],[30.990286191144623,53.452539366985505],[30.97600942510982,53.40851933837898],[30.974819694606904,53.362119848765374],[30.981958077624217,53.31572035915089],[30.972440233600274,53.290736018589044],[30.94269697102775,53.277648983058484],[30.933179127004518,53.25504410350186],[30.934368857507433,53.24076733746732],[30.90700505594065,53.231249493444],[30.887969367893476,53.22292137992466],[30.878451523870243,53.211024074894354],[30.94269697102775,53.207454883386134],[30.96887104209153,53.1931781173516],[30.97838888611556,53.16819377678985],[31.01883972321423,53.144399166731105],[31.055721368804956,53.137260783713785],[31.185401993622886,53.15629647176043],[31.19729929865186,53.12060455667324],[31.287718816873234,53.11584563466202],[31.359102647048054,53.114655904158134],[31.38527671811192,53.1027585991296],[31.391442386786828,53.11940958092511],[31.35812993270556,53.13368634695965],[31.354560741196813,53.15153230450231],[31.37835535125494,53.16342960953173],[31.381924542763596,53.174137184058054],[31.390252656283913,53.181275567075275],[31.392632117289743,53.1955523331108],[31.392632117289743,53.21577775166044],[31.409288344331088,53.21815721266645],[31.45687756444725,53.21220856015134],[31.485431096517658,53.21101882964922],[31.516364089593097,53.20982909914524],[31.53302031663373,53.2015009856259],[31.556814926692567,53.2015009856259],[31.582988997756434,53.21577775166044],[31.609163068820212,53.23362370920496],[31.679357168492206,53.20863936864313],[31.745982076655455,53.19198314160258],[31.766207495205634,53.169378262046834],[31.788812374760756,53.13130688595355],[31.794368948725264,53.12939681365333]]]]}},{"type":"Feature","properties":{"kind":"district","id":"uyezd-1897-258","name":"Климовичский","provinceId":"gubernia-1897-23"},"geometry":{"type":"MultiPolygon","coordinates":[[[[32.63114157082468,53.31928430541397],[32.657098625728935,53.32761766418021],[32.69635973232469,53.33356631669541],[32.75108733545896,53.33594577770142],[32.73086191690958,53.36806850127871],[32.741569491435726,53.39186311133834],[32.741569491435726,53.40613987737288],[32.743948952441556,53.43231394843674],[32.73443110841833,53.443021522962184],[32.70825703735366,53.42993448743074],[32.67613431377531,53.42160637391131],[32.62854509365852,53.42160637391131],[32.60712994460623,53.40613987737288],[32.590473717565594,53.40613987737288],[32.57143802951842,53.42993448743074],[32.576196951529994,53.444211253466165],[32.56429964650101,53.462057211008826],[32.544074227951725,53.47157505503215],[32.541694766945895,53.47990316855433],[32.51790015688786,53.48942101257765],[32.527418000911,53.50845670062429],[32.55359207197487,53.528682119173055],[32.48696716381162,53.56080484275212],[32.432239560677345,53.60601460186174],[32.423911447157025,53.65122436097411],[32.45127524872452,53.682157354049195],[32.48220824179996,53.678588162540095],[32.49410554682902,53.68572654555741],[32.498864468840594,53.69881358108974],[32.483397972302875,53.70357250310194],[32.476259589285476,53.72617738265759],[32.51195150437248,53.7333157656749],[32.51908988739078,53.751161723217564],[32.49529527733185,53.75830010623488],[32.48934662481745,53.77852552478541],[32.498864468840594,53.79399202132393],[32.5131412348754,53.824925014399014],[32.48458770280579,53.827304475405114],[32.465552014759325,53.852288815965],[32.416773064139626,53.88322180904194],[32.40011683709899,53.89511911407136],[32.4286703691686,53.904636958094684],[32.434619021683176,53.89511911407136],[32.47744931978839,53.902257497088584],[32.48458770280579,53.917723993627106],[32.481018511297044,53.92843156815255],[32.45603417073609,53.92843156815255],[32.442947135203404,53.94032887318187],[32.416773064139626,53.94389806469097],[32.40368602860774,53.989107823801575],[32.38940926257284,54.050973809953604],[32.34538923396472,54.054543001461724],[32.33230219843283,54.02598946939176],[32.284712978315866,54.01052297285334],[32.25140052423468,54.011712703357226],[32.22879564467877,54.01885108637454],[32.21213941763813,54.02598946939176],[32.203811304117814,54.01528189486544],[32.203811304117814,53.995056476314815],[32.18715507707718,53.986728362795475],[32.15741181450386,53.991487284806695],[32.087217714831866,53.977210518772154],[32.02535172868099,53.95341590871429],[31.971813856049625,53.94508779519309],[31.961106281523477,53.93081102915855],[31.971813856049625,53.914154802118006],[31.956347359511906,53.88679100055016],[31.90161975637763,53.87727315652684],[31.871876493804308,53.8606169294862],[31.826666734693976,53.8629963904923],[31.804061855138055,53.87370396501774],[31.781456975582955,53.87608342602471],[31.78621589759456,53.85109908546292],[31.771939131559748,53.83682231942839],[31.76242128753654,53.822545553394775],[31.757662365524936,53.80350986534722],[31.742195868986414,53.79756121283208],[31.73743694697481,53.78209471629452],[31.721970450437084,53.769007680762115],[31.72316018094,53.73212603517095],[31.713642336916735,53.703572503101896],[31.725539641945772,53.671449779522845],[31.72078071993417,53.65598328298438],[31.72316018094,53.644085977955],[31.70888341490513,53.63218867292744],[31.72316018094,53.61077352387383],[31.725539641945772,53.5881686443181],[31.76004182653071,53.5667534952654],[31.81952835167658,53.55366645973481],[31.823097543185327,53.53582050219029],[31.84808188374626,53.50726697012033],[31.84927161424912,53.48109289905642],[31.836184578717223,53.45967775000463],[31.85165107525495,53.432313948436786],[31.87187649380428,53.40495014686894],[31.899240295371783,53.39781176385168],[31.925414366435632,53.38472472832109],[31.939691132470443,53.38472472832109],[31.967054934038003,53.36568904027445],[32.007505771136664,53.35260200474204],[32.02892092018965,53.34070469971266],[32.050336069241894,53.33832523870569],[32.03843876421291,53.31572035915087],[32.04914633873898,53.303823054121494],[32.040818225218686,53.27883871356153],[32.03843876421291,53.26099275601882],[31.997987927113456,53.25028518149065],[31.990849544096022,53.26099275601882],[31.971813856049607,53.2562338340058],[31.970624125546692,53.236008415456126],[31.958726820517654,53.22173164942069],[31.928983557944377,53.2181624579116],[31.90875813939499,53.21340353590131],[31.86592784128976,53.20150623087102],[31.82904619569979,53.183660273328314],[31.807631046646804,53.163434854777734],[31.80644131614389,53.14677862773715],[31.794368948725264,53.12939681365333],[31.826883750854396,53.11821985042113],[31.903026503040877,53.10394308438659],[31.93990814863089,53.092045779357264],[31.97322060271287,53.07657928281874],[32.011291978805716,53.07301009131062],[32.03627631936746,53.08847658784816],[32.0600709294255,53.08609712684206],[32.07791688696905,53.07538955231663],[32.11598826306269,53.07301009131062],[32.1659569441845,53.08490739633995],[32.18142344072302,53.115840389415126],[32.21235643379855,53.12773769444445],[32.23139212184493,53.113460928409914],[32.2504278098921,53.11821985042113],[32.24566888788053,53.13368634695965],[32.25756619290959,53.13963499947476],[32.29563756900244,53.14082472997687],[32.3289500230845,53.15034257400019],[32.343226789119306,53.175326914562035],[32.414610619294216,53.207449638141014],[32.47052795293132,53.24671074473641],[32.49194310198361,53.27169508529825],[32.52049663405322,53.29905888686521],[32.57165504567875,53.30143834787122],[32.60734696076665,53.31214592239665],[32.63114157082468,53.31928430541397]]]]}},{"type":"Feature","properties":{"kind":"district","id":"uyezd-1897-259","name":"Мстиславский","provinceId":"gubernia-1897-23"},"geometry":{"type":"MultiPolygon","coordinates":[[[[31.30080585240512,54.053353270957814],[31.37218968258003,54.053353270957814],[31.413830250182343,54.05692246246781],[31.428107016217155,54.040266235428135],[31.456660548286834,54.03431758291117],[31.42334809420555,54.00219485933394],[31.462609200801353,53.99267701531062],[31.486403810860168,53.97840024927427],[31.512577881924017,53.966502944244894],[31.506629229409498,53.95103644770825],[31.519716264941394,53.94032887318281],[31.56016710204085,53.93438022066766],[31.591100095116303,53.93556995116978],[31.633930393221533,53.921293185135255],[31.67200176931442,53.91534453262011],[31.693416918367404,53.92843156815252],[31.72316018094,53.9272418376504],[31.770749401056833,53.90344722759073],[31.781456975582955,53.87608342602471],[31.804061855138055,53.87370396501774],[31.826666734693976,53.8629963904923],[31.871876493804308,53.8606169294862],[31.90161975637763,53.87727315652684],[31.956347359511906,53.88679100055016],[31.971813856049625,53.914154802118006],[31.961106281523477,53.93081102915855],[31.971813856049625,53.94508779519309],[32.02535172868099,53.95341590871429],[32.087217714831866,53.977210518772154],[32.15741181450386,53.991487284806695],[32.18715507707718,53.986728362795475],[32.203811304117814,53.995056476314815],[32.203811304117814,54.01528189486544],[32.21213941763813,54.02598946939176],[32.22879564467877,54.01885108637454],[32.25140052423468,54.011712703357226],[32.284712978315866,54.01052297285334],[32.33230219843283,54.02598946939176],[32.34538923396472,54.054543001461724],[32.32873300692408,54.04621488794052],[32.32040489340376,54.054543001461724],[32.33349192893574,54.074768420010486],[32.356096808490776,54.078337611519586],[32.36442492201118,54.08785545554291],[32.36204546100535,54.09856303007021],[32.33230219843283,54.10570141308743],[32.32873300692408,54.13068575364741],[32.3156459713921,54.14496251968372],[32.302558935859416,54.17113659074768],[32.259728637755,54.1782749737649],[32.21451887864396,54.19017227879432],[32.19786265160333,54.20325931432674],[32.17763723305394,54.23419230740094],[32.16336046701834,54.24252042092215],[32.13361720444582,54.25203826494449],[32.10268421137038,54.2686944919869],[32.078889601311545,54.27821233601022],[32.065802565779656,54.300817215565075],[32.0265414591839,54.307955598582296],[31.969434395043795,54.32937074763415],[31.93969113247047,54.33888859165747],[31.868307302295563,54.361493471213215],[31.834994848214293,54.37101131523654],[31.8076310466468,54.357924279704115],[31.796923472120653,54.31747344260562],[31.786215897594595,54.27464314450121],[31.76955967055396,54.26274583947179],[31.74219586898638,54.27940206651233],[31.71840125892843,54.304386407074176],[31.69341691836739,54.306765868080184],[31.686278535349988,54.296058293552974],[31.689847726858734,54.28178152751843],[31.6731914998173,54.28059179701445],[31.66010446428541,54.26750476148301],[31.66248392529124,54.26036637846569],[31.643448237244776,54.25322799544847],[31.613704974672164,54.23181284639671],[31.5887206341105,54.230623115892726],[31.58634117310467,54.24371015142515],[31.569684946064037,54.25917664796269],[31.529234108964566,54.275832875003324],[31.493542193877555,54.29724802405686],[31.461419470298402,54.307955598582296],[31.428107016217133,54.302006946068076],[31.38765617911775,54.32104263411472],[31.35196426403074,54.32342209512082],[31.323410731961044,54.32937074763415],[31.299616121902208,54.31747344260562],[31.292477738884806,54.299627485061094],[31.294857199890636,54.27940206651233],[31.261544745809367,54.26155610896781],[31.236597012340173,54.2632766423109],[31.227042561224472,54.26393556997391],[31.17945334110751,54.25322799544847],[31.12353600747112,54.235382037903946],[31.116397624453807,54.213966888852184],[31.119966815962464,54.19017227879432],[31.136623043003098,54.19136200929644],[31.144951156523415,54.19731066181154],[31.19491983764603,54.19374147030342],[31.218714447704066,54.1782749737649],[31.22228363921281,54.137824136664634],[31.246078249270848,54.08309653353169],[31.30080585240512,54.053353270957814]]]]}},{"type":"Feature","properties":{"kind":"district","id":"uyezd-1897-260","name":"Чаусский","provinceId":"gubernia-1897-23"},"geometry":{"type":"MultiPolygon","coordinates":[[[[31.236597012340173,54.2632766423109],[31.21990417820698,54.28654044952965],[31.1865917241258,54.303196676570195],[31.136623043003098,54.3115247900914],[31.078326248360078,54.31985290361083],[31.037875411260696,54.32223236461684],[31.003373226676512,54.303196676570195],[31.003373226676512,54.27940206651233],[30.97600942510982,54.27464314450121],[30.93198939650169,54.27821233601022],[30.872502871355756,54.26988422248901],[30.81539580721565,54.2686944919869],[30.79517038866636,54.26393556997391],[30.82372392073597,54.24608961243125],[30.832052034256286,54.19969012281764],[30.802308771683762,54.19731066181154],[30.76185793458429,54.196120931307654],[30.713078983965303,54.18779281778822],[30.709509792456647,54.147341980687955],[30.68095626038624,54.12949602314529],[30.675007607871663,54.10689114358955],[30.622659465744018,54.08904518604689],[30.59648539467944,54.070009498000246],[30.60957243021133,54.01052297285334],[30.601244316691012,53.980779710280366],[30.583398359147463,53.95698510022251],[30.579829167638806,53.93556995116977],[30.55127563556831,53.909395880105905],[30.50487614595515,53.87251423451562],[30.478702074890485,53.86537585149742],[30.481081535896315,53.840391510937444],[30.439440968294818,53.822545553393894],[30.400179861698263,53.822545553393894],[30.35497010258793,53.79042282981394],[30.3525906415821,53.748782262211556],[30.379954443148883,53.755920645229665],[30.433492315780242,53.746402801206344],[30.491789110423174,53.73926441818912],[30.539378330539336,53.73926441818912],[30.603623777696754,53.73926441818912],[30.64764380630497,53.73688495718302],[30.68333572139198,53.74164387919424],[30.722596827988536,53.73212603517092],[30.780893622631556,53.71309034712526],[30.798739580175017,53.71190061662128],[30.82848284274754,53.71546980813038],[30.85346718330929,53.70833142511306],[30.897487211916708,53.71428007762737],[30.956973737062555,53.71428007762737],[30.97838888611556,53.71665953863427],[31.022408914722977,53.69405465907862],[31.128294929482763,53.692864928574636],[31.12591546847699,53.73450549617701],[31.142571695517574,53.7856639078027],[31.156848461552443,53.824925014399014],[31.174694419095943,53.85823746848018],[31.18064307161046,53.899878036081645],[31.202058220663503,53.94627752569704],[31.240129596756333,53.99862566782576],[31.30080585240512,54.053353270957814],[31.246078249270848,54.08309653353169],[31.22228363921281,54.137824136664634],[31.218714447704066,54.1782749737649],[31.19491983764603,54.19374147030342],[31.144951156523415,54.19731066181154],[31.136623043003098,54.19136200929644],[31.119966815962464,54.19017227879432],[31.116397624453807,54.213966888852184],[31.12353600747112,54.235382037903946],[31.17945334110751,54.25322799544847],[31.227042561224472,54.26393556997391],[31.236597012340173,54.2632766423109]]]]}},{"type":"Feature","properties":{"kind":"district","id":"uyezd-1897-261","name":"Могилевский","provinceId":"gubernia-1897-23"},"geometry":{"type":"MultiPolygon","coordinates":[[[[30.583398359147463,53.95698510022251],[30.547706444059564,53.94508779519309],[30.514393989978384,53.961744022233724],[30.48227126640003,53.99267701531058],[30.447769081815046,54.00814351184724],[30.42635393276284,54.002194859333905],[30.402559322704004,54.01052297285334],[30.378764712645967,54.00576405084212],[30.363298216108248,54.01290243385934],[30.362108485605333,54.03193812190598],[30.35972902459959,54.073578689508366],[30.340693336552327,54.12473710113319],[30.331175492529184,54.16042901622038],[30.296673307945,54.19255173979944],[30.293104116436254,54.22943338539061],[30.26098139285719,54.25203826494449],[30.221720286261345,54.22824365488672],[30.175320796647476,54.230623115892726],[30.11107534948997,54.23657176840793],[30.11107534948997,54.216346349858185],[30.034932597303488,54.212777158350065],[30.002809873725045,54.27702260550633],[30.014707178754108,54.292489102043874],[30.009948256742536,54.31509398159962],[29.98853310768944,54.32818101713204],[29.96354876712858,54.31747344260562],[29.915959547011706,54.31866317310774],[29.87669844041595,54.33412966964626],[29.851714099855,54.33412966964626],[29.8588524828724,54.359114010208],[29.8160221847671,54.374580506744664],[29.783899461188835,54.372201045740425],[29.75177673760968,54.38171888976375],[29.72917185805456,54.36863185423044],[29.71370536151684,54.372201045740425],[29.69110048196083,54.367442123727436],[29.683962098943518,54.31866317310774],[29.65540856687382,54.32223236461684],[29.65302910586799,54.33769886115536],[29.63518314832373,54.34840643568079],[29.623285843294667,54.34245778316746],[29.609009077259863,54.34007832216136],[29.628044765306328,54.31271452059352],[29.57926581468734,54.31985290361083],[29.49241548797391,54.306765868080184],[29.44720572886367,54.31271452059352],[29.43411869333178,54.303196676570195],[29.417462466290345,54.31033505958751],[29.407944622267113,54.305576137576296],[29.390098664723563,54.3139042510975],[29.338940253098034,54.31271452059352],[29.34488890561252,54.298437754558975],[29.318714834548743,54.28416098852453],[29.294920224490617,54.28416098852453],[29.276345146032313,54.26946193829555],[29.294191103575862,54.26232355527735],[29.32036517463964,54.240908406225586],[29.341780323692646,54.236149484213485],[29.390559274311634,54.25994409427223],[29.444097146942994,54.23733921471737],[29.43219984191402,54.22068298767496],[29.44528687744591,54.1968883776171],[29.476219870522147,54.18974999459988],[29.48335825353955,54.170714306553236],[29.46551229599529,54.157627271020814],[29.46789175700103,54.14454023548839],[29.48097879253372,54.13859158297417],[29.497635019574354,54.10765858989909],[29.540465317678855,54.088622901852446],[29.584485346286982,54.079105057829125],[29.571398310755093,54.03746449022674],[29.555931814217374,54.005341766647675],[29.535706395667283,53.99225473111525],[29.558311275223204,53.97797796508169],[29.532137204158538,53.95775254653196],[29.49882475007727,53.96132173804106],[29.453614990966226,53.94466551099865],[29.441893942307818,53.924660412913006],[29.438324750799072,53.905624724866364],[29.440704211804903,53.87945065380241],[29.48472424041303,53.88301984531062],[29.513277772482727,53.87112254028307],[29.55134914857628,53.859225235252765],[29.58109241114889,53.86517388776796],[29.610835673722214,53.86517388776796],[29.628681631265675,53.86993280977909],[29.641768666797653,53.860414965755766],[29.628681631265675,53.842569008212216],[29.613215134727955,53.824723050667686],[29.642958397300568,53.81401547614225],[29.669132468365145,53.79497978809561],[29.705377247995724,53.80469959584937],[29.748207546100936,53.818976361883905],[29.732741049563217,53.833253127918354],[29.74463835459228,53.84634016345176],[29.78508919169166,53.85347854646898],[29.8160221847671,53.87251423451562],[29.848144908345454,53.86537585149742],[29.87193951840429,53.85347854646898],[29.870749787901374,53.836822319428435],[29.89216493695367,53.835632588924454],[29.91239035550296,53.834442858422335],[29.94570280958503,53.81421743987269],[29.956410384111088,53.79875094333417],[29.977825533163383,53.79280229081995],[30.007568795736706,53.79875094333417],[30.049209363338292,53.79756121283205],[30.051588824344034,53.77495633327729],[29.99924068221639,53.77852552478541],[29.989722838192357,53.77138714176819],[30.00162014322213,53.75830010623488],[30.045640171829547,53.749971992715444],[30.09560885295225,53.748782262211556],[30.107506157981224,53.76543848925397],[30.14200834256612,53.75830010623488],[30.18245917966479,53.748782262211556],[30.226479208273005,53.757110375731784],[30.252653279336783,53.760679567240885],[30.25860193185136,53.746402801206344],[30.27882735040145,53.73569522668091],[30.326416570517523,53.73688495718302],[30.3525906415821,53.748782262211556],[30.35497010258793,53.79042282981394],[30.400179861698263,53.822545553393894],[30.439440968294818,53.822545553393894],[30.481081535896315,53.840391510937444],[30.478702074890485,53.86537585149742],[30.50487614595515,53.87251423451562],[30.55127563556831,53.909395880105905],[30.579829167638806,53.93556995116977],[30.583398359147463,53.95698510022251]]]]}},{"type":"Feature","properties":{"kind":"district","id":"uyezd-1897-263","name":"Сенненский","provinceId":"gubernia-1897-23"},"geometry":{"type":"MultiPolygon","coordinates":[[[[29.57066778377534,54.99349667287879],[29.53858912428963,54.95723192458625],[29.515984244733975,54.94176542804783],[29.479102599144227,54.914401626481755],[29.44816960606781,54.891796746925124],[29.424374996009597,54.87276105887848],[29.406529038466314,54.85253564032884],[29.39225227243142,54.87870971139368],[29.38035496740227,54.89060701642212],[29.38987281142559,54.904883782458434],[29.363698740360835,54.91321189597787],[29.33752466929679,54.914401626481755],[29.323247903261898,54.909642704468766],[29.313730059238576,54.898935129943325],[29.306591676221174,54.87989944189668],[29.304212215215344,54.85253564032884],[29.306591676221174,54.820412916750655],[29.263761378116406,54.80018749820101],[29.213792696994236,54.815653994738554],[29.157875363357135,54.825171838761875],[29.11623479575484,54.83231022177919],[29.07102503664433,54.818033455745535],[29.063886653626838,54.810895072727334],[29.062696923123568,54.80018749820101],[29.042471504573744,54.79304911518379],[29.040092043567913,54.815653994738554],[29.01510770300714,54.82279237775587],[29.007969319989737,54.84777671831851],[28.980605518422422,54.84420752680852],[28.96870821339327,54.83231022177919],[28.92944710679698,54.81446426423555],[28.879478425674723,54.80137722870401],[28.87115031215396,54.78829019317257],[28.887699848413185,54.75844117499305],[28.941237721044633,54.74059521745039],[28.91387391947705,54.704903302362226],[28.916253380482882,54.691816266830784],[28.94718637355912,54.6466065077193],[28.935289068529258,54.62162216715755],[28.945996643056205,54.613294053638114],[28.98763721065779,54.60496594011691],[28.99596532417811,54.58711998257425],[29.006672898704167,54.57641240804695],[28.993585863172278,54.56213564201241],[29.00072424618968,54.546669145473984],[28.990016671663533,54.538341031953664],[29.00310370719551,54.50740803887858],[28.98049882764039,54.4790527952255],[28.947979527227464,54.459818818761086],[28.917046534152025,54.450300974737765],[28.89087246308736,54.43483447820111],[28.89801084610476,54.41579879015447],[28.89563138509893,54.40271175462205],[28.930133569683914,54.36464037852876],[28.98248171181156,54.36464037852876],[29.046727158969066,54.3289484634406],[29.06576284701633,54.308723044891835],[29.08360880455988,54.27422086030677],[29.069332038525076,54.26113382477435],[29.057434733496013,54.238528945219485],[29.10383422310917,54.251615980751026],[29.14428506020864,54.243287867231594],[29.182356436301482,54.26113382477435],[29.22875592591544,54.24804678924281],[29.25136080547056,54.25399544175801],[29.276345146032313,54.26946193829555],[29.294920224490617,54.28416098852453],[29.318714834548743,54.28416098852453],[29.34488890561252,54.298437754558975],[29.338940253098034,54.31271452059352],[29.390098664723563,54.3139042510975],[29.407944622267113,54.305576137576296],[29.417462466290345,54.31033505958751],[29.43411869333178,54.303196676570195],[29.44720572886367,54.31271452059352],[29.49241548797391,54.306765868080184],[29.57926581468734,54.31985290361083],[29.628044765306328,54.31271452059352],[29.609009077259863,54.34007832216136],[29.623285843294667,54.34245778316746],[29.63518314832373,54.34840643568079],[29.65302910586799,54.33769886115536],[29.65540856687382,54.32223236461684],[29.683962098943518,54.31866317310774],[29.69110048196083,54.367442123727436],[29.71370536151684,54.372201045740425],[29.72917185805456,54.36863185423044],[29.75177673760968,54.38171888976375],[29.716084822522582,54.39837511680439],[29.67563398542311,54.40432376931763],[29.663736680394138,54.42573891837037],[29.623285843294667,54.43406703189157],[29.630424226312158,54.444774606417894],[29.605439885751117,54.465000024966656],[29.578076084184424,54.47213840798397],[29.566178779154562,54.4876049045224],[29.535245786079123,54.49355355703662],[29.55666093513142,54.50783032307302],[29.553091743622673,54.517348167096344],[29.575696623178594,54.524486550113565],[29.575696623178594,54.532814663633],[29.591163119716313,54.56255792620597],[29.61257826876861,54.57088603972717],[29.65302910586799,54.57326550073318],[29.694669673469576,54.57326550073318],[29.7244129360429,54.57802442274351],[29.755345929118427,54.57207577022929],[29.766053503644486,54.58754226676771],[29.763674042638655,54.599439571797134],[29.74701781559802,54.604198493808354],[29.741069163083534,54.62204445135288],[29.82078110677876,54.625613642861],[29.88740601494201,54.63394175638043],[29.93499523505888,54.625613642861],[29.962359036625664,54.6291828343701],[29.946892540087944,54.64940825291886],[29.971876880648807,54.656546635936174],[29.989722838192357,54.64464933090764],[30.00875852623962,54.64821852241674],[30.027794214285997,54.64226986990164],[30.058727207361436,54.64583906141074],[30.084901278426102,54.65773636644006],[30.11345481049571,54.66011582744616],[30.1265418460276,54.65416717493008],[30.143198073069033,54.666064479959495],[30.14438780357195,54.675582323982816],[30.17413106614456,54.681530976497925],[30.216961364249773,54.73625857963175],[30.208633250729456,54.74101750164297],[30.22053055575852,54.75053534566629],[30.234807321793323,54.75053534566629],[30.234807321793323,54.757673728683606],[30.211012711735197,54.77908887773626],[30.163423491618413,54.79574510477689],[30.17175160513873,54.81716025383052],[30.172941335641646,54.83738567237928],[30.186028371173535,54.87426731796947],[30.208633250729456,54.87902623998157],[30.226479208273005,54.89568246702221],[30.231238130284577,54.90639004154853],[30.24075597430781,54.912338694062754],[30.23837651330198,54.920666807583956],[30.206253789723625,54.927805190601276],[30.20744352022654,54.95278953116302],[30.181269449161874,54.9753944107169],[30.190787293185195,54.98253279373599],[30.188407832179365,54.994430098763544],[30.2050640592208,54.994430098763544],[30.214581903243943,54.994430098763544],[30.233617591290407,55.000378751278745],[30.232427860787492,55.007517134295966],[30.214708562687278,55.01715909065847],[30.184965300114133,55.02548720417869],[30.143324732511925,55.04690235323143],[30.12190958345954,55.058799658261734],[30.083838207366433,55.070696963290175],[30.038628448255924,55.05404073624865],[30.021972221215112,55.04928181423841],[30.00888518568278,55.05166127524353],[30.004126263671118,55.080214807313496],[29.987470036630395,55.09568130385104],[29.985090575624653,55.10757860887948],[29.977952192607162,55.12066564441288],[29.996987880653716,55.12066564441288],[30.01007491618534,55.11828618340678],[30.030300334735163,55.14089106296164],[30.00888518568278,55.14208079346464],[29.998177611156187,55.159926751009166],[29.96724461808057,55.165875403522506],[29.930362972490023,55.16944459503249],[29.905378631929338,55.17539324754583],[29.879204560865293,55.18134190006093],[29.874445638853633,55.18967001358125],[29.874445638853633,55.20394677961579],[29.85897914231547,55.20870570162878],[29.836374262759726,55.20632624062277],[29.80544126968411,55.19323920508937],[29.778077468117594,55.17539324754583],[29.75309312755611,55.17182405603761],[29.737626631017857,55.16825486452949],[29.729298517497895,55.163495942517294],[29.732471132171803,55.15173082976615],[29.737230054183463,55.14578217725105],[29.737230054183463,55.13388487222252],[29.72652247965767,55.11841837568409],[29.695589486582055,55.108900531661654],[29.655138649482318,55.092244304621104],[29.633723500429934,55.06250104204814],[29.601600776851758,55.02323993545176],[29.57066778377534,54.99349667287879]]]]}},{"type":"Feature","properties":{"kind":"district","id":"uyezd-1897-264","name":"Оршанский","provinceId":"gubernia-1897-23"},"geometry":{"type":"MultiPolygon","coordinates":[[[[30.26098139285719,54.25203826494449],[30.250273818331042,54.26155610896781],[30.255032740342614,54.28654044952965],[30.25622247084553,54.309145329084416],[30.271688967384048,54.32223236461684],[30.307380882471058,54.34007832216136],[30.33474468403784,54.372201045740425],[30.34188306705604,54.39123673378707],[30.38590309566346,54.41741080485103],[30.383523634657628,54.44001568440668],[30.362108485605333,54.450723258932115],[30.37043659912574,54.46856921647576],[30.414456627733866,54.457861641949435],[30.460856117347024,54.455482180943335],[30.47751234438757,54.48284598251118],[30.490599379920347,54.49950220955182],[30.50249668494932,54.52091735860358],[30.51320425947547,54.54590169916533],[30.564362671100998,54.54709142966745],[30.572690784621315,54.56017846520085],[30.59410593367361,54.55898873469687],[30.60957243021133,54.56255792620597],[30.62028000473739,54.58159361425261],[30.63217730976716,54.5827833447565],[30.677387068877493,54.57564496173741],[30.695233026421842,54.5827833447565],[30.709509792456647,54.610147146322575],[30.722596827988536,54.64345960040375],[30.745201707543657,54.65416717493008],[30.79041146665479,54.66130555794828],[30.829672573250456,54.666064479959495],[30.84870826129772,54.6636850189534],[30.861795296829698,54.6696336714685],[30.9177126304668,54.67320286297672],[30.926040743987116,54.66725421046338],[30.949835354045153,54.6684439409655],[30.97125050309736,54.674392593480704],[30.99861430466494,54.6696336714685],[31.03192675874621,54.676772054486705],[31.045013794278898,54.6696336714685],[31.064049482325274,54.674392593480704],[31.099741397412373,54.6720131324746],[31.119966815962464,54.666064479959495],[31.129484659985696,54.67320286297672],[31.14434814243391,54.67476744007704],[31.15208953954084,54.67558232398278],[31.186591724125776,54.6720131324746],[31.197299298651842,54.68628989850913],[31.255596093294855,54.70532558655577],[31.275821511844185,54.70532558655577],[31.290098277878997,54.71127423907001],[31.312703157434157,54.70770504756183],[31.34244642000749,54.713653700076975],[31.373379413082887,54.70770504756183],[31.394794562135928,54.71008450856789],[31.42334809420555,54.69580774253245],[31.4316762077259,54.680341245993986],[31.45547081778392,54.67320286297672],[31.46855785331661,54.66606447995946],[31.493542193877545,54.66249528845128],[31.493207582173284,54.67061659334831],[31.481644888848564,54.680341245993986],[31.47688596683696,54.69461801202942],[31.505439498906583,54.72912019661362],[31.482834619351422,54.741017501643],[31.48045515834565,54.75291480667238],[31.464988661807922,54.76243265069661],[31.44357351275488,54.76362238119873],[31.434055668731673,54.800504026789895],[31.368620491071283,54.81478079282442],[31.361482108053906,54.833816480871064],[31.375758874088717,54.84928297740953],[31.39717402314176,54.86950839595829],[31.361482108053906,54.88140570098676],[31.324600462463934,54.89330300601614],[31.29842639139929,54.907579772052486],[31.29842639139929,54.92185653808701],[31.310323696428327,54.931374382110334],[31.31746207944576,54.940892226133656],[31.285339355867393,54.94922033965304],[31.241319327259248,54.96587656669362],[31.221093908709918,54.98729171574632],[31.224663100218606,55.01465551731326],[31.24369878826502,55.039639857875045],[31.230611752733125,55.04677824089231],[31.2329912137389,55.06343446793471],[31.20919660368088,55.083659886483474],[31.204437681669276,55.10150584402618],[31.18540199362286,55.12173126257767],[31.167556036078565,55.12292099307979],[31.13781277350597,55.138387489617344],[31.115207893950867,55.15266425565187],[31.10687978042978,55.170510213196394],[31.090223553389137,55.17407940470548],[31.071187865342722,55.16575129118428],[31.043824063775958,55.17407940470548],[31.022408914722973,55.168130752190336],[31.01289107069971,55.17645886570972],[30.98314780812717,55.170510213196394],[30.964238779523292,55.164685673019406],[30.95947985751163,55.13970133245952],[30.94758255248257,55.11828618340678],[30.89999333236623,55.11590672240166],[30.872629530798825,55.10638887837834],[30.840506807220738,55.074266154798394],[30.828609502191586,55.06236884976986],[30.828609502191586,55.04809208373533],[30.813143005653423,55.04095370071721],[30.79053812609777,55.05047154474053],[30.764364055033724,55.04452289222533],[30.70249806888249,55.06355858027197],[30.69654941636756,55.07664561580529],[30.678703458824277,55.0814045378165],[30.662047231783554,55.07664561580529],[30.627545047198836,55.084973729324716],[30.612078550660584,55.079025076809515],[30.575196905070747,55.07664561580529],[30.54783310350352,55.068317502285055],[30.4895363088605,55.06593804127807],[30.48239792584301,55.05404073624865],[30.43480870572667,55.06355858027197],[30.409824365165186,55.05998938876385],[30.409824365165186,55.038574239712005],[30.390788677118632,55.02191801267057],[30.372942719574638,55.01477962965237],[30.356286492533826,55.01477962965237],[30.346768648510594,55.02429747367569],[30.294420506382593,55.02429747367569],[30.255159399786216,55.02310774317357],[30.214708562687278,55.01715909065847],[30.232427860787492,55.007517134295966],[30.233617591290407,55.000378751278745],[30.214581903243943,54.994430098763544],[30.2050640592208,54.994430098763544],[30.188407832179365,54.994430098763544],[30.190787293185195,54.98253279373599],[30.181269449161874,54.9753944107169],[30.20744352022654,54.95278953116302],[30.206253789723625,54.927805190601276],[30.23837651330198,54.920666807583956],[30.24075597430781,54.912338694062754],[30.231238130284577,54.90639004154853],[30.226479208273005,54.89568246702221],[30.208633250729456,54.87902623998157],[30.186028371173535,54.87426731796947],[30.172941335641646,54.83738567237928],[30.17175160513873,54.81716025383052],[30.163423491618413,54.79574510477689],[30.211012711735197,54.77908887773626],[30.234807321793323,54.757673728683606],[30.234807321793323,54.75053534566629],[30.22053055575852,54.75053534566629],[30.208633250729456,54.74101750164297],[30.216961364249773,54.73625857963175],[30.17413106614456,54.681530976497925],[30.14438780357195,54.675582323982816],[30.143198073069033,54.666064479959495],[30.1265418460276,54.65416717493008],[30.11345481049571,54.66011582744616],[30.084901278426102,54.65773636644006],[30.058727207361436,54.64583906141074],[30.027794214285997,54.64226986990164],[30.00875852623962,54.64821852241674],[29.989722838192357,54.64464933090764],[29.971876880648807,54.656546635936174],[29.946892540087944,54.64940825291886],[29.962359036625664,54.6291828343701],[29.93499523505888,54.625613642861],[29.88740601494201,54.63394175638043],[29.82078110677876,54.625613642861],[29.741069163083534,54.62204445135288],[29.74701781559802,54.604198493808354],[29.763674042638655,54.599439571797134],[29.766053503644486,54.58754226676771],[29.755345929118427,54.57207577022929],[29.7244129360429,54.57802442274351],[29.694669673469576,54.57326550073318],[29.65302910586799,54.57326550073318],[29.61257826876861,54.57088603972717],[29.591163119716313,54.56255792620597],[29.575696623178594,54.532814663633],[29.575696623178594,54.524486550113565],[29.553091743622673,54.517348167096344],[29.55666093513142,54.50783032307302],[29.535245786079123,54.49355355703662],[29.566178779154562,54.4876049045224],[29.578076084184424,54.47213840798397],[29.605439885751117,54.465000024966656],[29.630424226312158,54.444774606417894],[29.623285843294667,54.43406703189157],[29.663736680394138,54.42573891837037],[29.67563398542311,54.40432376931763],[29.716084822522582,54.39837511680439],[29.75177673760968,54.38171888976375],[29.783899461188835,54.372201045740425],[29.8160221847671,54.374580506744664],[29.8588524828724,54.359114010208],[29.851714099855,54.33412966964626],[29.87669844041595,54.33412966964626],[29.915959547011706,54.31866317310774],[29.96354876712858,54.31747344260562],[29.98853310768944,54.32818101713204],[30.009948256742536,54.31509398159962],[30.014707178754108,54.292489102043874],[30.002809873725045,54.27702260550633],[30.034932597303488,54.212777158350065],[30.11107534948997,54.216346349858185],[30.11107534948997,54.23657176840793],[30.175320796647476,54.230623115892726],[30.221720286261345,54.22824365488672],[30.26098139285719,54.25203826494449]]]]}},{"type":"Feature","properties":{"kind":"district","id":"uyezd-1897-267","name":"Горецкий","provinceId":"gubernia-1897-23"},"geometry":{"type":"MultiPolygon","coordinates":[[[[31.14434814243391,54.67476744007704],[31.129484659985696,54.67320286297672],[31.119966815962464,54.666064479959495],[31.099741397412373,54.6720131324746],[31.064049482325274,54.674392593480704],[31.045013794278898,54.6696336714685],[31.03192675874621,54.676772054486705],[30.99861430466494,54.6696336714685],[30.97125050309736,54.674392593480704],[30.949835354045153,54.6684439409655],[30.926040743987116,54.66725421046338],[30.9177126304668,54.67320286297672],[30.861795296829698,54.6696336714685],[30.84870826129772,54.6636850189534],[30.829672573250456,54.666064479959495],[30.79041146665479,54.66130555794828],[30.745201707543657,54.65416717493008],[30.722596827988536,54.64345960040375],[30.709509792456647,54.610147146322575],[30.695233026421842,54.5827833447565],[30.677387068877493,54.57564496173741],[30.63217730976716,54.5827833447565],[30.62028000473739,54.58159361425261],[30.60957243021133,54.56255792620597],[30.59410593367361,54.55898873469687],[30.572690784621315,54.56017846520085],[30.564362671100998,54.54709142966745],[30.51320425947547,54.54590169916533],[30.50249668494932,54.52091735860358],[30.490599379920347,54.49950220955182],[30.47751234438757,54.48284598251118],[30.460856117347024,54.455482180943335],[30.414456627733866,54.457861641949435],[30.37043659912574,54.46856921647576],[30.362108485605333,54.450723258932115],[30.383523634657628,54.44001568440668],[30.38590309566346,54.41741080485103],[30.34188306705604,54.39123673378707],[30.33474468403784,54.372201045740425],[30.307380882471058,54.34007832216136],[30.271688967384048,54.32223236461684],[30.25622247084553,54.309145329084416],[30.255032740342614,54.28654044952965],[30.250273818331042,54.26155610896781],[30.26098139285719,54.25203826494449],[30.293104116436254,54.22943338539061],[30.296673307945,54.19255173979944],[30.331175492529184,54.16042901622038],[30.340693336552327,54.12473710113319],[30.35972902459959,54.073578689508366],[30.362108485605333,54.03193812190598],[30.363298216108248,54.01290243385934],[30.378764712645967,54.00576405084212],[30.402559322704004,54.01052297285334],[30.42635393276284,54.002194859333905],[30.447769081815046,54.00814351184724],[30.48227126640003,53.99267701531058],[30.514393989978384,53.961744022233724],[30.547706444059564,53.94508779519309],[30.583398359147463,53.95698510022251],[30.601244316691012,53.980779710280366],[30.60957243021133,54.01052297285334],[30.59648539467944,54.070009498000246],[30.622659465744018,54.08904518604689],[30.675007607871663,54.10689114358955],[30.68095626038624,54.12949602314529],[30.709509792456647,54.147341980687955],[30.713078983965303,54.18779281778822],[30.76185793458429,54.196120931307654],[30.802308771683762,54.19731066181154],[30.832052034256286,54.19969012281764],[30.82372392073597,54.24608961243125],[30.79517038866636,54.26393556997391],[30.81539580721565,54.2686944919869],[30.872502871355756,54.26988422248901],[30.93198939650169,54.27821233601022],[30.97600942510982,54.27464314450121],[31.003373226676512,54.27940206651233],[31.003373226676512,54.303196676570195],[31.037875411260696,54.32223236461684],[31.078326248360078,54.31985290361083],[31.136623043003098,54.3115247900914],[31.1865917241258,54.303196676570195],[31.21990417820698,54.28654044952965],[31.236597012340173,54.2632766423109],[31.261544745809367,54.26155610896781],[31.294857199890636,54.27940206651233],[31.292477738884806,54.299627485061094],[31.299616121902208,54.31747344260562],[31.323410731961044,54.32937074763415],[31.307944235422525,54.34602697467656],[31.301995582908038,54.365062662723204],[31.27344205083834,54.38171888976375],[31.247267979773763,54.387667542277086],[31.249647440779505,54.40551349982161],[31.231801483236044,54.441205414908794],[31.23299121373887,54.47094867748186],[31.265113937318024,54.50188167055782],[31.256785823797795,54.54233250765632],[31.256785823797795,54.55541954318865],[31.244888518767933,54.56969630922319],[31.246078249270848,54.595870380287145],[31.234180944241785,54.62680337336312],[31.206817142675092,54.6315622953762],[31.203247951166347,54.64821852241674],[31.156848461552478,54.666064479959495],[31.14434814243391,54.67476744007704]]]]}},{"type":"Feature","properties":{"kind":"district","id":"uyezd-1897-743","name":"Рогачевский","provinceId":"gubernia-1897-23"},"geometry":{"type":"MultiPolygon","coordinates":[[[[31.391442386786828,53.11940958092511],[31.38527671811192,53.1027585991296],[31.359102647048054,53.114655904158134],[31.287718816873234,53.11584563466202],[31.19729929865186,53.12060455667324],[31.185401993622886,53.15629647176043],[31.055721368804956,53.137260783713785],[31.01883972321423,53.144399166731105],[30.97838888611556,53.16819377678985],[30.96887104209153,53.1931781173516],[30.94269697102775,53.207454883386134],[30.878451523870243,53.211024074894354],[30.855846644315122,53.21578299690557],[30.77256550911115,53.2360084154561],[30.692853565416012,53.25385437299885],[30.6500232673108,53.27289006104638],[30.616710813228732,53.290736018589044],[30.577449706632976,53.2740797915485],[30.566742132106828,53.2395776069652],[30.567931862609743,53.220541918918556],[30.521532372995786,53.206265152882246],[30.506065876458067,53.211024074894354],[30.49535830193192,53.227680301934896],[30.42873339376867,53.24790572048463],[30.360918755102507,53.266941408531274],[30.33474468403784,53.26932086953728],[30.2538430098397,53.28835655758481],[30.232427860787492,53.303823054121466],[30.178889988156133,53.32999712518542],[30.143198073069033,53.32047928116299],[30.071814242894124,53.30858197613357],[30.046829902332462,53.31809982015689],[30.027794214285997,53.31809982015689],[29.977825533163383,53.33118685568931],[29.94570280958503,53.35260200474205],[29.901682780976813,53.363309579268375],[29.868370326895633,53.35736092675327],[29.84695517784254,53.36093011826139],[29.821970837281675,53.36093011826139],[29.783899461188835,53.372827423291696],[29.779140539176375,53.33951496920874],[29.755345929118427,53.34189443021475],[29.74939727660385,53.370447962284715],[29.71132590051101,53.364499309770494],[29.68634155994926,53.365689040274475],[29.625288696127583,53.38832696459307],[29.62052977411601,53.362152893528226],[29.602683816572462,53.34311720548158],[29.622909235121753,53.31575340391551],[29.625288696127583,53.27530256681533],[29.637186001156557,53.2241441551914],[29.5907865115434,53.24317984323804],[29.558663787964335,53.24317984323804],[29.550335674444018,53.226523616195635],[29.566991901484563,53.19321116211445],[29.602683816572462,53.19083170110844],[29.659790880712567,53.17774466557691],[29.675257377250286,53.148001403003946],[29.706190370325725,53.1289657149573],[29.65622168920382,53.11111975741464],[29.65146276719216,53.094463530372224],[29.66454980272414,53.0825662253437],[29.7180876753555,53.08375595584582],[29.77162554798606,52.992146707121705],[29.76329743446574,52.98024940209237],[29.775194739494804,52.969541827566935],[29.79185096653615,52.93147045147268],[29.825163420617418,52.90529638040881],[29.823973690114503,52.86722500431641],[29.844199108663883,52.8113076706786],[29.833491534137735,52.77918494709954],[29.848958030675455,52.743493032012346],[29.815645576594275,52.71493949994327],[29.766866625974487,52.70423192541605],[29.721656866864155,52.69947300340484],[29.741882285413535,52.6804373153582],[29.759728242957085,52.65307351379212],[29.787092044524577,52.65307351379212],[29.81527103180638,52.660531361480956],[29.82478887582961,52.68908489355092],[29.85810132991079,52.70455139008935],[29.877137017958056,52.74857141869597],[29.892603514495775,52.76046872372628],[29.918777585559642,52.76046872372628],[29.94257219561839,52.750950879702955],[29.937813273606817,52.70931031210057],[29.963987344670684,52.677187588521505],[30.02585333082236,52.667669744498184],[30.088909047476953,52.668859475002165],[30.105565274517588,52.66410055298908],[30.086529586471123,52.63792648192521],[30.13054961507854,52.59033726180861],[30.155533955640202,52.580819417786174],[30.176949104692497,52.584388609295274],[30.193605331733043,52.586768070299506],[30.20193344525345,52.56773238225286],[30.253091856878978,52.55940426873352],[30.256661048387723,52.5498864247102],[30.27644788939562,52.54834418477097],[30.284776002915937,52.55548256778819],[30.266930045371588,52.572138794828824],[30.331175492529184,52.56975933382273],[30.358539294096676,52.55429283728607],[30.364487946611163,52.61377936243112],[30.382333904154713,52.62567666745965],[30.44895881231796,52.64590208601018],[30.41564635823678,52.668506965565925],[30.453717734329622,52.69349130612591],[30.512014528972554,52.70776807216133],[30.579829167638806,52.67683507908536],[30.641695153790394,52.65185073852538],[30.69642275692467,52.67326588757626],[30.730924941508853,52.681594001097466],[30.744011977040742,52.674455618080145],[30.732114672011768,52.6577993910396],[30.77256550911115,52.6577993910396],[30.829672573250456,52.658989121542604],[30.885589906887645,52.663748043552935],[30.95340454555381,52.654230199529614],[30.99385538265328,52.63876370299296],[31.07475705685142,52.63876370299296],[31.149710078534987,52.64352262500418],[31.16160738356405,52.6554199300335],[31.196109568148945,52.6554199300335],[31.227042561224472,52.64590208601018],[31.27582151184417,52.6530404690275],[31.318651809948584,52.63757397248898],[31.394794562135953,52.63757397248898],[31.435245399234624,52.658989121542604],[31.502087323558293,52.67920929484624],[31.483051635511828,52.69943471339499],[31.486620827020573,52.73869581999138],[31.486620827020573,52.75535204703192],[31.4949489405408,52.791043962119105],[31.48781055752349,52.82078722469217],[31.518743550598927,52.83863318223669],[31.52826139462216,52.85409967877512],[31.5235024726105,52.867186714306655],[31.516364089593097,52.867186714306655],[31.502087323558293,52.862427792294554],[31.46520567796748,52.865996983802674],[31.433082954389214,52.8862224023533],[31.402149961312976,52.91001701241116],[31.343853166670755,52.91001701241116],[31.314109904097432,52.912396473418056],[31.278417989010332,52.9314321614647],[31.28436664152482,52.954037041018665],[31.297453677056797,52.97545219007131],[31.318868826109092,52.97664192057529],[31.33195586164098,52.98734949510073],[31.310540712588686,52.99686733912494],[31.277228258507506,53.00519545264437],[31.218931463864486,53.026610601697016],[31.21774173336157,53.03850790672546],[31.246295265431268,53.05040521175488],[31.303402329571373,53.04326682873766],[31.36764777672879,53.03969763722944],[31.4318932238863,53.03612844572034],[31.450928911932674,53.05159494225886],[31.45211864243559,53.07301009131062],[31.440221337406616,53.08966631835116],[31.433082954389214,53.100373892878466],[31.391442386786828,53.11940958092511]]]]}}]}
