{"type":"FeatureCollection","features":[{"type":"Feature","properties":{"kind":"province","id":"gubernia-1897-43","name":"Куопиоская губерния"},"geometry":{"type":"MultiPolygon","coordinates":[[[[30.668336914805444,61.97431239639812],[30.48273895635077,61.92910263728663],[30.39350916863142,61.90649775773177],[30.17578848659857,61.86128799862038],[30.12106088346403,61.85058042409396],[30.000898102669776,61.81369877850377],[29.847422867793277,61.776817132914374],[29.740347122531446,61.75064306184962],[29.64635841280115,61.72208952977966],[29.611856228216432,61.716140877264465],[29.54333656406703,61.718520338271446],[29.630186890779747,61.76135063637595],[29.720606409001654,61.81607823951076],[29.69681179894273,61.8351139275574],[29.639704734803068,61.86604692063159],[29.574269557142646,61.91125667974299],[29.682535032907836,61.9612253608648],[29.58854632317754,62.014763233497405],[29.521921415014646,62.0480756875777],[29.448158123833462,62.11113140423372],[29.411276478243714,62.22296607150658],[29.361307797120745,62.30148828469916],[29.32442615153011,62.36811319286241],[29.295872619460322,62.390718072417265],[29.247093668840623,62.397856455435466],[29.217350406268277,62.412133221469915],[29.18403795218683,62.397856455435466],[29.138828193075522,62.38714888091003],[29.116223313520578,62.406184568956675],[29.103136277988156,62.44544567555296],[29.1221719660348,62.460912172089614],[29.11860277452641,62.50255273969289],[29.061495710386037,62.51801923622954],[29.01509622077217,62.54419330729429],[28.98059403618816,62.563228995340936],[28.902071822995406,62.60130037143422],[28.86875936891387,62.61795659847574],[28.831877723323323,62.634612825515404],[28.784288503206895,62.636992286521505],[28.748596588119618,62.626284711995176],[28.76168362365124,62.60130037143422],[28.735509552587285,62.5870236053988],[28.7105252120258,62.58345441389068],[28.70695602051741,62.60249010193732],[28.71647386454073,62.61319767646364],[28.70457655951158,62.61795659847574],[28.671264105430133,62.60605929344544],[28.670074374926863,62.5858338748958],[28.632002998833755,62.567987917352156],[28.6058289277698,62.567987917352156],[28.59988027525478,62.552521420814614],[28.617726232798862,62.52753708025286],[28.591552161734818,62.52753708025286],[28.566567821173333,62.53586519377407],[28.528496445080226,62.54300357679129],[28.492804529992238,62.53110627176285],[28.45116396239074,62.50136300918989],[28.414282316800193,62.482327321143245],[28.328621720589947,62.484706782148365],[28.28817088349101,62.487086243154366],[28.34884713913977,62.45972244158652],[28.34884713913977,62.43949702303688],[28.331001181595777,62.410943490966915],[28.326242259584117,62.39190780292027],[28.355985522157262,62.37049265386851],[28.332190912099048,62.35859534883909],[28.276273578461858,62.35740561833697],[28.23344328035718,62.325282894757024],[28.19299244325744,62.318144511740684],[28.152541606158504,62.324093164254016],[28.118039421574586,62.319334242243684],[28.119229152077057,62.30624720671038],[28.08234750648651,62.30029855419616],[28.07877831497821,62.2729347526292],[27.98003068323625,62.26936556112108],[27.92318800365217,62.27725578772062],[27.90534204610889,62.28677363174394],[27.880357705547492,62.31651689431691],[27.838717137945196,62.34863961789509],[27.80897387537205,62.35934719242141],[27.71141597413354,62.36410611443352],[27.65073971848478,62.39146991599959],[27.575786696801035,62.4390591361162],[27.511541249643173,62.45214617164764],[27.45324445500104,62.47118185969428],[27.383050355328958,62.49973539176425],[27.39137846884892,62.46761266818616],[27.327133021691857,62.477130512209484],[27.28549245408965,62.478320242712485],[27.24504161699071,62.490217547740926],[27.208159971400075,62.50449431377733],[27.18674482234778,62.53423757635029],[27.12606856669893,62.53304784584729],[27.13558641072225,62.51401215780065],[27.12844802770476,62.49735593075913],[27.102273956640804,62.485458625730686],[27.08442799909672,62.49973539176425],[27.07491015507349,62.479509973214604],[27.07966907708515,62.46285374617396],[27.015423629927998,62.46523320718095],[26.982111175845752,62.49259700874791],[26.961885757296727,62.473561320701265],[26.951178182770136,62.4390591361162],[26.91548626768286,62.42954129209288],[26.882173813601412,62.44262832762432],[26.87384570008065,62.46404347667794],[26.859568934045758,62.466422937684044],[26.840533245999115,62.46047428516796],[26.81554890543772,62.45690509365974],[26.792944025882775,62.433110483601],[26.77390833783622,62.427161831087666],[26.738216422748145,62.427161831087666],[26.70728342967253,62.44143859712132],[26.706093699170058,62.41526452605834],[26.678729897602654,62.404556951531035],[26.701334777158397,62.38671099398837],[26.679919628105214,62.38195207197627],[26.690627202631806,62.35934719242141],[26.637089330000535,62.35101907890021],[26.62043310295981,62.34150123487689],[26.641848252012196,62.3105682418018],[26.6629990165082,62.287831169968754],[26.632066023432582,62.28307224795567],[26.601133030356966,62.303297666505415],[26.58090761180714,62.293779822482094],[26.583287072812883,62.28069278695055],[26.643963328461645,62.223585722809744],[26.584476803316154,62.2045500347631],[26.536887583199814,62.23548302783907],[26.47264213604195,62.21882680079941],[26.495247015597606,62.19741165174578],[26.45479617849867,62.17242731118492],[26.428622107433913,62.1688581196768],[26.37032531279178,62.145063509618055],[26.344151241726937,62.149822431630156],[26.35366908575017,62.12840728257653],[26.35366908575017,62.091525636987136],[26.36199719927102,62.060592643910276],[26.398878844861567,62.026090459326],[26.371515043294252,62.02252126781699],[26.359037369826016,62.014864892277735],[26.29598165317098,62.04222869384372],[26.238874589031674,62.09695629697764],[26.331673568258612,62.158822283129666],[26.384021710387056,62.19808338972596],[26.263858929592182,62.29683102146827],[26.337622220773188,62.302779673981604],[26.31263788021188,62.37535323465996],[26.23530539752284,62.393199192203596],[26.13893722678627,62.43127056829688],[26.100865850692895,62.468152213887166],[26.03899986454184,62.56927930663549],[26.147265340306763,62.59664310820156],[26.15321399282134,62.631145292785746],[26.226977284002434,62.64899125033116],[26.136557765780438,62.67397559089113],[26.136557765780438,62.71204696698442],[26.1091939642133,62.76082591760402],[26.018774445992193,62.80246648520641],[26.119901538739626,62.82388163425915],[26.09253773717249,62.858383818843336],[25.989031183419137,62.87979896789599],[26.000928488448377,62.88931681191931],[26.066363666108977,62.8940757339315],[26.063984205103147,62.914301152481144],[26.071122588120637,62.93333684052779],[26.108004233710385,62.935716301532025],[26.215079978973193,62.91787034398838],[26.255530816072486,62.90716276946206],[26.279325426130168,62.923818996504465],[26.29122273115932,62.93928549304201],[26.28646380914766,62.95237252857443],[26.246012972049165,62.95237252857443],[26.226977284002434,62.95951091159166],[26.238874589031674,62.96783902511109],[26.17700860287973,62.997582287684054],[26.19604429092655,63.015428245227696],[26.23292593651701,63.02256662824492],[26.278135695627252,63.010669323217364],[26.29241246166184,63.016617975731386],[26.246012972049165,63.04041258578856],[26.22102863148777,63.06777638735729],[26.197234021429466,63.12726291250234],[26.194854560423547,63.18080078513326],[26.243633511043335,63.184369976642266],[26.236495128025755,63.21530296971832],[26.212700517967363,63.224820813741644],[26.206751865452787,63.236718118771066],[26.226977284002434,63.25218461530861],[26.206751865452787,63.303343026934314],[26.168680489359325,63.33189655900428],[26.182957255394395,63.41755715521319],[26.217459439979024,63.44016203476805],[26.155333185519996,63.48157953774082],[26.174019117073538,63.494769607073934],[26.212090493167,63.53403071367031],[26.208521301658166,63.576861011773836],[26.239454294734138,63.58637885579716],[26.26324890479173,63.582809664289925],[26.27038728781002,63.58756858630025],[26.254920791272035,63.59232750831325],[26.25611052177424,63.60065562183356],[26.290612706358868,63.60303508283957],[26.27514620982177,63.70535190609098],[26.259679713283695,63.843360644427804],[26.39411926011293,63.893329325550425],[26.502384735877854,63.93615962365581],[26.51071284939835,63.95162612019335],[26.528558806942875,63.970661808239996],[26.542835572977147,63.964713155725775],[26.558302069515133,63.9682823472331],[26.617788594661157,63.98255911326764],[26.679654580812212,63.99683587930306],[26.755797332999848,64.02300995036879],[26.831940085185884,64.03371752489512],[26.895586820550005,64.04409694530707],[26.994078064834387,64.0157198319985],[27.12771219553694,64.00520928239254],[27.363448808123586,63.96617009814146],[27.567653771893458,63.94965352018974],[27.626212548268608,63.91962337845875],[27.654741182913117,63.91962337845875],[27.69227886007602,63.898602279246944],[27.70879543802827,63.91511885720044],[27.840928061643805,63.86256610917009],[27.92351095140347,63.83103446035331],[27.99708479864394,63.80701034696818],[28.072160152971342,63.785989247756376],[28.09918728052892,63.76346664145968],[28.139727971865597,63.73343649972868],[28.205794283673807,63.7034063579968],[28.264353060049224,63.67637923044002],[28.399488697837555,63.785989247756376],[28.479068573424154,63.86256610917009],[28.458047474212705,63.87758118003603],[28.480570080511086,63.886590222556194],[28.537627349799305,63.87758118003603],[28.746336834828462,63.85055405247934],[28.884475486790922,63.82953295326665],[29.130722648983692,63.8445480241317],[29.51360695605128,63.868572137517724],[29.79739179540775,63.886590222556194],[29.857452078869834,63.89109474381442],[29.910004826898856,63.871575151690166],[29.9775726457932,63.88208570129611],[30.03613142216835,63.84604953121925],[30.106702255235668,63.82052391074834],[30.18327911664938,63.8160193894887],[30.005347969961132,63.75720476917472],[30.0553166510841,63.715564201573216],[30.142166977796908,63.66321605944451],[30.186814218064267,63.620130614448485],[30.200064951600286,63.60734340190179],[30.294614866510955,63.577983864136485],[30.391379614081476,63.55101663940418],[30.391781690703606,63.551045936413175],[30.392165423734557,63.550451150214926],[30.425477877816803,63.52308734864708],[30.46116979290408,63.490964625069],[30.496861707991357,63.463600823501146],[30.56110715514922,63.454082979477825],[30.76812026265619,63.41720133388755],[30.81808894377845,63.387458071314576],[30.837124631825002,63.37556076628604],[30.87162681640972,63.368422383267934],[30.92397495853781,63.36604292226272],[30.93349280256104,63.33748939019188],[30.959666873625086,63.317263971643115],[31.03105070380035,63.302987205608574],[31.072691271402647,63.28752070907015],[31.13455725755388,63.25658771599409],[31.227356236781617,63.21732660939868],[31.227356236781617,63.19829092135116],[31.2452021943249,63.18758334682572],[31.265427612874724,63.11857897765637],[31.354657400593272,63.0769384100531],[31.429610422277015,63.04600541697802],[31.480768833902456,63.023400537422276],[31.49504559993735,63.005554579878634],[31.516460748989733,63.00674431038173],[31.542634820053777,62.998416196862294],[31.578326735141054,62.940119402219366],[31.590224040170117,62.929411827692064],[31.640192721293086,62.932981019201165],[31.696110054930188,62.942498863224486],[31.743699275046616,62.947257785235706],[31.803185800192107,62.9460680547327],[31.835308523770994,62.95082697674569],[31.87694909137329,62.947257785235706],[31.8698107083558,62.938929671715385],[31.900743701431416,62.92584263618296],[31.91502046746631,62.931791288699046],[31.944763730039455,62.9103761396464],[31.98164537562929,62.89253018210276],[32.06135731932461,62.88182260757644],[32.11489519195588,62.871115033049136],[32.15415629855225,62.8294744654495],[32.22672985923017,62.82471554343651],[32.2778882708557,62.80686958589198],[32.32428776046876,62.76522901829048],[32.34689264002442,62.74143440823174],[32.3373747960011,62.71169114565877],[32.31833910795454,62.698604110127235],[31.829822334299923,62.58094276060727],[31.33489444508651,62.469108093331656],[30.918488769066737,62.37155019209243],[30.703147548038917,62.32515070247883],[30.76501353419015,62.23711064526471],[30.87922766247027,62.10861975094845],[30.92681688258661,62.047943495299506],[30.903022272528485,62.0372359207731],[30.668141869824957,61.97442687932144],[30.668336914805444,61.97431239639812]]]]}},{"type":"Feature","properties":{"kind":"district","id":"uyezd-1897-23","name":"Куопиоский","provinceId":"gubernia-1897-43"},"geometry":{"type":"MultiPolygon","coordinates":[[[[26.155333185519996,63.48157953774082],[26.217459439979024,63.44016203476805],[26.182957255394395,63.41755715521319],[26.168680489359325,63.33189655900428],[26.206751865452787,63.303343026934314],[26.226977284002434,63.25218461530861],[26.206751865452787,63.236718118771066],[26.212700517967363,63.224820813741644],[26.236495128025755,63.21530296971832],[26.243633511043335,63.184369976642266],[26.194854560423547,63.18080078513326],[26.197234021429466,63.12726291250234],[26.22102863148777,63.06777638735729],[26.246012972049165,63.04041258578856],[26.292412461662234,63.016617975730696],[26.437170541418503,63.02903051927845],[26.48000083952327,63.01118456173393],[26.52877979014288,62.98620022117395],[26.62752742188475,62.952887767092776],[26.61919930836399,62.938611001057346],[26.697721521556833,62.879124475911325],[26.73222370614084,62.88269366741953],[26.775054004246318,62.86127851836768],[26.78695130927538,62.84105309981804],[26.83573025989508,62.83867363881292],[26.870232444479086,62.81130983724507],[26.914252473087124,62.787515227187214],[26.954703310185973,62.77204873064878],[27.04036390639631,62.757771964613354],[27.123645041600724,62.76134115612334],[27.274740815470594,62.699475169970334],[27.374678177715733,62.699475169970334],[27.41274955380884,62.692336786954],[27.476995000965992,62.70780328349065],[27.525773951585602,62.68281894293068],[27.630470235842402,62.67330109890736],[27.733976789595932,62.676870290415565],[27.792273584238863,62.65902433287104],[27.810119541782946,62.68043948192369],[27.905297982015625,62.67449082940947],[27.994527769734262,62.699475169970334],[27.999286691745922,62.67330109890736],[28.106362437008553,62.67211136840435],[28.208679260259522,62.644747566837395],[28.35144692060943,62.59596861621778],[28.435917786316406,62.58288158068447],[28.56440868063133,62.56979454515294],[28.589393021192016,62.56384589263872],[28.6058289277698,62.567987917352156],[28.632002998833755,62.567987917352156],[28.670074374926863,62.5858338748958],[28.671264105430133,62.60605929344544],[28.70457655951158,62.61795659847574],[28.71647386454073,62.61319767646364],[28.70695602051741,62.60249010193732],[28.7105252120258,62.58345441389068],[28.735509552587285,62.5870236053988],[28.76168362365124,62.60130037143422],[28.748596588119618,62.626284711995176],[28.784288503206895,62.636992286521505],[28.831877723323323,62.634612825515404],[28.766927250683022,62.675195854892976],[28.69554342050767,62.71207750048326],[28.688405037490178,62.738251571548105],[28.70625099503426,62.76799483412107],[28.738373718613236,62.76918456462407],[28.768116981185493,62.77632294764041],[28.782393747220475,62.79892782719615],[28.69911261201677,62.8619835438503],[28.55277576015776,62.91314195547512],[28.509945462053082,62.93693656553475],[28.519110793335095,62.96923554548447],[28.425122083604887,62.963286892969364],[28.401327473545873,62.93116416939119],[28.35135879242379,62.93592309140152],[28.28949280627247,62.93116416939119],[28.220488437102947,62.94663066592784],[28.151484067934135,62.95138958794084],[28.151484067934135,62.973994467494805],[28.161001911957456,63.00254799956565],[28.043218592168234,63.01444530459409],[27.995629372051894,63.04656802817405],[27.957557995958787,63.04656802817405],[27.97302449249704,63.00730692157776],[27.91115850634492,62.998978808057444],[27.86356928622858,63.008496652080765],[27.833826023655433,63.02396314861741],[27.783857342533263,63.0644139857168],[27.779098420521603,63.10962374482828],[27.81241087460305,63.146505390418476],[27.81954925762054,63.16673080896821],[27.844533598182025,63.19171514952809],[27.801703300076458,63.196474071541175],[27.738647583422665,63.19290488003119],[27.623243724639273,63.186956227517854],[27.595879923072758,63.17862811399665],[27.573275043517103,63.146505390418476],[27.531634475914895,63.15007458192669],[27.492373369318518,63.17386919198455],[27.419799808640605,63.16792053947121],[27.39362573757656,63.16911026997333],[27.379348971541756,63.18814595801997],[27.259186190747503,63.23573517813747],[27.219925084151036,63.25715032718923],[27.168766672525596,63.286893589762286],[27.08072661531032,63.322585504850366],[27.055742274748834,63.365415802954864],[27.01330855347855,63.39714194969927],[26.996652326436937,63.42212629026013],[26.97285771637881,63.46852577987373],[26.943114453806466,63.47090524087983],[26.916940382741622,63.48756146792127],[26.870540893128553,63.513735538984335],[26.719445119257973,63.5553761065876],[26.69921970070886,63.53871987954608],[26.687322395678997,63.51968419149944],[26.64687155858006,63.53277122703098],[26.65995859411248,63.554186376084516],[26.60285152997202,63.57203233362726],[26.557641770861512,63.55775556759272],[26.502914167727592,63.53634041854096],[26.427961146043938,63.56132475910094],[26.347059471845352,63.56251448960483],[26.303039443237314,63.5553761065876],[26.212090493166954,63.53403071367029],[26.1740191170735,63.49476960707398],[26.155333185519996,63.48157953774082]]]]}},{"type":"Feature","properties":{"kind":"district","id":"uyezd-1897-520","name":"Либегицкий","provinceId":"gubernia-1897-43"},"geometry":{"type":"MultiPolygon","coordinates":[[[[30.668336914805444,61.97431239639812],[30.48273895635077,61.92910263728663],[30.39350916863142,61.90649775773177],[30.17578848659857,61.86128799862038],[30.12106088346403,61.85058042409396],[30.000898102669776,61.81369877850377],[29.847422867793277,61.776817132914374],[29.740347122531446,61.75064306184962],[29.64635841280115,61.72208952977966],[29.611856228216432,61.716140877264465],[29.54333656406703,61.718520338271446],[29.630186890779747,61.76135063637595],[29.720606409001654,61.81607823951076],[29.69681179894273,61.8351139275574],[29.639704734803068,61.86604692063159],[29.574269557142646,61.91125667974299],[29.682535032907836,61.9612253608648],[29.58854632317754,62.014763233497405],[29.521921415014646,62.0480756875777],[29.448158123833462,62.11113140423372],[29.411276478243714,62.22296607150658],[29.361307797120745,62.30148828469916],[29.32442615153011,62.36811319286241],[29.295872619460322,62.390718072417265],[29.247093668840623,62.397856455435466],[29.217350406268277,62.412133221469915],[29.18403795218683,62.397856455435466],[29.138828193075522,62.38714888091003],[29.116223313520578,62.406184568956675],[29.103136277988156,62.44544567555296],[29.1221719660348,62.460912172089614],[29.11860277452641,62.50255273969289],[29.061495710386037,62.51801923622954],[29.01509622077217,62.54419330729429],[28.98059403618816,62.563228995340936],[28.902071822995406,62.60130037143422],[28.86875936891387,62.61795659847574],[28.831877723323323,62.634612825515404],[28.766927250683022,62.675195854892976],[28.69554342050767,62.71207750048326],[28.688405037490178,62.738251571548105],[28.70625099503426,62.76799483412107],[28.738373718613236,62.76918456462407],[28.768116981185493,62.77632294764041],[28.782393747220475,62.79892782719615],[28.69911261201677,62.8619835438503],[28.55277576015776,62.91314195547512],[28.509945462053082,62.93693656553475],[28.519110793335095,62.96923554548447],[28.49055726126451,63.008496652080765],[28.428691275113277,63.050137219682256],[28.39061989902008,63.10724428382218],[28.372773941476087,63.17030000047633],[28.363256097452854,63.219078951095945],[28.370394480470257,63.248822213669],[28.409655587066723,63.25239140517712],[28.406086395557534,63.27380655423075],[28.43582965813068,63.26428871020743],[28.466762651206384,63.26904763221776],[28.493252124197937,63.26331180814028],[28.51704673425615,63.23951719808153],[28.532513230794404,63.232378815065196],[28.56701541537912,63.222860971041875],[28.628881401530442,63.19668689997703],[28.66695277762355,63.19192797796679],[28.709783075729028,63.1788409424325],[28.72405984176392,63.16813336790707],[28.766890139868778,63.141959296842316],[28.77402852288618,63.126492800305655],[28.802582054955966,63.11816468678445],[28.82280747350588,63.11221603426925],[28.844222622558263,63.08961115471449],[28.87158642412549,63.076524119182956],[28.883483729154552,63.046780856609985],[28.941780523796773,63.02536570755636],[28.98342109139898,63.01584786353304],[29.011974623468767,63.01108894152182],[29.03933842503617,62.99800190599038],[29.075030340123448,62.986104600960076],[29.08454818414668,62.976586756936754],[29.13570659577212,62.982535409451856],[29.14403470929297,63.000381366996386],[29.173777971865228,63.02417597705336],[29.205900695444203,63.03607328208268],[29.24516180204067,63.03845274308967],[29.304648327186072,63.044401395603],[29.381980809875557,63.053919239626325],[29.40339595892794,63.06581654465752],[29.40934461144296,63.08366250219929],[29.40696515043713,63.11102630376625],[29.431949490997816,63.11221603426925],[29.45812356206257,63.10388792074903],[29.484297633126616,63.08723169370937],[29.512851165196402,63.06819600566273],[29.55449173279861,63.0432116651],[29.585424725874226,63.01346840252792],[29.61635771894993,62.981345678948855],[29.669895591581202,62.98848406196706],[29.70796696767431,62.99919163649338],[29.735330769241624,63.000381366996386],[29.76864322332307,63.01108894152182],[29.82099136545107,63.03012462956846],[29.86858058556821,63.04797058711299],[29.929256841216972,63.04797058711299],[29.993502288374124,63.02417597705336],[30.044660699999653,63.0039505585046],[30.01517486870467,62.921337876718134],[30.01517486870467,62.874938387105416],[30.055625705803518,62.78213940787644],[30.16865010358108,62.73217072675472],[30.261449082808017,62.68458150663811],[30.28524369286623,62.66197662708325],[30.28762315387206,62.62033605947998],[30.27334638783717,62.59535171891912],[30.22456743721747,62.58464414439368],[30.17578848659857,62.60724902394853],[30.12344034446977,62.60724902394853],[30.037779748260323,62.58226468338758],[29.91523750645953,62.560849534335816],[29.837905023769956,62.550141959809494],[29.766521193595402,62.537054924276184],[29.786746612144515,62.44663540605508],[29.939032116517655,62.40737429945879],[29.950929421547517,62.37287211487363],[30.034210556751223,62.34312885230066],[30.047297592283556,62.294349901681045],[29.992569989149015,62.27650394413741],[29.996139180658115,62.258657986594656],[30.031831095745392,62.242001759553226],[30.0699024718385,62.259847717097756],[30.081799776867562,62.25627852558776],[30.085368968376752,62.242001759553226],[30.11630196145237,62.22891472402169],[30.12819926648143,62.23724283754112],[30.163891181568708,62.23486337653591],[30.199583096656784,62.23486337653591],[30.22218797621164,62.22653526301657],[30.23170582023496,62.18727415642029],[30.248362047275684,62.178946042899966],[30.248362047275684,62.15753089384634],[30.266208004819678,62.1432541278118],[30.28286423186049,62.106372482220635],[30.33402264348593,62.096854638197314],[30.37804267209397,62.098044368700315],[30.411355126175415,62.090905985683975],[30.450616232771793,62.06235245361401],[30.502964374899793,62.04093730456039],[30.571968744069316,62.02666053852594],[30.613609311670814,62.0064351199762],[30.66814186982492,61.974426879321435],[30.668336914805444,61.97431239639812]]]]}},{"type":"Feature","properties":{"kind":"district","id":"uyezd-1897-524","name":"Иломантский","provinceId":"gubernia-1897-43"},"geometry":{"type":"MultiPolygon","coordinates":[[[[30.903022272528485,62.0372359207731],[30.92681688258661,62.047943495299506],[30.87922766247027,62.10861975094845],[30.76501353419015,62.23711064526471],[30.703147548038917,62.32515070247883],[30.918488769066737,62.37155019209243],[31.33489444508651,62.469108093331656],[31.829822334299923,62.58094276060727],[32.31833910795456,62.698604110127235],[32.337374796001086,62.71169114565873],[32.34689264002441,62.741434408231726],[32.324287760468735,62.76522901829048],[32.27788827085567,62.806869585891945],[32.22672985923015,62.82471554343647],[32.154156298552266,62.82947446544949],[32.114895191955895,62.871115033049136],[32.0613573193246,62.881822607576396],[31.981645375629284,62.892530182102746],[31.944763730039483,62.91037613964636],[31.91502046746632,62.93179128869906],[31.900743701431395,62.925842636183006],[31.86981070835577,62.938929671715414],[31.876949091373262,62.947257785235706],[31.835308523771005,62.9508269767457],[31.803185800192068,62.94606805473268],[31.743699275046595,62.947257785235706],[31.696110054930216,62.9424988632245],[31.64019272129309,62.93298101920118],[31.590224040170142,62.92941182769209],[31.578326735141047,62.94011940221935],[31.542634820053763,62.99841619686231],[31.516460748989743,63.00674431038169],[31.495045599937384,63.00555457987866],[31.48076883390246,63.023400537422276],[31.429610422276994,63.046005416978005],[31.354657400593283,63.07693841005312],[31.265427612874703,63.1185789776564],[31.24520219432486,63.187583346825704],[31.22735623678159,63.198290921351145],[31.209406862352967,63.18835878645582],[31.186801982798023,63.18478959494859],[31.157058720224967,63.18359986444558],[31.042844591944846,63.18478959494859],[30.95480453472957,63.158615523883746],[30.926251002659782,63.14790794935742],[30.876282321536813,63.12292360879567],[30.727566008672774,63.10507765125292],[30.70377139861456,63.09437007672571],[30.622869724415885,63.09437007672571],[30.584798348322778,63.07295492767297],[30.55386535524716,63.056298700633306],[30.477722603060148,63.02774516856334],[30.417046347412185,63.00989921101971],[30.33019602069938,63.03488355157968],[30.28617599209143,63.03726301258666],[30.23620731096917,63.03845274308967],[30.202894856886925,63.03488355157968],[30.17791051632624,63.02060678554514],[30.118423991180038,63.03726301258666],[30.105336955648415,63.03607328208268],[30.08273207609276,63.04083220409488],[30.047040161005484,63.03726301258666],[30.03395312547306,63.02893489906635],[30.044660699999653,63.0039505585046],[30.01517486870467,62.921337876718134],[30.01517486870467,62.874938387105416],[30.055625705803518,62.78213940787644],[30.16865010358108,62.73217072675472],[30.261449082808017,62.68458150663811],[30.28524369286623,62.66197662708325],[30.28762315387206,62.62033605947998],[30.27334638783717,62.59535171891912],[30.22456743721747,62.58464414439368],[30.17578848659857,62.60724902394853],[30.12344034446977,62.60724902394853],[30.037779748260323,62.58226468338758],[29.91523750645953,62.560849534335816],[29.837905023769956,62.550141959809494],[29.766521193595402,62.537054924276184],[29.786746612144515,62.44663540605508],[29.939032116517655,62.40737429945879],[29.950929421547517,62.37287211487363],[30.034210556751223,62.34312885230066],[30.047297592283556,62.294349901681045],[29.992569989149015,62.27650394413741],[29.996139180658115,62.258657986594656],[30.031831095745392,62.242001759553226],[30.0699024718385,62.259847717097756],[30.081799776867562,62.25627852558776],[30.085368968376752,62.242001759553226],[30.11630196145237,62.22891472402169],[30.12819926648143,62.23724283754112],[30.163891181568708,62.23486337653591],[30.199583096656784,62.23486337653591],[30.22218797621164,62.22653526301657],[30.23170582023496,62.18727415642029],[30.248362047275684,62.178946042899966],[30.248362047275684,62.15753089384634],[30.266208004819678,62.1432541278118],[30.28286423186049,62.106372482220635],[30.33402264348593,62.096854638197314],[30.37804267209397,62.098044368700315],[30.411355126175415,62.090905985683975],[30.450616232771793,62.06235245361401],[30.502964374899793,62.04093730456039],[30.571968744069316,62.02666053852594],[30.613609311670814,62.0064351199762],[30.66814186982492,61.974426879321435],[30.903022272528485,62.0372359207731]]]]}},{"type":"Feature","properties":{"kind":"district","id":"uyezd-1897-561","name":"Рауталампиский","provinceId":"gubernia-1897-43"},"geometry":{"type":"MultiPolygon","coordinates":[[[[26.35903736982575,62.01486489227685],[26.371515043294252,62.02252126781699],[26.398878844861567,62.026090459326],[26.36199719927102,62.060592643910276],[26.35366908575017,62.091525636987136],[26.35366908575017,62.12840728257653],[26.344151241726937,62.149822431630156],[26.37032531279178,62.145063509618055],[26.428622107433913,62.1688581196768],[26.45479617849867,62.17242731118492],[26.495247015597606,62.19741165174578],[26.47264213604195,62.21882680079941],[26.536887583199814,62.23548302783907],[26.584476803316154,62.2045500347631],[26.643963328461645,62.223585722809744],[26.583287072812883,62.28069278695055],[26.58090761180714,62.293779822482094],[26.601133030356966,62.303297666505415],[26.632066023432582,62.28307224795567],[26.6629990165082,62.287831169968754],[26.641848252012196,62.3105682418018],[26.62043310295981,62.34150123487689],[26.637089330000535,62.35101907890021],[26.690627202631806,62.35934719242141],[26.679919628105214,62.38195207197627],[26.701334777158397,62.38671099398837],[26.678729897602654,62.404556951531035],[26.706093699170058,62.41526452605834],[26.70728342967253,62.44143859712132],[26.738216422748145,62.427161831087666],[26.77390833783622,62.427161831087666],[26.792944025882775,62.433110483601],[26.81554890543772,62.45690509365974],[26.840533245999115,62.46047428516796],[26.859568934045758,62.466422937684044],[26.87384570008065,62.46404347667794],[26.882173813601412,62.44262832762432],[26.91548626768286,62.42954129209288],[26.951178182770136,62.4390591361162],[26.961885757296727,62.473561320701265],[26.982111175845752,62.49259700874791],[27.015423629927998,62.46523320718095],[27.07966907708515,62.46285374617396],[27.07491015507349,62.479509973214604],[27.08442799909672,62.49973539176425],[27.102273956640804,62.485458625730686],[27.12844802770476,62.49735593075913],[27.13558641072225,62.51401215780065],[27.12606856669893,62.53304784584729],[27.18674482234778,62.53423757635029],[27.208159971400075,62.50449431377733],[27.24504161699071,62.490217547740926],[27.28549245408965,62.478320242712485],[27.327133021691857,62.477130512209484],[27.39137846884892,62.46761266818616],[27.383050355328958,62.49973539176425],[27.45324445500104,62.47118185969428],[27.511541249643173,62.45214617164764],[27.575786696801035,62.4390591361162],[27.65073971848478,62.39146991599959],[27.71141597413354,62.36410611443352],[27.80897387537205,62.35934719242141],[27.838717137945196,62.34863961789509],[27.880357705547492,62.31651689431691],[27.90534204610889,62.28677363174394],[27.92318800365217,62.27725578772062],[27.98003068323625,62.26936556112108],[28.07877831497821,62.2729347526292],[28.08234750648651,62.30029855419616],[28.119229152077057,62.30624720671038],[28.118039421574586,62.319334242243684],[28.152541606158504,62.324093164254016],[28.19299244325744,62.318144511740684],[28.23344328035718,62.325282894757024],[28.276273578461858,62.35740561833697],[28.332190912099048,62.35859534883909],[28.355985522157262,62.37049265386851],[28.326242259584117,62.39190780292027],[28.331001181595777,62.410943490966915],[28.34884713913977,62.43949702303688],[28.34884713913977,62.45972244158652],[28.28817088349101,62.487086243154366],[28.328621720589947,62.484706782148365],[28.414282316800193,62.482327321143245],[28.45116396239074,62.50136300918989],[28.492804529992238,62.53110627176285],[28.528496445080226,62.54300357679129],[28.566567821173333,62.53586519377407],[28.591552161734818,62.52753708025286],[28.617726232798862,62.52753708025286],[28.59988027525478,62.552521420814614],[28.6058289277698,62.567987917352156],[28.589393021192016,62.56384589263872],[28.56440868063133,62.56979454515294],[28.435917786316406,62.58288158068447],[28.35144692060943,62.59596861621778],[28.208679260259522,62.644747566837395],[28.106362437008553,62.67211136840435],[27.999286691745922,62.67330109890736],[27.994527769734262,62.699475169970334],[27.905297982015625,62.67449082940947],[27.810119541782946,62.68043948192369],[27.792273584238863,62.65902433287104],[27.733976789595932,62.676870290415565],[27.630470235842402,62.67330109890736],[27.525773951585602,62.68281894293068],[27.476995000965992,62.70780328349065],[27.41274955380884,62.692336786954],[27.374678177715733,62.699475169970334],[27.274740815470594,62.699475169970334],[27.123645041600724,62.76134115612334],[27.04036390639631,62.757771964613354],[26.954703310185973,62.77204873064878],[26.914252473087124,62.787515227187214],[26.870232444479086,62.81130983724507],[26.83573025989508,62.83867363881292],[26.78695130927538,62.84105309981804],[26.775054004246318,62.86127851836768],[26.73222370614084,62.88269366741953],[26.697721521556833,62.879124475911325],[26.61919930836399,62.938611001057346],[26.62752742188475,62.952887767092776],[26.52877979014288,62.98620022117395],[26.48000083952327,63.01118456173393],[26.437170541418503,63.02903051927845],[26.292412461662234,63.016617975730696],[26.278135695627252,63.010669323217364],[26.23292593651701,63.02256662824492],[26.19604429092655,63.015428245227696],[26.17700860287973,62.997582287684054],[26.238874589031674,62.96783902511109],[26.226977284002434,62.95951091159166],[26.246012972049165,62.95237252857443],[26.28646380914766,62.95237252857443],[26.29122273115932,62.93928549304201],[26.279325426130168,62.923818996504465],[26.255530816072486,62.90716276946206],[26.215079978973193,62.91787034398838],[26.108004233710385,62.935716301532025],[26.071122588120637,62.93333684052779],[26.063984205103147,62.914301152481144],[26.066363666108977,62.8940757339315],[26.000928488448377,62.88931681191931],[25.989031183419137,62.87979896789599],[26.09253773717249,62.858383818843336],[26.119901538739626,62.82388163425915],[26.018774445992193,62.80246648520641],[26.1091939642133,62.76082591760402],[26.136557765780438,62.71204696698442],[26.136557765780438,62.67397559089113],[26.226977284002434,62.64899125033116],[26.15321399282134,62.631145292785746],[26.147265340306763,62.59664310820156],[26.03899986454184,62.56927930663549],[26.100865850692895,62.468152213887166],[26.13893722678627,62.43127056829688],[26.23530539752284,62.393199192203596],[26.31263788021188,62.37535323465996],[26.337622220773188,62.302779673981604],[26.263858929592182,62.29683102146827],[26.384021710387056,62.19808338972596],[26.331673568258612,62.158822283129666],[26.238874589031674,62.09695629697764],[26.29598165317098,62.04222869384372],[26.35903736982575,62.01486489227685]]]]}},{"type":"Feature","properties":{"kind":"district","id":"uyezd-1897-636","name":"Пиелисьярвиский","provinceId":"gubernia-1897-43"},"geometry":{"type":"MultiPolygon","coordinates":[[[[28.264353060049416,63.676379230440034],[28.267093168412188,63.64025808914634],[28.27661101243622,63.53556180488981],[28.271587705868267,63.508858964714776],[28.287428747193438,63.48222222067667],[28.295756860714288,63.45604814961192],[28.314792548760842,63.442961114080376],[28.333828236807307,63.42868434804584],[28.34691527233973,63.41797677351863],[28.35286392485395,63.389423241450444],[28.367140690888842,63.37752593641925],[28.388555839941937,63.366818361892925],[28.40997098899432,63.366818361892925],[28.438524521064195,63.368008092395925],[28.46469859212815,63.360869709379585],[28.477785627660573,63.33112644680751],[28.484924010677975,63.31447021976599],[28.474216436151472,63.300193453729676],[28.473026705648913,63.291865340209355],[28.488493202186365,63.284726957193016],[28.493252124197937,63.26331180814028],[28.51704673425615,63.23951719808153],[28.532513230794404,63.232378815065196],[28.56701541537912,63.222860971041875],[28.628881401530442,63.19668689997703],[28.66695277762355,63.19192797796679],[28.709783075729028,63.1788409424325],[28.72405984176392,63.16813336790707],[28.766890139868778,63.141959296842316],[28.77402852288618,63.126492800305655],[28.802582054955966,63.11816468678445],[28.82280747350588,63.11221603426925],[28.844222622558263,63.08961115471449],[28.87158642412549,63.076524119182956],[28.883483729154552,63.046780856609985],[28.941780523796773,63.02536570755636],[28.98342109139898,63.01584786353304],[29.011974623468767,63.01108894152182],[29.03933842503617,62.99800190599038],[29.075030340123448,62.986104600960076],[29.08454818414668,62.976586756936754],[29.13570659577212,62.982535409451856],[29.14403470929297,63.000381366996386],[29.173777971865228,63.02417597705336],[29.205900695444203,63.03607328208268],[29.24516180204067,63.03845274308967],[29.304648327186072,63.044401395603],[29.381980809875557,63.053919239626325],[29.40339595892794,63.06581654465752],[29.40934461144296,63.08366250219929],[29.40696515043713,63.11102630376625],[29.431949490997816,63.11221603426925],[29.45812356206257,63.10388792074903],[29.484297633126616,63.08723169370937],[29.512851165196402,63.06819600566273],[29.55449173279861,63.0432116651],[29.585424725874226,63.01346840252792],[29.61635771894993,62.981345678948855],[29.669895591581202,62.98848406196706],[29.70796696767431,62.99919163649338],[29.735330769241624,63.000381366996386],[29.76864322332307,63.01108894152182],[29.82099136545107,63.03012462956846],[29.86858058556821,63.04797058711299],[29.929256841216972,63.04797058711299],[29.993502288374124,63.02417597705336],[30.044660699999653,63.0039505585046],[30.03395312547306,63.02893489906635],[30.047040161005484,63.03726301258666],[30.08273207609276,63.04083220409488],[30.105336955648415,63.03607328208268],[30.118423991180038,63.03726301258666],[30.17791051632624,63.02060678554514],[30.202894856886925,63.03488355157968],[30.23620731096917,63.03845274308967],[30.28617599209143,63.03726301258666],[30.33019602069938,63.03488355157968],[30.417046347412185,63.00989921101971],[30.477722603060148,63.02774516856334],[30.55386535524716,63.056298700633306],[30.584798348322778,63.07295492767297],[30.622869724415885,63.09437007672571],[30.70377139861456,63.09437007672571],[30.727566008672774,63.10507765125292],[30.876282321536813,63.12292360879567],[30.926251002659782,63.14790794935742],[30.95480453472957,63.158615523883746],[31.042844591944846,63.18478959494859],[31.157058720224967,63.18359986444558],[31.186801982798023,63.18478959494859],[31.209406862352967,63.18835878645582],[31.22735623678159,63.198290921351145],[31.22735623678159,63.2173266093987],[31.134557257553865,63.2565877159941],[31.07269127140262,63.28752070907012],[31.03105070380036,63.30298720560859],[30.959666873625054,63.317263971643115],[30.933492802561034,63.33748939019188],[30.92397495853777,63.36604292226275],[30.87162681640973,63.3684223832679],[30.837124631824963,63.37556076628607],[30.818088943778434,63.38745807131454],[30.768120262656225,63.41720133388753],[30.561107155149216,63.45408297947779],[30.496861707991343,63.46360082350111],[30.46116979290406,63.490964625068955],[30.425477877816775,63.523087348647095],[30.392165423734525,63.55045115021494],[30.391781690703567,63.551045936413175],[30.391379614081472,63.551016639404224],[30.294614866510983,63.57798386413651],[30.200064951600268,63.607343401901744],[30.186814218064267,63.620130614448485],[30.142166977796876,63.663216059444494],[30.055316651084127,63.715564201573216],[30.00534796996112,63.75720476917468],[30.183279116649487,63.816019389489156],[30.10670225523546,63.82052391074831],[30.036131422168467,63.84604953122016],[29.977572645793373,63.88208570129609],[29.910004826899183,63.871575151690195],[29.857452078869585,63.89109474381439],[29.79739179540809,63.88659022255706],[29.513606956051547,63.86857213751864],[29.130722648983635,63.844548024131655],[28.884475486791303,63.82953295326661],[28.74633683482864,63.85055405247931],[28.53762734979972,63.87758118003694],[28.480570080510972,63.88659022255706],[28.458047474212947,63.87758118003694],[28.47906857342383,63.862566109170075],[28.399488697837796,63.78598924775724],[28.264353060049416,63.676379230440034]]]]}},{"type":"Feature","properties":{"kind":"district","id":"uyezd-1897-663","name":"Инсальмиский","provinceId":"gubernia-1897-43"},"geometry":{"type":"MultiPolygon","coordinates":[[[[26.89558682055008,64.0440969453075],[26.83194008518592,64.03371752489511],[26.75579733299986,64.02300995036876],[26.679654580812212,63.996835879303035],[26.617788594661135,63.9825591132676],[26.55830206951515,63.96828234723307],[26.54283557297714,63.9647131557258],[26.528558806942897,63.97066180824004],[26.510712849398317,63.951626120193396],[26.502384735877854,63.93615962365584],[26.394119260112916,63.89332932555044],[26.25967971328373,63.843360644427776],[26.27514620982174,63.70535190609098],[26.2906127063589,63.6030350828396],[26.256110521774247,63.60065562183354],[26.25492079127207,63.59232750831325],[26.270387287810024,63.58756858630022],[26.263248904791737,63.582809664289925],[26.239454294734117,63.58637885579719],[26.20852130165821,63.57686101177387],[26.212090493166954,63.53403071367029],[26.303039443237314,63.5553761065876],[26.347059471845352,63.56251448960483],[26.427961146043938,63.56132475910094],[26.502914167727592,63.53634041854096],[26.557641770861512,63.55775556759272],[26.60285152997202,63.57203233362726],[26.65995859411248,63.554186376084516],[26.64687155858006,63.53277122703098],[26.687322395678997,63.51968419149944],[26.69921970070886,63.53871987954608],[26.719445119257973,63.5553761065876],[26.870540893128553,63.513735538984335],[26.916940382741622,63.48756146792127],[26.943114453806466,63.47090524087983],[26.97285771637881,63.46852577987373],[26.996652326436937,63.42212629026013],[27.01330855347855,63.39714194969927],[27.055742274748834,63.365415802954864],[27.08072661531032,63.322585504850366],[27.168766672525596,63.286893589762286],[27.219925084151036,63.25715032718923],[27.259186190747503,63.23573517813747],[27.379348971541756,63.18814595801997],[27.39362573757656,63.16911026997333],[27.419799808640605,63.16792053947121],[27.492373369318518,63.17386919198455],[27.531634475914895,63.15007458192669],[27.573275043517103,63.146505390418476],[27.595879923072758,63.17862811399665],[27.623243724639273,63.186956227517854],[27.738647583422665,63.19290488003119],[27.801703300076458,63.196474071541175],[27.844533598182025,63.19171514952809],[27.81954925762054,63.16673080896821],[27.81241087460305,63.146505390418476],[27.779098420521603,63.10962374482828],[27.783857342533263,63.0644139857168],[27.833826023655433,63.02396314861741],[27.86356928622858,63.008496652080765],[27.91115850634492,62.998978808057444],[27.97302449249704,63.00730692157776],[27.957557995958787,63.04656802817405],[27.995629372051894,63.04656802817405],[28.043218592168234,63.01444530459409],[28.161001911957456,63.00254799956565],[28.151484067934135,62.973994467494805],[28.151484067934135,62.95138958794084],[28.220488437102947,62.94663066592784],[28.28949280627247,62.93116416939119],[28.35135879242379,62.93592309140152],[28.401327473545873,62.93116416939119],[28.425122083604887,62.963286892969364],[28.519110793335095,62.96923554548447],[28.49055726126451,63.008496652080765],[28.428691275113277,63.050137219682256],[28.39061989902008,63.10724428382218],[28.372773941476087,63.17030000047633],[28.363256097452854,63.219078951095945],[28.370394480470257,63.248822213669],[28.409655587066723,63.25239140517712],[28.406086395557534,63.27380655423075],[28.43582965813068,63.26428871020743],[28.466762651206384,63.26904763221776],[28.493252124197937,63.26331180814028],[28.488493202186365,63.284726957193016],[28.473026705648913,63.291865340209355],[28.474216436151472,63.300193453729676],[28.484924010677975,63.31447021976599],[28.477785627660573,63.33112644680751],[28.46469859212815,63.360869709379585],[28.438524521064195,63.368008092395925],[28.40997098899432,63.366818361892925],[28.388555839941937,63.366818361892925],[28.367140690888842,63.37752593641925],[28.35286392485395,63.389423241450444],[28.34691527233973,63.41797677351863],[28.333828236807307,63.42868434804584],[28.314792548760842,63.442961114080376],[28.295756860714288,63.45604814961192],[28.287428747193438,63.48222222067667],[28.271587705868267,63.508858964714776],[28.27661101243622,63.53556180488981],[28.267093168412188,63.64025808914634],[28.264353060049416,63.676379230440034],[28.205794283673526,63.703406357996755],[28.139727971865682,63.73343649972867],[28.099187280528724,63.76346664145967],[28.07216015297149,63.78598924775724],[27.99708479864381,63.80701034696813],[27.92351095140333,63.831034460353294],[27.84092806164375,63.862566109170075],[27.70879543802812,63.91511885720138],[27.692278860076385,63.898602279247825],[27.65474118291297,63.91962337845871],[27.626212548268597,63.91962337845871],[27.567653771893447,63.94965352018971],[27.363448808123735,63.96617009814145],[27.127712195536844,64.00520928239348],[26.99407806483407,64.01571983199847],[26.89558682055008,64.0440969453075]]]]}}]}
