{"type":"FeatureCollection","features":[{"type":"Feature","properties":{"kind":"province","id":"gubernia-1897-37","name":"Выборгская губерния"},"geometry":{"type":"MultiPolygon","coordinates":[[[[30.903022272528485,62.0372359207731],[30.92681688258661,62.047943495299506],[30.87922766247027,62.10861975094845],[30.76501353419015,62.23711064526471],[30.703147548038917,62.32515070247883],[30.918488769066737,62.37155019209243],[31.33489444508651,62.469108093331656],[31.829822334299923,62.58094276060727],[32.31833910795454,62.698604110127235],[32.33975425700693,62.693845188116015],[32.31714937745127,62.67243003906239],[32.38377428561497,62.634358662969106],[32.47538353433934,62.5832002513434],[32.53368032898228,62.549887797263196],[32.56342359155471,62.52014453469023],[32.605064159156925,62.51062669066691],[32.62647930820921,62.49159100262027],[32.66455068430312,62.47731423658573],[32.70143232989296,62.48326288909906],[32.72522693995117,62.47374504507574],[32.74783181950683,62.45946827904022],[32.801369692138096,62.43210447747424],[32.77678090247949,62.409517119966935],[32.78867820750855,62.38215331839997],[32.80771389555511,62.37858412689185],[32.81366254807004,62.35954843884521],[32.797006321029315,62.351220325324],[32.767263058456166,62.35597924733521],[32.749417100912176,62.34527167280889],[32.73870952638639,62.32266679325404],[32.70896626381324,62.30839002721861],[32.67089488772022,62.30839002721861],[32.59475213553311,62.29649272218919],[32.54359372390847,62.29173380017895],[32.5424039934052,62.27864676464564],[32.576906177989926,62.260800807102896],[32.56738833396669,62.24652404106747],[32.580475369498316,62.23462673603805],[32.55549102893754,62.19893482094997],[32.5079018088204,62.17157101938301],[32.46269204970989,62.132309912786724],[32.46864070222473,62.101376919711555],[32.443656361663244,62.069254196133464],[32.44008717015414,62.04070066406261],[32.50671207831793,61.9954909049529],[32.51622992234116,61.9907319829408],[32.53407587988444,61.997870365957134],[32.54002453239937,62.01809578450776],[32.575716447486656,62.03118282003929],[32.585234291509884,62.04545958607561],[32.62449539810635,62.0442698555726],[32.66970515721686,62.0335622810453],[32.66732569621103,62.00976767098744],[32.612598093077196,61.97764494740935],[32.635202972632854,61.93957357131607],[32.63282351162702,61.90626111723302],[32.639961894644514,61.88008704617005],[32.67327434872596,61.87532812415705],[32.67684354023426,61.8598616276204],[32.644720816656175,61.84439513108188],[32.589993213521545,61.81227240750379],[32.54359372390847,61.792046988954056],[32.50909153932376,61.78371887543383],[32.49600450379134,61.80037510247348],[32.51028126982623,61.82179025152711],[32.50314288680874,61.83606701756067],[32.52455803586112,61.84796432259009],[32.51385046133533,61.87532812415705],[32.49838396479717,61.90626111723302],[32.436517978645846,61.916968691759436],[32.34847792142977,61.96098872036783],[32.279473552261045,61.95385033734963],[32.28542220477517,61.94195303232119],[32.253299481197004,61.93600437980608],[32.2461610981796,61.893174081701574],[32.2461610981796,61.871758932649726],[32.230694601641346,61.86581028013373],[32.217607566108924,61.86937947164372],[32.20571026107986,61.863430819128524],[32.20808972208569,61.84796432259009],[32.15574157995769,61.84201567007676],[32.11885993436705,61.83011836504734],[32.11172155134956,61.80751348549071],[32.08078855827395,61.764683187387185],[32.076029636262376,61.70876585374937],[32.05580421771246,61.684971243691514],[32.065322061735785,61.65403825061643],[32.103393437829695,61.63500256256979],[32.12718804788781,61.55053169686201],[32.15574157995769,61.546962505353804],[32.24378163717377,61.545772774850796],[32.254489211699564,61.52554735630017],[32.255678942202834,61.50770139875751],[32.224745949126415,61.492234902218996],[32.22355621862394,61.464871100651145],[32.250920020191174,61.435127838078174],[32.267576247231986,61.40300511450009],[32.258058403208665,61.39705646198489],[32.20571026107986,61.432748377073054],[32.1628799629751,61.41490241952942],[32.19143349504497,61.38396942645345],[32.23783298465875,61.34827751136706],[32.27590436075185,61.35303643337828],[32.298509240307595,61.334000745331636],[32.26162759471696,61.32567263181043],[32.27590436075185,61.30068829125045],[32.259248133711225,61.294739638735344],[32.23902271516211,61.294739638735344],[32.23188433214462,61.26261691515717],[32.20214106957147,61.26142718465417],[32.11648047336122,61.21383796453756],[31.544102608178605,60.89632136491582],[31.14197369819317,60.70358502344334],[30.756501015249057,60.51626856537314],[30.692255568091127,60.48533557229803],[30.643476617471492,60.46986907575865],[30.60183604987003,60.44964365720989],[30.56852359578778,60.44012581318657],[30.546033131986633,60.44008283709536],[30.53057829181488,60.4531261065663],[30.516278291814878,60.4460261065663],[30.493678291814877,60.4424261065663],[30.48177829181488,60.4186261065663],[30.46397829181488,60.4139261065663],[30.44967829181488,60.4210261065663],[30.44367829181488,60.436526106566305],[30.42227829181488,60.440126106566304],[30.39847829181488,60.4353261065663],[30.35447829181488,60.441226106566305],[30.30217829181488,60.4555261065663],[30.28427829181488,60.4698261065663],[30.25457829181488,60.463926106566305],[30.21407829181488,60.454326106566306],[30.17247829181488,60.4627261065663],[30.142678291814878,60.4865261065663],[30.11417829181488,60.4829261065663],[30.08437829181488,60.4829261065663],[30.06537829181488,60.492426106566306],[30.06417829181488,60.474626106566305],[30.077278291814878,60.457926106566305],[30.098678291814878,60.4460261065663],[30.098678291814878,60.4317261065663],[30.11177829181488,60.3960261065663],[30.06537829181488,60.3520261065663],[30.03087829181488,60.342526106566304],[30.016578291814877,60.3520261065663],[29.995178291814877,60.338926106566305],[30.02497829181488,60.3139261065663],[30.00947829181488,60.3056261065663],[30.02727829181488,60.2818261065663],[29.99397829181488,60.2735261065663],[29.98207829181488,60.2675261065663],[29.93327829181488,60.2711261065663],[29.909478291814878,60.2628261065663],[29.929778291814877,60.2521261065663],[29.89997829181488,60.2461261065663],[29.86307829181488,60.2497261065663],[29.84167829181488,60.250926106566304],[29.838178291814877,60.2271261065663],[29.85357829181488,60.197426106566304],[29.868378291814878,60.1628261065663],[29.80891928793749,60.17330240918539],[29.763709528827068,60.17568187019148],[29.735155996757015,60.18638944471781],[29.70779219518979,60.18400998371082],[29.637598095517973,60.192338097233005],[29.58764799439734,60.19845443614595],[29.579301300874953,60.19947648025023],[29.536471002770273,60.200666210752345],[29.513866123214708,60.189958636226024],[29.46032825058317,60.18638944471781],[29.42344660499298,60.16735375667028],[29.329457895262593,60.17092294817938],[29.23427945502929,60.16616402616816],[29.15456751133433,60.16854348717515],[29.10935775222311,60.17092294817938],[29.081993950655974,60.17925106170058],[29.058199340598204,60.18519971421392],[29.033215000036808,60.18400998371082],[29.010610120481243,60.188768905723904],[28.9951436239437,60.20542513276534],[28.986815510423472,60.220891629301995],[29.00347173746393,60.238737586846526],[28.996333354446616,60.25658354438927],[28.97729766639962,60.24468623935985],[28.948744134329566,60.26015273589837],[28.954692786844763,60.273239771430795],[28.94279548181508,60.281567884950135],[28.907103566727802,60.279188423945904],[28.90234464471623,60.270860310423814],[28.866652729628864,60.283947345956236],[28.840478658564553,60.30298303400376],[28.832150545044325,60.32915710506763],[28.832150545044325,60.34462360160517],[28.804786743477187,60.361279828645806],[28.78813051643602,60.363659289651814],[28.78813051643602,60.34581333210915],[28.80121755196853,60.33153656607284],[28.771474289395563,60.33034683556974],[28.738161835314028,60.335105757582824],[28.679865040671007,60.350572254119484],[28.629896359548216,60.3624695591497],[28.598963366473132,60.37198740317302],[28.58587633094062,60.39459228272699],[28.573979025911736,60.42195608429572],[28.584686600437706,60.424335545299954],[28.579927678426134,60.43861231133627],[28.55970225987631,60.443371233347484],[28.533528188812088,60.47430422642266],[28.507354117748577,60.4945296449723],[28.478800585678524,60.518324255030166],[28.45619570612287,60.53854967357981],[28.444298401093985,60.55520590062222],[28.497836273724722,60.55520590062222],[28.521630883783203,60.523083177043155],[28.553753607361912,60.508806411006844],[28.59182498345502,60.48620153145288],[28.62394770703373,60.46954530441144],[28.691762345699892,60.43861231133627],[28.714367225255458,60.4481301553587],[28.72745426078797,60.45407880787292],[28.71912614726703,60.47906314843565],[28.70603911173532,60.50523721949952],[28.685813693185406,60.52784209905349],[28.683434232179664,60.54330859559191],[28.701280189723747,60.55401617011824],[28.678675310168092,60.581379971685195],[28.681054771173923,60.599225929229725],[28.70841857274106,60.611123234258166],[28.701280189723747,60.62302053928758],[28.679865040671007,60.64800487984844],[28.68462396268249,60.655143262865764],[28.7167466862612,60.65276380186055],[28.731023452296714,60.63491784431602],[28.74886940983991,60.6254000002927],[28.750059140342824,60.63610757482],[28.736972104811112,60.65157407135666],[28.741731026822595,60.659902184877865],[28.757197523360226,60.662281645882985],[28.76433590637825,60.67298922041029],[28.76433590637825,60.68488652543873],[28.77742294191005,60.68488652543873],[28.792889438448302,60.669420028902074],[28.80954566548876,60.6765584119193],[28.791699707944677,60.69083517795295],[28.773853750401305,60.695594099965945],[28.741731026822595,60.69916329147327],[28.74292075732551,60.71700924901779],[28.76195644537251,60.72414763203501],[28.79050997744176,60.72176817102901],[28.79050997744176,60.73485520656134],[28.76671536738399,60.75270116410587],[28.757197523360226,60.76578819963652],[28.725074799781517,60.7610292776253],[28.715556955758373,60.75032170309986],[28.707228842238145,60.741993589578655],[28.68462396268249,60.745562781086775],[28.675106118659436,60.736044937063454],[28.666778005139296,60.740803859075655],[28.653690969606696,60.738424398069554],[28.659639622121183,60.72890655404623],[28.68462396268249,60.71581951851567],[28.68224450167675,60.69797356097017],[28.65250123910378,60.70511194398837],[28.638224473069155,60.70511194398837],[28.644173125583553,60.69440436946205],[28.66082935262401,60.69440436946205],[28.681054771173923,60.68369679493573],[28.656070430612438,60.667040567895086],[28.65012177809804,60.68131733392963],[28.614429863010674,60.687265986444736],[28.61324013250776,60.674178950912406],[28.587066061443448,60.663471376386966],[28.58349686993488,60.6765584119193],[28.55970225987631,60.670609759404186],[28.53594996083492,60.66498421489459],[28.51449250076589,60.659902184877865],[28.48831842970158,60.659902184877865],[28.483559507690007,60.65157407135666],[28.465713550146013,60.657522723871764],[28.433590826567304,60.64681514934633],[28.403847563994336,60.659902184877865],[28.40027837248568,60.64324595783723],[28.380052953936566,60.64324595783723],[28.406227025000877,60.6254000002927],[28.396709180977023,60.611123234258166],[28.36101726588957,60.619451347779375],[28.326515081305118,60.62302053928758],[28.35268915236943,60.602795120738826],[28.369345379409886,60.590897815708516],[28.330084272813775,60.590897815708516],[28.293202627223582,60.588518354702515],[28.280115591691782,60.573051858165854],[28.287253974709095,60.56591347514855],[28.27773613068604,60.55758536162645],[28.259890173141958,60.56829293615277],[28.242044215597875,60.55520590062222],[28.242044215597875,60.518324255030166],[28.234905832580562,60.507616680503745],[28.215870144534364,60.517134524528046],[28.192075534475794,60.52903182955649],[28.173039846428885,60.53141129056259],[28.18255769045283,60.50999614151073],[28.188506342967226,60.501668027989524],[28.1742295769318,60.49690910597831],[28.149245236371204,60.50523721949952],[28.140917122850176,60.51594479402593],[28.11593278228958,60.518324255030166],[28.079051136698588,60.511185872012845],[28.075481945189843,60.49690910597831],[28.035031108090994,60.511185872012845],[28.017185150547622,60.518324255030166],[28.018374881050537,60.502857758493505],[27.998149462500624,60.4957193754762],[27.971975391436402,60.507616680503745],[27.946991050875006,60.50523721949952],[27.91962724930787,60.50642695000163],[27.893453178244357,60.504047488995624],[27.875607220700275,60.50642695000163],[27.862520185168474,60.532601021066476],[27.869658568185788,60.54330859559191],[27.849433149635964,60.54449832609492],[27.841105036115824,60.52784209905349],[27.824448809075367,60.518324255030166],[27.79946446851397,60.517134524528046],[27.79708500750823,60.521893446539266],[27.812551504045683,60.52784209905349],[27.811361773542856,60.53973940408379],[27.794705546502488,60.55163670911223],[27.77091093644392,60.573051858165854],[27.745926595882523,60.57186212766277],[27.729270368842155,60.56353401414156],[27.731649829847896,60.53379075156859],[27.724511446829784,60.519513985534054],[27.710234680795157,60.50642695000163],[27.729270368842155,60.501668027989524],[27.732839560350723,60.4909604534632],[27.70428602828076,60.48144260943988],[27.675732496210617,60.48382207044598],[27.636471389614595,60.48382207044598],[27.617435701567686,60.47906314843565],[27.588882169497634,60.4957193754762],[27.61624597106477,60.50999614151073],[27.634091928608854,60.511185872012845],[27.638850850620425,60.4992885669853],[27.65074815564922,60.50523721949952],[27.668594113193304,60.51594479402593],[27.66978384369622,60.53735994307769],[27.657886538666624,60.54092913458591],[27.63528165911177,60.52784209905349],[27.612676779556114,60.519513985534054],[27.59007190000046,60.50642695000163],[27.565087559439863,60.4992885669853],[27.57698486446875,60.48620153145288],[27.59483082201203,60.46954530441144],[27.559138906924666,60.47549395692655],[27.55319025441018,60.48620153145288],[27.5044113037911,60.4909604534632],[27.490134537755676,60.508806411006844],[27.468719388703736,60.4921501839662],[27.45206316166257,60.48739126195499],[27.481806424235447,60.47192476541656],[27.47585777172105,60.458837729886],[27.444924778645255,60.46597611290323],[27.428268551604088,60.47192476541656],[27.418750707580944,60.462406921395015],[27.378299870482007,60.4921501839662],[27.35926418243501,60.501668027989524],[27.35926418243501,60.48620153145288],[27.349746338412043,60.4885809924571],[27.339038763885984,60.50523721949952],[27.3211928063419,60.50999614151073],[27.293829004774764,60.518324255030166],[27.27598304723148,60.513565333018946],[27.26051655069314,60.523083177043155],[27.230773288120172,60.523083177043155],[27.233152749126003,60.51594479402593],[27.22601436610869,60.50999614151073],[27.210547869571148,60.508806411006844],[27.209358139068232,60.52903182955649],[27.19984029504438,60.54092913458591],[27.214117061079804,60.54687778710101],[27.237911671137574,60.53498048207257],[27.26289601169888,60.53141129056259],[27.26289601169888,60.53617021257558],[27.245050054155687,60.5421188650898],[27.222445174600033,60.55520590062222],[27.19389164252998,60.55401617011824],[27.173666223980156,60.573051858165854],[27.154630535933958,60.56829293615277],[27.1510613444253,60.55877509212945],[27.173666223980156,60.532601021066476],[27.16176891895127,60.53022156006047],[27.14630242241373,60.53854967357981],[27.134405117384045,60.53022156006047],[27.11655915984085,60.53379075156859],[27.09038508877654,60.54687778710101],[27.09038508877654,60.53854967357981],[27.09276454978228,60.52665236855137],[27.046365060168146,60.53498048207257],[27.017811528098893,60.54330859559191],[26.996396379046153,60.54568805659703],[27.011862875583695,60.52665236855137],[27.035657485642176,60.51594479402593],[27.02376018061329,60.501668027989524],[26.994016918040412,60.501668027989524],[26.979740152004986,60.48144260943988],[26.96546338597027,60.48382207044598],[26.95237635043856,60.4945296449723],[26.938099584403133,60.48977072296108],[26.961894194461703,60.47430422642266],[26.98449907401727,60.46835557390932],[26.99758610954898,60.456458268879906],[26.99758610954898,60.43861231133627],[26.970222307981842,60.432663658821156],[26.948807158929103,60.4469404248557],[26.94404823691753,60.46002746038812],[26.92263308786568,60.47787341793167],[26.882182250765943,60.4909604534632],[26.89051036428697,60.46716584340534],[26.8667157542284,60.46359665189722],[26.84886979668432,60.452889077370806],[26.817936803608525,60.443371233347484],[26.80366003757381,60.45526853837602],[26.796521654556496,60.46835557390932],[26.810798420591123,60.48144260943988],[26.7846243495269,60.48263233994386],[26.781055158018244,60.47311449592054],[26.7715373139951,60.46597611290323],[26.742983781925137,60.47311449592054],[26.765588661480702,60.44099177234148],[26.738224859913565,60.44099177234148],[26.727517285387595,60.424335545299954],[26.690635639796515,60.424335545299954],[26.650184802697577,60.44931988586268],[26.61449288761021,60.443371233347484],[26.570472859002617,60.45169934686692],[26.582370164031502,60.41957662328963],[26.54786797944705,60.433853389323275],[26.52908162094693,60.44549858877592],[26.517245863280717,60.460293285859706],[26.501464853057946,60.47410166980353],[26.477793337724545,60.48692374061007],[26.482800528662867,60.50828306833951],[26.4887491811778,60.534457139402484],[26.507784869224352,60.538026330911585],[26.516112982744314,60.56301067147245],[26.53871786229997,60.57252851549577],[26.574409777387245,60.5868052815312],[26.624378458510215,60.60346150857272],[26.66126010410005,60.60465123907572],[26.70171094119979,60.58561555102908],[26.731454203772046,60.57490797650276],[26.75524881383026,60.57371824599975],[26.788561267912506,60.58204635951909],[26.789750998415066,60.599892317062725],[26.764766657853492,60.620117735612375],[26.76238719684775,60.63915342365902],[26.780233154391745,60.65461992019753],[26.81949426098821,60.64748153717933],[26.840909410040506,60.64867126768234],[26.826632644005613,60.66651722522687],[26.832581296519834,60.6772247997523],[26.80640722545579,60.69507075729683],[26.8028380339474,60.72957294188199],[26.782612615397575,60.743849707916524],[26.767146118859323,60.7676443179743],[26.767146118859323,60.78786973652306],[26.745730969807028,60.79976704155247],[26.738592586789537,60.819992460103094],[26.673157409129114,60.83307949563454],[26.60058384845129,60.84735626166908],[26.619619536498643,60.86639194971572],[26.635086033036096,60.88185844625416],[26.670777948123373,60.88423790725936],[26.682675253152436,60.89851467329568],[26.662449834603322,60.911601708827206],[26.642224416053498,60.911601708827206],[26.612481153480353,60.916360630838426],[26.59939411794873,60.9508628154235],[26.580358429902176,60.96632931196193],[26.588686543422227,60.992503383024996],[26.630327111024435,61.00678014906131],[26.638655224545108,61.05317963867491],[26.71241851572558,61.080543440240895],[26.7540590833277,61.10909697231086],[26.742161778298637,61.14597861790203],[26.6945725581815,61.19356783801864],[26.745730969807063,61.216701486686375],[26.808786686461655,61.24525501875634],[26.848047793058033,61.24525501875634],[26.864704020098756,61.23573717473302],[26.88017051663692,61.1798198410961],[26.92894946725662,61.16554307505979],[26.963451651840625,61.14412792600793],[27.011040871957764,61.131040890476484],[27.03721494302172,61.151266309025246],[27.08837335464725,61.151266309025246],[27.10502958168806,61.151266309025246],[27.120496078225425,61.1798198410961],[27.152618801804312,61.18219930210122],[27.25136643354627,61.17863011059309],[27.322750263721623,61.16792253606677],[27.34654487377975,61.16792253606677],[27.35606271780307,61.17744038009009],[27.35844217880881,61.19171714612454],[27.377477866855454,61.19409660712975],[27.381047058364555,61.20599391216094],[27.331078377241585,61.20480418165607],[27.321560533218264,61.225029600205715],[27.329888646739025,61.24644474925935],[27.29657619265678,61.27142908981932],[27.216864248961464,61.303551813399274],[27.19069017789751,61.31306965742348],[27.175223681360055,61.32734642345713],[27.154998262810143,61.32139777094203],[27.121685808728696,61.333295075972245],[27.114547425711294,61.31663884893081],[27.064578744588324,61.32020804043893],[27.027697098998487,61.33210534546835],[27.011040871957764,61.34995130301199],[26.952744077314833,61.342812919995566],[26.949174885805732,61.3570896860301],[26.995574375419512,61.378504835081955],[27.018457275192358,61.37949974376779],[27.02304120995352,61.371775861800444],[27.04133331643575,61.372928413226916],[27.069886848505536,61.363410569203594],[27.08535334504379,61.363410569203594],[27.107958224598732,61.38244625725024],[27.129373373651827,61.40386140630111],[27.185290707288218,61.4002922147929],[27.282848608527527,61.4002922147929],[27.479154141508705,61.366979760711715],[27.55410716319236,61.35032353367019],[27.640957489905166,61.34080568964687],[27.813468412828218,61.34437488115695],[27.853919249927156,61.35151326417329],[27.929136656167103,61.33617895991305],[27.960069649242808,61.332609768404836],[27.992192372821695,61.34212761242816],[28.02193563539404,61.34450707343328],[28.132580572164972,61.34926599544636],[28.244415239439263,61.35283518695448],[28.305091495088025,61.36473249198301],[28.33364502715781,61.37900925801844],[28.38004451677168,61.40994225109441],[28.462135921472825,61.45753147121101],[28.48949972304014,61.481326081268875],[28.495448375554272,61.50036176931552],[28.559693822712134,61.53010503188848],[28.58586789377618,61.53010503188848],[28.627508461378387,61.51344880484883],[28.633457113892607,61.489654194789196],[28.7036512135646,61.474187698252535],[28.878541597493395,61.5051206913286],[28.940143199088514,61.51269696126562],[29.049598405356885,61.52340453579292],[29.155484420116245,61.549578606855896],[29.27802666191704,61.59478836596738],[29.407707286734613,61.642377586084876],[29.517162493002985,61.66498246563973],[29.554044138592822,61.68282842318328],[29.54333656406703,61.718520338271446],[29.611856228216432,61.716140877264465],[29.64635841280115,61.72208952977966],[29.740347122531446,61.75064306184962],[29.847422867793277,61.776817132914374],[30.000898102669776,61.81369877850377],[30.12106088346403,61.85058042409396],[30.17578848659857,61.86128799862038],[30.39350916863142,61.90649775773177],[30.48273895635077,61.92910263728663],[30.668141869824957,61.97442687932144],[30.903022272528485,62.0372359207731]]]]}},{"type":"Feature","properties":{"kind":"district","id":"uyezd-1897-24","name":"Кюменский\r\n","provinceId":"gubernia-1897-37"},"geometry":{"type":"MultiPolygon","coordinates":[[[[28.252945721385295,60.84280361596661],[28.185131082719042,60.85232145998993],[28.132782940591042,60.86183930401325],[28.110178061035388,60.87135714803657],[28.089952642486363,60.893962027592316],[28.06734776293062,60.90229014111263],[28.050691535889896,60.901100410609544],[28.006671507281858,60.873736609042666],[27.953133634650587,60.87492633954656],[27.91744171956331,60.878495531054774],[27.897216301014197,60.86064957351114],[27.871042229949442,60.8487522684818],[27.81750435731888,60.84399334646962],[27.778243250722504,60.86302903451626],[27.75920756267595,60.85589065149992],[27.75087944915519,60.8487522684818],[27.70329022903876,60.8463728074766],[27.70210049853549,60.834475502446296],[27.719946456079573,60.817819275406634],[27.734223222114466,60.79640412635301],[27.65808046992745,60.791645204341876],[27.554573916173922,60.78688628232969],[27.510553887566683,60.794024665346996],[27.477241433484437,60.804732239873324],[27.458205745437972,60.82971658043516],[27.408237064315713,60.85232145998993],[27.348750539169423,60.888013375078096],[27.278556439498228,60.89158256658622],[27.22977748887853,60.893962027592316],[27.17980880775556,60.92727448167439],[27.160773119709006,60.92727448167439],[27.12032228261007,60.904669602119526],[27.092958481042842,60.90704906312474],[27.07749198450539,60.89753121910142],[27.03585141690318,60.893962027592316],[27.02514384237659,60.890392836083215],[27.040610338914753,60.87016741753446],[26.9692265087394,60.85708038200114],[26.847873997442676,60.8380446939545],[26.81099235185213,60.83685496345328],[26.777679897770593,60.82376792791997],[26.738592586789537,60.819992460103094],[26.745730969807028,60.79976704155247],[26.767146118859323,60.78786973652306],[26.767146118859323,60.7676443179743],[26.782612615397575,60.743849707916524],[26.8028380339474,60.72957294188199],[26.80640722545579,60.69507075729683],[26.832581296519834,60.6772247997523],[26.826632644005613,60.66651722522687],[26.840909410040506,60.64867126768234],[26.81949426098821,60.64748153717933],[26.780233154391745,60.65461992019753],[26.76238719684775,60.63915342365902],[26.764766657853492,60.620117735612375],[26.789750998415066,60.599892317062725],[26.788561267912506,60.58204635951909],[26.75524881383026,60.57371824599975],[26.731454203772046,60.57490797650276],[26.70171094119979,60.58561555102908],[26.66126010410005,60.60465123907572],[26.624378458510215,60.60346150857272],[26.574409777387245,60.5868052815312],[26.53871786229997,60.57252851549577],[26.516112982744314,60.56301067147245],[26.507784869224352,60.538026330911585],[26.4887491811778,60.534457139402484],[26.482800528662867,60.50828306833951],[26.477793337724545,60.48692374061007],[26.501464853057946,60.47410166980353],[26.517245863280717,60.460293285859706],[26.52908162094693,60.44549858877592],[26.54786797944705,60.433853389323275],[26.582370164031502,60.41957662328963],[26.570472859002617,60.45169934686692],[26.61449288761021,60.443371233347484],[26.650184802697577,60.44931988586268],[26.690635639796515,60.424335545299954],[26.727517285387595,60.424335545299954],[26.738224859913565,60.44099177234148],[26.765588661480702,60.44099177234148],[26.742983781925137,60.47311449592054],[26.7715373139951,60.46597611290323],[26.781055158018244,60.47311449592054],[26.7846243495269,60.48263233994386],[26.810798420591123,60.48144260943988],[26.796521654556496,60.46835557390932],[26.80366003757381,60.45526853837602],[26.817936803608525,60.443371233347484],[26.84886979668432,60.452889077370806],[26.8667157542284,60.46359665189722],[26.89051036428697,60.46716584340534],[26.882182250765943,60.4909604534632],[26.92263308786568,60.47787341793167],[26.94404823691753,60.46002746038812],[26.948807158929103,60.4469404248557],[26.970222307981842,60.432663658821156],[26.99758610954898,60.43861231133627],[26.99758610954898,60.456458268879906],[26.98449907401727,60.46835557390932],[26.961894194461703,60.47430422642266],[26.938099584403133,60.48977072296108],[26.95237635043856,60.4945296449723],[26.96546338597027,60.48382207044598],[26.979740152004986,60.48144260943988],[26.994016918040412,60.501668027989524],[27.02376018061329,60.501668027989524],[27.035657485642176,60.51594479402593],[27.011862875583695,60.52665236855137],[26.996396379046153,60.54568805659703],[27.017811528098893,60.54330859559191],[27.046365060168146,60.53498048207257],[27.09276454978228,60.52665236855137],[27.09038508877654,60.53854967357981],[27.09038508877654,60.54687778710101],[27.11655915984085,60.53379075156859],[27.134405117384045,60.53022156006047],[27.14630242241373,60.53854967357981],[27.16176891895127,60.53022156006047],[27.173666223980156,60.532601021066476],[27.1510613444253,60.55877509212945],[27.154630535933958,60.56829293615277],[27.173666223980156,60.573051858165854],[27.19389164252998,60.55401617011824],[27.222445174600033,60.55520590062222],[27.245050054155687,60.5421188650898],[27.26289601169888,60.53617021257558],[27.26289601169888,60.53141129056259],[27.237911671137574,60.53498048207257],[27.214117061079804,60.54687778710101],[27.19984029504438,60.54092913458591],[27.209358139068232,60.52903182955649],[27.210547869571148,60.508806411006844],[27.22601436610869,60.50999614151073],[27.233152749126003,60.51594479402593],[27.230773288120172,60.523083177043155],[27.26051655069314,60.523083177043155],[27.27598304723148,60.513565333018946],[27.293829004774764,60.518324255030166],[27.3211928063419,60.50999614151073],[27.339038763885984,60.50523721949952],[27.349746338412043,60.4885809924571],[27.35926418243501,60.48620153145288],[27.35926418243501,60.501668027989524],[27.378299870482007,60.4921501839662],[27.418750707580944,60.462406921395015],[27.428268551604088,60.47192476541656],[27.444924778645255,60.46597611290323],[27.47585777172105,60.458837729886],[27.481806424235447,60.47192476541656],[27.45206316166257,60.48739126195499],[27.468719388703736,60.4921501839662],[27.490134537755676,60.508806411006844],[27.5044113037911,60.4909604534632],[27.55319025441018,60.48620153145288],[27.559138906924666,60.47549395692655],[27.59483082201203,60.46954530441144],[27.57698486446875,60.48620153145288],[27.565087559439863,60.4992885669853],[27.59007190000046,60.50642695000163],[27.612676779556114,60.519513985534054],[27.63528165911177,60.52784209905349],[27.657886538666624,60.54092913458591],[27.66978384369622,60.53735994307769],[27.668594113193304,60.51594479402593],[27.65074815564922,60.50523721949952],[27.638850850620425,60.4992885669853],[27.634091928608854,60.511185872012845],[27.61624597106477,60.50999614151073],[27.588882169497634,60.4957193754762],[27.617435701567686,60.47906314843565],[27.636471389614595,60.48382207044598],[27.675732496210617,60.48382207044598],[27.70428602828076,60.48144260943988],[27.732839560350723,60.4909604534632],[27.729270368842155,60.501668027989524],[27.710234680795157,60.50642695000163],[27.724511446829784,60.519513985534054],[27.731649829847896,60.53379075156859],[27.729270368842155,60.56353401414156],[27.745926595882523,60.57186212766277],[27.77091093644392,60.573051858165854],[27.794705546502488,60.55163670911223],[27.811361773542856,60.53973940408379],[27.812551504045683,60.52784209905349],[27.79708500750823,60.521893446539266],[27.79946446851397,60.517134524528046],[27.824448809075367,60.518324255030166],[27.841105036115824,60.52784209905349],[27.849433149635964,60.54449832609492],[27.869658568185788,60.54330859559191],[27.862520185168474,60.532601021066476],[27.875607220700275,60.50642695000163],[27.893453178244357,60.504047488995624],[27.91962724930787,60.50642695000163],[27.946991050875006,60.50523721949952],[27.971975391436402,60.507616680503745],[27.998149462500624,60.4957193754762],[28.018374881050537,60.502857758493505],[28.017185150547622,60.518324255030166],[28.035031108090994,60.511185872012845],[28.075481945189843,60.49690910597831],[28.079051136698588,60.511185872012845],[28.11593278228958,60.518324255030166],[28.140917122850176,60.51594479402593],[28.149245236371204,60.50523721949952],[28.1742295769318,60.49690910597831],[28.188506342967226,60.501668027989524],[28.18255769045283,60.50999614151073],[28.173039846428885,60.53141129056259],[28.192075534475794,60.52903182955649],[28.215870144534364,60.517134524528046],[28.234905832580562,60.507616680503745],[28.242044215597875,60.518324255030166],[28.242044215597875,60.55520590062222],[28.259890173141958,60.56829293615277],[28.27773613068604,60.55758536162645],[28.287253974709095,60.56591347514855],[28.280115591691782,60.573051858165854],[28.293202627223582,60.588518354702515],[28.330084272813775,60.590897815708516],[28.369345379409886,60.590897815708516],[28.35268915236943,60.602795120738826],[28.326515081305118,60.62302053928758],[28.36101726588957,60.619451347779375],[28.396709180977023,60.611123234258166],[28.406227025000877,60.6254000002927],[28.380052953936566,60.64324595783723],[28.40027837248568,60.64324595783723],[28.403847563994336,60.659902184877865],[28.433590826567304,60.64681514934633],[28.465713550146013,60.657522723871764],[28.483559507690007,60.65157407135666],[28.48831842970158,60.659902184877865],[28.51449250076589,60.659902184877865],[28.53594996083492,60.66498421489459],[28.507548049009404,60.68100026757104],[28.44211287134907,60.70003595561768],[28.370729041174517,60.72739975718375],[28.32551928206312,60.74524571472739],[28.298155480496604,60.761901941768826],[28.28268898395844,60.78807601283367],[28.27317113993512,60.8011630483652],[28.287447905970012,60.82852684993118],[28.252945721385295,60.84280361596661]]]]}},{"type":"Feature","properties":{"kind":"district","id":"uyezd-1897-25","name":"Страндасский","provinceId":"gubernia-1897-37"},"geometry":{"type":"MultiPolygon","coordinates":[[[[28.53594996083492,60.66498421489459],[28.55970225987631,60.670609759404186],[28.58349686993488,60.6765584119193],[28.587066061443448,60.663471376386966],[28.61324013250776,60.674178950912406],[28.614429863010674,60.687265986444736],[28.65012177809804,60.68131733392963],[28.656070430612438,60.667040567895086],[28.681054771173923,60.68369679493573],[28.66082935262401,60.69440436946205],[28.644173125583553,60.69440436946205],[28.638224473069155,60.70511194398837],[28.65250123910378,60.70511194398837],[28.68224450167675,60.69797356097017],[28.68462396268249,60.71581951851567],[28.659639622121183,60.72890655404623],[28.653690969606696,60.738424398069554],[28.666778005139296,60.740803859075655],[28.675106118659436,60.736044937063454],[28.68462396268249,60.745562781086775],[28.707228842238145,60.741993589578655],[28.715556955758373,60.75032170309986],[28.725074799781517,60.7610292776253],[28.757197523360226,60.76578819963652],[28.76671536738399,60.75270116410587],[28.79050997744176,60.73485520656134],[28.79050997744176,60.72176817102901],[28.76195644537251,60.72414763203501],[28.74292075732551,60.71700924901779],[28.741731026822595,60.69916329147327],[28.773853750401305,60.695594099965945],[28.791699707944677,60.69083517795295],[28.80954566548876,60.6765584119193],[28.792889438448302,60.669420028902074],[28.77742294191005,60.68488652543873],[28.76433590637825,60.68488652543873],[28.76433590637825,60.67298922041029],[28.757197523360226,60.662281645882985],[28.741731026822595,60.659902184877865],[28.736972104811112,60.65157407135666],[28.750059140342824,60.63610757482],[28.74886940983991,60.6254000002927],[28.731023452296714,60.63491784431602],[28.7167466862612,60.65276380186055],[28.68462396268249,60.655143262865764],[28.679865040671007,60.64800487984844],[28.701280189723747,60.62302053928758],[28.70841857274106,60.611123234258166],[28.681054771173923,60.599225929229725],[28.678675310168092,60.581379971685195],[28.701280189723747,60.55401617011824],[28.683434232179664,60.54330859559191],[28.685813693185406,60.52784209905349],[28.70603911173532,60.50523721949952],[28.71912614726703,60.47906314843565],[28.72745426078797,60.45407880787292],[28.714367225255458,60.4481301553587],[28.691762345699892,60.43861231133627],[28.62394770703373,60.46954530441144],[28.59182498345502,60.48620153145288],[28.553753607361912,60.508806411006844],[28.521630883783203,60.523083177043155],[28.497836273724722,60.55520590062222],[28.444298401093985,60.55520590062222],[28.45619570612287,60.53854967357981],[28.478800585678524,60.518324255030166],[28.507354117748577,60.4945296449723],[28.533528188812088,60.47430422642266],[28.55970225987631,60.443371233347484],[28.579927678426134,60.43861231133627],[28.584686600437706,60.424335545299954],[28.573979025911736,60.42195608429572],[28.58587633094062,60.39459228272699],[28.598963366473132,60.37198740317302],[28.629896359548216,60.3624695591497],[28.679865040671007,60.350572254119484],[28.738161835314028,60.335105757582824],[28.771474289395563,60.33034683556974],[28.80121755196853,60.33153656607284],[28.78813051643602,60.34581333210915],[28.78813051643602,60.363659289651814],[28.804786743477187,60.361279828645806],[28.832150545044325,60.34462360160517],[28.832150545044325,60.32915710506763],[28.840478658564553,60.30298303400376],[28.866652729628864,60.283947345956236],[28.90234464471623,60.270860310423814],[28.907103566727802,60.279188423945904],[28.94279548181508,60.281567884950135],[28.954692786844763,60.273239771430795],[28.948744134329566,60.26015273589837],[28.97729766639962,60.24468623935985],[28.996333354446616,60.25658354438927],[29.00347173746393,60.238737586846526],[28.986815510423472,60.220891629301995],[28.9951436239437,60.20542513276534],[29.010610120481243,60.188768905723904],[29.033215000036808,60.18400998371082],[29.058199340598204,60.18519971421392],[29.081993950655974,60.17925106170058],[29.10935775222311,60.17092294817938],[29.15456751133433,60.16854348717515],[29.23427945502929,60.16616402616816],[29.329457895262593,60.17092294817938],[29.42344660499298,60.16735375667028],[29.46032825058317,60.18638944471781],[29.513866123214708,60.189958636226024],[29.536471002770273,60.200666210752345],[29.579301300874953,60.19947648025023],[29.58764799439734,60.19845443614595],[29.595358305508515,60.21978140927328],[29.577512347964433,60.24119655832594],[29.579891808970263,60.257852785366566],[29.585840461485194,60.27688847341321],[29.603686419029277,60.280457664923205],[29.634619412104893,60.27450901240809],[29.650085908642346,60.29949335296895],[29.66436267467724,60.31139065799739],[29.652465369648176,60.330426346044035],[29.582271269976093,60.372066913647316],[29.52516420583652,60.40775882873361],[29.496610673766646,60.416086942253926],[29.446641992643677,60.429173977787244],[29.428796035100394,60.42798424728335],[29.36574031844589,60.406569098230605],[29.31101271531197,60.414897211751814],[29.232490502119216,60.43274316929545],[29.175383437979555,60.46724535387963],[29.128983948365686,60.51007565198503],[29.1004304162959,60.55766487210252],[29.070687153722755,60.61239247523547],[29.052841196178672,60.634997354790315],[29.025477394612157,60.649274120825744],[29.034995238635478,60.656412503843946],[29.071876884226025,60.664740617363286],[29.076635806237686,60.676637922393596],[29.065928231711094,60.69686334094324],[29.073066614728585,60.74921148307017],[29.082584458751818,60.80393908620587],[29.09686122478671,60.817026121736426],[29.057600118191132,60.817026121736426],[29.013580089583094,60.817026121736426],[28.93981679840191,60.81583639123431],[28.914832457841225,60.82773369626284],[28.920781110355357,60.84082073179615],[28.94814491192267,60.84557965380736],[28.955283294940163,60.85985641984279],[28.925540032367017,60.887220221408775],[28.900555691805533,60.88484076040277],[28.88627892577055,60.900307256942085],[28.83155132263681,60.95622459057812],[28.7934799465437,60.96455270409835],[28.753029109443965,60.951465668566904],[28.72566530787745,60.950275938063896],[28.6678245183786,60.99537214682594],[28.655471208205366,61.00500354119773],[28.63048686764397,61.00619327170162],[28.601933335574095,61.00381381069472],[28.57813872551588,60.985967853151976],[28.544826271434435,60.97763973962988],[28.507944625843887,60.981208931139875],[28.46630405824168,60.96574243460144],[28.453217022710056,60.92172240599393],[28.41752510762198,60.88484076040277],[28.350900199459087,60.8622358808488],[28.31877747588011,60.8622358808488],[28.292603404816067,60.88008183839244],[28.277136908277903,60.877702377385454],[28.252945721385295,60.84280361596661],[28.287447905970012,60.82852684993118],[28.27317113993512,60.8011630483652],[28.28268898395844,60.78807601283367],[28.298155480496604,60.761901941768826],[28.32551928206312,60.74524571472739],[28.370729041174517,60.72739975718375],[28.44211287134907,60.70003595561768],[28.507548049009404,60.68100026757104],[28.53594996083492,60.66498421489459]]]]}},{"type":"Feature","properties":{"kind":"district","id":"uyezd-1897-27","name":"Эуряпясский","provinceId":"gubernia-1897-37"},"geometry":{"type":"MultiPolygon","coordinates":[[[[30.643476617471492,60.46986907575865],[30.61614707701016,60.473458390951215],[30.589973005946206,60.47464812145333],[30.545952977338167,60.49130434849485],[30.524537828285784,60.47821731296243],[30.49717402671847,60.48059677396755],[30.4472053455963,60.48059677396755],[30.40913396950248,60.475837851956335],[30.40199558648499,60.5043913840263],[30.412703161011493,60.52342707207294],[30.436497771069707,60.53651410760536],[30.415082622017323,60.548411412633804],[30.3948572034675,60.560308717664114],[30.332991217316177,60.606708207276824],[30.259227926135082,60.60551847677373],[30.203310592498692,60.61265685979193],[30.153341911375723,60.60075955476349],[30.125978109809207,60.61741578180404],[30.09266565572696,60.642400122364904],[30.072440237177936,60.64358985286702],[30.053404549130583,60.66738446292674],[29.847581172126795,60.67095365443487],[29.799991952009744,60.71021476103124],[29.765489767425738,60.769701286176286],[29.746454079379184,60.769701286176286],[29.71909027781187,60.78159859120562],[29.647706447636516,60.792306165732924],[29.588219922491025,60.76613209466808],[29.51088743980154,60.76137317265597],[29.374068431966563,60.77683966919449],[29.25152619016577,60.789926704725936],[29.09686122478671,60.817026121736426],[29.082584458751818,60.80393908620587],[29.073066614728585,60.74921148307017],[29.065928231711094,60.69686334094324],[29.076635806237686,60.676637922393596],[29.071876884226025,60.664740617363286],[29.034995238635478,60.656412503843946],[29.025477394612157,60.649274120825744],[29.052841196178672,60.634997354790315],[29.070687153722755,60.61239247523547],[29.1004304162959,60.55766487210252],[29.128983948365686,60.51007565198503],[29.175383437979555,60.46724535387963],[29.232490502119216,60.43274316929545],[29.31101271531197,60.414897211751814],[29.36574031844589,60.406569098230605],[29.428796035100394,60.42798424728335],[29.446641992643677,60.429173977787244],[29.496610673766646,60.416086942253926],[29.52516420583652,60.40775882873361],[29.582271269976093,60.372066913647316],[29.652465369648176,60.330426346044035],[29.66436267467724,60.31139065799739],[29.650085908642346,60.29949335296895],[29.634619412104893,60.27450901240809],[29.603686419029277,60.280457664923205],[29.585840461485194,60.27688847341321],[29.579891808970263,60.257852785366566],[29.577512347964433,60.24119655832594],[29.595358305508515,60.21978140927328],[29.58764799439734,60.19845443614595],[29.637598095517973,60.192338097233005],[29.70779219518979,60.18400998371082],[29.735155996757015,60.18638944471781],[29.763709528827068,60.17568187019148],[29.80891928793749,60.17330240918539],[29.868400263976916,60.16286715023094],[29.853609979289978,60.197377814502026],[29.838143482751637,60.227121077075],[29.841712674260293,60.250915687131965],[29.863127823313032,60.249725956628964],[29.900009468903313,60.246156765120745],[29.92975273147628,60.252105417635946],[29.909527312926368,60.262812992161386],[29.933321922984938,60.27114110568259],[29.982100873604015,60.26757191417251],[29.9939981786337,60.27352056668771],[30.027310632715324,60.28184868020891],[30.00946467517124,60.30564329026677],[30.024931171709493,60.31397140378611],[29.995187909136614,60.33895574434884],[30.016603058189265,60.352042779880286],[30.03087982422389,60.342524935856964],[30.06538200880843,60.352042779880286],[30.111781498422566,60.39606280848788],[30.098694462890055,60.431754723575956],[30.098694462890055,60.44603148961049],[30.077279313837227,60.45792879463893],[30.064192278305516,60.47458502168135],[30.06538200880843,60.492430979224096],[30.08441769685543,60.482913135200775],[30.114160959428308,60.482913135200775],[30.14271449149756,60.486482326709876],[30.17245775407053,60.46268771665113],[30.21409832167318,60.4543596031317],[30.25454915877203,60.46387744715413],[30.284292421344997,60.46982609966835],[30.30213837888828,60.45554933363381],[30.354486521016813,60.44127256759928],[30.398506549624408,60.43532391508506],[30.422301159682977,60.44008283709539],[30.443716308735628,60.43651364558717],[30.449664961250114,60.421047149048746],[30.46394172728474,60.413908766031426],[30.481787684828824,60.418667688043534],[30.49368498985771,60.44246229810237],[30.516289869413274,60.44603148961049],[30.5305666354479,60.45316987262781],[30.546033131986633,60.44008283709536],[30.56852359578778,60.44012581318657],[30.60183604987003,60.44964365720989],[30.643476617471492,60.46986907575865]]]]}},{"type":"Feature","properties":{"kind":"district","id":"uyezd-1897-28","name":"Лаапвесиский","provinceId":"gubernia-1897-37"},"geometry":{"type":"MultiPolygon","coordinates":[[[[28.33364502715781,61.37900925801844],[28.305091495088025,61.36473249198301],[28.244415239439263,61.35283518695448],[28.132580572164972,61.34926599544636],[28.02193563539404,61.34450707343328],[27.992192372821695,61.34212761242816],[27.960069649242808,61.332609768404836],[27.929136656167103,61.33617895991305],[27.853919249927156,61.35151326417329],[27.813468412828218,61.34437488115695],[27.640957489905166,61.34080568964687],[27.55410716319236,61.35032353367019],[27.479154141508705,61.366979760711715],[27.282848608527527,61.4002922147929],[27.185290707288218,61.4002922147929],[27.129373373651827,61.40386140630111],[27.107958224598732,61.38244625725024],[27.08535334504379,61.363410569203594],[27.069886848505536,61.363410569203594],[27.04133331643575,61.372928413226916],[27.02304120995352,61.371775861800444],[27.018457275192148,61.37949974376814],[26.995574375419512,61.378504835081955],[26.949174885805732,61.3570896860301],[26.952744077314833,61.342812919995566],[27.011040871957764,61.34995130301199],[27.027697098998487,61.33210534546835],[27.064578744588324,61.32020804043893],[27.114547425711294,61.31663884893081],[27.121685808728696,61.333295075972245],[27.154998262810143,61.32139777094203],[27.175223681360055,61.32734642345713],[27.19069017789751,61.31306965742348],[27.216864248961464,61.303551813399274],[27.29657619265678,61.27142908981932],[27.329888646739025,61.24644474925935],[27.321560533218264,61.225029600205715],[27.331078377241585,61.20480418165607],[27.381047058364555,61.20599391216094],[27.377477866855454,61.19409660712975],[27.35844217880881,61.19171714612454],[27.35606271780307,61.17744038009009],[27.34654487377975,61.16792253606677],[27.322750263721623,61.16792253606677],[27.25136643354627,61.17863011059309],[27.152618801804312,61.18219930210122],[27.120496078225425,61.1798198410961],[27.10502958168806,61.151266309025246],[27.08837335464725,61.151266309025246],[27.03721494302172,61.151266309025246],[27.011040871957764,61.131040890476484],[26.963451651840625,61.14412792600793],[26.92894946725662,61.16554307505979],[26.88017051663692,61.1798198410961],[26.864704020098756,61.23573717473302],[26.848047793058033,61.24525501875634],[26.808786686461655,61.24525501875634],[26.745730969807063,61.216701486686375],[26.6945725581815,61.19356783801864],[26.742161778298637,61.14597861790203],[26.7540590833277,61.10909697231086],[26.71241851572558,61.080543440240895],[26.638655224545108,61.05317963867491],[26.630327111024435,61.00678014906131],[26.588686543422227,60.992503383024996],[26.580358429902176,60.96632931196193],[26.59939411794873,60.9508628154235],[26.612481153480353,60.916360630838426],[26.642224416053498,60.911601708827206],[26.662449834603322,60.911601708827206],[26.682675253152436,60.89851467329568],[26.670777948123373,60.88423790725936],[26.635086033036096,60.88185844625416],[26.619619536498643,60.86639194971572],[26.60058384845129,60.84735626166908],[26.673157409129114,60.83307949563454],[26.738592586789537,60.819992460103094],[26.777679897770593,60.82376792791997],[26.81099235185213,60.83685496345328],[26.847873997442676,60.8380446939545],[26.9692265087394,60.85708038200114],[27.040610338914753,60.87016741753446],[27.02514384237659,60.890392836083215],[27.03585141690318,60.893962027592316],[27.07749198450539,60.89753121910142],[27.092958481042842,60.90704906312474],[27.12032228261007,60.904669602119526],[27.160773119709006,60.92727448167439],[27.17980880775556,60.92727448167439],[27.22977748887853,60.893962027592316],[27.278556439498228,60.89158256658622],[27.348750539169423,60.888013375078096],[27.408237064315713,60.85232145998993],[27.458205745437972,60.82971658043516],[27.477241433484437,60.804732239873324],[27.510553887566683,60.794024665346996],[27.554573916173922,60.78688628232969],[27.65808046992745,60.791645204341876],[27.734223222114466,60.79640412635301],[27.719946456079573,60.817819275406634],[27.70210049853549,60.834475502446296],[27.70329022903876,60.8463728074766],[27.75087944915519,60.8487522684818],[27.75920756267595,60.85589065149992],[27.778243250722504,60.86302903451626],[27.81750435731888,60.84399334646962],[27.871042229949442,60.8487522684818],[27.897216301014197,60.86064957351114],[27.91744171956331,60.878495531054774],[27.953133634650587,60.87492633954656],[28.006671507281858,60.873736609042666],[28.050691535889896,60.901100410609544],[28.06734776293062,60.90229014111263],[28.089952642486363,60.893962027592316],[28.110178061035388,60.87135714803657],[28.132782940591042,60.86183930401325],[28.185131082719042,60.85232145998993],[28.252945721385295,60.84280361596661],[28.277136908277903,60.877702377385454],[28.292603404816067,60.88008183839244],[28.31877747588011,60.8622358808488],[28.350900199459087,60.8622358808488],[28.41752510762198,60.88484076040277],[28.453217022710056,60.92172240599393],[28.46630405824168,60.96574243460144],[28.507944625843887,60.981208931139875],[28.544826271434435,60.97763973962988],[28.57813872551588,60.985967853151976],[28.601933335574095,61.00381381069472],[28.63048686764397,61.00619327170162],[28.655471208205366,61.00500354119773],[28.6678245183786,60.99537214682594],[28.6739291670362,61.00475384467333],[28.66679078401871,61.01427168869665],[28.634668060440532,61.026168993725186],[28.596596684347425,61.02497926322209],[28.57399180479177,61.016651149701865],[28.541869081212795,61.02497926322209],[28.497849052604845,61.01784088020487],[28.46691605952914,61.028548454730306],[28.46215713751748,61.04520468177183],[28.47048525103824,61.05829171730328],[28.501418244113946,61.07256848333968],[28.46691605952914,61.102311745911756],[28.381255463319693,61.130865277980746],[28.443121449471015,61.17607503709223],[28.501418244113946,61.21414641318552],[28.540679350710324,61.24388967575848],[28.496659322102285,61.278391860343646],[28.435983066453524,61.29980700939629],[28.40861926488621,61.337878385489574],[28.381255463319693,61.355724343033216],[28.33364502715781,61.37900925801844]]]]}},{"type":"Feature","properties":{"kind":"district","id":"uyezd-1897-29","name":"Яскисский","provinceId":"gubernia-1897-37"},"geometry":{"type":"MultiPolygon","coordinates":[[[[28.6678245183786,60.99537214682594],[28.72566530787745,60.950275938063896],[28.753029109443965,60.951465668566904],[28.7934799465437,60.96455270409835],[28.83155132263681,60.95622459057812],[28.88627892577055,60.900307256942085],[28.900555691805533,60.88484076040277],[28.925540032367017,60.887220221408775],[28.955283294940163,60.85985641984279],[28.94814491192267,60.84557965380736],[28.920781110355357,60.84082073179615],[28.914832457841225,60.82773369626284],[28.93981679840191,60.81583639123431],[29.013580089583094,60.817026121736426],[29.057600118191132,60.817026121736426],[29.09686122478671,60.817026121736426],[29.25152619016577,60.789926704725936],[29.374068431966563,60.77683966919449],[29.51088743980154,60.76137317265597],[29.588219922491025,60.76613209466808],[29.647706447636516,60.792306165732924],[29.71909027781187,60.78159859120562],[29.746454079379184,60.769701286176286],[29.765489767425738,60.769701286176286],[29.728294777175584,60.830612550320424],[29.679515826555974,60.87344284842492],[29.633116336942905,60.904375841500006],[29.60813199638142,60.9507753311145],[29.59980388286057,60.99003643771087],[29.635495797948735,61.04952296285592],[29.60694226587806,61.14351167258702],[29.61646010990218,61.154219247113346],[29.61646010990218,61.186341970691515],[29.54745574073266,61.24106957382624],[29.4974870596104,61.273192297404414],[29.45465676150492,61.29698690746227],[29.414205924405984,61.30888421249258],[29.39635996686279,61.33029936154523],[29.3892215838453,61.3540939716022],[29.33925290272233,61.37431939015185],[29.279766377576838,61.405252383227904],[29.257161498021183,61.440944298315095],[29.225038774442208,61.48020540491147],[29.24288473198629,61.51470758949566],[29.264299881038674,61.55634815709893],[29.27802666191704,61.59478836596738],[29.155484420116245,61.549578606855896],[29.049598405356885,61.52340453579292],[28.940143199088514,61.51269696126562],[28.878541597493395,61.5051206913286],[28.7036512135646,61.474187698252535],[28.633457113892607,61.489654194789196],[28.627508461378387,61.51344880484883],[28.58586789377618,61.53010503188848],[28.559693822712134,61.53010503188848],[28.495448375554272,61.50036176931552],[28.48949972304014,61.481326081268875],[28.462135921472825,61.45753147121101],[28.38004451677168,61.40994225109441],[28.33364502715781,61.37900925801844],[28.381255463319693,61.355724343033216],[28.40861926488621,61.337878385489574],[28.435983066453524,61.29980700939629],[28.496659322102285,61.278391860343646],[28.540679350710324,61.24388967575848],[28.501418244113946,61.21414641318552],[28.443121449471015,61.17607503709223],[28.381255463319693,61.130865277980746],[28.46691605952914,61.102311745911756],[28.501418244113946,61.07256848333968],[28.47048525103824,61.05829171730328],[28.46215713751748,61.04520468177183],[28.46691605952914,61.028548454730306],[28.497849052604845,61.01784088020487],[28.541869081212795,61.02497926322209],[28.57399180479177,61.016651149701865],[28.596596684347425,61.02497926322209],[28.634668060440532,61.026168993725186],[28.66679078401871,61.01427168869665],[28.6739291670362,61.00475384467333],[28.6678245183786,60.99537214682594]]]]}},{"type":"Feature","properties":{"kind":"district","id":"uyezd-1897-30","name":"Кексгольмский","provinceId":"gubernia-1897-37"},"geometry":{"type":"MultiPolygon","coordinates":[[[[30.756501015249057,60.51626856537314],[30.749480125511713,60.538599807992824],[30.728064976459418,60.56477387905758],[30.704270366401204,60.57667118408611],[30.661440068295725,60.57667118408611],[30.643594110752442,60.58856848911633],[30.63645572773495,60.59927606364274],[30.605522734658535,60.58975821961942],[30.53056971297488,60.60879390766606],[30.52937998247241,60.64210636174724],[30.510344294425767,60.66114204979388],[30.513913485934157,60.70278261739529],[30.541277287501472,60.72300803594503],[30.53413890448398,60.74442318499679],[30.546036209513133,60.762269142541314],[30.53056971297488,60.80271997963972],[30.48417022336181,60.81937620668124],[30.457996152297056,60.81937620668124],[30.441339925256244,60.82889405070456],[30.447288577771264,60.852688660762425],[30.433011811736282,60.88124219283239],[30.411596662683987,60.90860599439926],[30.37590474759591,60.93359033496199],[30.37114582558425,60.94548763999043],[30.343782024017734,60.95738494501896],[30.328315527479482,60.96333359753318],[30.284295498871444,60.98236928557982],[30.26763927183072,61.010922817649785],[30.245034392275866,61.02282012268009],[30.20696301618196,61.02995850569643],[30.191496519644506,61.03828661921763],[30.198634902661997,61.05494284625818],[30.189117058638676,61.05732230726427],[30.16651217908302,61.076357995310914],[30.136768916509965,61.090634761346344],[30.10583592343435,61.088255300339355],[30.085610504884436,61.088255300339355],[30.046349398288857,61.11799856291233],[29.977345029119334,61.13703425095897],[29.926186617493805,61.154880208502604],[29.90834065995061,61.17867481856224],[29.89525362441819,61.19533104560199],[29.90358173793895,61.21555646415163],[29.94879149704946,61.21079754214042],[29.95236068855856,61.22150511666675],[29.90715092944725,61.24054080471339],[29.865510361845043,61.246489457228584],[29.84171575178683,61.25719703175491],[29.834577368769338,61.276232719801556],[29.784608687647257,61.2940786773443],[29.73939892853666,61.30954517388273],[29.717983779484275,61.33571924494571],[29.615666956233305,61.37022142953087],[29.546662587063693,61.35118574148423],[29.501452827953184,61.36665223802266],[29.39635996686279,61.33029936154523],[29.414205924405984,61.30888421249258],[29.45465676150492,61.29698690746227],[29.4974870596104,61.273192297404414],[29.54745574073266,61.24106957382624],[29.61646010990218,61.186341970691515],[29.61646010990218,61.154219247113346],[29.60694226587806,61.14351167258702],[29.635495797948735,61.04952296285592],[29.59980388286057,60.99003643771087],[29.60813199638142,60.9507753311145],[29.633116336942905,60.904375841500006],[29.679515826555974,60.87344284842492],[29.728294777175584,60.830612550320424],[29.765489767425738,60.769701286176286],[29.799991952009744,60.71021476103124],[29.847581172126795,60.67095365443487],[30.053404549130583,60.66738446292674],[30.072440237177936,60.64358985286702],[30.09266565572696,60.642400122364904],[30.125978109809207,60.61741578180404],[30.153341911375723,60.60075955476349],[30.203310592498692,60.61265685979193],[30.259227926135082,60.60551847677373],[30.332991217316177,60.606708207276824],[30.3948572034675,60.560308717664114],[30.415082622017323,60.548411412633804],[30.436497771069707,60.53651410760536],[30.412703161011493,60.52342707207294],[30.40199558648499,60.5043913840263],[30.40913396950248,60.475837851956335],[30.4472053455963,60.48059677396755],[30.49717402671847,60.48059677396755],[30.524537828285784,60.47821731296243],[30.545952977338167,60.49130434849485],[30.589973005946206,60.47464812145333],[30.61614707701016,60.473458390951215],[30.643476617471492,60.46986907575865],[30.692255568091127,60.48533557229803],[30.756501015249057,60.51626856537314]]]]}},{"type":"Feature","properties":{"kind":"district","id":"uyezd-1897-521","name":"Сердоболький","provinceId":"gubernia-1897-37"},"geometry":{"type":"MultiPolygon","coordinates":[[[[30.903022272528485,62.0372359207731],[30.971959729557025,61.99985325012946],[31.026687332690855,61.9712997180595],[31.04691275124068,61.916572114925664],[31.04215382922902,61.85827532028273],[31.058810056269742,61.83329097972089],[31.09688143236285,61.83091151871577],[31.09688143236285,61.81544502217734],[31.084984127333787,61.790460681616395],[31.10283008487778,61.746440653007994],[31.124245233930164,61.683384936353846],[31.119486311918504,61.669108170318424],[31.09688143236285,61.679815744844745],[31.074276552807195,61.700041163395284],[31.04572302073741,61.688143858365066],[31.008841375146773,61.70123089389838],[30.955303502516212,61.703610354903496],[30.916042395919835,61.70717954641171],[30.916042395919835,61.71550765993194],[30.960062424527873,61.71669739043503],[30.966011077042005,61.73692280898467],[30.94340619748715,61.74049200049467],[30.89224778586171,61.73573307848167],[30.849417487756142,61.747630383511],[30.83514072172125,61.73573307848167],[30.795879615125582,61.72621523445835],[30.78755150160491,61.7107487379217],[30.750669856014273,61.702420624401384],[30.73282389847108,61.69290278037717],[30.73282389847108,61.67505682283353],[30.722116323944487,61.6572108652899],[30.718547132436097,61.642934099255356],[30.720926593441927,61.62865733322091],[30.74472120350014,61.62865733322091],[30.762567161043336,61.617949758693605],[30.73758282048265,61.610811375675404],[30.713788210424436,61.6155702976876],[30.68761413935968,61.6167600281906],[30.666198990307386,61.61319083668239],[30.64240438024917,61.610811375675404],[30.653111954775763,61.59891407064696],[30.672147642822228,61.59177568762876],[30.645973571758272,61.58582703511543],[30.617420039687687,61.59534487913875],[30.58410758560624,61.57511946058911],[30.603143273652705,61.5739297300861],[30.62931734471755,61.56441188606278],[30.670957912318958,61.542996737011016],[30.63483676967512,61.53783575795737],[30.61453676967512,61.55153575795737],[30.58693676967512,61.56633575795737],[30.57683676967512,61.57643575795737],[30.56663676967512,61.60593575795737],[30.54453676967512,61.616935757957364],[30.52523676967512,61.619735757957365],[30.48563676967512,61.60963575795737],[30.45983676967512,61.59763575795737],[30.409236769675122,61.60773575795737],[30.39453676967512,61.628935757957365],[30.36413676967512,61.63353575795737],[30.32823676967512,61.62713575795737],[30.28673676967512,61.639035757957366],[30.25173676967512,61.640935757957365],[30.21313676967512,61.63443575795737],[30.17163676967512,61.648235757957366],[30.12743676967512,61.650135757957365],[30.09523676967512,61.61883575795737],[30.04363676967512,61.59573575795737],[29.92213676967512,61.619735757957365],[29.86683676967512,61.65193575795737],[29.85123676967512,61.68323575795737],[29.740347122531446,61.75064306184962],[29.847422867793277,61.776817132914374],[30.000898102669776,61.81369877850377],[30.12106088346403,61.85058042409396],[30.17578848659857,61.86128799862038],[30.39350916863142,61.90649775773177],[30.48273895635077,61.92910263728663],[30.66814186982492,61.974426879321435],[30.903022272528485,62.0372359207731]]]]}},{"type":"Feature","properties":{"kind":"district","id":"uyezd-1897-525","name":"Кроноборгский","provinceId":"gubernia-1897-37"},"geometry":{"type":"MultiPolygon","coordinates":[[[[29.740347122531446,61.75064306184962],[29.64635841280115,61.72208952977966],[29.611856228216432,61.716140877264465],[29.54333656406703,61.718520338271446],[29.554044138592822,61.68282842318328],[29.517162493002985,61.66498246563973],[29.407707286734613,61.642377586084876],[29.27802666191704,61.59478836596738],[29.264299881038674,61.55634815709893],[29.24288473198629,61.51470758949566],[29.225038774442208,61.48020540491147],[29.257161498021183,61.440944298315095],[29.279766377576838,61.405252383227904],[29.33925290272233,61.37431939015185],[29.3892215838453,61.3540939716022],[29.39635996686279,61.33029936154523],[29.501452827953184,61.36665223802266],[29.546662587063693,61.35118574148423],[29.615666956233305,61.37022142953087],[29.717983779484275,61.33571924494571],[29.73939892853666,61.30954517388273],[29.784608687647257,61.2940786773443],[29.834577368769338,61.276232719801556],[29.866700092348314,61.26935872133982],[29.884546049892396,61.25865114681252],[29.90596119894478,61.25627168580829],[29.890494702406528,61.27530737385404],[29.890494702406528,61.28958413988947],[29.90477146844142,61.2967225229058],[29.929755809002906,61.29434306190068],[29.927376347997075,61.282445756871354],[29.90953039045308,61.27887656536314],[29.914289312464653,61.27054845184283],[29.939273653026227,61.26816899083584],[29.95236068855856,61.26103060781951],[29.992811525657498,61.25627168580829],[29.989242334148397,61.241994919772864],[30.016606135715712,61.224148962228334],[30.05348778130626,61.21463111820501],[30.073713199855284,61.224148962228334],[30.0487288592946,61.241994919772864],[30.021365057727373,61.2598408773165],[30.04753912879133,61.26459979932771],[30.074902930358643,61.27173818234583],[30.099887270920128,61.27292791284803],[30.11535376745758,61.26816899083584],[30.124871611480813,61.25627168580829],[30.16056352656809,61.25627168580829],[30.21767059070855,61.25389222480139],[30.235516548251745,61.25746141630951],[30.234326817749274,61.27292791284803],[30.201014363667827,61.282445756871354],[30.187927328135405,61.27411764335103],[30.174840292603783,61.283635487374355],[30.136768916509965,61.295532792402796],[30.128440802989914,61.31694794145554],[30.130820263995744,61.33241443799397],[30.11059484544592,61.34193228201729],[30.11892295896668,61.3478809345324],[30.149855952042387,61.33598362950218],[30.178409484112173,61.32289659397065],[30.193875980650336,61.35263985654272],[30.193875980650336,61.37881392760846],[30.176030023106343,61.382383119115694],[30.16889164008885,61.391900963139015],[30.178409484112173,61.409746920683546],[30.20696301618196,61.40260853766543],[30.21767059070855,61.41569557319874],[30.22480897372604,61.42878260873019],[30.21886032121111,61.45971560180536],[30.22242951272021,61.483510211864996],[30.21410139919945,61.49659724739652],[30.22242951272021,61.51682266594617],[30.239085739760935,61.510874013431064],[30.258121427807488,61.49421778639132],[30.303331186917998,61.506115091419844],[30.303331186917998,61.51920212695129],[30.328315527479482,61.51444320494105],[30.32236687496455,61.506115091419844],[30.333074449491143,61.484699942367996],[30.335453910496973,61.45733614080015],[30.392560974636634,61.45733614080015],[30.41754531519812,61.45614641029803],[30.459185882800327,61.465664254321354],[30.513913485934157,61.475182098344675],[30.53056971297488,61.49183832538442],[30.504395641910925,61.49659724739652],[30.502016180905095,61.50730482192285],[30.459185882800327,61.526340509969494],[30.492498336881773,61.52871997097461],[30.52937998247241,61.51206374393496],[30.58410758560624,61.5275302404725],[30.550795131524794,61.55251458103434],[30.568641089068787,61.55251458103434],[30.62931734471755,61.53704808449582],[30.63483676967512,61.53783575795737],[30.61453676967512,61.55153575795737],[30.58693676967512,61.56633575795737],[30.57683676967512,61.57643575795737],[30.56663676967512,61.60593575795737],[30.54453676967512,61.616935757957364],[30.52523676967512,61.619735757957365],[30.48563676967512,61.60963575795737],[30.45983676967512,61.59763575795737],[30.409236769675122,61.60773575795737],[30.39453676967512,61.628935757957365],[30.36413676967512,61.63353575795737],[30.32823676967512,61.62713575795737],[30.28673676967512,61.639035757957366],[30.25173676967512,61.640935757957365],[30.21313676967512,61.63443575795737],[30.17163676967512,61.648235757957366],[30.12743676967512,61.650135757957365],[30.09523676967512,61.61883575795737],[30.04363676967512,61.59573575795737],[29.92213676967512,61.619735757957365],[29.86683676967512,61.65193575795737],[29.85123676967512,61.68323575795737],[29.740347122531446,61.75064306184962]]]]}},{"type":"Feature","properties":{"kind":"district","id":"uyezd-1897-562","name":"Салмисский","provinceId":"gubernia-1897-37"},"geometry":{"type":"MultiPolygon","coordinates":[[[[30.903022272528485,62.0372359207731],[30.971959729557025,61.99985325012946],[31.026687332690855,61.9712997180595],[31.04691275124068,61.916572114925664],[31.04215382922902,61.85827532028273],[31.058810056269742,61.83329097972089],[31.09688143236285,61.83091151871577],[31.09688143236285,61.81544502217734],[31.084984127333787,61.790460681616395],[31.10283008487778,61.746440653007994],[31.124245233930164,61.683384936353846],[31.119486311918504,61.669108170318424],[31.09688143236285,61.679815744844745],[31.074276552807195,61.700041163395284],[31.04572302073741,61.688143858365066],[31.008841375146773,61.70123089389838],[30.955303502516212,61.703610354903496],[30.916042395919835,61.70717954641171],[30.916042395919835,61.71550765993194],[30.960062424527873,61.71669739043503],[30.966011077042005,61.73692280898467],[30.94340619748715,61.74049200049467],[30.89224778586171,61.73573307848167],[30.849417487756142,61.747630383511],[30.83514072172125,61.73573307848167],[30.795879615125582,61.72621523445835],[30.78755150160491,61.7107487379217],[30.750669856014273,61.702420624401384],[30.73282389847108,61.69290278037717],[30.73282389847108,61.67505682283353],[30.722116323944487,61.6572108652899],[30.718547132436097,61.642934099255356],[30.720926593441927,61.62865733322091],[30.74472120350014,61.62865733322091],[30.762567161043336,61.617949758693605],[30.73758282048265,61.610811375675404],[30.713788210424436,61.6155702976876],[30.68761413935968,61.6167600281906],[30.666198990307386,61.61319083668239],[30.64240438024917,61.610811375675404],[30.653111954775763,61.59891407064696],[30.672147642822228,61.59177568762876],[30.645973571758272,61.58582703511543],[30.617420039687687,61.59534487913875],[30.58410758560624,61.57511946058911],[30.603143273652705,61.5739297300861],[30.62931734471755,61.56441188606278],[30.670957912318958,61.542996737011016],[30.63483676967512,61.53783575795737],[30.62931734471755,61.53704808449582],[30.568641089068787,61.55251458103434],[30.550795131524794,61.55251458103434],[30.58410758560624,61.5275302404725],[30.52937998247241,61.51206374393496],[30.492498336881773,61.52871997097461],[30.459185882800327,61.526340509969494],[30.502016180905095,61.50730482192285],[30.504395641910925,61.49659724739652],[30.53056971297488,61.49183832538442],[30.513913485934157,61.475182098344675],[30.459185882800327,61.465664254321354],[30.41754531519812,61.45614641029803],[30.392560974636634,61.45733614080015],[30.335453910496973,61.45733614080015],[30.333074449491143,61.484699942367996],[30.32236687496455,61.506115091419844],[30.328315527479482,61.51444320494105],[30.303331186917998,61.51920212695129],[30.303331186917998,61.506115091419844],[30.258121427807488,61.49421778639132],[30.239085739760935,61.510874013431064],[30.22242951272021,61.51682266594617],[30.21410139919945,61.49659724739652],[30.22242951272021,61.483510211864996],[30.21886032121111,61.45971560180536],[30.22480897372604,61.42878260873019],[30.21767059070855,61.41569557319874],[30.20696301618196,61.40260853766543],[30.178409484112173,61.409746920683546],[30.16889164008885,61.391900963139015],[30.176030023106343,61.382383119115694],[30.193875980650336,61.37881392760846],[30.193875980650336,61.35263985654272],[30.178409484112173,61.32289659397065],[30.149855952042387,61.33598362950218],[30.11892295896668,61.3478809345324],[30.11059484544592,61.34193228201729],[30.130820263995744,61.33241443799397],[30.128440802989914,61.31694794145554],[30.136768916509965,61.295532792402796],[30.174840292603783,61.283635487374355],[30.187927328135405,61.27411764335103],[30.201014363667827,61.282445756871354],[30.234326817749274,61.27292791284803],[30.235516548251745,61.25746141630951],[30.21767059070855,61.25389222480139],[30.16056352656809,61.25627168580829],[30.124871611480813,61.25627168580829],[30.11535376745758,61.26816899083584],[30.099887270920128,61.27292791284803],[30.074902930358643,61.27173818234583],[30.04753912879133,61.26459979932771],[30.021365057727373,61.2598408773165],[30.0487288592946,61.241994919772864],[30.073713199855284,61.224148962228334],[30.05348778130626,61.21463111820501],[30.016606135715712,61.224148962228334],[29.989242334148397,61.241994919772864],[29.992811525657498,61.25627168580829],[29.95236068855856,61.26103060781951],[29.939273653026227,61.26816899083584],[29.914289312464653,61.27054845184283],[29.90953039045308,61.27887656536314],[29.927376347997075,61.282445756871354],[29.929755809002906,61.29434306190068],[29.90477146844142,61.2967225229058],[29.890494702406528,61.28958413988947],[29.890494702406528,61.27530737385404],[29.90596119894478,61.25627168580829],[29.884546049892396,61.25865114681252],[29.866700092348314,61.26935872133982],[29.834577368769338,61.276232719801556],[29.84171575178683,61.25719703175491],[29.865510361845043,61.246489457228584],[29.90715092944725,61.24054080471339],[29.95236068855856,61.22150511666675],[29.94879149704946,61.21079754214042],[29.90358173793895,61.21555646415163],[29.89525362441819,61.19533104560199],[29.90834065995061,61.17867481856224],[29.926186617493805,61.154880208502604],[29.977345029119334,61.13703425095897],[30.046349398288857,61.11799856291233],[30.085610504884436,61.088255300339355],[30.10583592343435,61.088255300339355],[30.136768916509965,61.090634761346344],[30.16651217908302,61.076357995310914],[30.189117058638676,61.05732230726427],[30.198634902661997,61.05494284625818],[30.191496519644506,61.03828661921763],[30.20696301618196,61.02995850569643],[30.245034392275866,61.02282012268009],[30.26763927183072,61.010922817649785],[30.284295498871444,60.98236928557982],[30.328315527479482,60.96333359753318],[30.343782024017734,60.95738494501896],[30.37114582558425,60.94548763999043],[30.37590474759591,60.93359033496199],[30.411596662683987,60.90860599439926],[30.433011811736282,60.88124219283239],[30.447288577771264,60.852688660762425],[30.441339925256244,60.82889405070456],[30.457996152297056,60.81937620668124],[30.48417022336181,60.81937620668124],[30.53056971297488,60.80271997963972],[30.546036209513133,60.762269142541314],[30.53413890448398,60.74442318499679],[30.541277287501472,60.72300803594503],[30.513913485934157,60.70278261739529],[30.510344294425767,60.66114204979388],[30.52937998247241,60.64210636174724],[30.53056971297488,60.60879390766606],[30.605522734658535,60.58975821961942],[30.63645572773495,60.59927606364274],[30.643594110752442,60.58856848911633],[30.661440068295725,60.57667118408611],[30.704270366401204,60.57667118408611],[30.728064976459418,60.56477387905758],[30.749480125511713,60.538599807992824],[30.756501015249057,60.51626856537314],[31.14197369819317,60.70358502344334],[31.544102608178605,60.89632136491582],[32.11648047336122,61.21383796453756],[32.20214106957147,61.26142718465417],[32.23188433214462,61.26261691515717],[32.23902271516211,61.294739638735344],[32.259248133711225,61.294739638735344],[32.27590436075185,61.30068829125045],[32.26162759471696,61.32567263181043],[32.298509240307595,61.334000745331636],[32.27590436075185,61.35303643337828],[32.23783298465875,61.34827751136706],[32.19143349504497,61.38396942645345],[32.1628799629751,61.41490241952942],[32.20571026107986,61.432748377073054],[32.258058403208665,61.39705646198489],[32.267576247231986,61.40300511450009],[32.250920020191174,61.435127838078174],[32.22355621862394,61.464871100651145],[32.224745949126415,61.492234902218996],[32.255678942202834,61.50770139875751],[32.254489211699564,61.52554735630017],[32.24378163717377,61.545772774850796],[32.15574157995769,61.546962505353804],[32.12718804788781,61.55053169686201],[32.103393437829695,61.63500256256979],[32.065322061735785,61.65403825061643],[32.05580421771246,61.684971243691514],[32.076029636262376,61.70876585374937],[32.08078855827395,61.764683187387185],[32.11172155134956,61.80751348549071],[32.11885993436705,61.83011836504734],[32.15574157995769,61.84201567007676],[32.20808972208569,61.84796432259009],[32.20571026107986,61.863430819128524],[32.217607566108924,61.86937947164372],[32.230694601641346,61.86581028013373],[32.2461610981796,61.871758932649726],[32.2461610981796,61.893174081701574],[32.253299481197004,61.93600437980608],[32.28542220477517,61.94195303232119],[32.279473552261045,61.95385033734963],[32.34847792142977,61.96098872036783],[32.436517978645846,61.916968691759436],[32.49838396479717,61.90626111723302],[32.51385046133533,61.87532812415705],[32.52455803586112,61.84796432259009],[32.50314288680874,61.83606701756067],[32.51028126982623,61.82179025152711],[32.49600450379134,61.80037510247348],[32.50909153932376,61.78371887543383],[32.54359372390847,61.792046988954056],[32.589993213521545,61.81227240750379],[32.644720816656175,61.84439513108188],[32.67684354023426,61.8598616276204],[32.67327434872596,61.87532812415705],[32.639961894644514,61.88008704617005],[32.63282351162702,61.90626111723302],[32.635202972632854,61.93957357131607],[32.612598093077196,61.97764494740935],[32.66732569621103,62.00976767098744],[32.66970515721686,62.0335622810453],[32.62449539810635,62.0442698555726],[32.585234291509884,62.04545958607561],[32.575716447486656,62.03118282003929],[32.54002453239937,62.01809578450776],[32.53407587988444,61.997870365957134],[32.51622992234116,61.9907319829408],[32.50671207831793,61.9954909049529],[32.44008717015414,62.04070066406261],[32.443656361663244,62.069254196133464],[32.46864070222473,62.101376919711555],[32.46269204970989,62.132309912786724],[32.5079018088204,62.17157101938301],[32.55549102893754,62.19893482094997],[32.580475369498316,62.23462673603805],[32.56738833396669,62.24652404106747],[32.576906177989926,62.260800807102896],[32.5424039934052,62.27864676464564],[32.54359372390847,62.29173380017895],[32.59475213553311,62.29649272218919],[32.67089488772022,62.30839002721861],[32.70896626381324,62.30839002721861],[32.73870952638639,62.32266679325404],[32.749417100912176,62.34527167280889],[32.767263058456166,62.35597924733521],[32.797006321029315,62.351220325324],[32.81366254807004,62.35954843884521],[32.80771389555511,62.37858412689185],[32.78867820750855,62.38215331839997],[32.77678090247949,62.409517119966935],[32.80136969213811,62.43210447747424],[32.747831819506814,62.459468279040266],[32.72522693995114,62.4737450450757],[32.70143232989295,62.483262889099024],[32.66455068430315,62.4773142365857],[32.62647930820924,62.491591002620225],[32.60506415915688,62.51062669066687],[32.56342359155468,62.52014453469019],[32.533680328982314,62.54988779726318],[32.47538353433936,62.58320025134344],[32.38377428561495,62.634358662969134],[32.317149377451244,62.67243003906242],[32.339754257006916,62.69384518811603],[32.31833910795456,62.698604110127235],[31.829822334299923,62.58094276060727],[31.33489444508651,62.469108093331656],[30.918488769066737,62.37155019209243],[30.703147548038917,62.32515070247883],[30.76501353419015,62.23711064526471],[30.87922766247027,62.10861975094845],[30.92681688258661,62.047943495299506],[30.903022272528485,62.0372359207731]]]]}}]}
