{"type":"FeatureCollection","features":[{"type":"Feature","properties":{"kind":"province","id":"gubernia-1897-57","name":"Киевская губерния"},"geometry":{"type":"MultiPolygon","coordinates":[[[[30.503042822487004,48.48161461452672],[30.505422283492745,48.49232218905304],[30.51969904952755,48.50184003307636],[30.513750397013062,48.51968599061912],[30.507801744498575,48.54348060067875],[30.44355629734107,48.56489574972963],[30.420951417785947,48.56489574972963],[30.344808665599466,48.53872167866576],[30.286511870956446,48.518496260117004],[30.255578877880208,48.510168146595795],[30.218697232290282,48.50184003307636],[30.165159359658922,48.48875299754403],[30.130657175074738,48.4756659620125],[30.116380409039134,48.47804542301673],[30.03309927383525,48.524444912632106],[29.97242301818649,48.55656763621029],[29.895090535497005,48.59463901230268],[29.8808137694622,48.663643381472916],[29.835604010351158,48.68148933901558],[29.798722364761232,48.79689319779941],[29.84274239336945,48.85518999244235],[29.846311584878105,48.87422568048899],[29.782066137720598,48.91705597859349],[29.734476917603725,48.91943543959861],[29.65714443491433,48.93133274462802],[29.634539555359208,48.940850588651344],[29.64405739938244,48.964645198709206],[29.67974931446945,49.00747549681549],[29.67261093145205,49.053874986429086],[29.689267158492683,49.07529013548174],[29.633349824856293,49.08718744051026],[29.597657909768483,49.04554687290788],[29.592898987756822,49.01580361033483],[29.517945966073256,49.00271657480338],[29.510807583055854,48.964645198709206],[29.490582164506563,48.958696546195874],[29.46321836293898,48.93252247513192],[29.44537240539543,48.93609166663924],[29.426336717349056,48.940850588651344],[29.426336717349056,48.92062517010259],[29.41800860382874,48.896830560042865],[29.27048202146655,48.905158673564074],[29.15864735419297,48.92657382261592],[29.14556031866108,48.93966085814923],[29.14556031866108,48.964645198709206],[29.11224786457901,48.98487061725885],[29.07417648848617,48.986060347762745],[29.048322260991977,49.007467932288876],[29.053081183003638,49.039590655867855],[29.02214818992731,49.06576472693172],[28.992404927354787,49.09312852849779],[29.00192277137802,49.12168206056776],[28.995974118863533,49.14785613163251],[28.980507622325813,49.16451235867315],[28.957902742769893,49.18949669923401],[28.940056785226343,49.197824812755215],[28.884139451589153,49.2347064583455],[28.85677565002246,49.258501068403355],[28.835360500970165,49.264449720917575],[28.81870427392882,49.2323269973394],[28.76992532330983,49.201394004264316],[28.763976670795344,49.21805023130486],[28.773494514818577,49.22994753633428],[28.777063706327233,49.271588103936665],[28.76992532330983,49.30490055801785],[28.736612869227763,49.31917732405238],[28.712818259169726,49.32393624606351],[28.69140311011752,49.33345409008683],[28.62239874094844,49.351300047631355],[28.605742513907007,49.364387083162896],[28.627157662960013,49.37985357970132],[28.63786523748616,49.39175088472985],[28.621209010445526,49.4084071117704],[28.570050598819908,49.42982226082314],[28.542686797252415,49.44766821836767],[28.533168953229183,49.47146282842552],[28.592655478375118,49.500016360496375],[28.654521464526795,49.53570827558356],[28.675936613579,49.55950288564142],[28.703300415146582,49.56545153815564],[28.71162852866681,49.58448722620317],[28.748510174256825,49.59995372274081],[28.74256152174225,49.63207644631978],[28.69616203212909,49.64754294285643],[28.704490145649498,49.61898941078647],[28.627157662960013,49.633266176821984],[28.593845208878033,49.64992240386253],[28.58194790384897,49.66419916989707],[28.5414970667495,49.666578630903075],[28.43204186048175,49.70346027649336],[28.390401292879364,49.75818787962727],[28.37067363537712,49.76881983799555],[28.401606628453447,49.803322022580716],[28.418262855493992,49.84496259018124],[28.39327851493233,49.85923935621764],[28.37543255738878,49.872326391748196],[28.384950401412013,49.887792888286626],[28.420642316499823,49.890172349292726],[28.448006118066605,49.89612100180695],[28.46942126711961,49.912777228847574],[28.46704180611298,49.92467453387779],[28.455144501084007,49.942520491420545],[28.492026146674732,49.960366448965075],[28.528907792264658,49.954417796449874],[28.552702402323494,49.95560752695297],[28.586014856404763,49.968694562484416],[28.610999196966514,49.96155617946719],[28.621706771492573,49.94014103041445],[28.65263976456801,49.92110534236869],[28.697849523679142,49.91396695935058],[28.722833864240005,49.89612100180695],[28.78232038938594,49.91158749834537],[28.82871987899981,49.92229507287179],[28.89415505666023,49.91158749834537],[28.950072390296622,49.89850046281393],[28.961969695326484,49.92943345588812],[29.0119383764483,49.93657183890721],[29.03692271701005,49.93181291689511],[29.045250830530367,49.91634642035659],[29.101168164167557,49.90325938482425],[29.12615250472842,49.912777228847574],[29.12853196573425,49.92705399488389],[29.12377304372268,49.94727941343176],[29.098788703160928,49.94727941343176],[29.061907057571002,49.950848604941754],[29.02740487298602,49.957986987958975],[29.030974064495563,49.97464321499961],[29.06785571008549,49.97464321499961],[29.124962774225505,49.97821240650774],[29.111875738693616,50.00081728606348],[29.12377304372268,50.0162837826019],[29.08570166762904,50.0210427046141],[29.063096788073917,50.040078392659765],[29.063096788073917,50.05792435020429],[29.035732986507135,50.06506273322161],[28.99647187991058,50.05554488919739],[28.959590234320654,50.06625246372372],[28.939364815770475,50.08052922975915],[28.914380475209523,50.104323839817006],[28.890585865151575,50.112651953338215],[28.881068021127543,50.12930818037876],[28.932226432753072,50.11860060585154],[28.94293400727922,50.098375187302786],[28.986954035887347,50.07577030774704],[29.033353525501393,50.08171896026126],[29.01431783745413,50.13882602440208],[29.053578944050685,50.13287737188786],[29.080942745617378,50.13763629389818],[29.096409242155097,50.15905144295172],[29.10592708617913,50.197122819045006],[29.082132476120293,50.22686608161807],[29.02740487298602,50.232814734131395],[29.013128106951214,50.25304015268193],[29.025025411980188,50.268506649220456],[28.975056730858373,50.2827834152549],[28.92270858872993,50.26969637972257],[28.895344787163147,50.280403954248],[28.929846971747242,50.303008833803744],[28.950072390296622,50.34108020989703],[28.926277780238586,50.343459670903925],[28.895344787163147,50.36725428096179],[28.8786885601218,50.39104889101965],[28.897724248168977,50.39699754353387],[28.89415505666023,50.412464040072386],[28.897724248168977,50.42198188409571],[28.86441179408691,50.43030999761692],[28.852514489057935,50.43030999761692],[28.84656583654336,50.43744838063414],[28.859652872075248,50.45291487717079],[28.85608368056659,50.4660019127041],[28.90486263118638,50.4660019127041],[28.919139397221183,50.5040732887965],[28.852514489057935,50.506452749802506],[28.814443112964206,50.51002194131161],[28.791838233409084,50.52429870734703],[28.77756146737428,50.55166250891399],[28.802545807935232,50.58616469349729],[28.821581495982496,50.62542580009446],[28.877498829618887,50.61947714758024],[28.88225775163046,50.646840949146316],[28.842996645034702,50.646840949146316],[28.819202034976666,50.645651218644204],[28.804925268941062,50.62542580009446],[28.793027963912,50.62542580009446],[28.787079311397513,50.6349436441169],[28.809684190952634,50.65992798467874],[28.845376106040444,50.67182528970807],[28.842996645034702,50.693240438759915],[28.850135028052105,50.719414509823785],[28.829909609502725,50.730122084350995],[28.81087392145555,50.74796804189375],[28.783510119888767,50.74320911988342],[28.79064850290617,50.727742623344994],[28.743059282789385,50.719414509823785],[28.72164413373709,50.7729523824555],[28.700228984684884,50.7836599569828],[28.689521410158736,50.815782680560005],[28.729972247257408,50.82767998559031],[28.746628474298042,50.83838756011575],[28.71926467273126,50.86932055319269],[28.68251521941926,50.902368622716516],[28.688463871933745,50.913076197243726],[28.714637942997612,50.916645388752826],[28.717017404003442,50.94281945981679],[28.73486336154779,50.93806053780557],[28.75032985808551,50.94162972931281],[28.72534551752376,50.95828595635433],[28.731294170038247,50.96899353088065],[28.759847702108654,50.96780380037676],[28.753899049594168,50.982080566412186],[28.78364231216669,50.978511374903974],[28.808626652728442,50.980890835910074],[28.82171368826042,50.95590649534823],[28.8550261423416,50.9440091903189],[28.87763102189752,50.92735296327827],[28.889528326926584,50.903558353220404],[28.89547697944107,50.88095347366475],[28.91332293698453,50.87143562964143],[28.94663539106669,50.86905616863534],[28.975188923136297,50.86548697712624],[29.023967873755996,50.87500482115044],[29.010880838223308,50.88690212617986],[28.97994784514787,50.909507005735605],[28.94901485207243,50.920214580261046],[28.937117547042657,50.93925026830769],[28.973999192633382,50.93330161579257],[28.993034880679847,50.94638865132491],[29.021588412750255,50.94519892082279],[29.037054909287974,50.95947568685733],[29.02753706526474,50.97018326138277],[29.034675448282144,50.97970110540609],[29.050141944819863,50.980890835910074],[29.070367363369243,50.96899353088065],[29.104869547954138,50.966614069874645],[29.119146313988942,50.94995784283312],[29.182202030643534,50.92616323277615],[29.17863283913479,50.89641997020318],[29.240498825286554,50.892850778693195],[29.258344782830104,50.87857401265866],[29.240498825286554,50.83455398405026],[29.25477559132136,50.826225870530834],[29.263103704841676,50.80837991298631],[29.321400499484607,50.82979506203905],[29.35828214507462,50.83931290606237],[29.397543251671177,50.82741560103295],[29.415389209214638,50.8500204805887],[29.464168159834426,50.83455398405026],[29.48082438687506,50.85121021109268],[29.502239535927266,50.876194551652645],[29.495101152909864,50.89166104819019],[29.46059896832568,50.8987994312083],[29.459409237822765,50.93568107679947],[29.40944055670015,50.96066541735945],[29.410630287203066,50.988029218927295],[29.436804358267732,50.99635733244672],[29.45227085480545,51.03323897803789],[29.493911422407038,51.045136283066334],[29.509377918945468,51.06774116262208],[29.461788698828595,51.08796658117261],[29.42490705323787,51.09986388620114],[29.42490705323787,51.124848226762005],[29.357092414571706,51.151022297825875],[29.35828214507462,51.12246876575591],[29.332108074010755,51.12246876575591],[29.301175080935316,51.1700579858734],[29.29046750640837,51.23311370252853],[29.27738047087648,51.26404669560361],[29.30236481143823,51.26999534811881],[29.336866996022327,51.26880561761483],[29.35590268406879,51.293789958175694],[29.418958400723383,51.342568908795386],[29.383398859248267,51.40298621990044],[29.465490263949324,51.39703756738524],[29.496423257024762,51.47199058906881],[29.52973571110683,51.45890355353727],[29.65941633592467,51.517200348179315],[29.722472052578464,51.51839007868241],[29.698677442520427,51.46961112806271],[29.74388720163147,51.438678134987626],[29.796235343759204,51.44224732649673],[29.83311698934993,51.45652409253037],[29.849773216390563,51.47199058906881],[29.874757556952225,51.48388789409725],[29.91401866354798,51.4743700500749],[29.971125727688086,51.486267355103344],[29.99016141573455,51.50292358214389],[30.027043061325276,51.50292358214389],[30.09723716099727,51.49459546862455],[30.134118806587196,51.507682504155994],[30.157913416646032,51.512441426167214],[30.193605331733043,51.49102627711545],[30.232866438329598,51.47318031957092],[30.25785077889064,51.46247274504549],[30.29830161599002,51.44224732649673],[30.326855148059717,51.441057595993726],[30.326855148059717,51.40774514191068],[30.323285956550972,51.36253538280017],[30.34113191409452,51.343499694753525],[30.36254706314744,51.33636131173621],[30.419654127286744,51.31137697117446],[30.452966581368813,51.28401316960848],[30.493417418467484,51.28877209162059],[30.531488794561124,51.2828234391045],[30.53147721830668,51.26796508435747],[30.50887233875076,51.26439589284934],[30.4981647642247,51.24892939631083],[30.507682608247844,51.23346289977239],[30.49102638120721,51.229893708264186],[30.489836650704294,51.21918613373786],[30.517200452271076,51.208478559210555],[30.52195937428265,51.191822332170005],[30.501733955733357,51.185873679655785],[30.485077728692723,51.1882531406618],[30.47080096265792,51.15613041708282],[30.463662579640516,51.12757688501286],[30.47080096265792,51.09545416143379],[30.449385813604824,51.07641847338804],[30.441057700084595,51.031208714277525],[30.466042040646347,51.00265518220756],[30.466042040646347,50.991947607681155],[30.444626891593252,50.99313733818327],[30.444626891593252,50.98005030265182],[30.451765274610654,50.97172218913062],[30.436298778072935,50.95625569259396],[30.438678239078765,50.94911730957665],[30.461283118634686,50.94435838756455],[30.46485231014343,50.92889189102611],[30.43748850857585,50.920563777506686],[30.43986796958168,50.911045933483365],[30.45402332262056,50.9032211016138],[30.48257685469097,50.90679029312193],[30.4920946987142,50.89251352708837],[30.483766585193884,50.88418541356627],[30.45640278362639,50.88537514406927],[30.442126017591498,50.87585730004595],[30.432608173568354,50.842544845964774],[30.405244372000773,50.827078349426344],[30.4004854499892,50.8092323918836],[30.412382755018974,50.79971454785938],[30.440936287088583,50.80447346987238],[30.452833592117646,50.794955625849056],[30.44450547859733,50.752125327742775],[30.455213053123476,50.73784856170824],[30.48019739368514,50.721192334667606],[30.493284429217027,50.69263880259764],[30.486146046199714,50.679551767065306],[30.46473089714662,50.67717230605921],[30.468300088655365,50.63672146896081],[30.499233081731603,50.608167936889956],[30.50042281223452,50.58318359632901],[30.519458500280894,50.553440333756036],[30.531355805309957,50.50466138313642],[30.52302769178964,50.48086677307857],[30.53611472732153,50.45707216301982],[30.555150415368793,50.43565701396797],[30.556340145871708,50.41662132592133],[30.54325311033902,50.409482942904106],[30.549201762854217,50.37854994982715],[30.575375833918084,50.35951426178051],[30.59917044397612,50.34999641775719],[30.595601252467464,50.3297709992103],[30.6122574795081,50.32382234669332],[30.622965054034957,50.327391538203315],[30.644380203087163,50.317873694179994],[30.644380203087163,50.29169962311603],[30.662226160630713,50.27742285707972],[30.683641309683008,50.271474204567276],[30.701487267227268,50.263146091045186],[30.752645678852048,50.16915738131502],[30.774060827905032,50.13703465773597],[30.80261435997471,50.13227573572385],[30.840685736068338,50.14179357974717],[30.87161872914379,50.139414118742934],[30.893033878196036,50.12037843069538],[30.904931183225813,50.095394090133595],[30.932294984792577,50.07754813259089],[30.96917663038255,50.051374061526985],[31.007248006476175,50.031148642976405],[31.029852886031335,50.02519999046308],[31.056026957095924,49.99545672788918],[31.083390758662688,49.985938883867675],[31.127410787270833,49.988318344871914],[31.138118361796955,49.997836188895235],[31.1595335108492,50.00021564990129],[31.176189737889786,49.99545672788918],[31.178346124426866,49.98248122959194],[31.167861624369493,49.96764677738429],[31.184815284036368,49.95604690498114],[31.215450844486348,49.95024696877775],[31.264229795106136,49.95976481280107],[31.27612710013511,49.97880050084771],[31.282075752649597,49.99545672788915],[31.32966497276647,49.99307726688403],[31.351080121818676,50.01330268543367],[31.373685001373886,50.01925133794789],[31.396289880929807,50.00735403291857],[31.41889476048493,50.00021564990125],[31.442689370542965,49.97642103984349],[31.435550987525563,49.95381616028676],[31.420084490987755,49.939539394252314],[31.433171526519732,49.90860640117714],[31.440309909537223,49.86934529458085],[31.453396945069112,49.85506852854543],[31.456448134608095,49.841338175620436],[31.458155867080684,49.83365337949367],[31.462914789093055,49.80034092541062],[31.47719155512786,49.76940793233554],[31.496227243174324,49.7503722442889],[31.527292428528487,49.74059001571008],[31.560604882609756,49.7370208242],[31.582020031661962,49.72869271068066],[31.596296797697565,49.70727756162704],[31.61533248574394,49.665636994025625],[31.65102440083104,49.64779103648199],[31.676008741392792,49.64065265346467],[31.708131464971146,49.64184238396777],[31.756910415590845,49.63946292296078],[31.784274217157627,49.62042723491414],[31.79855098319323,49.603771007873505],[31.822345593251267,49.589494241839056],[31.8318634372745,49.56450990127722],[31.858037508338366,49.55737151825999],[31.881832118397114,49.55975097926698],[31.916334302981298,49.55380232675178],[31.942508374045964,49.53714609971124],[32.003184629693926,49.526438525183934],[32.02816897025568,49.509782298143385],[32.04006627528465,49.49193634060063],[32.06267115483978,49.47290065255311],[32.07813765137829,49.46219307802767],[32.10550145294508,49.450295772998246],[32.119778218979874,49.427690893442595],[32.161418786582175,49.41222439690408],[32.191162049154784,49.40032709187474],[32.21614638971574,49.40627574438986],[32.239940999774575,49.40151682237864],[32.27563291486159,49.40627574438986],[32.308945368943654,49.41341412740806],[32.33749890101326,49.39794763087052],[32.33511944000752,49.37653248181689],[32.34344755352775,49.35987625477625],[32.37081135509524,49.35154814125691],[32.407693000685256,49.34322002773571],[32.42791841923535,49.34203029723359],[32.43911069878055,49.334906602246534],[32.47361288336553,49.318250375205906],[32.51525345096783,49.30397360916959],[32.54618644404327,49.29921468715837],[32.56046321007816,49.278989268609614],[32.58425782013691,49.263522772071184],[32.61400108270952,49.25519465854998],[32.649692997796535,49.262333041569065],[32.694902756907574,49.26590223307719],[32.728215210989646,49.24567681452666],[32.755579012556424,49.24210762301844],[32.771045509094144,49.25519465854998],[32.7746147006028,49.26947142458629],[32.80316823267321,49.26947142458629],[32.84123960876614,49.25876385005908],[32.88525963737426,49.24210762301844],[32.91381316944387,49.22069247396668],[32.96616131157241,49.208795168936376],[33.00780187917471,49.20403624692605],[33.030406758729825,49.190949211393715],[33.063719212811094,49.193328672398835],[33.09822139739599,49.1873800198855],[33.13153385147726,49.16358540982587],[33.15175927002735,49.131462686246806],[33.16484630555932,49.09933996266862],[33.09822139739599,49.111237267698044],[33.01731972319784,49.106478345686824],[32.984007269115864,49.110047537195925],[32.956643467549085,49.10409888468073],[32.93760777950271,49.0922015796514],[32.90429532542064,49.10171942367472],[32.868603410333634,49.10528861518284],[32.82696284273125,49.10528861518284],[32.77937362261437,49.09101184914831],[32.74130224652153,49.08268373562808],[32.70917952294238,49.08506319663409],[32.677056799364024,49.09458104065741],[32.649692997796535,49.07673508311288],[32.649692997796535,49.06721723908956],[32.61757027421818,49.044612359535684],[32.54499671354044,49.01962801897393],[32.528340486499715,48.98155664287967],[32.517632911973664,48.962520954833025],[32.51882264247658,48.94586472779248],[32.456956656324806,48.93991607527826],[32.39033174816156,48.93277769226006],[32.35939875508532,48.9161214652204],[32.35226037206792,48.893516585664656],[32.31894791798665,48.898275507675876],[32.298722499436565,48.894706316166776],[32.2868251944075,48.88280901113922],[32.272548428372694,48.84949655705627],[32.267789506361126,48.82332248599231],[32.23090786077111,48.812614911465985],[32.17142133562526,48.811425180963866],[32.141678073051935,48.818563563981094],[32.09408885293587,48.810235450459885],[32.04649963281899,48.79595868442535],[32.01437690923993,48.806666258951765],[32.010061893391565,48.80692008341343],[31.953700653591877,48.810235450459885],[31.898973050457602,48.81380464196988],[31.82283029827112,48.83521979102173],[31.74192862407298,48.83046086901051],[31.65507829735955,48.82689167750053],[31.605109616237737,48.82689167750053],[31.572986892658584,48.83403006051961],[31.54324363008606,48.83640952152385],[31.52301821153597,48.806666258951765],[31.512310637009822,48.77692299637871],[31.498033870975018,48.76978461336148],[31.488516026951785,48.78049218788692],[31.476618721922723,48.78049218788692],[31.459962494882088,48.7709743438636],[31.445685728846485,48.76026676933816],[31.43378842381751,48.76145649984028],[31.427839771303024,48.75193865581696],[31.412373274765304,48.749559194812726],[31.40351639213249,48.754274052730594],[31.392808817606344,48.75070486122149],[31.382101243080196,48.754274052730594],[31.37139366855334,48.73880755619207],[31.35592717201562,48.73523836468483],[31.34521959748956,48.744756208708154],[31.336891483969154,48.73761782568995],[31.303579029887175,48.73523836468483],[31.301199568881344,48.756653513736595],[31.28454334184071,48.764981627257804],[31.259559001279758,48.760222705244814],[31.238143852226752,48.760222705244814],[31.22624654719778,48.77568920178324],[31.209590320157144,48.769740549268136],[31.198882745630996,48.769740549268136],[31.18579571009902,48.759032974742695],[31.160811369537356,48.76260216625091],[31.129878376461917,48.74237674770215],[31.06801239031024,48.74832540021539],[31.046597241257945,48.761412435748795],[31.02518209220503,48.768550818766016],[30.98949017711793,48.759032974742695],[30.95141880102429,48.760222705244814],[30.94071122649823,48.77212001027512],[30.927624190966252,48.761412435748795],[30.8955014673879,48.764981627257804],[30.870907820388982,48.757481946886415],[30.857820784857005,48.755102485880315],[30.835215905301972,48.753912755377314],[30.82807752228368,48.747964102863094],[30.82093913926637,48.727738684313444],[30.80785210373439,48.71465164878191],[30.797144529208243,48.70275434375347],[30.795954798705417,48.684908386208946],[30.78524722417927,48.674200811683505],[30.781678032670523,48.64564727961354],[30.77691911065895,48.62423213055992],[30.768590997138634,48.611145095027496],[30.77691911065895,48.595678598489954],[30.76740126663572,48.57902237144931],[30.750745039594374,48.57069425792997],[30.732899082050825,48.54570991736823],[30.735278543056655,48.513587193789164],[30.73028134854353,48.49708111106612],[30.7207635045203,48.48518380603582],[30.718384043514558,48.4756659620125],[30.677933206415087,48.47447623150852],[30.648189943842564,48.4709070399995],[30.626774794790357,48.46019946547407],[30.606549376240178,48.4649583874852],[30.561339617129935,48.4637686569822],[30.548252581598046,48.454250812958875],[30.5375450070711,48.4709070399995],[30.517319588521808,48.4709070399995],[30.503042822487004,48.48161461452672]]]]}},{"type":"Feature","properties":{"kind":"district","id":"uyezd-1897-209","name":"Липовецкий","provinceId":"gubernia-1897-57"},"geometry":{"type":"MultiPolygon","coordinates":[[[[29.048322260991977,49.00746793228882],[29.07417648848617,48.98606034776273],[29.11224786457901,48.984870617258835],[29.14556031866108,48.96464519870919],[29.14556031866108,48.93966085814921],[29.15864735419297,48.92657382261591],[29.27048202146655,48.90515867356405],[29.41800860382874,48.896830560042844],[29.426336717349056,48.92062517010257],[29.426336717349056,48.94085058865133],[29.44537240539543,48.93609166663923],[29.46321836293898,48.932522475131904],[29.490582164506563,48.95869654619585],[29.510807583055854,48.96464519870919],[29.517945966073256,49.00271657480336],[29.592898987756822,49.01580361033481],[29.597657909768483,49.04554687290786],[29.633349824856293,49.08718744051025],[29.689267158492683,49.07529013548172],[29.67261093145205,49.053874986429065],[29.67974931446945,49.007475496815466],[29.64405739938244,48.96464519870919],[29.634539555359208,48.94085058865133],[29.65714443491433,48.93133274462801],[29.734476917603725,48.91943543959859],[29.782066137720598,48.91705597859347],[29.846311584878105,48.87422568048897],[29.87589654311752,48.87738034312588],[29.90682953619367,48.878570073628],[29.975833905362837,48.89998522268074],[29.977023635865663,48.91188252770918],[29.99011067139764,48.944005251288246],[30.004387437432445,48.96304093933489],[30.029371777993397,48.96542040034089],[30.066253423584122,48.97017932235211],[30.104324799676963,48.97612797486633],[30.09480695565382,49.005871237439386],[30.0793404591161,49.02847611699504],[30.110273452192338,49.02609665598992],[30.105514530179878,49.054650188059],[30.08766857263633,49.083203720128964],[30.07312742204541,49.09047429542527],[30.066253423584122,49.09391129465617],[30.019853933970165,49.11056752169681],[29.981782557877324,49.12246482672525],[29.92467549373722,49.12960320974256],[29.88065546512909,49.14982862829309],[29.849722472053653,49.160536202818534],[29.82711759249853,49.168864316339736],[29.805702443445526,49.179571890866065],[29.78428729439323,49.20455623142604],[29.770010528358426,49.22954057198788],[29.67721154913051,49.250955721040526],[29.671262896616025,49.22597138047878],[29.642709364546327,49.19146919589548],[29.612966101973004,49.173623238350956],[29.592740683423713,49.17719242985917],[29.577274186885994,49.20693569243214],[29.5499103853193,49.249765990538414],[29.516597931237143,49.26523248707507],[29.48447520765888,49.27475033109839],[29.447593562068064,49.28426817512171],[29.383348114910646,49.316390898700774],[29.396435150442535,49.35565200529618],[29.39960776511751,49.391740497219004],[29.352018545000636,49.401258341242325],[29.334172587457086,49.40244807174444],[29.319895821422282,49.41315564627165],[29.286583367340214,49.44289890884462],[29.271116870802494,49.44051944783861],[29.255650374264775,49.43100160381529],[29.24613253024163,49.41791456828287],[29.210440615153733,49.40720699375743],[29.17831789157538,49.398878880236225],[29.146195167996225,49.403637802248326],[29.11169298341204,49.40244807174444],[29.077190798827147,49.389361036212904],[29.064103763295257,49.384602114201684],[29.052206458266195,49.394119958225005],[29.018894004184215,49.392930227721116],[29.002237777143492,49.403637802248326],[28.955838287529623,49.395309688727124],[28.93085394696867,49.384602114201684],[28.937992329986074,49.3489101991145],[28.92847448596284,49.328684780564764],[28.924905294454184,49.30370044000301],[28.935612868980243,49.27276744692695],[28.907059336910635,49.25492148938429],[28.884139451589153,49.23470645834553],[28.940056785226343,49.19782481275524],[28.957902742769893,49.18949669923404],[28.980507622325813,49.16451235867318],[28.995974118863533,49.14785613163254],[29.00192277137802,49.121682060567785],[28.992404927354787,49.09312852849782],[29.02214818992731,49.06576472693175],[29.053081183003638,49.03959065586788],[29.048322260991977,49.00746793228882]]]]}},{"type":"Feature","properties":{"kind":"district","id":"uyezd-1897-210","name":"Бердичевский","provinceId":"gubernia-1897-57"},"geometry":{"type":"MultiPolygon","coordinates":[[[[29.413748491281833,49.51493078349361],[29.38652072958562,49.540456810083924],[29.352018545000636,49.56782061164991],[29.2853936368373,49.59161522170777],[29.253270913258945,49.561871959134805],[29.21876872867405,49.55949249813057],[29.215199537165304,49.57257953366211],[29.199733040627585,49.58090764718145],[29.224717381188537,49.59756387422297],[29.247322260744458,49.626117406292934],[29.25208118275603,49.638014711322256],[29.19854331012467,49.65942986037411],[29.202112501633415,49.6951217754613],[29.154523281516543,49.705829349988605],[29.11407244441787,49.69988069747429],[29.05339618876911,49.75341857010423],[29.1093135224063,49.75698776161333],[29.166420586545605,49.76531587513365],[29.171179508557177,49.80338725122782],[29.175938430569637,49.83550997480688],[29.108123791903385,49.82599213078356],[29.09622648687361,49.85097647134354],[29.06886268530683,49.854545662853525],[29.059344841283597,49.88785811693471],[29.049826997260453,49.88785811693471],[29.045250830530367,49.916346420356575],[29.03692271701005,49.93181291689509],[29.0119383764483,49.9365718389072],[28.961969695326484,49.9294334558881],[28.950072390296622,49.898500462813914],[28.89415505666023,49.911587498345355],[28.82871987899981,49.92229507287177],[28.78232038938594,49.911587498345355],[28.722833864240005,49.896121001806925],[28.697849523679142,49.91396695935056],[28.65263976456801,49.921105342368676],[28.621706771492573,49.94014103041443],[28.610999196966514,49.961556179467166],[28.586014856404763,49.968694562484394],[28.552702402323494,49.955607526952946],[28.528907792264658,49.95441779644986],[28.492026146674732,49.960366448965054],[28.455144501084007,49.942520491420524],[28.46704180611298,49.92467453387778],[28.46942126711961,49.91277722884756],[28.448006118066605,49.896121001806925],[28.420642316499823,49.890172349292705],[28.384950401412013,49.88779288828661],[28.37543255738878,49.872326391748175],[28.39327851493233,49.85923935621762],[28.418262855493992,49.84496259018122],[28.401606628453447,49.8033220225807],[28.37067363537712,49.76881983799554],[28.390401292879364,49.7581878796273],[28.43204186048175,49.703460276493374],[28.5414970667495,49.666578630903096],[28.58194790384897,49.66419916989709],[28.593845208878033,49.64992240386255],[28.627157662960013,49.633266176822005],[28.704490145649498,49.61898941078649],[28.69616203212909,49.647542942856454],[28.74256152174225,49.6320764463198],[28.748510174256825,49.59995372274082],[28.71162852866681,49.584487226203194],[28.703300415146582,49.56545153815566],[28.675936613579,49.55950288564144],[28.654521464526795,49.53570827558359],[28.592655478375118,49.500016360496396],[28.533168953229183,49.471462828425544],[28.542686797252415,49.44766821836768],[28.570050598819908,49.42982226082316],[28.621209010445526,49.408407111770416],[28.63786523748616,49.39175088472987],[28.627157662960013,49.37985357970135],[28.605742513907007,49.36438708316291],[28.62239874094844,49.35130004763138],[28.69140311011752,49.33345409008685],[28.712818259169726,49.32393624606353],[28.736612869227763,49.319177324052404],[28.76992532330983,49.30490055801786],[28.777063706327233,49.271588103936686],[28.773494514818577,49.22994753633431],[28.763976670795344,49.218050231304886],[28.76992532330983,49.201394004264344],[28.81870427392882,49.23232699733943],[28.835360500970165,49.264449720917604],[28.85677565002246,49.25850106840338],[28.884139451589153,49.23470645834553],[28.907059336910635,49.25492148938429],[28.935612868980243,49.27276744692695],[28.924905294454184,49.30370044000301],[28.92847448596284,49.328684780564764],[28.937992329986074,49.3489101991145],[28.93085394696867,49.384602114201684],[28.955838287529623,49.395309688727124],[29.002237777143492,49.403637802248326],[29.018894004184215,49.392930227721116],[29.052206458266195,49.394119958225005],[29.064103763295257,49.384602114201684],[29.077190798827147,49.389361036212904],[29.11169298341204,49.40244807174444],[29.146195167996225,49.403637802248326],[29.17831789157538,49.398878880236225],[29.210440615153733,49.40720699375743],[29.24613253024163,49.41791456828287],[29.255650374264775,49.43100160381529],[29.271116870802494,49.44051944783861],[29.286583367340214,49.44289890884462],[29.319895821422282,49.41315564627165],[29.334172587457086,49.40244807174444],[29.352018545000636,49.401258341242325],[29.39960776511751,49.391740497219004],[29.418643453163885,49.40720699375743],[29.44481752422775,49.40720699375743],[29.46028402076627,49.41077618526565],[29.48288890032139,49.43695025632951],[29.49359647484745,49.45598594437704],[29.485268361327222,49.472642171417675],[29.430540758192947,49.483349745943116],[29.42459210567837,49.50476489499576],[29.413748491281833,49.51493078349361]]]]}},{"type":"Feature","properties":{"kind":"district","id":"uyezd-1897-211","name":"Таращанский","provinceId":"gubernia-1897-57"},"geometry":{"type":"MultiPolygon","coordinates":[[[[29.39960776511751,49.391740497219004],[29.396435150442535,49.35565200529618],[29.383348114910646,49.316390898700774],[29.447593562068064,49.28426817512171],[29.48447520765888,49.27475033109839],[29.516597931237143,49.26523248707507],[29.5499103853193,49.249765990538414],[29.577274186885994,49.20693569243214],[29.592740683423713,49.17719242985917],[29.612966101973004,49.173623238350956],[29.642709364546327,49.19146919589548],[29.671262896616025,49.22597138047878],[29.67721154913051,49.250955721040526],[29.770010528358426,49.22954057198788],[29.78428729439323,49.20455623142604],[29.805702443445526,49.179571890866065],[29.82711759249853,49.168864316339736],[29.849722472053653,49.160536202818534],[29.88065546512909,49.14982862829309],[29.92467549373722,49.12960320974256],[29.981782557877324,49.12246482672525],[30.019853933970165,49.11056752169681],[30.066253423584122,49.09391129465617],[30.07312742204541,49.09047429542527],[30.109480298523195,49.10964217575018],[30.147551674616835,49.132247055305925],[30.147551674616835,49.14652382133958],[30.170156554171957,49.14652382133958],[30.207038199762682,49.15723139586591],[30.239160923341036,49.18340546692977],[30.279611760440506,49.2060103464864],[30.3069755620072,49.230994687046376],[30.318872867036262,49.24289199207668],[30.337908555082638,49.238133070065466],[30.353375051621157,49.221476843023055],[30.37835939218211,49.216717921012815],[30.39620534972566,49.220287112520936],[30.408372922583016,49.23518956046523],[30.426218880126655,49.25660470951787],[30.44525456817303,49.286347972090844],[30.452392951190433,49.31609123466292],[30.503551362815962,49.33512692271054],[30.551140582932835,49.33631665321266],[30.598729803048908,49.31371177365692],[30.61300656908451,49.31966042617202],[30.617765491096083,49.341075575224764],[30.63085252662806,49.349403688744104],[30.624903874113574,49.37676749031195],[30.629662796125146,49.40413129187891],[30.653457406183183,49.41007994439313],[30.678441746744934,49.42673617143377],[30.68439039925942,49.45528970350462],[30.685580129762336,49.507637845632445],[30.676062285739103,49.55284760474295],[30.64631902316578,49.573073023292594],[30.647508753668696,49.588539519831116],[30.624903874113574,49.60281628586468],[30.61538603009034,49.6218519739123],[30.563037887961897,49.6266108959244],[30.527345972874087,49.63612873994772],[30.447634029178772,49.6218519739123],[30.342937744922683,49.60638547737378],[30.27512310625652,49.609954668883766],[30.21920577261933,49.57426275379471],[30.164478169485054,49.56831410128147],[30.125343371895486,49.56980349582135],[30.105117953346106,49.550767807774704],[30.05871846373215,49.551957538278685],[29.975437328528265,49.560285651798026],[29.924278916902647,49.555526729786806],[29.91595080338233,49.53768077224228],[29.894535654330124,49.52697319771684],[29.861223200248144,49.52340400620872],[29.84456697320742,49.50317858765899],[29.82434155465813,49.5103169706763],[29.80887505812041,49.5019888571551],[29.80887505812041,49.482953169108455],[29.787459909067405,49.475814786091135],[29.764855029512283,49.475814786091135],[29.74819880247165,49.475814786091135],[29.73273230593313,49.46986613357603],[29.713696617886665,49.475814786091135],[29.649451170729247,49.50079912665298],[29.60067222011026,49.51388616218442],[29.53404731194692,49.5079375096702],[29.49359647484745,49.5079375096702],[29.453145637748868,49.5043683181611],[29.434109949701604,49.50912724017232],[29.413748491281833,49.51493078349361],[29.42459210567837,49.50476489499576],[29.430540758192947,49.483349745943116],[29.485268361327222,49.472642171417675],[29.49359647484745,49.45598594437704],[29.48288890032139,49.43695025632951],[29.46028402076627,49.41077618526565],[29.44481752422775,49.40720699375743],[29.418643453163885,49.40720699375743],[29.39960776511751,49.391740497219004]]]]}},{"type":"Feature","properties":{"kind":"district","id":"uyezd-1897-212","name":"Звенигородский","provinceId":"gubernia-1897-57"},"geometry":{"type":"MultiPolygon","coordinates":[[[[30.39620534972566,49.220287112520936],[30.4414151088367,49.210769268497614],[30.53540381856673,49.19173358045097],[30.552060045608165,49.16912870089523],[30.5687162726488,49.140575168825265],[30.616305492764873,49.135816246814144],[30.62701306729173,49.11559082826352],[30.634151450309133,49.08346810468632],[30.59370061320975,49.08227837418234],[30.569906003151715,49.058483764124475],[30.562767620134224,49.03706861507271],[30.56633681164297,49.01208427451097],[30.590131421701006,48.99423831696644],[30.62939252829756,48.975202628919796],[30.663894712881746,48.96806424590248],[30.692448244952153,48.96330532389126],[30.719812046518847,48.97401289841768],[30.784057493676354,48.95378747986794],[30.791195876693756,48.9323723308153],[30.82569806127794,48.90143933774012],[30.82569806127794,48.88121391918959],[30.847113210330946,48.85979877013783],[30.84830294083386,48.825296585552664],[30.868528359383152,48.78603547895638],[30.870907820388982,48.757481946886415],[30.8955014673879,48.764981627257804],[30.927624190966252,48.761412435748795],[30.94071122649823,48.77212001027512],[30.95141880102429,48.760222705244814],[30.98949017711793,48.759032974742695],[31.02518209220503,48.768550818766016],[31.046597241257945,48.761412435748795],[31.06801239031024,48.74832540021539],[31.129878376461917,48.74237674770215],[31.160811369537356,48.76260216625091],[31.18579571009902,48.759032974742695],[31.198882745630996,48.769740549268136],[31.209590320157144,48.769740549268136],[31.22624654719778,48.77568920178324],[31.238143852226752,48.760222705244814],[31.259559001279758,48.760222705244814],[31.28454334184071,48.764981627257804],[31.301199568881344,48.756653513736595],[31.303579029887175,48.73523836468483],[31.336891483969154,48.73761782568995],[31.34521959748956,48.744756208708154],[31.35592717201562,48.73523836468483],[31.37139366855334,48.73880755619207],[31.382101243080196,48.754274052730594],[31.392808817606344,48.75070486122149],[31.40351639213249,48.754274052730594],[31.39161908710343,48.78639677630868],[31.38091151257657,48.80305300335109],[31.377342321067825,48.823278421900824],[31.385670434588942,48.847073031958686],[31.422552080178868,48.86967791151345],[31.443967229231163,48.88990333006309],[31.466572108786995,48.914887670624935],[31.451105612248565,48.93392335867158],[31.420172619173126,48.9374925501797],[31.420172619173126,48.95533850772334],[31.427311002190528,48.983892039793304],[31.460623456272597,49.00054826683394],[31.49274617985086,49.03386072091503],[31.497221152849775,49.0403245708029],[31.50345375437701,49.04932721745355],[31.515351059406072,49.08382940203862],[31.50345375437701,49.10167535958137],[31.479659144318973,49.10643428159436],[31.446346690236993,49.11119320360469],[31.448726151242735,49.08739859354684],[31.428500732693443,49.07312182751141],[31.40351639213249,49.065983444494094],[31.377342321067825,49.079070480027404],[31.35830663302145,49.09810616807316],[31.326183909443007,49.11238293410858],[31.32261471793435,49.12903916114922],[31.298820107875514,49.134987813664324],[31.30000983837843,49.145695388189765],[31.317855795922778,49.150454310200985],[31.32737363994592,49.1623516152304],[31.34521959748956,49.17900784227095],[31.361875824530106,49.18257703378005],[31.346409327992387,49.19685379981547],[31.333322292460497,49.20994083534789],[31.30714822139583,49.22540733188455],[31.2976303773726,49.24087382842298],[31.272646036811736,49.26466843848172],[31.219108164180376,49.282514396024474],[31.17746759657879,49.2908425095447],[31.133447567970663,49.287273318037464],[31.066822659807325,49.28132466552236],[31.03232047522314,49.28370412652748],[30.969264758568638,49.28132466552236],[30.94309068750397,49.2896527790417],[30.928813921469168,49.308688467089226],[30.937142034989485,49.32534469412987],[30.93119338247491,49.34913930418861],[30.91572688593719,49.36460580072704],[30.909778233422703,49.380072297263695],[30.91572688593719,49.40981555983675],[30.907398772416872,49.428851247883394],[30.881224701352295,49.43004097838728],[30.834825211739137,49.381262027767676],[30.777718147599032,49.37055445324037],[30.727749466476418,49.34438038217651],[30.695626742897975,49.34200092117041],[30.689678090383577,49.36579553122915],[30.670642402336313,49.39553879380222],[30.653986175295678,49.3943490633001],[30.652796444792763,49.381262027767676],[30.66112455831308,49.372933914246474],[30.66350401931891,49.35270849569771],[30.644468331272535,49.33724199915919],[30.63085252662806,49.349403688744104],[30.617765491096083,49.341075575224764],[30.61300656908451,49.31966042617202],[30.598729803048908,49.31371177365692],[30.551140582932835,49.33631665321266],[30.503551362815962,49.33512692271054],[30.452392951190433,49.31609123466292],[30.44525456817303,49.286347972090844],[30.426218880126655,49.25660470951787],[30.408372922583016,49.23518956046523],[30.39620534972566,49.220287112520936]]]]}},{"type":"Feature","properties":{"kind":"district","id":"uyezd-1897-225","name":"Чигиринский","provinceId":"gubernia-1897-57"},"geometry":{"type":"MultiPolygon","coordinates":[[[[32.80316823267321,49.26947142458629],[32.7746147006028,49.26947142458629],[32.771045509094144,49.25519465854998],[32.755579012556424,49.24210762301844],[32.728215210989646,49.24567681452666],[32.694902756907574,49.26590223307719],[32.649692997796535,49.262333041569065],[32.61400108270952,49.25519465854998],[32.58425782013691,49.263522772071184],[32.56046321007816,49.278989268609614],[32.54618644404327,49.29921468715837],[32.51525345096783,49.30397360916959],[32.47361288336553,49.318250375205906],[32.43911069878055,49.334906602246534],[32.404608514196454,49.32300929721623],[32.38795228715573,49.30516333967357],[32.35939875508532,49.29326603464327],[32.312999265472165,49.274230346596624],[32.26541004535538,49.25519465854998],[32.248753818314654,49.23496924000122],[32.223769477752995,49.23496924000122],[32.19164675417464,49.22664112648002],[32.16785214411661,49.21236436044548],[32.16071376109841,49.200467055416055],[32.201164598197785,49.19570813340484],[32.17380079663109,49.16001621831765],[32.154765108583916,49.119565381219246],[32.1392986120462,49.0862529271362],[32.08100181740318,49.09339131015352],[32.03460232779002,49.08744265764018],[32.03222286678419,49.115996189710145],[32.00485906521669,49.09933996266862],[31.972736341638342,49.09101184914831],[31.9275265825273,49.0838734661302],[31.921577930012724,49.05175074255291],[31.910870355486665,49.03033559349937],[31.860901674363962,49.036284246014475],[31.808553532235518,49.038663707020575],[31.75501565960487,49.01843828846995],[31.714564822505487,48.980366912377555],[31.66816533289153,48.98274637338277],[31.633663148307434,48.966090146342125],[31.597971233219535,48.974418259863334],[31.549192282600547,48.98155664287967],[31.549192282600547,49.01724855796783],[31.531346325056997,49.02438694098506],[31.497221152849775,49.0403245708029],[31.49274617985086,49.03386072091503],[31.460623456272597,49.00054826683394],[31.427311002190528,48.983892039793304],[31.420172619173126,48.95533850772334],[31.420172619173126,48.9374925501797],[31.451105612248565,48.93392335867158],[31.466572108786995,48.914887670624935],[31.443967229231163,48.88990333006309],[31.422552080178868,48.86967791151345],[31.385670434588942,48.847073031958686],[31.377342321067825,48.823278421900824],[31.38091151257657,48.80305300335109],[31.39161908710343,48.78639677630868],[31.40351639213249,48.754274052730594],[31.412373274765304,48.749559194812726],[31.427839771303024,48.75193865581696],[31.43378842381751,48.76145649984028],[31.445685728846485,48.76026676933816],[31.459962494882088,48.7709743438636],[31.476618721922723,48.78049218788692],[31.488516026951785,48.78049218788692],[31.498033870975018,48.76978461336148],[31.512310637009822,48.77692299637871],[31.52301821153597,48.806666258951765],[31.54324363008606,48.83640952152385],[31.572986892658584,48.83403006051961],[31.605109616237737,48.82689167750053],[31.65507829735955,48.82689167750053],[31.74192862407298,48.83046086901051],[31.82283029827112,48.83521979102173],[31.898973050457602,48.81380464196988],[31.953700653591877,48.810235450459885],[32.010061893391565,48.80692008341343],[32.01437690923993,48.806666258951765],[32.04649963281899,48.79595868442535],[32.09408885293587,48.810235450459885],[32.141678073051935,48.818563563981094],[32.17142133562526,48.811425180963866],[32.23090786077111,48.812614911465985],[32.267789506361126,48.82332248599231],[32.272548428372694,48.84949655705627],[32.2868251944075,48.88280901113922],[32.298722499436565,48.894706316166776],[32.31894791798665,48.898275507675876],[32.35226037206792,48.893516585664656],[32.35939875508532,48.9161214652204],[32.39033174816156,48.93277769226006],[32.456956656324806,48.93991607527826],[32.51882264247658,48.94586472779248],[32.517632911973664,48.962520954833025],[32.528340486499715,48.98155664287967],[32.54499671354044,49.01962801897393],[32.61757027421818,49.044612359535684],[32.649692997796535,49.06721723908956],[32.649692997796535,49.07673508311288],[32.677056799364024,49.09458104065741],[32.70917952294238,49.08506319663409],[32.74130224652153,49.08268373562808],[32.77937362261437,49.09101184914831],[32.82696284273125,49.10528861518284],[32.868603410333634,49.10528861518284],[32.90429532542064,49.10171942367472],[32.93760777950271,49.0922015796514],[32.956643467549085,49.10409888468073],[32.984007269115864,49.110047537195925],[33.01731972319784,49.106478345686824],[33.09822139739599,49.111237267698044],[33.16484630555932,49.09933996266862],[33.15175927002735,49.131462686246806],[33.13153385147726,49.16358540982587],[33.09822139739599,49.1873800198855],[33.063719212811094,49.193328672398835],[33.030406758729825,49.190949211393715],[33.00780187917471,49.20403624692605],[32.96616131157241,49.208795168936376],[32.91381316944387,49.22069247396668],[32.88525963737426,49.24210762301844],[32.84123960876614,49.25876385005908],[32.80316823267321,49.26947142458629]]]]}},{"type":"Feature","properties":{"kind":"district","id":"uyezd-1897-228","name":"Каневский","provinceId":"gubernia-1897-57"},"geometry":{"type":"MultiPolygon","coordinates":[[[[31.456448134608095,49.841338175620436],[31.453396945069112,49.85506852854543],[31.440309909537223,49.86934529458085],[31.433171526519732,49.90860640117714],[31.420084490987755,49.939539394252314],[31.435550987525563,49.95381616028676],[31.442689370542965,49.97642103984349],[31.41889476048493,50.00021564990125],[31.396289880929807,50.00735403291857],[31.373685001373886,50.01925133794789],[31.351080121818676,50.01330268543367],[31.32966497276647,49.99307726688403],[31.282075752649597,49.99545672788915],[31.27612710013511,49.97880050084771],[31.264229795106136,49.95976481280107],[31.215450844486348,49.95024696877775],[31.184815284036404,49.95604690498112],[31.13335943978535,49.89432963514082],[31.108375099223622,49.91931397570261],[31.081011297656858,49.92883181972684],[31.07506264514234,49.95262642978378],[31.064355070616216,49.97047238732921],[31.040560460558197,49.96809292632224],[31.01200692848778,49.975231309339506],[30.967986899879634,49.955005890790744],[30.923966871272285,49.943108585760456],[30.89422360869895,49.93715993324622],[30.879946842664083,49.92526262821775],[30.868049537635102,49.909796131679286],[30.903741452722898,49.78606415937611],[30.850203580091545,49.78487442887399],[30.813321934500834,49.77773604585582],[30.781199210922466,49.76583874082735],[30.7597840618702,49.76226954931734],[30.745507295834596,49.730146825740135],[30.72885106879405,49.67898841411443],[30.732420260302707,49.63020946349482],[30.734799721308537,49.60998404494508],[30.725281877285305,49.581430512875116],[30.69791807571861,49.58975862639455],[30.647508753668696,49.588539519831116],[30.64631902316578,49.573073023292594],[30.676062285739103,49.55284760474295],[30.685580129762336,49.507637845632445],[30.68439039925942,49.45528970350462],[30.678441746744934,49.42673617143377],[30.653457406183183,49.41007994439313],[30.629662796125146,49.40413129187891],[30.624903874113574,49.37676749031195],[30.63085252662806,49.349403688744104],[30.644468331272535,49.33724199915919],[30.66350401931891,49.35270849569771],[30.66112455831308,49.372933914246474],[30.652796444792763,49.381262027767676],[30.653986175295678,49.3943490633001],[30.670642402336313,49.39553879380222],[30.689678090383577,49.36579553122915],[30.695626742897975,49.34200092117041],[30.727749466476418,49.34438038217651],[30.777718147599032,49.37055445324037],[30.834825211739137,49.381262027767676],[30.881224701352295,49.43004097838728],[30.907398772416872,49.428851247883394],[30.91572688593719,49.40981555983675],[30.909778233422703,49.380072297263695],[30.91572688593719,49.36460580072704],[30.93119338247491,49.34913930418861],[30.937142034989485,49.32534469412987],[30.928813921469168,49.308688467089226],[30.94309068750397,49.2896527790417],[30.969264758568638,49.28132466552236],[31.03232047522314,49.28370412652748],[31.066822659807325,49.28132466552236],[31.133447567970663,49.287273318037464],[31.17746759657879,49.2908425095447],[31.219108164180376,49.282514396024474],[31.272646036811736,49.26466843848172],[31.268988717117708,49.28280815664315],[31.274937369632195,49.2994643836837],[31.295162788181575,49.323258993741554],[31.330854703269384,49.351812525812406],[31.340372547292617,49.37203794436117],[31.342752008298447,49.40891958995233],[31.3320444337723,49.430334739004095],[31.337993086286787,49.4446115050405],[31.355839043830336,49.4410423135314],[31.402238533444294,49.44937042705074],[31.451017484063282,49.45056015755472],[31.46172505859014,49.45769854057194],[31.453396945069112,49.48030342012768],[31.4593455975836,49.491010994653124],[31.455776406074854,49.504098030185546],[31.454586675572028,49.52075425722618],[31.445068831548795,49.564774285834574],[31.391530958918146,49.567153746840674],[31.348700660812934,49.568343477343674],[31.333234164275215,49.582620243377235],[31.310629284719294,49.59570727890966],[31.305870362707633,49.61355323645418],[31.342752008298447,49.64805542103748],[31.398669341935637,49.67066030059323],[31.430792065513902,49.68493706662865],[31.440309909537223,49.70635221568041],[31.455776406074854,49.720628981716814],[31.496227243174324,49.7503722442889],[31.47719155512786,49.76940793233554],[31.462914789093055,49.80034092541062],[31.458155867080684,49.83365337949367],[31.456448134608095,49.841338175620436]]]]}},{"type":"Feature","properties":{"kind":"district","id":"uyezd-1897-734","name":"Радомысльский","provinceId":"gubernia-1897-57"},"geometry":{"type":"MultiPolygon","coordinates":[[[[29.383398859248267,51.40298621990044],[29.418958400723383,51.34256890879537],[29.35590268406879,51.29378995817567],[29.336866996022327,51.26880561761481],[29.30236481143823,51.26999534811879],[29.27738047087648,51.2640466956036],[29.29046750640837,51.23311370252851],[29.301175080935316,51.170057985873385],[29.332108074010755,51.12246876575589],[29.35828214507462,51.12246876575589],[29.357092414571706,51.151022297825854],[29.42490705323787,51.12484822676198],[29.42490705323787,51.09986388620112],[29.461788698828595,51.087966581172594],[29.509377918945468,51.067741162622056],[29.493911422407038,51.04513628306631],[29.45227085480545,51.03323897803787],[29.436804358267732,50.996357332446706],[29.410630287203066,50.98802921892728],[29.40944055670015,50.96066541735943],[29.459409237822765,50.935681076799455],[29.46059896832568,50.89879943120829],[29.495101152909864,50.89166104819017],[29.502239535927266,50.87619455165263],[29.48082438687506,50.851210211092656],[29.464168159834426,50.834553984050245],[29.415389209214638,50.850020480588675],[29.397543251671177,50.82741560103293],[29.35828214507462,50.83931290606235],[29.321400499484607,50.829795062039025],[29.263103704841676,50.80837991298629],[29.25477559132136,50.82622587053082],[29.240498825286554,50.834553984050245],[29.258344782830104,50.87857401265864],[29.240498825286554,50.89285077869317],[29.17863283913479,50.89641997020317],[29.182202030643534,50.92616323277613],[29.119146313988942,50.9499578428331],[29.104869547954138,50.96661406987462],[29.070367363369243,50.96899353088064],[29.050141944819863,50.98089083591005],[29.034675448282144,50.97970110540607],[29.02753706526474,50.97018326138275],[29.037054909287974,50.95947568685732],[29.021588412750255,50.945198920822776],[28.993034880679847,50.946388651324895],[28.973999192633382,50.93330161579256],[28.937117547042657,50.93925026830767],[28.94901485207243,50.920214580261025],[28.97994784514787,50.90950700573559],[29.010880838223308,50.88690212617985],[29.023967873755996,50.875004821150426],[28.975188923136297,50.86548697712622],[28.94663539106669,50.86905616863532],[28.91332293698453,50.87143562964141],[28.89547697944107,50.88095347366473],[28.889528326926584,50.90355835322039],[28.87763102189752,50.92735296327825],[28.8550261423416,50.94400919031888],[28.82171368826042,50.955906495348216],[28.808626652728442,50.98089083591005],[28.78364231216669,50.97851137490396],[28.753899049594168,50.982080566412165],[28.759847702108654,50.96780380037674],[28.731294170038247,50.96899353088064],[28.72534551752376,50.95828595635431],[28.75032985808551,50.94162972931279],[28.73486336154779,50.938060537805555],[28.717017404003442,50.94281945981677],[28.714637942997612,50.91664538875281],[28.688463871933745,50.91307619724371],[28.68251521941926,50.902368622716494],[28.71926467273126,50.86932055319268],[28.746628474298042,50.83838756011573],[28.729972247257408,50.827679985590294],[28.689521410158736,50.815782680559984],[28.700228984684884,50.78365995698279],[28.72164413373709,50.772952382455486],[28.743059282789385,50.719414509823764],[28.79064850290617,50.72774262334497],[28.783510119888767,50.7432091198834],[28.81087392145555,50.74796804189373],[28.829909609502725,50.73012208435098],[28.850135028052105,50.719414509823764],[28.842996645034702,50.6932404387599],[28.845376106040444,50.67182528970805],[28.809684190952634,50.65992798467872],[28.787079311397513,50.63494364411688],[28.793027963912,50.62542580009445],[28.804925268941062,50.62542580009445],[28.819202034976666,50.64565121864418],[28.842996645034702,50.646840949146295],[28.88225775163046,50.646840949146295],[28.877498829618887,50.61947714758023],[28.821581495982496,50.62542580009445],[28.802545807935232,50.58616469349727],[28.77756146737428,50.55166250891398],[28.791838233409084,50.524298707347015],[28.814443112964206,50.51002194131159],[28.852514489057935,50.50645274980249],[28.919139397221183,50.50407328879648],[28.90486263118638,50.46600191270409],[28.85608368056659,50.46600191270409],[28.859652872075248,50.45291487717077],[28.84656583654336,50.43744838063412],[28.852514489057935,50.430309997616895],[28.86441179408691,50.430309997616895],[28.897724248168977,50.421981884095686],[28.89415505666023,50.412464040072365],[28.897724248168977,50.39699754353385],[28.8786885601218,50.39104889101963],[28.895344787163147,50.367254280961774],[28.926277780238586,50.34345967090391],[28.950072390296622,50.341080209897015],[28.929846971747242,50.30300883380373],[28.895344787163147,50.28040395424799],[28.92270858872993,50.26969637972255],[28.975056730858373,50.28278341525488],[29.025025411980188,50.268506649220434],[29.013128106951214,50.25304015268192],[29.02740487298602,50.23281473413138],[29.082132476120293,50.22686608161805],[29.10592708617913,50.19712281904499],[29.146630912913263,50.19244870972125],[29.181133097497447,50.19601790123123],[29.24656827515778,50.21505358927699],[29.303675339297886,50.21862278078511],[29.37386943896988,50.19006924871515],[29.41432027606926,50.18293086569793],[29.42502785059541,50.18768978771003],[29.453581382665018,50.18174113519581],[29.509498716302208,50.18412059620191],[29.551139283903794,50.19125897921913],[29.61062580904964,50.19125897921913],[29.652266376652026,50.19482817072734],[29.673681525704232,50.242417390844835],[29.636799880114307,50.295955263474774],[29.647507454640365,50.313801221019304],[29.617764192067042,50.325698526047745],[29.59753877351775,50.34116502258617],[29.60348742603224,50.35187259711161],[29.62371284458233,50.36258017163891],[29.649886915646196,50.395892625720094],[29.68200963922455,50.41849750527584],[29.73554751185591,50.44586130684182],[29.66178422067526,50.45656888136912],[29.652266376652026,50.467276455895444],[29.660594490172343,50.48155322193087],[29.676060986710063,50.49107106595331],[29.67963017821872,50.52914244204659],[29.652266376652026,50.54222947757901],[29.652266376652026,50.56721381814076],[29.62609230558816,50.57673166216408],[29.59753877351775,50.57197274015109],[29.55470847541325,50.57316247065498],[29.52139602133127,50.56245489612777],[29.513067907810953,50.5743522011571],[29.538052248371816,50.60290573322804],[29.54162143988056,50.633838726303125],[29.551139283903794,50.65049495334367],[29.5796928159742,50.67428956340241],[29.57493389396263,50.686186868430944],[29.561846858430652,50.702843095473355],[29.57493389396263,50.71474040050091],[29.582072276980032,50.74686312407997],[29.573744163459715,50.75757069860718],[29.560657127927826,50.775416656149936],[29.55470847541325,50.788503691682266],[29.563036588933567,50.79802153570559],[29.59753877351775,50.783744769670164],[29.652266376652026,50.781365308665045],[29.672491795201406,50.79445234419747],[29.701045327271814,50.76946800363562],[29.72246047632402,50.75876042911019],[29.779567540464125,50.74686312407997],[29.824777299574368,50.73615554955454],[29.866417867176754,50.73377608854755],[29.917576278802283,50.73496581905056],[29.94612981087189,50.75281177659508],[29.992529300485938,50.77303719514384],[30.01513418004097,50.776606386652944],[30.047256903620212,50.76946800363562],[30.063913130660758,50.7647090816245],[30.07343097468399,50.77065773413774],[30.067482322169504,50.80515991872291],[30.08889747122171,50.80397018822079],[30.08889747122171,50.81586749325012],[30.07343097468399,50.81586749325012],[30.07343097468399,50.82538533727255],[30.08651801021588,50.83014425928465],[30.08651801021588,50.83966210330797],[30.07581043568982,50.852749138840394],[30.07343097468399,50.86702590487405],[30.087707740718795,50.8848718624176],[30.117451003292206,50.877733479400376],[30.17574779793434,50.88130267091036],[30.23880351458884,50.88844105392768],[30.33041276331393,50.8931999759388],[30.43986796958168,50.91104593348333],[30.43748850857585,50.92056377750665],[30.46485231014343,50.92889189102608],[30.461283118634686,50.944358387564506],[30.438678239078765,50.949117309576614],[30.436298778072935,50.95625569259393],[30.451765274610654,50.97172218913058],[30.444626891593252,50.98005030265179],[30.444626891593252,50.99313733818323],[30.466042040646347,50.99194760768111],[30.466042040646347,51.00265518220753],[30.441057700084595,51.0312087142775],[30.449385813604824,51.076418473388],[30.47080096265792,51.09545416143376],[30.463662579640516,51.12757688501282],[30.47080096265792,51.156130417082785],[30.485077728692723,51.18825314066176],[30.501733955733357,51.18587367965576],[30.52195937428265,51.19182233216998],[30.517200452271076,51.20847855921052],[30.489836650704294,51.21918613373782],[30.49102638120721,51.22989370826414],[30.507682608247844,51.23346289977236],[30.4981647642247,51.248929396310785],[30.50887233875076,51.26439589284931],[30.53147721830668,51.26796508435743],[30.531488794561124,51.2828234391045],[30.493417418467484,51.28877209162059],[30.452966581368813,51.28401316960848],[30.419654127286744,51.31137697117446],[30.36254706314744,51.33636131173621],[30.34113191409452,51.343499694753525],[30.323285956550972,51.36253538280017],[30.326855148059717,51.40774514191068],[30.326855148059717,51.441057595993726],[30.29830161599002,51.44224732649673],[30.25785077889064,51.46247274504549],[30.232866438329598,51.47318031957092],[30.193605331733043,51.49102627711545],[30.157913416646032,51.512441426167214],[30.134118806587196,51.507682504155994],[30.09723716099727,51.49459546862455],[30.027043061325276,51.50292358214389],[29.99016141573455,51.50292358214389],[29.971125727688086,51.486267355103344],[29.91401866354798,51.4743700500749],[29.874757556952225,51.48388789409725],[29.849773216390563,51.47199058906881],[29.83311698934993,51.45652409253037],[29.796235343759204,51.44224732649673],[29.74388720163147,51.438678134987626],[29.698677442520427,51.46961112806271],[29.722472052578464,51.51839007868241],[29.65941633592467,51.517200348179315],[29.52973571110683,51.45890355353727],[29.496423257024762,51.47199058906881],[29.465490263949324,51.39703756738524],[29.383398859248267,51.40298621990044]]]]}},{"type":"Feature","properties":{"kind":"district","id":"uyezd-1897-735","name":"Киевский","provinceId":"gubernia-1897-57"},"geometry":{"type":"MultiPolygon","coordinates":[[[[29.673681525704232,50.242417390844835],[29.713696617886665,50.22356040717385],[29.74859537930542,50.2156288704873],[29.775562604038342,50.22197409983618],[29.79340856158189,50.21701688940808],[29.817203171640728,50.21701688940808],[29.840122383116164,50.22150552344285],[29.87462456770106,50.22388498444984],[29.893660255747434,50.22983363696406],[29.93054190133825,50.25719743853092],[29.946008397875968,50.276233126577566],[29.961474894413687,50.270284474062464],[29.97575166044849,50.271474204566445],[30.00668465352473,50.256007708027035],[30.045945760120485,50.266715282554244],[30.079258214202554,50.269094743560345],[30.099483632751845,50.276233126577566],[30.11613985979248,50.28813043160699],[30.13636527834266,50.29050989261211],[30.164918810412267,50.279802318085785],[30.1744366544355,50.24054121149038],[30.198231264493536,50.235782289477385],[30.23273344907843,50.2464898640046],[30.2660459031597,50.266715282554244],[30.31958377579106,50.259576899537024],[30.350516768867298,50.2464898640046],[30.376690839931165,50.19295199137289],[30.39572652797754,50.15844980678959],[30.448074670106074,50.15607034578349],[30.46473089714662,50.13346546622775],[30.468300088655365,50.10015301214666],[30.437367095579926,50.07754813259092],[30.439746556585668,50.05494325303428],[30.48257685469097,50.05613298353818],[30.494474159719942,49.99902591939736],[30.514699578269322,49.98474915336283],[30.513509847766407,49.96809292632228],[30.521837961286725,49.95143669928164],[30.52302769178964,49.93597020274321],[30.546822301847676,49.92526262821778],[30.562288798386195,49.889570713130496],[30.557529876374623,49.87767340810019],[30.567047720397767,49.87410421659207],[30.628913706549444,49.87172475558597],[30.661036430127798,49.84674041502422],[30.712194841753416,49.83841230150479],[30.732420260302707,49.78963335088518],[30.74431756533177,49.76702847132944],[30.7597840618702,49.76226954931734],[30.781199210922466,49.76583874082735],[30.813321934500834,49.77773604585582],[30.850203580091545,49.78487442887399],[30.903741452722898,49.78606415937611],[30.868049537635102,49.909796131679286],[30.879946842664083,49.92526262821775],[30.89422360869895,49.93715993324622],[30.923966871272285,49.943108585760456],[30.967986899879634,49.955005890790744],[31.01200692848778,49.975231309339506],[31.040560460558197,49.96809292632224],[31.064355070616216,49.97047238732921],[31.07506264514234,49.95262642978378],[31.081011297656858,49.92883181972684],[31.108375099223622,49.91931397570261],[31.13335943978535,49.89432963514082],[31.184815284036404,49.95604690498112],[31.167861624369493,49.96764677738429],[31.178346124426866,49.98248122959194],[31.176189737889786,49.99545672788918],[31.1595335108492,50.00021564990129],[31.138118361796955,49.997836188895235],[31.127410787270833,49.988318344871914],[31.083390758662688,49.985938883867675],[31.056026957095924,49.99545672788918],[31.029852886031335,50.02519999046308],[31.007248006476175,50.031148642976405],[30.96917663038255,50.051374061526985],[30.932294984792577,50.07754813259089],[30.904931183225813,50.095394090133595],[30.893033878196036,50.12037843069538],[30.87161872914379,50.139414118742934],[30.840685736068338,50.14179357974717],[30.80261435997471,50.13227573572385],[30.774060827905032,50.13703465773597],[30.752645678852048,50.16915738131502],[30.701487267227265,50.2631460910452],[30.68364130968297,50.27147420456731],[30.662226160630723,50.27742285707973],[30.644380203087167,50.291699623116074],[30.644380203087167,50.31787369417998],[30.622965054034978,50.3273915382033],[30.61225747950806,50.323822346693305],[30.595601252467418,50.32977099921027],[30.599170443976107,50.34999641775721],[30.575375833918088,50.35951426178053],[30.54920176285424,50.378549949827175],[30.54325311033898,50.409482942904106],[30.556340145871673,50.41662132592137],[30.555150415368757,50.43565701396801],[30.536114727321547,50.4570721630198],[30.52302769178965,50.48086677307856],[30.531355805309943,50.50466138313641],[30.519458500280905,50.55344033375604],[30.50042281223449,50.583183596329036],[30.499233081731575,50.60816793688991],[30.468300088655383,50.636721468960786],[30.464730897146637,50.67717230605922],[30.48614604619968,50.67955176706528],[30.493284429217056,50.692638802597685],[30.48019739368516,50.72119233466765],[30.45521305312343,50.73784856170823],[30.444505478597307,50.75212532774276],[30.452833592117656,50.79495562584907],[30.44093628708862,50.80447346987239],[30.412382755018996,50.79971454785937],[30.400485449989162,50.8092323918836],[30.405244372000766,50.8270783494263],[30.432608173568326,50.84254484596477],[30.442126017591534,50.875857300045936],[30.456402783626345,50.88537514406926],[30.483766585193848,50.88418541356623],[30.492094698714197,50.89251352708834],[30.48257685469099,50.90679029312196],[30.454023322620515,50.90322110161378],[30.43986796958168,50.91104593348333],[30.33041276331393,50.8931999759388],[30.23880351458884,50.88844105392768],[30.17574779793434,50.88130267091036],[30.117451003292206,50.877733479400376],[30.087707740718795,50.8848718624176],[30.07343097468399,50.86702590487405],[30.07581043568982,50.852749138840394],[30.08651801021588,50.83966210330797],[30.08651801021588,50.83014425928465],[30.07343097468399,50.82538533727255],[30.07343097468399,50.81586749325012],[30.08889747122171,50.81586749325012],[30.08889747122171,50.80397018822079],[30.067482322169504,50.80515991872291],[30.07343097468399,50.77065773413774],[30.063913130660758,50.7647090816245],[30.047256903620212,50.76946800363562],[30.01513418004097,50.776606386652944],[29.992529300485938,50.77303719514384],[29.94612981087189,50.75281177659508],[29.917576278802283,50.73496581905056],[29.866417867176754,50.73377608854755],[29.824777299574368,50.73615554955454],[29.779567540464125,50.74686312407997],[29.72246047632402,50.75876042911019],[29.701045327271814,50.76946800363562],[29.672491795201406,50.79445234419747],[29.652266376652026,50.781365308665045],[29.59753877351775,50.783744769670164],[29.563036588933567,50.79802153570559],[29.55470847541325,50.788503691682266],[29.560657127927826,50.775416656149936],[29.573744163459715,50.75757069860718],[29.582072276980032,50.74686312407997],[29.57493389396263,50.71474040050091],[29.561846858430652,50.702843095473355],[29.57493389396263,50.686186868430944],[29.5796928159742,50.67428956340241],[29.551139283903794,50.65049495334367],[29.54162143988056,50.633838726303125],[29.538052248371816,50.60290573322804],[29.513067907810953,50.5743522011571],[29.52139602133127,50.56245489612777],[29.55470847541325,50.57316247065498],[29.59753877351775,50.57197274015109],[29.62609230558816,50.57673166216408],[29.652266376652026,50.56721381814076],[29.652266376652026,50.54222947757901],[29.67963017821872,50.52914244204659],[29.676060986710063,50.49107106595331],[29.660594490172343,50.48155322193087],[29.652266376652026,50.467276455895444],[29.66178422067526,50.45656888136912],[29.73554751185591,50.44586130684182],[29.68200963922455,50.41849750527584],[29.649886915646196,50.395892625720094],[29.62371284458233,50.36258017163891],[29.60348742603224,50.35187259711161],[29.59753877351775,50.34116502258617],[29.617764192067042,50.325698526047745],[29.647507454640365,50.313801221019304],[29.636799880114307,50.295955263474774],[29.673681525704232,50.242417390844835]]]]}},{"type":"Feature","properties":{"kind":"district","id":"uyezd-1897-736","name":"Сквирский","provinceId":"gubernia-1897-57"},"geometry":{"type":"MultiPolygon","coordinates":[[[[29.413748491281833,49.51493078349361],[29.434109949701604,49.50912724017232],[29.453145637748868,49.5043683181611],[29.49359647484745,49.5079375096702],[29.53404731194692,49.5079375096702],[29.60067222011026,49.51388616218442],[29.649451170729247,49.50079912665298],[29.713696617886665,49.475814786091135],[29.73273230593313,49.46986613357603],[29.74819880247165,49.475814786091135],[29.764855029512283,49.475814786091135],[29.787459909067405,49.475814786091135],[29.80887505812041,49.482953169108455],[29.80887505812041,49.5019888571551],[29.82434155465813,49.5103169706763],[29.84456697320742,49.50317858765899],[29.861223200248144,49.52340400620872],[29.894535654330124,49.52697319771684],[29.91595080338233,49.53768077224228],[29.924278916902647,49.555526729786806],[29.975437328528265,49.560285651798026],[30.05871846373215,49.551957538278685],[30.105117953346106,49.550767807774704],[30.125343371895486,49.56980349582135],[30.113446066866423,49.60073648889829],[30.100359031334534,49.61739271593884],[30.07894388228153,49.61739271593884],[30.00993951311236,49.628100290464275],[29.955211909978885,49.6435667870028],[29.9492632574644,49.67093058856878],[29.965919484505033,49.6887765461133],[29.931417299920138,49.692345737622404],[29.88739727131272,49.701863581645725],[29.84694643421325,49.71970953918848],[29.818392902143643,49.73160684421781],[29.787459909067405,49.75302199327143],[29.763665299009368,49.75302199327143],[29.7374912279455,49.74707334075633],[29.7374912279455,49.7827652558444],[29.749388532974564,49.79942148288504],[29.7303528449273,49.8172674404277],[29.71726580939541,49.83630312847434],[29.738680958448416,49.857718277527965],[29.718455539898326,49.88151288758494],[29.691091738331544,49.9124458806618],[29.71964527040124,49.92315345518723],[29.724404192412813,49.9588453702754],[29.71488634838958,49.98382971083538],[29.67681497229674,50.03974704447319],[29.687522546822887,50.081387612075574],[29.65896901475239,50.12064871867186],[29.69704039084612,50.1349254847064],[29.74581934146582,50.14087413722062],[29.76842422102094,50.15515090325516],[29.80411613610884,50.18727362683423],[29.817203171640728,50.21701688940808],[29.79340856158189,50.21701688940808],[29.775562604038342,50.22197409983618],[29.74859537930542,50.2156288704873],[29.713696617886665,50.22356040717385],[29.673681525704232,50.242417390844835],[29.652266376652026,50.19482817072734],[29.61062580904964,50.19125897921913],[29.551139283903794,50.19125897921913],[29.509498716302208,50.18412059620191],[29.453581382665018,50.18174113519581],[29.42502785059541,50.18768978771003],[29.41432027606926,50.18293086569793],[29.37386943896988,50.19006924871515],[29.303675339297886,50.21862278078511],[29.24656827515778,50.21505358927699],[29.181133097497447,50.19601790123123],[29.146630912913263,50.19244870972125],[29.10592708617913,50.19712281904499],[29.096409242155097,50.15905144295171],[29.080942745617378,50.13763629389817],[29.053578944050685,50.132877371887844],[29.01431783745413,50.138826024402064],[29.033353525501393,50.08171896026124],[28.986954035887347,50.07577030774702],[28.94293400727922,50.098375187302764],[28.932226432753072,50.118600605851526],[28.881068021127543,50.12930818037874],[28.890585865151575,50.112651953338194],[28.914380475209523,50.104323839816985],[28.939364815770475,50.08052922975913],[28.959590234320654,50.0662524637237],[28.99647187991058,50.05554488919738],[29.035732986507135,50.06506273322159],[29.063096788073917,50.057924350204274],[29.063096788073917,50.04007839265975],[29.08570166762904,50.02104270461408],[29.12377304372268,50.01628378260189],[29.111875738693616,50.00081728606346],[29.124962774225505,49.978212406507716],[29.06785571008549,49.97464321499959],[29.030974064495563,49.97464321499959],[29.02740487298602,49.95798698795896],[29.061907057571002,49.95084860494173],[29.098788703160928,49.947279413431744],[29.12377304372268,49.947279413431744],[29.12853196573425,49.92705399488388],[29.12615250472842,49.91277722884756],[29.101168164167557,49.90325938482424],[29.045250830530367,49.916346420356575],[29.049826997260453,49.88785811693471],[29.059344841283597,49.88785811693471],[29.06886268530683,49.854545662853525],[29.09622648687361,49.85097647134354],[29.108123791903385,49.82599213078356],[29.175938430569637,49.83550997480688],[29.171179508557177,49.80338725122782],[29.166420586545605,49.76531587513365],[29.1093135224063,49.75698776161333],[29.05339618876911,49.75341857010423],[29.11407244441787,49.69988069747429],[29.154523281516543,49.705829349988605],[29.202112501633415,49.6951217754613],[29.19854331012467,49.65942986037411],[29.25208118275603,49.638014711322256],[29.247322260744458,49.626117406292934],[29.224717381188537,49.59756387422297],[29.199733040627585,49.58090764718145],[29.215199537165304,49.57257953366211],[29.21876872867405,49.55949249813057],[29.253270913258945,49.561871959134805],[29.2853936368373,49.59161522170777],[29.352018545000636,49.56782061164991],[29.38652072958562,49.540456810083924],[29.413748491281833,49.51493078349361]]]]}},{"type":"Feature","properties":{"kind":"district","id":"uyezd-1897-737","name":"Уманский","provinceId":"gubernia-1897-57"},"geometry":{"type":"MultiPolygon","coordinates":[[[[30.73028134854353,48.49708111106516],[30.735278543056655,48.513587193789164],[30.732899082050825,48.54570991736823],[30.750745039594374,48.57069425792997],[30.76740126663572,48.57902237144931],[30.77691911065895,48.595678598489954],[30.768590997138634,48.611145095027496],[30.77691911065895,48.62423213055992],[30.781678032670523,48.64564727961354],[30.78524722417927,48.674200811683505],[30.795954798705417,48.684908386208946],[30.797144529208243,48.70275434375347],[30.80785210373439,48.71465164878191],[30.82093913926637,48.727738684313444],[30.82807752228368,48.747964102863094],[30.835215905301972,48.753912755377314],[30.857820784857005,48.755102485880315],[30.870907820388982,48.757481946886415],[30.868528359383152,48.78603547895638],[30.84830294083386,48.825296585552664],[30.847113210330946,48.85979877013783],[30.82569806127794,48.88121391918959],[30.82569806127794,48.90143933774012],[30.791195876693756,48.9323723308153],[30.784057493676354,48.95378747986794],[30.719812046518847,48.97401289841768],[30.692448244952153,48.96330532389126],[30.663894712881746,48.96806424590248],[30.62939252829756,48.975202628919796],[30.590131421701006,48.99423831696644],[30.56633681164297,49.01208427451097],[30.562767620134224,49.03706861507271],[30.569906003151715,49.058483764124475],[30.59370061320975,49.08227837418234],[30.634151450309133,49.08346810468632],[30.62701306729173,49.11559082826352],[30.616305492764873,49.135816246814144],[30.5687162726488,49.140575168825265],[30.552060045608165,49.16912870089523],[30.53540381856673,49.19173358045097],[30.4414151088367,49.210769268497614],[30.39620534972566,49.220287112520936],[30.37835939218211,49.216717921012815],[30.353375051621157,49.221476843023055],[30.337908555082638,49.238133070065466],[30.318872867036262,49.24289199207668],[30.3069755620072,49.230994687046376],[30.279611760440506,49.2060103464864],[30.239160923341036,49.18340546692977],[30.207038199762682,49.15723139586591],[30.170156554171957,49.14652382133958],[30.147551674616835,49.14652382133958],[30.147551674616835,49.132247055305925],[30.109480298523195,49.10964217575018],[30.07312742204541,49.09047429542527],[30.08766857263633,49.083203720128964],[30.105514530179878,49.054650188059],[30.110273452192338,49.02609665598992],[30.0793404591161,49.02847611699504],[30.09480695565382,49.005871237439386],[30.104324799676963,48.97612797486633],[30.066253423584122,48.97017932235211],[30.029371777993397,48.96542040034089],[30.004387437432445,48.96304093933489],[29.99011067139764,48.944005251288246],[29.977023635865663,48.91188252770918],[29.975833905362837,48.89998522268074],[29.90682953619367,48.878570073628],[29.87589654311752,48.87738034312588],[29.846311584878105,48.87422568048897],[29.84274239336945,48.85518999244233],[29.798722364761232,48.79689319779939],[29.835604010351158,48.681489339015556],[29.8808137694622,48.663643381472895],[29.895090535497005,48.594639012302665],[29.97242301818649,48.55656763621027],[30.03309927383525,48.52444491263209],[30.116380409039134,48.47804542301671],[30.130657175074738,48.475665962012506],[30.165159359658922,48.48875299754404],[30.218697232290282,48.50184003307638],[30.255578877880208,48.5101681465958],[30.286511870956446,48.518496260117004],[30.344808665599466,48.538721678665766],[30.420951417785947,48.56489574972963],[30.44355629734107,48.56489574972963],[30.507801744498575,48.54348060067876],[30.513750397013062,48.519685990619124],[30.51969904952755,48.50184003307638],[30.505422283492745,48.492322189053056],[30.503042822487004,48.48161461452673],[30.517319588521808,48.47090703999952],[30.5375450070711,48.47090703999952],[30.548252581598046,48.454250812958875],[30.561339617129935,48.4637686569822],[30.606549376240178,48.464958387485204],[30.626774794790357,48.460199465474076],[30.648189943842564,48.47090703999952],[30.677933206415087,48.474476231508525],[30.718384043514558,48.475665962012506],[30.7207635045203,48.48518380603583],[30.73028134854353,48.49708111106516]]]]}},{"type":"Feature","properties":{"kind":"district","id":"uyezd-1897-738","name":"Васильковский","provinceId":"gubernia-1897-57"},"geometry":{"type":"MultiPolygon","coordinates":[[[[30.647508753668696,49.588539519831116],[30.69791807571861,49.58975862639455],[30.725281877285305,49.581430512875116],[30.734799721308537,49.60998404494508],[30.732420260302707,49.63020946349482],[30.72885106879405,49.67898841411443],[30.745507295834596,49.730146825740135],[30.7597840618702,49.76226954931734],[30.74431756533177,49.76702847132944],[30.732420260302707,49.78963335088518],[30.712194841753416,49.83841230150479],[30.661036430127798,49.84674041502422],[30.628913706549444,49.87172475558597],[30.567047720397767,49.87410421659207],[30.557529876374623,49.87767340810019],[30.562288798386195,49.889570713130496],[30.546822301847676,49.92526262821778],[30.52302769178964,49.93597020274321],[30.521837961286725,49.95143669928164],[30.513509847766407,49.96809292632228],[30.514699578269322,49.98474915336283],[30.494474159719942,49.99902591939736],[30.48257685469097,50.05613298353818],[30.439746556585668,50.05494325303428],[30.437367095579926,50.07754813259092],[30.468300088655365,50.10015301214666],[30.46473089714662,50.13346546622775],[30.448074670106074,50.15607034578349],[30.39572652797754,50.15844980678959],[30.376690839931165,50.19295199137289],[30.350516768867298,50.2464898640046],[30.31958377579106,50.259576899537024],[30.2660459031597,50.266715282554244],[30.23273344907843,50.2464898640046],[30.198231264493536,50.235782289477385],[30.1744366544355,50.24054121149038],[30.164918810412267,50.279802318085785],[30.13636527834266,50.29050989261211],[30.11613985979248,50.28813043160699],[30.099483632751845,50.276233126577566],[30.079258214202554,50.269094743560345],[30.045945760120485,50.266715282554244],[30.00668465352473,50.256007708027035],[29.97575166044849,50.271474204566445],[29.961474894413687,50.270284474062464],[29.946008397875968,50.276233126577566],[29.93054190133825,50.25719743853092],[29.893660255747434,50.22983363696406],[29.87462456770106,50.22388498444984],[29.840122383116164,50.22150552344285],[29.817203171640728,50.21701688940808],[29.80411613610884,50.18727362683423],[29.76842422102094,50.15515090325516],[29.74581934146582,50.14087413722062],[29.69704039084612,50.1349254847064],[29.65896901475239,50.12064871867186],[29.687522546822887,50.081387612075574],[29.67681497229674,50.03974704447319],[29.71488634838958,49.98382971083538],[29.724404192412813,49.9588453702754],[29.71964527040124,49.92315345518723],[29.691091738331544,49.9124458806618],[29.718455539898326,49.88151288758494],[29.738680958448416,49.857718277527965],[29.71726580939541,49.83630312847434],[29.7303528449273,49.8172674404277],[29.749388532974564,49.79942148288504],[29.7374912279455,49.7827652558444],[29.7374912279455,49.74707334075633],[29.763665299009368,49.75302199327143],[29.787459909067405,49.75302199327143],[29.818392902143643,49.73160684421781],[29.84694643421325,49.71970953918848],[29.88739727131272,49.701863581645725],[29.931417299920138,49.692345737622404],[29.965919484505033,49.6887765461133],[29.9492632574644,49.67093058856878],[29.955211909978885,49.6435667870028],[30.00993951311236,49.628100290464275],[30.07894388228153,49.61739271593884],[30.100359031334534,49.61739271593884],[30.113446066866423,49.60073648889829],[30.125343371895486,49.56980349582135],[30.164478169485054,49.56831410128147],[30.21920577261933,49.57426275379471],[30.27512310625652,49.609954668883766],[30.342937744922683,49.60638547737378],[30.447634029178772,49.6218519739123],[30.527345972874087,49.63612873994772],[30.563037887961897,49.6266108959244],[30.61538603009034,49.6218519739123],[30.624903874113574,49.60281628586468],[30.647508753668696,49.588539519831116]]]]}},{"type":"Feature","properties":{"kind":"district","id":"uyezd-1897-739","name":"Черкасский","provinceId":"gubernia-1897-57"},"geometry":{"type":"MultiPolygon","coordinates":[[[[32.43911069878055,49.334906602246534],[32.42791841923535,49.34203029723359],[32.407693000685256,49.34322002773571],[32.37081135509524,49.35154814125691],[32.34344755352775,49.35987625477625],[32.33511944000752,49.37653248181689],[32.33749890101326,49.39794763087052],[32.308945368943654,49.41341412740806],[32.27563291486159,49.40627574438986],[32.239940999774575,49.40151682237864],[32.21614638971574,49.40627574438986],[32.191162049154784,49.40032709187474],[32.161418786582175,49.41222439690408],[32.119778218979874,49.427690893442595],[32.10550145294508,49.450295772998246],[32.07813765137829,49.46219307802767],[32.06267115483978,49.47290065255311],[32.04006627528465,49.49193634060063],[32.02816897025568,49.509782298143385],[32.003184629693926,49.526438525183934],[31.942508374045964,49.53714609971124],[31.916334302981298,49.55380232675178],[31.881832118397114,49.55975097926698],[31.858037508338366,49.55737151825999],[31.8318634372745,49.56450990127722],[31.822345593251267,49.589494241839056],[31.79855098319323,49.603771007873505],[31.784274217157627,49.62042723491414],[31.756910415590845,49.63946292296078],[31.708131464971146,49.64184238396777],[31.676008741392792,49.64065265346467],[31.65102440083104,49.64779103648199],[31.61533248574394,49.665636994025625],[31.596296797697565,49.70727756162704],[31.582020031661962,49.72869271068066],[31.560604882609756,49.7370208242],[31.527292428528487,49.74059001571008],[31.496227243174324,49.7503722442889],[31.455776406074854,49.720628981716814],[31.440309909537223,49.70635221568041],[31.430792065513902,49.68493706662865],[31.398669341935637,49.67066030059323],[31.342752008298447,49.64805542103748],[31.305870362707633,49.61355323645418],[31.310629284719294,49.59570727890966],[31.333234164275215,49.582620243377235],[31.348700660812934,49.568343477343674],[31.391530958918146,49.567153746840674],[31.445068831548795,49.564774285834574],[31.454586675572028,49.52075425722618],[31.455776406074854,49.504098030185546],[31.4593455975836,49.491010994653124],[31.453396945069112,49.48030342012768],[31.46172505859014,49.45769854057194],[31.451017484063282,49.45056015755472],[31.402238533444294,49.44937042705074],[31.355839043830336,49.4410423135314],[31.337993086286787,49.4446115050405],[31.3320444337723,49.430334739004095],[31.342752008298447,49.40891958995233],[31.340372547292617,49.37203794436117],[31.330854703269384,49.351812525812406],[31.295162788181575,49.323258993741554],[31.274937369632195,49.2994643836837],[31.268988717117708,49.28280815664315],[31.272646036811736,49.26466843848172],[31.2976303773726,49.24087382842298],[31.30714822139583,49.22540733188455],[31.333322292460497,49.20994083534789],[31.346409327992387,49.19685379981547],[31.361875824530106,49.18257703378005],[31.34521959748956,49.17900784227095],[31.32737363994592,49.1623516152304],[31.317855795922778,49.150454310200985],[31.30000983837843,49.145695388189765],[31.298820107875514,49.134987813664324],[31.32261471793435,49.12903916114922],[31.326183909443007,49.11238293410858],[31.35830663302145,49.09810616807316],[31.377342321067825,49.079070480027404],[31.40351639213249,49.065983444494094],[31.428500732693443,49.07312182751141],[31.448726151242735,49.08739859354684],[31.446346690236993,49.11119320360469],[31.479659144318973,49.10643428159436],[31.50345375437701,49.10167535958137],[31.515351059406072,49.08382940203862],[31.50345375437701,49.04932721745355],[31.497221152849775,49.0403245708029],[31.531346325056997,49.02438694098506],[31.549192282600547,49.01724855796783],[31.549192282600547,48.98155664287967],[31.597971233219535,48.974418259863334],[31.633663148307434,48.966090146342125],[31.66816533289153,48.98274637338277],[31.714564822505487,48.980366912377555],[31.75501565960487,49.01843828846995],[31.808553532235518,49.038663707020575],[31.860901674363962,49.036284246014475],[31.910870355486665,49.03033559349937],[31.921577930012724,49.05175074255291],[31.9275265825273,49.0838734661302],[31.972736341638342,49.09101184914831],[32.00485906521669,49.09933996266862],[32.03222286678419,49.115996189710145],[32.03460232779002,49.08744265764018],[32.08100181740318,49.09339131015352],[32.1392986120462,49.0862529271362],[32.154765108583916,49.119565381219246],[32.17380079663109,49.16001621831765],[32.201164598197785,49.19570813340484],[32.16071376109841,49.200467055416055],[32.16785214411661,49.21236436044548],[32.19164675417464,49.22664112648002],[32.223769477752995,49.23496924000122],[32.248753818314654,49.23496924000122],[32.26541004535538,49.25519465854998],[32.312999265472165,49.274230346596624],[32.35939875508532,49.29326603464327],[32.38795228715573,49.30516333967357],[32.404608514196454,49.32300929721623],[32.43911069878055,49.334906602246534]]]]}}]}
