{"type":"FeatureCollection","features":[{"type":"Feature","properties":{"kind":"province","id":"gubernia-1897-86","name":"Бакинская губерния"},"geometry":{"type":"MultiPolygon","coordinates":[[[[48.636644800260555,41.805616347865936],[48.62448876286494,41.791373581236286],[48.60902226632642,41.77114816268664],[48.580468734256726,41.74735355262878],[48.54001789715734,41.72355894257004],[48.497187599052836,41.710471907037615],[48.461495683965026,41.68667729697975],[48.443649726421484,41.66645187843099],[48.43056269088959,41.64384699887525],[48.410337272340215,41.60934481429018],[48.385352931778456,41.58555020423232],[48.36155832172051,41.57960155171712],[48.341332903171136,41.5700837076938],[48.303261527077495,41.54509936713205],[48.28422583903102,41.52368421808117],[48.28303610852811,41.51059718254875],[48.26043122897228,41.50464853003365],[48.223549583382265,41.51059718254875],[48.17239117175674,41.50464853003365],[48.12956087365224,41.50583826053665],[48.09981761107892,41.471336075952465],[48.06888461800348,41.44873119639761],[48.04152081643598,41.43564416086519],[48.032002972412755,41.42255712533286],[48.01653647587503,41.402331706782235],[48.00225970984013,41.398762515274015],[47.97846509978139,41.38805494074769],[47.97013698626107,41.3535527561644],[47.95110129821461,41.333327337613866],[47.92730668815658,41.32143003258533],[47.905891539103564,41.2988251530287],[47.90946073061231,41.27622027347482],[47.92016830513917,41.25242566341519],[47.908271000109394,41.235769436374554],[47.88951055470337,41.22809735743793],[47.91925381727599,41.18764652034042],[47.9549457323638,41.173369754304105],[47.98706845594215,41.16623137128679],[48.00729387449153,41.142436761228936],[48.015621988012555,41.11150376815296],[48.035847406561935,41.09246808010721],[48.08105716567218,41.08057077507779],[48.131025846794884,41.06867347004757],[48.18575344992907,41.06272481753335],[48.24405024457209,41.05201724300694],[48.22977347853728,41.02941236345217],[48.20716859898136,41.028222632948186],[48.17861506691167,41.00918694490244],[48.15482045685283,40.97468476031736],[48.13340530780062,40.94970041975739],[48.062021477625805,40.93185446221286],[48.033467945556104,40.89616254712567],[48.00848360499435,40.872367937067814],[47.983499264433405,40.84381440499785],[47.945427888339765,40.83786575248266],[47.9204435477789,40.82953763896145],[47.86571594464463,40.79503545437815],[47.83597268207201,40.7664819223073],[47.78838346195514,40.76529219180519],[47.73960451133624,40.75339488677585],[47.726517475803554,40.7272208157119],[47.690825560716455,40.728410546214015],[47.67178987266999,40.69985701414405],[47.6230109220502,40.67011375157108],[47.64204661009666,40.59159153837842],[47.64085687959384,40.55352016228513],[47.67178987266999,40.42621899847383],[47.64323634059958,40.403614118918085],[47.62063146104446,40.411942232439294],[47.611113617021225,40.38338870036933],[47.581370354447905,40.35483516829848],[47.53497086483475,40.33698921075573],[47.51593517678757,40.31795352270909],[47.50549401831235,40.295797893749295],[47.509986524272996,40.295348643153346],[47.51593517678757,40.29058972114124],[47.497512034029995,40.273538549269716],[47.533203949117095,40.272348818767604],[47.541532062637415,40.260451513737294],[47.530824488111264,40.260451513737294],[47.51654772207646,40.25331313071999],[47.533203949117095,40.233087712171226],[47.53677314062584,40.216431485130684],[47.51654772207646,40.202154719094366],[47.51654772207646,40.19025741406672],[47.54986017615773,40.19620606658006],[47.555808828673015,40.183119031047724],[47.571275325210735,40.17598064803041],[47.586741821748454,40.17598064803041],[47.584362360742624,40.16527307350498],[47.59388020476586,40.15932442098986],[47.60815697080075,40.16884226501318],[47.604587779292004,40.19739579708404],[47.62005427582972,40.22238013764401],[47.595069935268775,40.24974393921186],[47.606967240297834,40.25688232222909],[47.631951580859585,40.23903636468456],[47.640279694379814,40.2616412442403],[47.65931538242628,40.25926178323518],[47.65455646041462,40.24022609518854],[47.660505112929194,40.224759598650024],[47.662884573935024,40.202154719094366],[47.691438106005435,40.180739570041624],[47.71166352455472,40.18668822255674],[47.719991638075044,40.209293102113364],[47.71404298556055,40.233087712171226],[47.739027326121416,40.228328790159125],[47.74735543964182,40.199775258088266],[47.74854517014465,40.183119031047724],[47.759252744670796,40.15932442098986],[47.74140678712725,40.13671954143501],[47.686679183993064,40.0843713993063],[47.63671050287116,40.03440271818457],[47.660505112929194,39.96658807951823],[47.6676434959466,39.94041400845437],[47.6676434959466,39.904722093367084],[47.664074304437854,39.87259936978811],[47.667643495946564,39.848804759728395],[47.67002295695231,39.83095880218575],[47.62481319784207,39.78336958206826],[47.637900233373955,39.759574972011286],[47.65336672991168,39.74410847547277],[47.68073053147846,39.7179344044089],[47.70809433304595,39.70246790787047],[47.75687328366503,39.67986302831473],[47.78066789372377,39.660827340268085],[47.803348743200004,39.62943768969399],[47.82476389225248,39.63657607271121],[47.872353112369,39.66869879629027],[47.89852718343322,39.68416529282693],[47.92232179349196,39.70201125037057],[47.960393169585075,39.73532370445264],[47.971100744111226,39.757928584009264],[47.99846454567836,39.771015619539824],[48.01036185070724,39.784102655073134],[48.069848375852644,39.71985720791598],[48.147180858542754,39.63300688120309],[48.239979837770136,39.52831059694557],[48.3446761220264,39.40576835514638],[48.33369147012597,39.39522308932192],[48.314932859453705,39.37721482307553],[48.285189596881,39.37602509257243],[48.25068741229619,39.36531751804611],[48.23879010726722,39.37007644005733],[48.20309819217968,39.35104075201069],[48.160267894074465,39.33200506396405],[48.15550897206316,39.315348836924386],[48.14242193653065,39.307020723403184],[48.13290409250733,39.28917476585954],[48.13885274502216,39.2808466523402],[48.13885274502216,39.26300069479568],[48.1448013975363,39.24039581524082],[48.14599112803984,39.226119049205394],[48.162647355080026,39.20946282216476],[48.19239061765353,39.20589363065663],[48.22451334123197,39.18685794260999],[48.23284145475246,39.165442793557254],[48.24592849028417,39.155924949533045],[48.247118220787,39.1392687224925],[48.25663606481112,39.1380789919894],[48.268533369840014,39.12380222595398],[48.28756905788656,39.12499195645707],[48.31612258995652,39.095248693884905],[48.314932859453705,39.073833544831366],[48.314932859453705,39.05717731779162],[48.3232609729742,39.03814162974498],[48.32207124247137,39.01553675019021],[48.28994851889222,38.99055240962748],[48.24592849028417,38.978655104598154],[48.19239061765353,38.98341402661114],[48.14123220602791,38.97984483510116],[48.06865864534991,38.95961941655151],[48.04486403529205,38.920358309956995],[48.00322346768958,38.93463507599065],[47.96515209159638,38.86919989833129],[48.08174568088242,38.81685175620169],[48.157888433068806,38.78710849362962],[48.205477653185326,38.75498577005055],[48.241169568272866,38.74784738703323],[48.23284145475246,38.71453493295117],[48.23641064626085,38.688360861888185],[48.278051213863236,38.65504840780612],[48.29470744090423,38.63006406724526],[48.35300423554689,38.59913107416919],[48.39107561164009,38.606269457187395],[48.42676752672763,38.62411541473104],[48.44104429276226,38.62411541473104],[48.455321058797594,38.612218109701615],[48.457700519803254,38.59080296064799],[48.48625405187313,38.56938781159534],[48.52075623645793,38.55273158455471],[48.59095033613028,38.47896829337512],[48.623073059708545,38.444466108790934],[48.66471362731022,38.41472284621699],[48.68374931535766,38.41472284621699],[48.7146823084331,38.43256880376063],[48.75275368452638,38.446845569796054],[48.765840720058094,38.467070988345704],[48.7955839826316,38.48134775438122],[48.83008616721561,38.480158023878126],[48.87053700431517,38.475399101865136],[48.893141883870285,38.48372721538634],[48.89433161437303,38.531316435502056],[48.88005484833849,38.55868023706991],[48.884813770349794,38.59318242165497],[48.884813770349794,38.64434083328068],[48.887193231355354,38.677653287360975],[48.878865117835744,38.703827358424846],[48.88124457884132,38.72048358546725],[48.86696781280598,38.770452266588094],[48.85150131626861,38.79900579865894],[48.846742394256594,38.8239901392198],[48.83246562822205,38.839456635758324],[48.80629155715775,38.9548604945403],[48.79796344363726,38.9643783385645],[48.8003429046429,38.97032699107872],[48.814619670678155,38.97389618258694],[48.81818886218663,38.98460375711415],[48.80748128766048,38.994121601136584],[48.812240209671785,39.02981351622386],[48.82413751470148,39.03338270773385],[48.82770670620995,39.04528001276229],[48.849121855262254,39.05003893477351],[48.84793212475934,39.077402736341355],[48.825327245204306,39.09048977187378],[48.813429940174615,39.11071519042342],[48.80153263514565,39.11309465142766],[48.78606613860836,39.09881788539312],[48.77297910307577,39.11071519042342],[48.74323584050306,39.19042713411812],[48.746805032011366,39.21303201367395],[48.75870233704123,39.232067701719615],[48.80510182665492,39.23920608473693],[48.803912096151294,39.227308779708395],[48.821758053695106,39.216601205181185],[48.83008616721561,39.21898066618719],[48.83008616721561,39.232067701719615],[48.84317320274812,39.24634446775504],[48.8764856568293,39.25467258127447],[48.91574676342532,39.26181096429356],[48.91574676342532,39.2701390778129],[48.886003500852624,39.29036449636254],[48.89433161437303,39.312969375917405],[48.921695415940164,39.323676950444614],[48.91336730241967,39.33081533346104],[48.87529592632647,39.32962560295981],[48.86577808230315,39.336763985977036],[48.85150131626861,39.33438452497103],[48.859829429788306,39.34628182999947],[48.859829429788306,39.3617483265379],[48.87410619582364,39.378404553578534],[48.90028026688786,39.390301858606975],[48.931213259963485,39.373645631567314],[48.95500787002214,39.37245590106431],[48.971664097063126,39.379594284081534],[48.98475113259484,39.37245590106431],[48.98594086309767,39.383163475589754],[49.012114934161886,39.36650724854911],[49.03115062220853,39.34628182999947],[49.047806849249525,39.35460994352067],[49.06922199830173,39.34271263849126],[49.06446307628971,39.32843587245583],[49.05613496276993,39.32843587245583],[49.052565771260745,39.299882340386844],[49.05375550176356,39.28560557435133],[49.043047927237424,39.27370826932111],[49.0252019696937,39.26775961680689],[49.015684125670376,39.24634446775504],[49.037099274723374,39.24991365926326],[49.04185819673468,39.26181096429356],[49.05375550176356,39.25586231177748],[49.05851442377558,39.243965006749036],[49.09539606936595,39.25943150328746],[49.11681121841825,39.25467258127447],[49.12870852344713,39.25824177278357],[49.132277714956416,39.247534198258045],[49.129898253950756,39.234447162725715],[49.11681121841825,39.229688240714495],[49.085878225342725,39.22254985769718],[49.06684253729608,39.20946282216476],[49.07398092031383,39.20827309166175],[49.09063714735403,39.21541147467907],[49.11443175741259,39.21898066618719],[49.11443175741259,39.19518605612933],[49.12038040992752,39.160683871544265],[49.12870852344713,39.18923740361511],[49.13703663696772,39.20113470864364],[49.13346744545923,39.216601205181185],[49.13703663696772,39.227308779708395],[49.156072325014264,39.20946282216476],[49.17510801306082,39.182099020597],[49.17867720457011,39.17258117657457],[49.16677989954121,39.154735219030925],[49.167969630043956,39.148786566516705],[49.18581558758777,39.1392687224925],[49.19890262311948,39.159494141042146],[49.20961019764563,39.182099020597],[49.202471814627955,39.20232443914753],[49.18462585708414,39.221360127194174],[49.17510801306082,39.229688240714495],[49.17510801306082,39.238016354233835],[49.19890262311948,39.238016354233835],[49.23459453820702,39.232067701719615],[49.236973999212765,39.25943150328746],[49.24530211273317,39.310589914913166],[49.25481995675649,39.316538567427386],[49.24768157373883,39.34509209949647],[49.25125076524802,39.3617483265379],[49.25244049575093,39.381973745086746],[49.25719941776215,39.385542936596735],[49.2845632193292,39.384353206092754],[49.29170160234686,39.37483536207032],[49.31787567341118,39.37602509257243],[49.32501405642884,39.385542936596735],[49.31549621240552,39.396250511122176],[49.31787567341118,39.409337546654506],[49.30002971586735,39.42123485168304],[49.29408106335252,39.458116497273316],[49.27028645329466,39.455737036268104],[49.25957887876859,39.4462191922439],[49.25125076524802,39.4533575752621],[49.25481995675649,39.478341915822966],[49.25363022625366,39.50570571739081],[49.26195833977417,39.544966823987096],[49.29289133284978,39.57946900857128],[49.309547559890675,39.6294376896931],[49.30835782938786,39.64490418623064],[49.320255134416826,39.677026909809705],[49.37736219855658,39.71985720791598],[49.41424384414704,39.717477746909],[49.40710546112936,39.73770316545864],[49.39996707811241,39.759118314510495],[49.39044923408909,39.773395080545924],[49.38806977308272,39.79481022959955],[49.38937191894861,39.81629563637859],[49.39044923408909,39.834071336195834],[49.403536269620886,39.8590556767567],[49.42019249666188,39.87214271228912],[49.44755629822893,39.88166055631156],[49.42495141867319,39.8995065138551],[49.41067465263856,39.945906003469595],[49.41186438314138,39.96732115252233],[49.43446926269641,39.99349522358531],[49.45469468124668,39.99587468459141],[49.49038659633342,40.011341181128955],[49.470161177783964,40.027997408170386],[49.442797376216916,40.05298174873222],[49.427330879679545,40.080345550299185],[49.4213822271647,40.104140160356955],[49.43565899319924,40.11127854337338],[49.44874602873175,40.12079638739759],[49.4594536032579,40.11246827387639],[49.470161177783964,40.13507315343301],[49.49395578784262,40.11722719588938],[49.4808687523101,40.148160188965434],[49.473730369293236,40.15529857198266],[49.46897144728122,40.17790345153752],[49.48443794381939,40.20288779209838],[49.50585309287159,40.20288779209838],[49.5236990504154,40.22073374964202],[49.56533961801699,40.237389976682564],[49.57604719254394,40.230251593666225],[49.58675476707009,40.246907820706774],[49.64029263970065,40.26475377824953],[49.654569405735984,40.26237431724529],[49.6807434768002,40.28022027478893],[49.70810727836735,40.29211757981737],[49.699779164846845,40.29687650182859],[49.71167646987574,40.307584076354914],[49.72595323591116,40.305204615349794],[49.74141973244852,40.32067111188645],[49.75331703747821,40.309963537361014],[49.74498892395772,40.29925596283557],[49.737850540940045,40.29925596283557],[49.72476350540833,40.29449704082249],[49.72357377490471,40.27784081378195],[49.737850540940045,40.27546135277585],[49.74141973244852,40.28735865780615],[49.75450676798104,40.28735865780615],[49.76521434250718,40.3040148848467],[49.79614733558272,40.313532728869134],[49.83897763368792,40.306394345852794],[49.82708032865895,40.33732733892886],[49.83897763368792,40.36469114049484],[49.855633860728915,40.371829523512154],[49.891325775816455,40.37539871502214],[49.92106903838925,40.37539871502214],[49.95914041448235,40.3480349134543],[50.00078098208412,40.336137608425766],[50.02457559214268,40.35041437445942],[50.054318854715476,40.35279383546551],[50.048370202200545,40.342086260939986],[50.057888046223866,40.33851706943186],[50.0721648122592,40.342086260939986],[50.085251847790914,40.36350140999184],[50.12451295438774,40.36350140999184],[50.175671366012736,40.3456554524482],[50.245865465685085,40.336137608425766],[50.30892118233896,40.311153267864015],[50.33271579239762,40.29092784931437],[50.35294121094701,40.25404620372409],[50.35888986346184,40.25523593422621],[50.34104390591811,40.305204615349794],[50.33747471440964,40.318291650882216],[50.34699255843296,40.33256841691578],[50.34223363642094,40.36945006250606],[50.32557740937996,40.401572786085126],[50.29583414680725,40.41465982161755],[50.27917791976627,40.42893658765208],[50.26609088423446,40.43964416217841],[50.23872708266741,40.48485392128892],[50.19708651506494,40.49556149581533],[50.17091244400143,40.49556149581533],[50.1530664864577,40.50864853134766],[50.139979450925196,40.50864853134766],[50.10904645784957,40.53244314140552],[50.084062117288184,40.55742748196825],[50.084062117288184,40.57051451749881],[50.091200500305845,40.58836047504333],[50.06264696823588,40.58241182252911],[50.022196131137036,40.57646317001489],[49.9865042160495,40.58836047504333],[49.94724310945347,40.57289397850491],[49.90560254185108,40.57289397850491],[49.87466954877556,40.564565864985475],[49.84849547771124,40.56694532599069],[49.81518302362926,40.56337613448247],[49.79138841357141,40.57408370900791],[49.76878353401557,40.57051451749881],[49.75807595948943,40.57527343951189],[49.742609462952146,40.5717042480019],[49.710486739372996,40.58836047504333],[49.712866200378656,40.60263724107787],[49.702158625852505,40.60739616308997],[49.696209973338455,40.624052390130615],[49.68312293780586,40.621672929124514],[49.666466710764965,40.626431851135735],[49.653379675233154,40.622862659627515],[49.64029263970065,40.627621581638735],[49.62244668215763,40.64070861717116],[49.596272611093326,40.64427780868026],[49.56890880952628,40.66688268823511],[49.539165546953484,40.695436220305965],[49.52845797242662,40.72993840488926],[49.539165546953484,40.785855738527076],[49.536786085947114,40.79656331305251],[49.54511419946762,40.81321954009394],[49.53083743343308,40.84058334166179],[49.4975249793511,40.847721724678216],[49.476109830298796,40.852480646691205],[49.45826387275507,40.860808760211526],[49.4166233051526,40.87508552624509],[49.40472600012389,40.88460337027027],[49.391638964592005,40.90601851932115],[49.37260327654536,40.91910555485357],[49.35475731900155,40.926243937870794],[49.323824325925216,40.95360773943864],[49.2893221413413,40.98929965452583],[49.24459708724957,41.00016879739175],[49.147039186010886,41.20956136590482],[49.104208887905685,41.30355007563503],[49.067327242315216,41.35708794826586],[49.04115317125179,41.40229770737636],[49.01497910018749,41.4260923174352],[48.98880502912327,41.47249180704871],[48.96144122755612,41.498665878113556],[48.9305082344806,41.52365021867442],[48.9090930854276,41.552203750743494],[48.85674494329986,41.59503404884977],[48.83532979424676,41.61050054538731],[48.76394596407239,41.67950491455577],[48.74847946753431,41.70567898562052],[48.711597821943855,41.74137090070781],[48.65568048830693,41.784201198812305],[48.636644800260555,41.805616347865936]]]]}},{"type":"Feature","properties":{"kind":"district","id":"uyezd-1897-412","name":"Джеватский","provinceId":"gubernia-1897-86"},"geometry":{"type":"MultiPolygon","coordinates":[[[[49.237596548700196,39.99025379210164],[49.218560860653724,39.99620244461498],[49.187627867577575,40.00334082763318],[49.17216137103986,39.99620244461498],[49.15550514399922,40.00928948014828],[49.141228377964424,40.036653281714266],[49.11505430689975,40.04736085624069],[49.09482888835038,40.05449923925791],[49.067465086783685,40.06282735277911],[49.01749640566098,40.06282735277911],[48.95919961101805,40.06282735277911],[48.90447200788377,40.06163762227611],[48.848554674246586,40.05687870026401],[48.803344915136336,40.048550586744575],[48.75932488652812,40.030704629200045],[48.74742758149915,40.037843012217365],[48.727202162949766,40.02237651567884],[48.714115127417884,40.044981395234586],[48.69983836138228,40.0580684307679],[48.69983836138228,40.07710411881454],[48.67961294283299,40.07948357981877],[48.66295671579235,40.09495007635729],[48.65224914126621,40.090191154345185],[48.6308339922132,40.09138088484907],[48.595142077126184,40.09732953736241],[48.57491665857681,40.115175494906936],[48.55826043153537,40.106847381385734],[48.54517339600349,40.07948357981877],[48.52256851644836,40.06639654428733],[48.500816553602355,40.05660816100756],[48.49877390638953,40.05568896976189],[48.47022037431992,40.034273820708265],[48.445236033758974,40.037843012217365],[48.44166684225023,40.05093004774881],[48.417872232191385,40.05093004774881],[48.409544118671064,40.06639654428733],[48.40121600515084,40.06639654428733],[48.40002627464793,40.04260193422947],[48.37980085609854,40.044981395234586],[48.37266247308115,40.06163762227611],[48.35481651553688,40.06520681378521],[48.35124732402814,40.04736085624069],[48.31793486994687,40.04974031724669],[48.30722729542072,40.06520681378521],[48.29295052938592,40.06639654428733],[48.27153538033291,40.04974031724669],[48.258448344801025,40.05093004774881],[48.256068883795194,40.06401708328123],[48.22156669921101,40.06996573579545],[48.21323858568998,40.08424250183185],[48.20491047216966,40.08305277132787],[48.195392628146436,40.06163762227611],[48.176356940099964,40.07353492730455],[48.15613152155068,40.07353492730455],[48.134716372497664,40.08424250183185],[48.134716372497664,40.104467920381495],[48.11211149294246,40.12469333893026],[48.09069634389026,40.12350360842814],[48.071660655843075,40.13421118295358],[48.05024550679087,40.112796033900835],[48.01812278321252,40.112796033900835],[48.002656286674,40.09257061535119],[48.01336386120086,40.07710411881454],[47.99670763415942,40.0580684307679],[47.987189790136185,40.06877600529333],[47.97529248510722,40.04736085624069],[47.958636258066576,40.044981395234586],[47.958636258066576,40.06639654428733],[47.932462187002,40.05687870026401],[47.93008272599617,40.04260193422947],[47.909857307446885,40.05449923925791],[47.911047037949714,40.06877600529333],[47.882493505880106,40.06044789177213],[47.88130377537719,40.07353492730455],[47.865837278838754,40.08067331032186],[47.84918105179803,40.07472465780853],[47.83490428576323,40.07710411881454],[47.81348913671103,40.06758627479122],[47.80754048419654,40.07472465780853],[47.830145363751654,40.09732953736241],[47.80397129268779,40.09732953736241],[47.80754048419654,40.125883069432376],[47.78255614363478,40.12945226094148],[47.78255614363478,40.15086740999412],[47.759252744670796,40.15932442098986],[47.74140678712725,40.13671954143501],[47.686679183993064,40.0843713993063],[47.63671050287116,40.03440271818457],[47.660505112929194,39.96658807951823],[47.6676434959466,39.94041400845437],[47.6676434959466,39.904722093367084],[47.664074304437854,39.87259936978811],[47.667643495946564,39.84880475972841],[47.67002295695231,39.83095880218575],[47.62481319784207,39.78336958206826],[47.637900233373955,39.759574972011286],[47.65336672991168,39.74410847547277],[47.68073053147846,39.7179344044089],[47.70809433304595,39.70246790787047],[47.75687328366503,39.67986302831473],[47.78066789372377,39.660827340268085],[47.803348743200004,39.62943768969399],[47.82476389225248,39.63657607271121],[47.872353112369,39.66869879629027],[47.89852718343322,39.68416529282693],[47.92232179349196,39.70201125037057],[47.960393169585075,39.73532370445264],[47.971100744111226,39.757928584009264],[47.99846454567836,39.771015619539824],[48.01036185070724,39.784102655073134],[48.069848375852644,39.71985720791598],[48.147180858542754,39.63300688120309],[48.239979837770136,39.52831059694557],[48.3446761220264,39.40576835514638],[48.33369147012597,39.39522308932192],[48.367297511855654,39.39858560457286],[48.40417915744557,39.42951859764981],[48.441060803036294,39.44617482469036],[48.48151164013497,39.45688239921579],[48.539808434777896,39.48305647027975],[48.59215657690643,39.48067700927365],[48.601674420929584,39.475918087262436],[48.63022795299928,39.460451590724006],[48.646884180040715,39.464020782233106],[48.65878148506968,39.45688239921579],[48.67186852060158,39.47115916525033],[48.699232322168356,39.459261860221886],[48.71350908820396,39.44736455519247],[48.71945774071844,39.43427751966014],[48.70518097468285,39.42000075362649],[48.69566313065961,39.4152418316135],[48.680196634121884,39.384308838538324],[48.680196634121884,39.36527315049168],[48.66473013758417,39.33790934892383],[48.6813863646248,39.29269958981421],[48.69566313065961,39.245110369697606],[48.734924237256166,39.22845414265706],[48.746805032011366,39.21303201367395],[48.75870233704123,39.232067701719615],[48.80510182665492,39.23920608473693],[48.803912096151294,39.227308779708395],[48.821758053695106,39.216601205181185],[48.83008616721561,39.21898066618719],[48.83008616721561,39.232067701719615],[48.84317320274812,39.24634446775504],[48.8764856568293,39.25467258127447],[48.91574676342532,39.26181096429356],[48.91574676342532,39.2701390778129],[48.886003500852624,39.29036449636254],[48.89433161437303,39.312969375917405],[48.921695415940164,39.323676950444614],[48.91336730241967,39.33081533346104],[48.87529592632647,39.32962560295981],[48.86577808230315,39.336763985977036],[48.85150131626861,39.33438452497103],[48.859829429788306,39.34628182999947],[48.859829429788306,39.3617483265379],[48.87410619582364,39.378404553578534],[48.90028026688786,39.390301858606975],[48.931213259963485,39.373645631567314],[48.95500787002214,39.37245590106431],[48.971664097063126,39.379594284081534],[48.98475113259484,39.37245590106431],[48.98594086309767,39.383163475589754],[49.012114934161886,39.36650724854911],[49.03115062220853,39.34628182999947],[49.047806849249525,39.35460994352067],[49.06922199830173,39.34271263849126],[49.06446307628971,39.32843587245583],[49.05613496276993,39.32843587245583],[49.052565771260745,39.299882340386844],[49.05375550176356,39.28560557435133],[49.043047927237424,39.27370826932111],[49.0252019696937,39.26775961680689],[49.015684125670376,39.24634446775504],[49.037099274723374,39.24991365926326],[49.04185819673468,39.26181096429356],[49.05375550176356,39.25586231177748],[49.05851442377558,39.243965006749036],[49.09539606936595,39.25943150328746],[49.11681121841825,39.25467258127447],[49.12870852344713,39.25824177278357],[49.132277714956416,39.247534198258045],[49.129898253950756,39.234447162725715],[49.11681121841825,39.229688240714495],[49.085878225342725,39.22254985769718],[49.06684253729608,39.20946282216476],[49.07398092031383,39.20827309166175],[49.09063714735403,39.21541147467907],[49.11443175741259,39.21898066618719],[49.11443175741259,39.19518605612933],[49.12038040992752,39.160683871544265],[49.12870852344713,39.18923740361511],[49.13703663696772,39.20113470864364],[49.13346744545923,39.216601205181185],[49.13703663696772,39.227308779708395],[49.156072325014264,39.20946282216476],[49.17510801306082,39.182099020597],[49.17867720457011,39.17258117657457],[49.16677989954121,39.154735219030925],[49.167969630043956,39.148786566516705],[49.18581558758777,39.1392687224925],[49.19890262311948,39.159494141042146],[49.20961019764563,39.182099020597],[49.202471814627955,39.20232443914753],[49.18462585708414,39.221360127194174],[49.17510801306082,39.229688240714495],[49.17510801306082,39.238016354233835],[49.19890262311948,39.238016354233835],[49.23459453820702,39.232067701719615],[49.236973999212765,39.25943150328746],[49.24530211273317,39.310589914913166],[49.25481995675649,39.316538567427386],[49.24768157373883,39.34509209949647],[49.25125076524802,39.3617483265379],[49.25244049575093,39.381973745086746],[49.25719941776215,39.385542936596735],[49.2845632193292,39.384353206092754],[49.29170160234686,39.37483536207032],[49.31787567341118,39.37602509257243],[49.32501405642884,39.385542936596735],[49.31549621240552,39.396250511122176],[49.31787567341118,39.409337546654506],[49.30002971586735,39.42123485168304],[49.29408106335252,39.458116497273316],[49.27028645329466,39.455737036268104],[49.25957887876859,39.4462191922439],[49.25125076524802,39.4533575752621],[49.25481995675649,39.478341915822966],[49.25363022625366,39.50570571739081],[49.26195833977417,39.544966823987096],[49.29289133284978,39.57946900857128],[49.309547559890675,39.6294376896931],[49.30835782938786,39.64490418623064],[49.320255134416826,39.677026909809705],[49.37736219855658,39.71985720791598],[49.41424384414704,39.717477746909],[49.40710546112936,39.73770316545864],[49.39996707811241,39.759118314510495],[49.39044923408909,39.773395080545924],[49.38806977308272,39.79481022959955],[49.38937191894861,39.81629563637859],[49.369656634523864,39.82845044370518],[49.351810676980406,39.84034774873274],[49.33277498893314,39.8700910113057],[49.31373930088668,39.881988316335125],[49.298272804348954,39.90340346538875],[49.27923711630258,39.91768023142231],[49.26971927227855,39.94028511097805],[49.273288463788006,39.962889990533796],[49.24830412322625,39.98311540908256],[49.237596548700196,39.99025379210164]]]]}},{"type":"Feature","properties":{"kind":"district","id":"uyezd-1897-413","name":"Бакинский","provinceId":"gubernia-1897-86"},"geometry":{"type":"MultiPolygon","coordinates":[[[[49.38937191894861,39.81629563637859],[49.39044923408909,39.834071336195834],[49.403536269620886,39.8590556767567],[49.42019249666188,39.87214271228912],[49.44755629822893,39.88166055631156],[49.42495141867319,39.8995065138551],[49.41067465263856,39.945906003469595],[49.41186438314138,39.96732115252233],[49.43446926269641,39.99349522358531],[49.45469468124668,39.99587468459141],[49.49038659633342,40.011341181128955],[49.470161177783964,40.027997408170386],[49.442797376216916,40.05298174873222],[49.427330879679545,40.080345550299185],[49.4213822271647,40.104140160356955],[49.43565899319924,40.11127854337338],[49.44874602873175,40.12079638739759],[49.4594536032579,40.11246827387639],[49.470161177783964,40.13507315343301],[49.49395578784262,40.11722719588938],[49.4808687523101,40.148160188965434],[49.473730369293236,40.15529857198266],[49.46897144728122,40.17790345153752],[49.48443794381939,40.20288779209838],[49.50585309287159,40.20288779209838],[49.5236990504154,40.22073374964202],[49.56533961801699,40.237389976682564],[49.57604719254394,40.230251593666225],[49.58675476707009,40.246907820706774],[49.64029263970065,40.26475377824953],[49.654569405735984,40.26237431724529],[49.6807434768002,40.28022027478893],[49.70810727836735,40.29211757981737],[49.699779164846845,40.29687650182859],[49.71167646987574,40.307584076354914],[49.72595323591116,40.305204615349794],[49.74141973244852,40.32067111188645],[49.75331703747821,40.309963537361014],[49.74498892395772,40.29925596283557],[49.737850540940045,40.29925596283557],[49.72476350540833,40.29449704082249],[49.72357377490471,40.27784081378195],[49.737850540940045,40.27546135277585],[49.74141973244852,40.28735865780615],[49.75450676798104,40.28735865780615],[49.76521434250718,40.3040148848467],[49.79614733558272,40.313532728869134],[49.83897763368792,40.306394345852794],[49.82708032865895,40.33732733892886],[49.83897763368792,40.36469114049484],[49.855633860728915,40.371829523512154],[49.891325775816455,40.37539871502214],[49.92106903838925,40.37539871502214],[49.95914041448235,40.3480349134543],[50.00078098208412,40.336137608425766],[50.02457559214268,40.35041437445942],[50.054318854715476,40.35279383546551],[50.048370202200545,40.342086260939986],[50.057888046223866,40.33851706943186],[50.0721648122592,40.342086260939986],[50.085251847790914,40.36350140999184],[50.12451295438774,40.36350140999184],[50.175671366012736,40.3456554524482],[50.245865465685085,40.336137608425766],[50.30892118233896,40.311153267864015],[50.33271579239762,40.29092784931437],[50.35294121094701,40.25404620372409],[50.35888986346184,40.25523593422621],[50.34104390591811,40.305204615349794],[50.33747471440964,40.318291650882216],[50.34699255843296,40.33256841691578],[50.34223363642094,40.36945006250606],[50.32557740937996,40.401572786085126],[50.29583414680725,40.41465982161755],[50.27917791976627,40.42893658765208],[50.26609088423446,40.43964416217841],[50.23872708266741,40.48485392128892],[50.19708651506494,40.49556149581533],[50.17091244400143,40.49556149581533],[50.1530664864577,40.50864853134766],[50.139979450925196,40.50864853134766],[50.10904645784957,40.53244314140552],[50.084062117288184,40.55742748196825],[50.084062117288184,40.57051451749881],[50.091200500305845,40.58836047504333],[50.06264696823588,40.58241182252911],[50.022196131137036,40.57646317001489],[49.9865042160495,40.58836047504333],[49.94724310945347,40.57289397850491],[49.90560254185108,40.57289397850491],[49.87466954877556,40.564565864985475],[49.84849547771124,40.56694532599069],[49.81518302362926,40.56337613448247],[49.79138841357141,40.57408370900791],[49.76878353401557,40.57051451749881],[49.75807595948943,40.57527343951189],[49.742609462952146,40.5717042480019],[49.710486739372996,40.58836047504333],[49.712866200378656,40.60263724107787],[49.702158625852505,40.60739616308997],[49.696209973338455,40.624052390130615],[49.68312293780586,40.621672929124514],[49.666466710764965,40.626431851135735],[49.653379675233154,40.622862659627515],[49.64029263970065,40.627621581638735],[49.62244668215763,40.64070861717116],[49.596272611093326,40.64427780868026],[49.56890880952628,40.66688268823511],[49.539165546953484,40.695436220305965],[49.52845797242662,40.72993840488926],[49.539165546953484,40.785855738527076],[49.536786085947114,40.79656331305251],[49.54511419946762,40.81321954009394],[49.53083743343308,40.84058334166179],[49.4975249793511,40.847721724678216],[49.476109830298796,40.852480646691205],[49.45826387275507,40.860808760211526],[49.4166233051526,40.87508552624509],[49.40472600012389,40.88460337027027],[49.3791744785471,40.875413286269634],[49.3577593294948,40.86827490325231],[49.344672293962915,40.86827490325231],[49.333964719436054,40.86470571174321],[49.31373930088668,40.86827490325231],[49.27923711630258,40.86827490325231],[49.23878627920311,40.87303382526442],[49.21499166914508,40.886120860796844],[49.20309436411601,40.886120860796844],[49.181679215063,40.898018165824396],[49.157884605004966,40.92419223689013],[49.13646945595276,40.961073882480406],[49.111485115391005,40.961073882480406],[49.09839807985912,40.950366307953104],[49.09244942734463,40.92776142839745],[49.08412131382431,40.9003976268305],[49.04604993773067,40.85756732872599],[49.00916829214066,40.8135473001176],[48.99013260409349,40.809978108609386],[49.04129101571901,40.74454293094914],[49.08412131382431,40.70171263284464],[49.12457215092299,40.66958990926567],[49.16264352701654,40.643415838201705],[49.199525172606556,40.61605203663386],[49.22213005216247,40.61248284512476],[49.23878627920311,40.60296500110144],[49.260201428255314,40.58511904355878],[49.289944690828634,40.583929313054796],[49.31849822289824,40.55894497249482],[49.3577593294948,40.572032008026355],[49.40177935810222,40.583929313054796],[49.39702043609064,40.59582661808422],[49.40177935810222,40.60296500110144],[49.41129720212625,40.60296500110144],[49.42557396816106,40.5946368875821],[49.42319450715523,40.55418605048183],[49.45412750023067,40.52801197941796],[49.4707837272713,40.51492494388643],[49.45888642224223,40.493509794834665],[49.43390208168137,40.46852545427282],[49.39583070558773,40.434023269687756],[49.386312861564505,40.41141839013201],[49.38988205307315,40.40071081560657],[49.377984748044184,40.37215728353661],[49.38155393955293,40.344793481969646],[49.4005896275993,40.29720426185216],[49.391071783576066,40.273409651795184],[49.37679501754127,40.267460999280075],[49.3660874430152,40.22344097067168],[49.32444687541282,40.20440528262593],[49.30303172636053,40.188938786088386],[49.28875496032572,40.16038525401744],[49.270909002781465,40.13183172194748],[49.25782196724957,40.104467920381495],[49.2875652298228,40.08781169333909],[49.28280630781124,40.06044789177213],[49.264960350266975,40.05093004774881],[49.25782196724957,40.027135437690944],[49.237596548700196,39.99025379210164],[49.24830412322625,39.98311540908256],[49.273288463788006,39.962889990533796],[49.26971927227855,39.94028511097805],[49.27923711630258,39.91768023142231],[49.298272804348954,39.90340346538875],[49.31373930088668,39.881988316335125],[49.33277498893314,39.8700910113057],[49.351810676980406,39.84034774873274],[49.369656634523864,39.82845044370518],[49.38937191894861,39.81629563637859]]]]}},{"type":"Feature","properties":{"kind":"district","id":"uyezd-1897-415","name":"Геокчайский","provinceId":"gubernia-1897-86"},"geometry":{"type":"MultiPolygon","coordinates":[[[[47.497512034029995,40.273538549269716],[47.533203949117095,40.272348818767604],[47.541532062637415,40.260451513737294],[47.530824488111264,40.260451513737294],[47.51654772207646,40.25331313071999],[47.533203949117095,40.233087712171226],[47.53677314062584,40.216431485130684],[47.51654772207646,40.202154719094366],[47.51654772207646,40.19025741406672],[47.54986017615773,40.19620606658006],[47.555808828673015,40.183119031047724],[47.571275325210735,40.17598064803041],[47.586741821748454,40.17598064803041],[47.584362360742624,40.16527307350498],[47.59388020476586,40.15932442098986],[47.60815697080075,40.16884226501318],[47.604587779292004,40.19739579708404],[47.62005427582972,40.22238013764401],[47.595069935268775,40.24974393921186],[47.606967240297834,40.25688232222909],[47.631951580859585,40.23903636468456],[47.640279694379814,40.2616412442403],[47.65931538242628,40.25926178323518],[47.65455646041462,40.24022609518854],[47.660505112929194,40.224759598650024],[47.662884573935024,40.202154719094366],[47.691438106005435,40.180739570041624],[47.71166352455472,40.18668822255674],[47.719991638075044,40.209293102113364],[47.71404298556055,40.233087712171226],[47.739027326121416,40.228328790159125],[47.74735543964182,40.199775258088266],[47.74854517014465,40.183119031047724],[47.759252744670796,40.15932442098986],[47.78255614363478,40.15086740999412],[47.78255614363478,40.12945226094148],[47.80754048419654,40.125883069432376],[47.80397129268779,40.09732953736241],[47.830145363751654,40.09732953736241],[47.80754048419654,40.07472465780853],[47.81348913671103,40.06758627479122],[47.83490428576323,40.07710411881454],[47.84918105179803,40.07472465780853],[47.865837278838754,40.08067331032186],[47.88130377537719,40.07353492730455],[47.882493505880106,40.06044789177213],[47.911047037949714,40.06877600529333],[47.909857307446885,40.05449923925791],[47.93008272599617,40.04260193422947],[47.932462187002,40.05687870026401],[47.958636258066576,40.06639654428733],[47.958636258066576,40.044981395234586],[47.97529248510722,40.04736085624069],[47.987189790136185,40.06877600529333],[47.99670763415942,40.0580684307679],[48.01336386120086,40.07710411881454],[48.002656286674,40.09257061535119],[48.01812278321252,40.112796033900835],[48.05024550679087,40.112796033900835],[48.071660655843075,40.13421118295358],[48.09069634389026,40.12350360842814],[48.11211149294246,40.12469333893026],[48.134716372497664,40.104467920381495],[48.134716372497664,40.08424250183185],[48.15613152155068,40.07353492730455],[48.176356940099964,40.07353492730455],[48.195392628146436,40.06163762227611],[48.20491047216966,40.08305277132787],[48.21323858568998,40.08424250183185],[48.22156669921101,40.06996573579545],[48.256068883795194,40.06401708328123],[48.258448344801025,40.05093004774881],[48.27153538033291,40.04974031724669],[48.29295052938592,40.06639654428733],[48.30722729542072,40.06520681378521],[48.31793486994687,40.04974031724669],[48.35124732402814,40.04736085624069],[48.35481651553688,40.06520681378521],[48.37266247308115,40.06163762227611],[48.37980085609854,40.044981395234586],[48.40002627464793,40.04260193422947],[48.40121600515084,40.06639654428733],[48.409544118671064,40.06639654428733],[48.417872232191385,40.05093004774881],[48.44166684225023,40.05093004774881],[48.445236033758974,40.037843012217365],[48.47022037431992,40.034273820708265],[48.49877390638953,40.05568896976189],[48.500816553602355,40.05660816100756],[48.501285559674024,40.074195888694675],[48.501285559674024,40.10750834277772],[48.50247529017694,40.16104621540766],[48.49652663766245,40.18484082546729],[48.47273202760361,40.213394357537254],[48.467973105592044,40.26336303865898],[48.45726553106589,40.28596791821472],[48.454886070060155,40.310952258774705],[48.428711998996285,40.34545444335977],[48.410866041452024,40.374007975429734],[48.426332537990454,40.41445881253001],[48.42514280748763,40.43944315308998],[48.41800442447014,40.47394533767515],[48.432281190504945,40.49536048672691],[48.42514280748763,40.51320644427143],[48.4227633464818,40.550088089860736],[48.410866041452024,40.57983135243379],[48.36922547385044,40.60124650148644],[48.33115409775671,40.62623084204829],[48.263339459090545,40.629800033557295],[48.26095999808481,40.65716383512337],[48.27761622512615,40.689286558702435],[48.303790296190016,40.7273579347966],[48.3026005656871,40.75472173636258],[48.329964367253886,40.80231095647919],[48.34900005530106,40.80825960899439],[48.365656282341696,40.82967475804615],[48.381122778879416,40.839192602069474],[48.39302008390839,40.86179748162433],[48.383502239885246,40.88321263067796],[48.391830353405474,40.90462777972972],[48.3799330483765,40.91533535425693],[48.34900005530106,40.923663467776365],[48.30498002669293,40.933181311799686],[48.25501134557023,40.95935538286355],[48.25382161506732,40.995047297950826],[48.27880595562907,41.010513794489256],[48.3026005656871,41.03192894354288],[48.271667572610866,41.04263651806832],[48.24405024457209,41.05201724300694],[48.22977347853728,41.02941236345217],[48.20716859898136,41.028222632948186],[48.17861506691167,41.00918694490244],[48.15482045685283,40.97468476031736],[48.13340530780062,40.94970041975739],[48.062021477625805,40.93185446221286],[48.033467945556104,40.89616254712567],[48.00848360499435,40.872367937067814],[47.983499264433405,40.84381440499785],[47.945427888339765,40.83786575248266],[47.9204435477789,40.82953763896145],[47.86571594464463,40.79503545437815],[47.83597268207201,40.7664819223073],[47.78838346195514,40.76529219180519],[47.73960451133624,40.75339488677585],[47.726517475803554,40.7272208157119],[47.690825560716455,40.728410546214015],[47.67178987266999,40.69985701414405],[47.6230109220502,40.67011375157108],[47.64204661009666,40.59159153837842],[47.64085687959384,40.55352016228513],[47.67178987266999,40.42621899847383],[47.64323634059958,40.403614118918085],[47.62063146104446,40.411942232439294],[47.611113617021225,40.38338870036933],[47.581370354447905,40.35483516829848],[47.53497086483475,40.33698921075573],[47.51593517678757,40.31795352270909],[47.50549401831233,40.29579789374927],[47.509986524272996,40.295348643153346],[47.51593517678757,40.29058972114124],[47.497512034029995,40.273538549269716]]]]}},{"type":"Feature","properties":{"kind":"district","id":"uyezd-1897-417","name":"Кубинский","provinceId":"gubernia-1897-86"},"geometry":{"type":"MultiPolygon","coordinates":[[[[48.3026005656871,41.03192894354288],[48.329039021307615,41.02003163851258],[48.368300127903375,40.98790891493449],[48.408750965002845,40.98552945392928],[48.45871964612546,40.96530403537875],[48.51344724925893,40.96292457437265],[48.57888242691936,40.94864780833811],[48.655025179105834,40.928422389789354],[48.74782415833375,40.8974893967124],[48.823966910520234,40.90105858822062],[48.86917666963056,40.89273047470128],[48.8917815491864,40.90462777972972],[48.9703037623788,40.87250505615066],[48.9845805284136,40.84276179357946],[48.99013260409349,40.809978108609386],[49.00916829214066,40.8135473001176],[49.04604993773067,40.85756732872599],[49.08412131382431,40.9003976268305],[49.09244942734463,40.92776142839745],[49.09839807985912,40.950366307953104],[49.111485115391005,40.961073882480406],[49.13646945595276,40.961073882480406],[49.157884605004966,40.92419223689013],[49.181679215063,40.898018165824396],[49.20309436411601,40.886120860796844],[49.21499166914508,40.886120860796844],[49.23878627920311,40.87303382526442],[49.27923711630258,40.86827490325231],[49.31373930088668,40.86827490325231],[49.333964719436054,40.86470571174321],[49.344672293962915,40.86827490325231],[49.3577593294948,40.86827490325231],[49.3791744785471,40.875413286269634],[49.40472600012389,40.88460337027027],[49.391638964592005,40.90601851932115],[49.37260327654536,40.91910555485357],[49.35475731900155,40.926243937870794],[49.323824325925216,40.95360773943864],[49.2893221413413,40.98929965452583],[49.24459708724957,41.00016879739175],[49.17916190958924,41.05965532253778],[49.16964406556592,41.109624003660386],[49.147039186010886,41.20956136590482],[49.104208887905685,41.30355007563503],[49.067327242315216,41.35708794826586],[49.04115317125179,41.40229770737636],[49.01497910018749,41.4260923174352],[48.98880502912327,41.47249180704871],[48.96144122755612,41.498665878113556],[48.9305082344806,41.52365021867442],[48.9090930854276,41.552203750743494],[48.85674494329986,41.59503404884977],[48.83532979424676,41.61050054538731],[48.76394596407239,41.67950491455577],[48.74847946753431,41.70567898562052],[48.711597821943855,41.74137090070781],[48.65568048830693,41.784201198812305],[48.636644800260555,41.805616347865936],[48.62448876286494,41.791373581236286],[48.60902226632642,41.77114816268664],[48.580468734256726,41.74735355262878],[48.54001789715734,41.72355894257004],[48.497187599052836,41.710471907037615],[48.461495683965026,41.68667729697975],[48.443649726421484,41.66645187843099],[48.43056269088959,41.64384699887525],[48.410337272340215,41.60934481429018],[48.385352931778456,41.58555020423232],[48.36155832172051,41.57960155171712],[48.341332903171136,41.5700837076938],[48.303261527077495,41.54509936713205],[48.28422583903102,41.52368421808117],[48.28303610852811,41.51059718254875],[48.26043122897228,41.50464853003365],[48.223549583382265,41.51059718254875],[48.17239117175674,41.50464853003365],[48.12956087365224,41.50583826053665],[48.09981761107892,41.471336075952465],[48.06888461800348,41.44873119639761],[48.04152081643598,41.43564416086519],[48.032002972412755,41.42255712533286],[48.01653647587503,41.402331706782235],[48.00225970984013,41.398762515274015],[47.97846509978139,41.38805494074769],[47.97013698626107,41.3535527561644],[47.95110129821461,41.333327337613866],[47.92730668815658,41.32143003258533],[47.905891539103564,41.2988251530287],[47.90946073061231,41.27622027347482],[47.92016830513917,41.25242566341519],[47.908271000109394,41.235769436374554],[47.88951055470337,41.22809735743793],[47.91925381727599,41.18764652034042],[47.9549457323638,41.173369754304105],[47.98706845594215,41.16623137128679],[48.00729387449153,41.142436761228936],[48.015621988012555,41.11150376815296],[48.035847406561935,41.09246808010721],[48.08105716567218,41.08057077507779],[48.131025846794884,41.06867347004757],[48.18575344992907,41.06272481753335],[48.24405024457209,41.05201724300694],[48.271667572610866,41.04263651806832],[48.3026005656871,41.03192894354288]]]]}},{"type":"Feature","properties":{"kind":"district","id":"uyezd-1897-578","name":"Ленкоранский","provinceId":"gubernia-1897-86"},"geometry":{"type":"MultiPolygon","coordinates":[[[[48.746805032011366,39.21303201367395],[48.734924237256166,39.22845414265706],[48.69566313065961,39.245110369697606],[48.6813863646248,39.29269958981421],[48.66473013758417,39.33790934892383],[48.680196634121884,39.36527315049168],[48.680196634121884,39.384308838538324],[48.69566313065961,39.4152418316135],[48.70518097468285,39.42000075362649],[48.71945774071844,39.43427751966014],[48.71350908820396,39.44736455519247],[48.699232322168356,39.459261860221886],[48.67186852060158,39.47115916525033],[48.65878148506968,39.45688239921579],[48.646884180040715,39.464020782233106],[48.63022795299928,39.460451590724006],[48.601674420929584,39.475918087262436],[48.59215657690643,39.48067700927365],[48.539808434777896,39.48305647027975],[48.48151164013497,39.45688239921579],[48.441060803036294,39.44617482469036],[48.40417915744557,39.42951859764981],[48.367297511855654,39.39858560457286],[48.33369147012597,39.39522308932192],[48.314932859453705,39.37721482307553],[48.285189596881,39.37602509257243],[48.25068741229619,39.36531751804611],[48.23879010726722,39.37007644005733],[48.20309819217968,39.35104075201069],[48.160267894074465,39.33200506396405],[48.15550897206316,39.315348836924386],[48.14242193653065,39.307020723403184],[48.13290409250733,39.28917476585954],[48.13885274502216,39.2808466523402],[48.13885274502216,39.26300069479568],[48.1448013975363,39.24039581524082],[48.14599112803984,39.226119049205394],[48.162647355080026,39.20946282216476],[48.19239061765353,39.20589363065663],[48.22451334123197,39.18685794260999],[48.23284145475246,39.165442793557254],[48.24592849028417,39.155924949533045],[48.247118220787,39.1392687224925],[48.25663606481112,39.1380789919894],[48.268533369840014,39.12380222595398],[48.28756905788656,39.12499195645707],[48.31612258995652,39.095248693884905],[48.314932859453705,39.073833544831366],[48.314932859453705,39.05717731779162],[48.3232609729742,39.03814162974498],[48.32207124247137,39.01553675019021],[48.28994851889222,38.99055240962748],[48.24592849028417,38.978655104598154],[48.19239061765353,38.98341402661114],[48.14123220602791,38.97984483510116],[48.06865864534991,38.95961941655151],[48.04486403529205,38.920358309956995],[48.00322346768958,38.93463507599065],[47.96515209159638,38.86919989833129],[48.08174568088242,38.81685175620169],[48.157888433068806,38.78710849362962],[48.205477653185326,38.75498577005055],[48.241169568272866,38.74784738703323],[48.23284145475246,38.71453493295117],[48.23641064626085,38.688360861888185],[48.278051213863236,38.65504840780612],[48.29470744090423,38.63006406724526],[48.35300423554689,38.59913107416919],[48.39107561164009,38.606269457187395],[48.42676752672763,38.62411541473104],[48.44104429276226,38.62411541473104],[48.455321058797594,38.612218109701615],[48.457700519803254,38.59080296064799],[48.48625405187313,38.56938781159534],[48.52075623645793,38.55273158455471],[48.59095033613028,38.47896829337512],[48.623073059708545,38.444466108790934],[48.66471362731022,38.41472284621699],[48.68374931535766,38.41472284621699],[48.7146823084331,38.43256880376063],[48.75275368452638,38.446845569796054],[48.765840720058094,38.467070988345704],[48.7955839826316,38.48134775438122],[48.83008616721561,38.480158023878126],[48.87053700431517,38.475399101865136],[48.893141883870285,38.48372721538634],[48.89433161437303,38.531316435502056],[48.88005484833849,38.55868023706991],[48.884813770349794,38.59318242165497],[48.884813770349794,38.64434083328068],[48.887193231355354,38.677653287360975],[48.878865117835744,38.703827358424846],[48.88124457884132,38.72048358546725],[48.86696781280598,38.770452266588094],[48.85150131626861,38.79900579865894],[48.846742394256594,38.8239901392198],[48.83246562822205,38.839456635758324],[48.80629155715775,38.9548604945403],[48.79796344363726,38.9643783385645],[48.8003429046429,38.97032699107872],[48.814619670678155,38.97389618258694],[48.81818886218663,38.98460375711415],[48.80748128766048,38.994121601136584],[48.812240209671785,39.02981351622386],[48.82413751470148,39.03338270773385],[48.82770670620995,39.04528001276229],[48.849121855262254,39.05003893477351],[48.84793212475934,39.077402736341355],[48.825327245204306,39.09048977187378],[48.813429940174615,39.11071519042342],[48.80153263514565,39.11309465142766],[48.78606613860836,39.09881788539312],[48.77297910307577,39.11071519042342],[48.74323584050306,39.19042713411812],[48.746805032011366,39.21303201367395]]]]}},{"type":"Feature","properties":{"kind":"district","id":"uyezd-1897-781","name":"Шемахинский","provinceId":"gubernia-1897-86"},"geometry":{"type":"MultiPolygon","coordinates":[[[[48.99013260409349,40.809978108609386],[48.9845805284136,40.84276179357946],[48.9703037623788,40.87250505615066],[48.8917815491864,40.90462777972972],[48.86917666963056,40.89273047470128],[48.823966910520234,40.90105858822062],[48.74782415833375,40.8974893967124],[48.655025179105834,40.928422389789354],[48.57888242691936,40.94864780833811],[48.51344724925893,40.96292457437265],[48.45871964612546,40.96530403537875],[48.408750965002845,40.98552945392928],[48.368300127903375,40.98790891493449],[48.329039021307615,41.02003163851258],[48.3026005656871,41.03192894354288],[48.27880595562907,41.010513794489256],[48.25382161506732,40.995047297950826],[48.25501134557023,40.95935538286355],[48.30498002669293,40.933181311799686],[48.34900005530106,40.923663467776365],[48.3799330483765,40.91533535425693],[48.391830353405474,40.90462777972972],[48.383502239885246,40.88321263067796],[48.39302008390839,40.86179748162433],[48.381122778879416,40.839192602069474],[48.365656282341696,40.82967475804615],[48.34900005530106,40.80825960899439],[48.329964367253886,40.80231095647919],[48.3026005656871,40.75472173636258],[48.303790296190016,40.7273579347966],[48.27761622512615,40.689286558702435],[48.26095999808481,40.65716383512337],[48.263339459090545,40.629800033557295],[48.33115409775671,40.62623084204829],[48.36922547385044,40.60124650148644],[48.410866041452024,40.57983135243379],[48.4227633464818,40.550088089860736],[48.42514280748763,40.51320644427143],[48.432281190504945,40.49536048672691],[48.41800442447014,40.47394533767515],[48.42514280748763,40.43944315308998],[48.426332537990454,40.41445881253001],[48.410866041452024,40.374007975429734],[48.428711998996285,40.34545444335977],[48.454886070060155,40.310952258774705],[48.45726553106589,40.28596791821472],[48.467973105592044,40.26336303865898],[48.47273202760361,40.213394357537254],[48.49652663766245,40.18484082546729],[48.50247529017694,40.16104621540766],[48.501285559674024,40.10750834277772],[48.501285559674024,40.074195888694675],[48.500816553602355,40.05660816100756],[48.52256851644836,40.06639654428733],[48.54517339600349,40.07948357981877],[48.55826043153537,40.106847381385734],[48.57491665857681,40.115175494906936],[48.595142077126184,40.09732953736241],[48.6308339922132,40.09138088484907],[48.65224914126621,40.090191154345185],[48.66295671579235,40.09495007635729],[48.67961294283299,40.07948357981877],[48.69983836138228,40.07710411881454],[48.69983836138228,40.0580684307679],[48.714115127417884,40.044981395234586],[48.727202162949766,40.02237651567884],[48.74742758149915,40.037843012217365],[48.75932488652812,40.030704629200045],[48.803344915136336,40.048550586744575],[48.848554674246586,40.05687870026401],[48.90447200788377,40.06163762227611],[48.95919961101805,40.06282735277911],[49.01749640566098,40.06282735277911],[49.067465086783685,40.06282735277911],[49.09482888835038,40.05449923925791],[49.11505430689975,40.04736085624069],[49.141228377964424,40.036653281714266],[49.15550514399922,40.00928948014828],[49.17216137103986,39.99620244461498],[49.187627867577575,40.00334082763318],[49.218560860653724,39.99620244461498],[49.237596548700196,39.99025379210164],[49.25782196724957,40.027135437690944],[49.264960350266975,40.05093004774881],[49.28280630781124,40.06044789177213],[49.2875652298228,40.08781169333909],[49.25782196724957,40.104467920381495],[49.270909002781465,40.13183172194748],[49.28875496032572,40.16038525401744],[49.30303172636053,40.188938786088386],[49.32444687541282,40.20440528262593],[49.3660874430152,40.22344097067168],[49.37679501754127,40.267460999280075],[49.391071783576066,40.273409651795184],[49.4005896275993,40.29720426185216],[49.38155393955293,40.344793481969646],[49.377984748044184,40.37215728353661],[49.38988205307315,40.40071081560657],[49.386312861564505,40.41141839013201],[49.39583070558773,40.434023269687756],[49.43390208168137,40.46852545427282],[49.45888642224223,40.493509794834665],[49.4707837272713,40.51492494388643],[49.45412750023067,40.52801197941796],[49.42319450715523,40.55418605048183],[49.42557396816106,40.5946368875821],[49.41129720212625,40.60296500110144],[49.40177935810222,40.60296500110144],[49.39702043609064,40.59582661808422],[49.40177935810222,40.583929313054796],[49.3577593294948,40.572032008026355],[49.31849822289824,40.55894497249482],[49.289944690828634,40.583929313054796],[49.260201428255314,40.58511904355878],[49.23878627920311,40.60296500110144],[49.22213005216247,40.61248284512476],[49.199525172606556,40.61605203663386],[49.16264352701654,40.643415838201705],[49.12457215092299,40.66958990926567],[49.08412131382431,40.70171263284464],[49.04129101571901,40.74454293094914],[48.99013260409349,40.809978108609386]]]]}}]}
