{"type":"FeatureCollection","features":[{"type":"Feature","properties":{"kind":"province","id":"gubernia-1897-17","name":"Харьковская губерния"},"geometry":{"type":"MultiPolygon","coordinates":[[[[39.299057431849945,48.7736574806086],[39.27526282179183,48.78436505513493],[39.26931416927707,48.79507262966125],[39.271693630282726,48.81172885670188],[39.26098605575649,48.846231041286956],[39.265744977767966,48.88192295637414],[39.28002174380322,48.89263053090056],[39.307385545370444,48.88073322587114],[39.33118015542857,48.87716403436302],[39.39661533308917,48.9080970274381],[39.44896347521699,48.930701906993846],[39.47037862426937,48.96282463057193],[39.491793773321845,48.98661924062979],[39.51201919187185,48.991378162642874],[39.54057272394146,48.985429510126785],[39.559608411988194,48.98780897113279],[39.614336015122554,49.01993169471186],[39.66073550473642,49.05324414879392],[39.751155022957704,49.050864687787026],[39.801123704080496,49.06871064533156],[39.85466157671168,49.06871064533156],[39.90344052733049,49.066331184326344],[39.95578866945911,49.131766361985704],[39.98077301002051,49.15080205003235],[39.99267031504922,49.155560972044455],[39.995049776054955,49.17578639059321],[40.03669034365734,49.19601180914286],[40.05215684019507,49.20909884467528],[40.085469294276955,49.20909884467528],[40.108074173831895,49.24241129875735],[40.21396018859153,49.25787779529489],[40.21396018859153,49.27096483082642],[40.20563207507112,49.28524159686185],[40.18064773451043,49.29475944088517],[40.17350935149241,49.3566254270372],[40.13186878389082,49.391127611621386],[40.08784875528269,49.41016329966901],[40.05691576220654,49.45061413676652],[40.039069804663086,49.456562789281634],[40.0140854641016,49.48511632135248],[40.024793038627834,49.52675688895398],[40.04501845717784,49.538654193983305],[40.09141794679171,49.55768988202907],[40.143766088919534,49.574346109069694],[40.1164022873523,49.59814071912933],[40.108074173831895,49.63026344270751],[40.09379740779745,49.612417485163874],[40.075951450253186,49.60646883264867],[39.99980869806724,49.60884829365477],[39.941511903423866,49.610038024158754],[39.912958371354165,49.58148449208781],[39.88559456978703,49.56601799555027],[39.836815619167425,49.56363853454426],[39.77494963301584,49.57791530057969],[39.72855014340196,49.60527910214567],[39.69880688082979,49.613607215666875],[39.65240739121593,49.620745598683214],[39.60243871009305,49.696888350869784],[39.58221329154394,49.72782134394673],[39.58578248305214,49.74804676249637],[39.53938299343899,49.756374876015805],[39.44420455320551,49.775410564063336],[39.42159967364985,49.76946191154823],[39.388287219568674,49.74804676249637],[39.31809311989659,49.7551851455128],[39.26931416927707,49.771841372555215],[39.221724949160645,49.8099127486485],[39.216966027148445,49.83370735870538],[39.186033034073006,49.90033226686951],[39.17532545954677,49.91103984139593],[39.168187076529634,49.90390145837773],[39.16580761552309,49.89676307535953],[39.147961657979636,49.88843496184019],[39.136064352950925,49.88010684831898],[39.10275189886904,49.86939927379265],[39.07657782780508,49.83489708920936],[38.9813993875716,49.82418951468294],[38.91953340142001,49.81586140116174],[38.90525663538486,49.826568975688154],[38.907636096390505,49.8491738552439],[38.89454906085862,49.88010684831898],[38.858857145771694,49.88010684831898],[38.829113883198815,49.87653765681077],[38.76010951402921,49.90628091938285],[38.73393544296525,49.918178224412266],[38.720848407433365,49.932454990448576],[38.70062298888336,49.94197283447102],[38.682777031339896,49.96576744452887],[38.686346222849,49.98361340207251],[38.71014083290713,49.994320976598836],[38.67563864832276,50.014546395148486],[38.66374134329325,49.99313124609583],[38.65422349927029,49.98242367156942],[38.62804942820563,49.98361340207251],[38.61377266217117,49.99075178509062],[38.59592670462692,49.99194151559274],[38.57808074708355,49.988372324084615],[38.563803981048295,49.96933663603886],[38.54238883199582,49.96933663603886],[38.52454287445245,49.96814690553488],[38.46862554081481,49.97528528855308],[38.43174389522463,49.96695717503188],[38.41865685969273,49.98123394106828],[38.42698497321314,49.9871825935825],[38.39724171064026,49.996700437605824],[38.36511898706155,49.9859928630794],[38.37225737007887,49.94554202597922],[38.41032874617224,49.94554202597922],[38.46148715779759,49.915798763407146],[38.47457419332957,49.90509118888073],[38.46505634930661,49.86464035178144],[38.46624607980898,49.83489708920936],[38.457917966288576,49.826568975688154],[38.34727302951818,49.81705113166483],[38.33061680247651,49.812292209653656],[38.29611461789247,49.82062032317296],[38.269940546828074,49.842035472225696],[38.250904858781695,49.849173855242924],[38.2330589012378,49.85869169926722],[38.18903887263046,49.842035472225696],[38.14739830502817,49.8456046637348],[38.12479342547233,49.853932777255025],[38.08077339686492,49.85869169926722],[38.027235524233475,49.916988493910154],[38.00582037518109,49.9372139124598],[37.953472233053,50.001459359616064],[37.940385197521195,50.030012891687],[37.903503551930115,50.05261777124177],[37.86900136734593,50.06570480677419],[37.836878643766866,50.06808426777931],[37.795238076165546,50.084740494820835],[37.73448309002222,50.083641230778106],[37.705929557952615,50.11695368485928],[37.69522198342575,50.14550721692827],[37.66904791236189,50.15978398296379],[37.644063571800935,50.18357859302156],[37.626217614256674,50.22402943012183],[37.63097653626825,50.246634309677574],[37.62502788375376,50.290654338284185],[37.64049438029228,50.32872571437747],[37.577438663637594,50.320397600857156],[37.55721324508751,50.333484636390466],[37.51795213849175,50.334674366892585],[37.47393210988362,50.364417629465635],[37.463224535357476,50.396540353044614],[37.45845702295786,50.42624693279051],[37.45576836641796,50.44300007011315],[37.39410667814765,50.42732336970494],[37.37507099010039,50.44992824926069],[37.31796392596037,50.441600135741254],[37.29060012439359,50.41185687316829],[37.25014928729421,50.39520064612775],[37.18947303164616,50.372595766571024],[37.13117623700314,50.364267653051684],[37.04313617978768,50.35593953953048],[37.00665111103153,50.345672605932165],[36.9400262028682,50.33020610939364],[36.920990514821014,50.343293144926065],[36.906713748786125,50.33258557039876],[36.8626937201788,50.33258557039876],[36.84365803213162,50.31236015184912],[36.85912452867005,50.28856554179126],[36.85912452867005,50.25406335720797],[36.86626291168754,50.24216605217863],[36.84603749313736,50.23978659117165],[36.82105315257641,50.22907901664621],[36.77227420195671,50.201715215078366],[36.74015147837836,50.192197371055045],[36.669957378706364,50.21123305910169],[36.62831681110398,50.20052548457625],[36.58429678249665,50.196956293067146],[36.57120974696396,50.207663867593475],[36.56169190294073,50.24454551318465],[36.5521740589175,50.277857967265824],[36.53908702338552,50.29332446380248],[36.50815403031008,50.29927311631768],[36.489118342262906,50.31236015184912],[36.44747777466141,50.30998069084489],[36.43677020013526,50.30403203832978],[36.41892424259091,50.3171190738622],[36.38680151901256,50.3052217688319],[36.37014529197192,50.28856554179126],[36.36062744794798,50.31949853486821],[36.33802256839277,50.31830880436432],[36.32493553286088,50.3064114993349],[36.28805388727015,50.32068826537032],[36.25117224168023,50.34924179744118],[36.263069546709204,50.36827748548782],[36.2214289791069,50.36827748548782],[36.200013830054615,50.38493371252845],[36.16194245396177,50.39326182604779],[36.13933757440585,50.414676975100534],[36.11316350334198,50.421815358117755],[36.09055862378686,50.443230507171386],[35.97277530399799,50.44560996817562],[35.860940636723704,50.4420407766675],[35.82048979962504,50.436092124152296],[35.796695189566194,50.40040020906511],[35.782418423531304,50.37660559900725],[35.713414054362225,50.344482875428184],[35.62180480563802,50.35043152794329],[35.6206150751352,50.31949853486821],[35.58611289055021,50.32544718738154],[35.58016423803573,50.333775300902744],[35.57897450753281,50.37184667699603],[35.56231828049218,50.38374398202447],[35.55517989747477,50.431333202141076],[35.550420975463204,50.45512781219894],[35.53376474842257,50.46821484773136],[35.49093445031727,50.47416350024558],[35.46476037925349,50.494388918795224],[35.45405280472734,50.51104514583764],[35.438586308188825,50.51937325935707],[35.436206847182994,50.5348397558955],[35.43396318885205,50.53912310361805],[35.423119811651105,50.55982409645547],[35.410032776119216,50.56577274897067],[35.40408412360464,50.585998167521204],[35.41955062014236,50.591946820034536],[35.423119811651105,50.60860304707508],[35.405273854107556,50.6169311605954],[35.39337654907858,50.63477711814082],[35.410032776119216,50.649053884174464],[35.440965769194655,50.652623075683564],[35.44691442170985,50.69426364328595],[35.455242535230255,50.71805825334381],[35.471898762270804,50.727576097367134],[35.476657684282465,50.77516531748374],[35.42430954215402,50.78706262251396],[35.407653315113386,50.81561615458392],[35.41122250662204,50.84773887816121],[35.381479244049515,50.896517828780816],[35.40408412360464,50.902466481295924],[35.405218226202074,50.916458838341036],[35.37794228292891,50.91748811921934],[35.33392225432149,50.91629838871536],[35.32559414080117,50.87227836010884],[35.28752276470753,50.877037282119076],[35.24350273610012,50.88179620413216],[35.237554083584925,50.868709168599736],[35.166170253410016,50.88774485664638],[35.12096049429968,50.8948832396636],[35.10787345876779,50.88893458714849],[35.087648040217616,50.88893458714849],[35.08288911820604,50.911539466704234],[35.02459232356311,50.95674922581563],[35.02221286255728,50.98649248838771],[35.04124855060454,50.99957952392013],[35.07218154367989,50.99244114090291],[35.10906318927071,50.99957952392013],[35.130478338322916,51.013856289955555],[35.14832429586646,50.99957952392013],[35.168549714415754,51.00195898492623],[35.119770763796765,51.05787631856306],[35.122150224802596,51.086429850633024],[35.1364269908374,51.088809311639125],[35.15665240938678,51.086429850633024],[35.166170253410016,51.09832715566156],[35.151893487375204,51.11141419119487],[35.14832429586646,51.12807041823541],[35.1364269908374,51.145916375778164],[35.119770763796765,51.15424448929937],[35.11025291977362,51.16852125533391],[35.09478642323511,51.18398775187234],[35.09121723172636,51.19945424840899],[35.101924806252505,51.21373101444442],[35.08526857921187,51.23276670249194],[35.0519561251306,51.22443858897074],[35.03292043708414,51.20897209243231],[35.01507447953988,51.2101618229362],[35.00079771350507,51.22919751098284],[34.9751524115537,51.237922201336936],[34.92875292193975,51.21531732178119],[34.92756319143683,51.20342001675364],[34.90733777288754,51.20460974725576],[34.89187127634902,51.19985082524365],[34.85736909176484,51.19747136423844],[34.85617936126192,51.172487023676695],[34.84309232573003,51.170107562670594],[34.81215933265379,51.173676754179695],[34.79788256661899,51.15702052713915],[34.74315496348471,51.155830796636145],[34.69080682135698,51.19747136423844],[34.6646327502924,51.2272146268115],[34.674150594315634,51.246250314858145],[34.59324892011749,51.24744004536026],[34.584920806597175,51.21412759127908],[34.57064404056237,51.21769678278818],[34.54803916100645,51.26290654189869],[34.50282940189621,51.264096272400806],[34.480224522341,51.25695788938358],[34.44810179876193,51.264096272400806],[34.42906611071547,51.264096272400806],[34.39218446512474,51.27718330793323],[34.361251472049304,51.270044924916],[34.35768228054056,51.25695788938358],[34.32436982645849,51.24149139284604],[34.3041444079092,51.231973548822715],[34.23751949974595,51.21174813027298],[34.15780755605073,51.21055839977086],[34.11497725794543,51.171297293174575],[34.11616698844834,51.155830796636145],[34.11021833593385,51.14036430009763],[34.088803186881556,51.10467238501044],[34.05311127179384,51.088016157969804],[34.02574747022705,51.085636696963796],[34.016229626203824,51.06422154791194],[34.02336800922122,51.05827289539772],[34.01741935670674,51.04637559036742],[33.980537711116014,51.02852963282476],[33.92224091647379,51.020201519303555],[33.885359270883065,50.98688906522237],[33.880600348871404,50.97023283818183],[33.861564660825024,50.96785337717573],[33.85323654730471,50.97261229918695],[33.83895978126911,50.97618149069693],[33.829441937245875,50.98569933472025],[33.809216518696495,50.98688906522237],[33.76519649008837,50.97856095170117],[33.74140188003033,50.97737122119905],[33.71226387725342,50.970506596135195],[33.740817409323384,50.95266063859067],[33.80744231748655,50.91815845400649],[33.81696016151031,50.87056923389174],[33.81101150899529,50.85629246785534],[33.828857466539816,50.83011839679059],[33.88120560866702,50.80156486472151],[33.95139970833884,50.76706268013547],[33.97757377940404,50.75278591410279],[34.01683488599953,50.72185292102584],[34.06757468874461,50.705521666668545],[34.09791281656859,50.69570639001817],[34.1460969019371,50.66179907068544],[34.203798831328655,50.61376370163086],[34.227593441386695,50.57093340352547],[34.2394907464154,50.495980381842884],[34.24424966842733,50.45315008373652],[34.250198320941635,50.436493856696856],[34.282321044520344,50.428165743175654],[34.333479456145966,50.39128409758537],[34.3501356831866,50.37938679255693],[34.433416818391194,50.38652517557425],[34.48576496051893,50.38176625356205],[34.57975367024976,50.3591613740064],[34.64637857841301,50.350833260486965],[34.709434295067595,50.29253646584404],[34.7067611456409,50.26714154629459],[34.704675373055224,50.24732670673344],[34.692778068026165,50.21520398315447],[34.69991645104356,50.17356341555208],[34.737987827137204,50.16404557152876],[34.730849444119805,50.14857907499024],[34.695157529031995,50.15690718851144],[34.68682941551159,50.13549203945968],[34.69872672054065,50.12121527342337],[34.69634725953482,50.10455904638362],[34.679691032494276,50.09861039386851],[34.674932110482615,50.09028228034731],[34.68682941551159,50.08433362783397],[34.674932110482615,50.06291847878035],[34.668983457968125,50.042693060231585],[34.679691032494276,50.02127791117894],[34.677311571488445,50.0070011451444],[34.68682941551159,49.99391410961198],[34.683260224002936,49.97844761307355],[34.66303480545364,49.97130923005712],[34.64994776992175,49.96892976905023],[34.64637857841301,49.94394542849025],[34.641619656401346,49.92253027943751],[34.6523272309275,49.91420216591631],[34.69158833752325,49.91301243541419],[34.69158833752325,49.92490974044361],[34.688019146014504,49.94870435050147],[34.70348564255231,49.95227354200959],[34.720141869593746,49.93561731496905],[34.72371106110241,49.92015081843053],[34.7582132456865,49.888028094852444],[34.77724893373376,49.85828483227938],[34.839114919884636,49.84638752725006],[34.864099260446395,49.82973130020942],[34.898601445030486,49.815454534174975],[34.95570850917059,49.823782647694316],[34.99377988526423,49.805936690151654],[35.046128027391966,49.823782647694316],[35.091337786503004,49.84281833574096],[35.063973984936226,49.87256159831392],[35.0699226374508,49.88207944233724],[35.1187015880697,49.87494105932002],[35.121641722853866,49.87390336469033],[35.15915242516917,49.86066429328548],[35.19722380126281,49.84400806624494],[35.215069758806365,49.75358854802383],[35.2674179009348,49.70718905841022],[35.30905846853639,49.71194798042144],[35.35307849714452,49.65484091628063],[35.35668196072547,49.63442352577203],[35.36501007424579,49.6225262207427],[35.36263061323996,49.59873161068484],[35.38880468430382,49.60468026319995],[35.410219833356024,49.60468026319995],[35.453050131461325,49.58326511414632],[35.47803447202219,49.57493700062698],[35.52086477012749,49.607059724206046],[35.59581779181114,49.590403497163635],[35.696944884558576,49.615387837725386],[35.75286221819568,49.61300837671938],[35.84566119742377,49.59278295816964],[35.86469688547006,49.541624546543936],[35.892060687036846,49.533296433024596],[35.94916775117686,49.4857072129071],[35.97296236123489,49.47024071636956],[36.01460292883728,49.46548179435834],[36.02650023386626,49.45715368083714],[36.045535921912716,49.46072287234624],[36.06933053197147,49.44882556731771],[36.05862295744541,49.40123634720021],[36.02531050336334,49.37863146764536],[36.03125915587792,49.32033467300243],[36.05743322694249,49.3131962899852],[36.06338187945698,49.27869410540004],[36.05029484392429,49.2703659918807],[36.05148457442721,49.19779243120323],[36.05624349643958,49.16804916862929],[36.04196673040397,49.16923889913327],[36.03601807788949,49.15734159410296],[36.03601807788949,49.141875097564444],[36.03125915587792,49.13235725354112],[36.038397538895225,49.12045994851357],[36.02650023386626,49.11808048750756],[36.0086542763227,49.07762965040729],[35.988428857773414,49.078819380911185],[35.98248020525884,49.06097342336675],[35.98248020525884,49.02647123878345],[35.958685595200095,49.02528150827947],[35.93727044614779,49.02052258626826],[35.93370125463914,49.006245820233715],[35.95226679665568,49.012883778153046],[35.97606140671371,49.012883778153046],[35.97249221520505,48.9950378206095],[36.018891704818216,48.983140515581944],[36.03673766236247,48.992658359605265],[36.0391171233683,49.00455566463282],[36.05815281141477,49.00455566463282],[36.073619307952484,49.02002216117125],[36.07123984694665,49.03191946619969],[36.087896073987295,49.03905784921878],[36.10336257052581,49.05452434575543],[36.12239825857219,49.056903806761525],[36.1378647551099,49.07237030329996],[36.14857232963605,49.071180572796955],[36.153331251647714,49.08069841681939],[36.168797748186144,49.07831895581418],[36.230663734337824,49.0937854523527],[36.237802117355315,49.10687248788512],[36.26992484093358,49.10806221838723],[36.26397618841909,49.12114925391868],[36.28896052898004,49.12233898442177],[36.28301187646555,49.15208224699563],[36.2508891528872,49.159220630012854],[36.28658106797421,49.173497396047395],[36.37581085569347,49.20443038912345],[36.39008762172827,49.19729200610525],[36.394846543739845,49.18658443157892],[36.386518430219525,49.168738474036175],[36.386518430219525,49.155651438502865],[36.3781903166993,49.144943863978405],[36.41745142329496,49.12947736743989],[36.44362549435964,49.13304655894899],[36.46504064341184,49.12233898442177],[36.48526606196113,49.13066709794289],[36.49835309749311,49.13066709794289],[36.501922289001854,49.11876979291267],[36.53642447358675,49.11639033190844],[36.54237312610124,49.0973546438618],[36.581634232697965,49.09854437436391],[36.60430315471598,49.09948207006713],[36.622149112260146,49.055462041458654],[36.653082105335585,48.984078211285166],[36.66854860187331,48.92816087764735],[36.682825367908464,48.910314920103716],[36.685204828914294,48.87105381350831],[36.66735887137084,48.84844893395257],[36.64237453080935,48.825844054396825],[36.6566512968446,48.813946749367496],[36.67806644589699,48.81156728836228],[36.713758360984706,48.79491106132174],[36.76253731160432,48.77825483428022],[36.735173510037086,48.743752649695146],[36.70543024746421,48.70449154309877],[36.728589954632426,48.6975436309494],[36.72922485752234,48.69735316008243],[36.76491677261006,48.68664558555611],[36.78633192166244,48.69140450756733],[36.78633192166244,48.69973262108853],[36.81369572322967,48.70092235159065],[36.82797248926411,48.69735316008243],[36.847008177310755,48.70568127360186],[36.89816658893611,48.71044019561485],[36.92077146849185,48.69616342957854],[36.95408392257295,48.69021477706432],[36.993345029169674,48.69378396857245],[37.036175327274535,48.68545585505311],[37.0623493983384,48.679507202537906],[37.080195355882665,48.64619474845584],[37.12064619298178,48.62240013839896],[37.13611268951949,48.600984989346216],[37.14800999454812,48.59503633683111],[37.16942514360059,48.53792927269207],[37.17180460460713,48.516514123638444],[37.20511705868822,48.520083315147545],[37.238429512770196,48.53911900319419],[37.28244954137753,48.55458549973173],[37.37286905959961,48.56291361325293],[37.385956095131505,48.57124172677227],[37.40261232217249,48.566482804761144],[37.41450962720111,48.581949301298685],[37.42878639323636,48.585518492808674],[37.43830423726013,48.57838010979047],[37.45852965580933,48.57362118777925],[37.464478308324075,48.581949301298685],[37.465668038826465,48.61645148588376],[37.48946264888548,48.62240013839896],[37.498980492908444,48.64738447895982],[37.51206752844042,48.668799628011584],[37.521585372464095,48.68545585505311],[37.5334826774928,48.68664558555611],[37.54062106051083,48.70211208209365],[37.53943133000756,48.70925046511185],[37.52753402497805,48.71400938712307],[37.52991348598459,48.728286153157605],[37.52872375548132,48.74137318868905],[37.55489782654527,48.740183458186934],[37.55608755704854,48.71876830913428],[37.588210280627166,48.69735316008243],[37.62866111772637,48.678317472034905],[37.67625033784262,48.666420167005484],[37.690527103877955,48.67355855002457],[37.716701174941825,48.67355855002457],[37.73454713248529,48.665230436503364],[37.77856716109332,48.658092053485255],[37.79165419662539,48.660471514492244],[37.79165419662539,48.669989358514584],[37.80831042366629,48.679507202537906],[37.81663853718679,48.70211208209365],[37.84400233875401,48.71757857863119],[37.87255587082362,48.73423480567271],[37.91776562993422,48.73899372768393],[37.964165119548085,48.749701302210255],[38.01056460916196,48.75683968522846],[38.02841056670542,48.748511571708136],[38.046256524249586,48.750891032713255],[38.052205176763636,48.76159860723968],[38.04387706324385,48.772306181766],[38.06172302078731,48.804428905344174],[38.053394907266906,48.813946749367496],[38.06172302078731,48.824654323893824],[38.07599978682256,48.83893108992836],[38.07599978682256,48.85082839495769],[38.06886140380453,48.86272569998711],[38.06529221229632,48.89246896256096],[38.046256524249586,48.903176537085514],[38.02960029720869,48.92221222513304],[38.03197975821443,48.93529926066546],[38.05577436827255,48.9412479131788],[38.074810056319286,48.94005818267668],[38.09384574436602,48.92935060815124],[38.14262469498563,48.93529926066546],[38.17950634057573,48.93173006915548],[38.20568041163969,48.93529926066546],[38.22352636918386,48.9412479131788],[38.22114690817811,48.94481710468878],[38.209249603148606,48.94719656569488],[38.21043933365188,48.9567144097182],[38.22947502169861,48.96147333172942],[38.26159774527723,48.973370636758744],[38.25564909276248,48.98526794178728],[38.242562057230586,48.99954470782271],[38.24494151823633,49.01263174335415],[38.25447405029044,49.02944953873616],[38.28897623487481,49.02825980823306],[38.33299626348293,49.00803438968253],[38.36630871756411,48.97829112711045],[38.39605198013699,48.94259921202317],[38.44958985276888,48.90571756643298],[38.47933311534105,48.89263053090056],[38.494799611879486,48.87359484285294],[38.54595802350484,48.837902927765754],[38.5757012860778,48.82481589223333],[38.58759859110651,48.80934939569579],[38.607824009656426,48.803400743180674],[38.62329050619414,48.78436505513493],[38.66374134329325,48.77484721111071],[38.689915414357216,48.760570445076176],[38.74345328698821,48.760570445076176],[38.75416086151445,48.768898558597385],[38.76248897503495,48.77484721111071],[38.794611698613565,48.76532936708739],[38.833872805210305,48.753432062059844],[38.858857145771694,48.75581152306407],[38.90287717437903,48.74867314004764],[38.93143070644952,48.74986287054976],[38.945707472483974,48.73915529602344],[38.97188154354863,48.74629367904164],[38.98615830958309,48.72844772149711],[38.983778848577344,48.71417095546258],[39.00043507561824,48.702273650433156],[39.01352211115022,48.66063308283175],[39.03731672120844,48.651115238807535],[39.058731870260914,48.65349469981355],[39.0837162108223,48.65944335232874],[39.11583893440101,48.65944335232874],[39.132495161441916,48.67253038786107],[39.147961657979636,48.674909848866285],[39.184843303569735,48.71179149445648],[39.20625845262221,48.707032572444376],[39.23481198469262,48.7165504164677],[39.24195036770985,48.74391421803652],[39.2597963252541,48.73796556552043],[39.265744977767966,48.75224233155586],[39.28002174380322,48.75581152306407],[39.299057431849945,48.7736574806086]]]]}},{"type":"Feature","properties":{"kind":"district","id":"uyezd-1897-329","name":"Лебединский","provinceId":"gubernia-1897-17"},"geometry":{"type":"MultiPolygon","coordinates":[[[[34.70676114564081,50.26714154629459],[34.71982425208172,50.28060680504767],[34.73053182660796,50.28179653555067],[34.74956751465416,50.29369384058009],[34.75551616716926,50.30678087611339],[34.74837778415177,50.332954947176376],[34.7471880536485,50.3472317132118],[34.76979293320424,50.36864686226454],[34.7995361957766,50.391251741820284],[34.830469188852916,50.403149046848725],[34.84712541589356,50.404338777351725],[34.84712541589356,50.415046351877166],[34.815002692314756,50.42337446539749],[34.80667457879409,50.50784533110437],[34.83998703287607,50.5221220971398],[34.82927945834974,50.5328296716671],[34.817382153320324,50.52688101915101],[34.79715673477103,50.53996805468432],[34.77455185521538,50.5340194021701],[34.75789562817474,50.543537246192535],[34.75670589767165,50.57328050876551],[34.80667457879409,50.60302377133847],[34.84950487689903,50.623249189888114],[34.87805840896908,50.639905416928755],[34.89590436651281,50.65537191346718],[34.911370863050976,50.67797679302292],[34.90740835871459,50.68899064019205],[34.84792183356874,50.73420039930354],[34.813419648984556,50.73539012980565],[34.79200449993235,50.722303094275006],[34.74084608830673,50.722303094275006],[34.713482286739236,50.71635444175901],[34.68135956316088,50.72468255528022],[34.669462258131915,50.75323608735018],[34.65042657008544,50.76870258388861],[34.61116546348889,50.78892800243737],[34.58261193141928,50.83175830054187],[34.554058399348875,50.83770695305698],[34.52312540627335,50.83413776154886],[34.48148483867105,50.87577832914938],[34.439844271068665,50.89362428669391],[34.37440909340904,50.92098808826175],[34.33157879530383,50.916229166248755],[34.30421499373705,50.91384970524266],[34.28042038367821,50.93526485429629],[34.25305658211152,50.94240323731351],[34.23164143305931,50.96500811686837],[34.25543604311726,50.96738757787536],[34.28161011418113,50.97452596089169],[34.25305658211152,50.98999245743012],[34.213795475514964,51.00783841497376],[34.14360137584297,51.028063833522516],[34.11266838276753,51.08398116716121],[34.088803186881556,51.10467238501044],[34.05311127179384,51.088016157969804],[34.02574747022705,51.085636696963796],[34.016229626203824,51.06422154791194],[34.02336800922122,51.05827289539772],[34.01741935670674,51.04637559036742],[33.980537711116014,51.02852963282476],[33.92224091647379,51.020201519303555],[33.885359270883065,50.98688906522237],[33.880600348871404,50.97023283818183],[33.861564660825024,50.96785337717573],[33.85323654730471,50.97261229918695],[33.83895978126911,50.97618149069693],[33.829441937245875,50.98569933472025],[33.809216518696495,50.98688906522237],[33.76519649008837,50.97856095170117],[33.74140188003033,50.97737122119905],[33.71226387725346,50.97050659613524],[33.74081740932343,50.952660638590714],[33.807442317486505,50.918158454006516],[33.81696016151034,50.87056923389173],[33.81101150899525,50.85629246785538],[33.82885746653977,50.83011839679057],[33.88120560866702,50.80156486472151],[33.95139970833884,50.767062680135496],[33.977573779404054,50.75278591410279],[34.016834885999515,50.72185292102586],[34.06757468874461,50.705521666668545],[34.09791281656859,50.69570639001817],[34.1460969019371,50.66179907068544],[34.203798831328655,50.61376370163086],[34.227593441386695,50.57093340352547],[34.2394907464154,50.495980381842884],[34.24424966842733,50.45315008373652],[34.250198320941635,50.436493856696856],[34.282321044520344,50.428165743175654],[34.333479456145966,50.39128409758537],[34.3501356831866,50.37938679255693],[34.433416818391194,50.38652517557425],[34.48576496051893,50.38176625356205],[34.57975367024976,50.3591613740064],[34.64637857841301,50.350833260486965],[34.709434295067595,50.29253646584404],[34.70676114564081,50.26714154629459]]]]}},{"type":"Feature","properties":{"kind":"district","id":"uyezd-1897-331","name":"Ахтырский","provinceId":"gubernia-1897-17"},"geometry":{"type":"MultiPolygon","coordinates":[[[[35.10787345876779,50.88893458714849],[35.11204200521608,50.863881024120936],[35.10609335270151,50.82580964802765],[35.082298742643474,50.81153288199312],[35.08110901214056,50.79606638545468],[35.11204200521608,50.781789619420145],[35.12869823225672,50.75918473986529],[35.1346468847712,50.74252851282288],[35.100144700187016,50.73420039930354],[35.089437125660965,50.70802632823958],[35.0704014376137,50.69493929270716],[35.02043275649179,50.710405789245684],[34.99663814643296,50.69731875371326],[34.96570515335752,50.70802632823958],[34.90740835871459,50.68899064019205],[34.911370863050976,50.67797679302292],[34.89590436651281,50.65537191346718],[34.87805840896908,50.639905416928755],[34.84950487689903,50.623249189888114],[34.80667457879409,50.60302377133847],[34.75670589767165,50.57328050876551],[34.75789562817474,50.543537246192535],[34.77455185521538,50.5340194021701],[34.79715673477103,50.53996805468432],[34.817382153320324,50.52688101915101],[34.82927945834974,50.5328296716671],[34.83998703287607,50.5221220971398],[34.80667457879409,50.50784533110437],[34.815002692314756,50.42337446539749],[34.84712541589356,50.415046351877166],[34.84712541589356,50.404338777351725],[34.830469188852916,50.403149046848725],[34.7995361957766,50.391251741820284],[34.76979293320424,50.36864686226454],[34.7471880536485,50.3472317132118],[34.74837778415177,50.332954947176376],[34.75551616716926,50.30678087611339],[34.74956751465416,50.29369384058009],[34.73053182660796,50.28179653555067],[34.71982425208172,50.28060680504767],[34.70676114564081,50.26714154629459],[34.704675373055224,50.24732670673344],[34.692778068026165,50.21520398315447],[34.69991645104356,50.17356341555208],[34.737987827137204,50.16404557152876],[34.730849444119805,50.14857907499024],[34.695157529031995,50.15690718851144],[34.68682941551159,50.13549203945968],[34.69872672054065,50.12121527342337],[34.69634725953482,50.10455904638362],[34.679691032494276,50.09861039386851],[34.674932110482615,50.09028228034731],[34.68682941551159,50.08433362783397],[34.674932110482615,50.06291847878035],[34.668983457968125,50.042693060231585],[34.679691032494276,50.02127791117894],[34.677311571488445,50.0070011451444],[34.68682941551159,49.99391410961198],[34.683260224002936,49.97844761307355],[34.693650181017674,49.97246660479326],[34.74480859264241,49.97008714378717],[34.77574158571865,49.97127687429115],[34.79715673477094,49.97960498781049],[34.81976161432597,49.99388175384591],[34.84712541589356,49.99388175384591],[34.89709409701626,50.024814746920995],[34.96133954417287,50.06883477552948],[34.96847792719117,50.08073208055792],[34.9637190051787,50.093819116091225],[34.93635520361201,50.103336960113666],[34.925647629085866,50.11761372614909],[34.92207843757721,50.13070076168151],[34.93159628160035,50.143787797213044],[34.956580622161304,50.15211591073425],[34.98632388473463,50.16163375475659],[34.99108280674629,50.180669442803236],[35.035102835354415,50.18185917330722],[35.050569331892135,50.18899755632444],[35.058897445412455,50.19970513084988],[35.11719424005547,50.225879201913834],[35.15288615514248,50.24491488996048],[35.19214726173904,50.22825866291984],[35.18857807023038,50.249673811973466],[35.18857807023038,50.26514030851013],[35.16240399916572,50.27941707454555],[35.16240399916572,50.29607330158618],[35.1683526516802,50.318678181141834],[35.16954238218312,50.353180365727],[35.18738833972746,50.37697497578486],[35.1540758856454,50.39006201131728],[35.16597319067437,50.42575392640447],[35.18143968721289,50.43765123143389],[35.212372680288325,50.460256110987764],[35.22308025481448,50.45787664998353],[35.25758243939946,50.46858422450897],[35.26591055291969,50.47929179903441],[35.28732570197198,50.485240451549515],[35.298033276498046,50.50189667859015],[35.33491492208877,50.50189667859015],[35.376555489690354,50.49951721758406],[35.39678090824053,50.5268810191519],[35.41581659628691,50.5352091326731],[35.43396318885205,50.53912310361805],[35.423119811651105,50.55982409645547],[35.410032776119216,50.56577274897067],[35.40408412360464,50.585998167521204],[35.41955062014236,50.591946820034536],[35.423119811651105,50.60860304707508],[35.405273854107556,50.6169311605954],[35.39337654907858,50.63477711814082],[35.410032776119216,50.649053884174464],[35.440965769194655,50.652623075683564],[35.44691442170985,50.69426364328595],[35.455242535230255,50.71805825334381],[35.471898762270804,50.727576097367134],[35.476657684282465,50.77516531748374],[35.42430954215402,50.78706262251396],[35.407653315113386,50.81561615458392],[35.41122250662204,50.84773887816121],[35.381479244049515,50.896517828780816],[35.40408412360464,50.902466481295924],[35.405218226202074,50.916458838340944],[35.37794228292891,50.91748811921934],[35.33392225432149,50.91629838871536],[35.32559414080117,50.87227836010884],[35.28752276470753,50.877037282119076],[35.24350273610012,50.88179620413216],[35.237554083584925,50.868709168599736],[35.166170253410016,50.88774485664638],[35.12096049429968,50.8948832396636],[35.10787345876779,50.88893458714849]]]]}},{"type":"Feature","properties":{"kind":"district","id":"uyezd-1897-332","name":"Богодуховский","provinceId":"gubernia-1897-17"},"geometry":{"type":"MultiPolygon","coordinates":[[[[34.6523272309275,49.91420216591631],[34.69158833752325,49.91301243541419],[34.69158833752325,49.92490974044361],[34.688019146014504,49.94870435050147],[34.70348564255231,49.95227354200959],[34.720141869593746,49.93561731496905],[34.72371106110241,49.92015081843053],[34.7582132456865,49.888028094852444],[34.77724893373376,49.85828483227938],[34.839114919884636,49.84638752725006],[34.864099260446395,49.82973130020942],[34.898601445030486,49.815454534174975],[34.95570850917059,49.823782647694316],[34.99377988526423,49.805936690151654],[35.046128027391966,49.823782647694316],[35.091337786503004,49.84281833574096],[35.063973984936226,49.87256159831392],[35.0699226374508,49.88207944233724],[35.1187015880697,49.87494105932002],[35.121641722853866,49.87390336469033],[35.13622992810185,49.89870331361181],[35.15526561614823,49.921308193167555],[35.18857807023038,49.927256845681775],[35.24449540386668,49.95937956926084],[35.34205330510626,49.991502292839904],[35.388452794720216,49.97722552680537],[35.44199066735078,49.97365633529715],[35.51694368903434,49.98436390982259],[35.58118913619185,49.991502292839904],[35.51337449752569,50.02243528591499],[35.565722639654126,50.04979908748284],[35.59784536323328,50.03195312993831],[35.679936767934336,50.04860935698072],[35.6977827254778,50.0795423500558],[35.72633625754741,50.11047534313187],[35.746561676097585,50.165202946264806],[35.77154601665845,50.19494620883866],[35.7822535911846,50.21636135789051],[35.806048201243435,50.2211202799035],[35.82270442828407,50.23063812392682],[35.832222272307305,50.246104620463484],[35.83817092482179,50.30202195410129],[35.85839634337108,50.322247372650935],[35.84411957733627,50.3448522522058],[35.84411957733627,50.36983659276754],[35.86434499588566,50.40076958584272],[35.860940636723704,50.4420407766675],[35.82048979962504,50.436092124152296],[35.796695189566194,50.40040020906511],[35.782418423531304,50.37660559900725],[35.713414054362225,50.344482875428184],[35.62180480563802,50.35043152794329],[35.6206150751352,50.31949853486821],[35.58611289055021,50.32544718738154],[35.58016423803573,50.333775300902744],[35.57897450753281,50.37184667699603],[35.56231828049218,50.38374398202447],[35.55517989747477,50.431333202141076],[35.550420975463204,50.45512781219894],[35.53376474842257,50.46821484773136],[35.49093445031727,50.47416350024558],[35.46476037925349,50.494388918795224],[35.45405280472734,50.51104514583764],[35.438586308188825,50.51937325935707],[35.436206847182994,50.5348397558955],[35.43396318885205,50.53912310361805],[35.41581659628691,50.5352091326731],[35.39678090824053,50.5268810191519],[35.376555489690354,50.49951721758406],[35.33491492208877,50.50189667859015],[35.298033276498046,50.50189667859015],[35.28732570197198,50.485240451549515],[35.26591055291969,50.47929179903441],[35.25758243939946,50.46858422450897],[35.22308025481448,50.45787664998353],[35.212372680288325,50.460256110987764],[35.18143968721289,50.43765123143389],[35.16597319067437,50.42575392640447],[35.1540758856454,50.39006201131728],[35.18738833972746,50.37697497578486],[35.16954238218312,50.353180365727],[35.1683526516802,50.318678181141834],[35.16240399916572,50.29607330158618],[35.16240399916572,50.27941707454555],[35.18857807023038,50.26514030851013],[35.18857807023038,50.249673811973466],[35.19214726173904,50.22825866291984],[35.15288615514248,50.24491488996048],[35.11719424005547,50.225879201913834],[35.058897445412455,50.19970513084988],[35.050569331892135,50.18899755632444],[35.035102835354415,50.18185917330722],[34.99108280674629,50.180669442803236],[34.98632388473463,50.16163375475659],[34.956580622161304,50.15211591073425],[34.93159628160035,50.143787797213044],[34.92207843757721,50.13070076168151],[34.925647629085866,50.11761372614909],[34.93635520361201,50.103336960113666],[34.9637190051787,50.093819116091225],[34.96847792719117,50.08073208055792],[34.96133954417287,50.06883477552948],[34.89709409701626,50.024814746920995],[34.84712541589356,49.99388175384591],[34.81976161432597,49.99388175384591],[34.79715673477094,49.97960498781049],[34.77574158571865,49.97127687429115],[34.74480859264241,49.97008714378717],[34.693650181017674,49.97246660479326],[34.683260224002936,49.97844761307355],[34.66303480545364,49.97130923005712],[34.64994776992175,49.96892976905023],[34.64637857841301,49.94394542849025],[34.641619656401346,49.92253027943751],[34.6523272309275,49.91420216591631]]]]}},{"type":"Feature","properties":{"kind":"district","id":"uyezd-1897-333","name":"Валковский","provinceId":"gubernia-1897-17"},"geometry":{"type":"MultiPolygon","coordinates":[[[[35.845661197423595,49.59278295816964],[35.86541646994225,49.601800377097824],[35.94988733564985,49.63035390916779],[35.958215449169714,49.64225121419534],[35.958215449169714,49.660097171739864],[35.97606140671344,49.69697881733006],[35.965353832187205,49.70054800883827],[35.965353832187205,49.710065852862485],[35.977251137216626,49.72553234940003],[35.99390736425717,49.75408588146999],[35.98676898123968,49.760034533984296],[35.974871676211066,49.77907022203094],[35.97606140671344,49.79453671856848],[35.98082032872537,49.81833132862812],[35.98319978973093,49.84331566918809],[35.97606140671344,49.86592054874383],[35.96416410168483,49.86592054874383],[35.95107706615222,49.88971515880258],[35.935610569614866,49.8920946198077],[35.92847218659728,49.914699499363444],[35.922523534082174,49.92302761288376],[35.920144073076614,49.939683839925195],[35.94155922212909,49.95634006696494],[35.977251137216626,49.96347844998403],[35.999856016772284,49.97537575501247],[36.01651224381283,49.9908422515509],[36.006994399789775,50.000360095573335],[35.965353832187205,50.003929287082435],[35.917764612071046,50.00154982607634],[35.87969323597723,50.006308748087555],[35.83329374636354,50.00273955657943],[35.80592994479667,50.00273955657943],[35.783325065241016,50.00749847859065],[35.791653178761685,50.030103358146306],[35.79046344825851,50.03843147166662],[35.7642893771949,50.04556985468482],[35.71907961808431,50.04319039367783],[35.697664469031835,50.04438012418084],[35.679936767934336,50.04860935698072],[35.59784536323328,50.03195312993831],[35.565722639654126,50.04979908748284],[35.51337449752569,50.02243528591499],[35.58118913619185,49.991502292839904],[35.51694368903434,49.98436390982259],[35.44199066735078,49.97365633529715],[35.388452794720216,49.97722552680537],[35.34205330510626,49.991502292839904],[35.24449540386668,49.95937956926084],[35.18857807023038,49.927256845681775],[35.15526561614823,49.921308193167555],[35.13622992810185,49.89870331361181],[35.121641722853866,49.87390336469033],[35.15915242516917,49.86066429328548],[35.19722380126281,49.84400806624494],[35.215069758806365,49.75358854802383],[35.2674179009348,49.70718905841022],[35.30905846853639,49.71194798042144],[35.35307849714452,49.65484091628063],[35.35668196072547,49.63442352577203],[35.36501007424579,49.6225262207427],[35.36263061323996,49.59873161068484],[35.38880468430382,49.60468026319995],[35.410219833356024,49.60468026319995],[35.453050131461325,49.58326511414632],[35.47803447202219,49.57493700062698],[35.52086477012749,49.607059724206046],[35.59581779181114,49.590403497163635],[35.696944884558576,49.615387837725386],[35.75286221819568,49.61300837671938],[35.845661197423595,49.59278295816964]]]]}},{"type":"Feature","properties":{"kind":"district","id":"uyezd-1897-334","name":"Харьковский","provinceId":"gubernia-1897-17"},"geometry":{"type":"MultiPolygon","coordinates":[[[[35.679936767934336,50.04860935698072],[35.697664469031835,50.04438012418084],[35.71907961808431,50.04319039367783],[35.7642893771949,50.04556985468482],[35.79046344825851,50.03843147166662],[35.791653178761685,50.030103358146306],[35.783325065241016,50.00749847859065],[35.80592994479667,50.00273955657943],[35.83329374636354,50.00273955657943],[35.87969323597723,50.006308748087555],[35.917764612071046,50.00154982607634],[35.965353832187205,50.003929287082435],[36.006994399789775,50.000360095573335],[36.01651224381283,49.9908422515509],[35.999856016772284,49.97537575501247],[35.977251137216626,49.96347844998403],[35.94155922212909,49.95634006696494],[35.920144073076614,49.939683839925195],[35.922523534082174,49.92302761288376],[35.92847218659728,49.914699499363444],[35.935610569614866,49.8920946198077],[35.95107706615222,49.88971515880258],[35.96416410168483,49.86592054874383],[35.97606140671344,49.86592054874383],[35.98319978973093,49.84331566918809],[35.98082032872537,49.81833132862812],[35.97606140671344,49.79453671856848],[35.974871676211066,49.77907022203094],[35.98676898123968,49.760034533984296],[35.99390736425717,49.75408588146999],[36.010563591297895,49.75408588146999],[36.040306853871215,49.73505019342335],[36.07242957744957,49.73505019342335],[36.10574203153155,49.76360372549331],[36.125967450080935,49.76717291700152],[36.14976206013897,49.761224264487296],[36.16046963466583,49.748137228954874],[36.17474640070063,49.74932695945877],[36.18426424472386,49.774311300018745],[36.2151972377993,49.78501887454516],[36.23185346484074,49.79810591007847],[36.22947400383491,49.81476213711902],[36.27111457143649,49.83498755566866],[36.29728864250036,49.84331566918809],[36.31037567803305,49.823090250638444],[36.33773947959983,49.80762375410179],[36.35201624563463,49.81357240661512],[36.37343139468764,49.8052442930957],[36.393656813237016,49.812382676113],[36.410313040277565,49.8052442930957],[36.432917919832775,49.81714159812422],[36.400795196254336,49.83498755566866],[36.40436438776308,49.849264321704176],[36.41864115379788,49.86235135723473],[36.425779536815284,49.88376650628747],[36.46147145190318,49.89209461980859],[36.474558487435075,49.90875084684922],[36.49478390598436,49.9373043789183],[36.504301750007684,49.96942710249736],[36.50906067201926,49.9896525210479],[36.54237312610124,50.01463686160787],[36.57449584967968,50.01820605311697],[36.60304938175008,50.04438012418084],[36.63993102734001,50.061036351221475],[36.6672948289075,50.065795273233576],[36.66491536790167,50.09910772731476],[36.64825914086033,50.10981530184198],[36.593531537726854,50.12528179838049],[36.59948019024134,50.14312775592315],[36.630413183316776,50.1633531744728],[36.59472126822968,50.18000940151343],[36.58429678249665,50.196956293067146],[36.57120974696396,50.207663867593475],[36.56169190294073,50.24454551318465],[36.5521740589175,50.277857967265824],[36.53908702338552,50.29332446380248],[36.50815403031008,50.29927311631768],[36.489118342262906,50.31236015184912],[36.44747777466141,50.30998069084489],[36.43677020013526,50.30403203832978],[36.41892424259091,50.3171190738622],[36.38680151901256,50.3052217688319],[36.37014529197192,50.28856554179126],[36.36062744794798,50.31949853486821],[36.33802256839277,50.31830880436432],[36.32493553286088,50.3064114993349],[36.28805388727015,50.32068826537032],[36.25117224168023,50.34924179744118],[36.263069546709204,50.36827748548782],[36.2214289791069,50.36827748548782],[36.200013830054615,50.38493371252845],[36.16194245396177,50.39326182604779],[36.13933757440585,50.414676975100534],[36.11316350334198,50.421815358117755],[36.09055862378686,50.443230507171386],[35.97277530399799,50.44560996817562],[35.860940636723704,50.4420407766675],[35.86434499588566,50.40076958584272],[35.84411957733627,50.36983659276754],[35.84411957733627,50.3448522522058],[35.85839634337108,50.322247372650935],[35.83817092482179,50.30202195410129],[35.832222272307305,50.246104620463484],[35.82270442828407,50.23063812392682],[35.806048201243435,50.2211202799035],[35.7822535911846,50.21636135789051],[35.77154601665845,50.19494620883866],[35.746561676097585,50.165202946264806],[35.72633625754741,50.11047534313187],[35.6977827254778,50.0795423500558],[35.679936767934336,50.04860935698072]]]]}},{"type":"Feature","properties":{"kind":"district","id":"uyezd-1897-336","name":"Волчанский","provinceId":"gubernia-1897-17"},"geometry":{"type":"MultiPolygon","coordinates":[[[[36.57449584967968,50.01820605311697],[36.6101877647674,49.9896525210479],[36.670864020416246,49.99322171255611],[36.6887099779598,49.951581144954616],[36.70893539650909,49.9456324924395],[36.70655593550326,49.90756111634524],[36.7232121625447,49.8885254282986],[36.748196503105646,49.89209461980859],[36.77556030467234,49.88495623679047],[36.77199111316368,49.857592435223516],[36.804113836742836,49.848074591200195],[36.82909817730379,49.836177286170866],[36.87430793641483,49.838556747176874],[36.89810254647287,49.826659442147545],[36.90762039049601,49.839746477680855],[36.90881012099892,49.849264321704176],[36.91832796502216,49.854023243715304],[36.942122575080994,49.838556747176874],[36.944502036086824,49.831418364159646],[36.92665607854248,49.83022863365753],[36.95758907161871,49.80762375410179],[36.97424529865935,49.757655072978196],[36.99566044771164,49.73386046292123],[37.0206447882733,49.72196315789101],[37.050388050845825,49.71958369688491],[37.06704427788647,49.72434261889702],[37.07299293040175,49.74099884593765],[37.08489023543081,49.765983186499405],[37.11582322850616,49.760034533985184],[37.12891026403814,49.77193183901451],[37.152704874096976,49.764793455995424],[37.247883314329925,49.81952105913023],[37.2669190023763,49.831418364159646],[37.30142118696128,49.82903890315355],[37.33830283255121,49.831418364159646],[37.37280501713619,49.84688486069808],[37.38470232216517,49.863541087738625],[37.3739947476391,49.873058931761946],[37.37756393914776,49.920648151877664],[37.439429925299436,49.93611464841618],[37.475121840386535,49.91469949936433],[37.50248564195403,49.90756111634524],[37.53936728754395,49.918268690871656],[37.558402975590425,49.96109898897794],[37.55126459257302,49.976565485514584],[37.55364405357885,49.99084225155001],[37.601233273695726,50.01820605311697],[37.6202689617421,50.03843147166751],[37.61907923123918,50.08483096128022],[37.67380683437346,50.083641230778106],[37.73448309002222,50.083641230778106],[37.705929557952615,50.11695368485928],[37.69522198342575,50.14550721692827],[37.66904791236189,50.15978398296379],[37.644063571800935,50.18357859302156],[37.626217614256674,50.22402943012183],[37.63097653626825,50.246634309677574],[37.62502788375376,50.290654338284185],[37.64049438029228,50.32872571437747],[37.577438663637594,50.320397600857156],[37.55721324508751,50.333484636390466],[37.51795213849175,50.334674366892585],[37.47393210988362,50.364417629465635],[37.463224535357476,50.396540353044614],[37.45845702295786,50.42624693279051],[37.45576836641796,50.44300007011315],[37.39410667814765,50.42732336970494],[37.37507099010039,50.44992824926069],[37.31796392596037,50.441600135741254],[37.29060012439359,50.41185687316829],[37.25014928729421,50.39520064612775],[37.18947303164616,50.372595766571024],[37.13117623700314,50.364267653051684],[37.04313617978768,50.35593953953048],[37.00665111103153,50.345672605932165],[36.9400262028682,50.33020610939364],[36.920990514821014,50.343293144926065],[36.906713748786125,50.33258557039876],[36.8626937201788,50.33258557039876],[36.84365803213162,50.31236015184912],[36.85912452867005,50.28856554179126],[36.85912452867005,50.25406335720797],[36.86626291168754,50.24216605217863],[36.84603749313736,50.23978659117165],[36.82105315257641,50.22907901664621],[36.77227420195671,50.201715215078366],[36.74015147837836,50.192197371055045],[36.669957378706364,50.21123305910169],[36.62831681110398,50.20052548457625],[36.58429678249665,50.196956293067146],[36.59472126822968,50.18000940151343],[36.630413183316776,50.1633531744728],[36.59948019024134,50.14312775592315],[36.593531537726854,50.12528179838049],[36.64825914086033,50.10981530184198],[36.66491536790167,50.09910772731476],[36.6672948289075,50.065795273233576],[36.63993102734001,50.061036351221475],[36.60304938175008,50.04438012418084],[36.57449584967968,50.01820605311697]]]]}},{"type":"Feature","properties":{"kind":"district","id":"uyezd-1897-338","name":"Старобельский","provinceId":"gubernia-1897-17"},"geometry":{"type":"MultiPolygon","coordinates":[[[[38.25447405029044,49.02944953873616],[38.28897623487481,49.02825980823306],[38.33299626348293,49.00803438968253],[38.36630871756411,48.97829112711045],[38.39605198013699,48.94259921202317],[38.44958985276888,48.90571756643298],[38.47933311534105,48.89263053090056],[38.494799611879486,48.87359484285294],[38.54595802350484,48.837902927765754],[38.5757012860778,48.82481589223333],[38.58759859110651,48.80934939569579],[38.607824009656426,48.803400743180674],[38.62329050619414,48.78436505513493],[38.66374134329325,48.77484721111071],[38.689915414357216,48.760570445076176],[38.74345328698821,48.760570445076176],[38.75416086151445,48.768898558597385],[38.76248897503495,48.77484721111071],[38.794611698613565,48.76532936708739],[38.833872805210305,48.753432062059844],[38.858857145771694,48.75581152306407],[38.90287717437903,48.74867314004764],[38.93143070644952,48.74986287054976],[38.945707472483974,48.73915529602344],[38.97188154354863,48.74629367904164],[38.98615830958309,48.72844772149711],[38.983778848577344,48.71417095546258],[39.00043507561824,48.702273650433156],[39.01352211115022,48.66063308283175],[39.03731672120844,48.651115238807535],[39.058731870260914,48.65349469981355],[39.0837162108223,48.65944335232874],[39.11583893440101,48.65944335232874],[39.132495161441916,48.67253038786107],[39.147961657979636,48.674909848866285],[39.184843303569735,48.71179149445648],[39.20625845262221,48.707032572444376],[39.23481198469262,48.7165504164677],[39.24195036770985,48.74391421803652],[39.2597963252541,48.73796556552043],[39.265744977767966,48.75224233155586],[39.28002174380322,48.75581152306407],[39.299057431849945,48.7736574806086],[39.27526282179183,48.78436505513493],[39.26931416927707,48.79507262966125],[39.271693630282726,48.81172885670188],[39.26098605575649,48.846231041286956],[39.265744977767966,48.88192295637414],[39.28002174380322,48.89263053090056],[39.307385545370444,48.88073322587114],[39.33118015542857,48.87716403436302],[39.39661533308917,48.9080970274381],[39.44896347521699,48.930701906993846],[39.47037862426937,48.96282463057193],[39.491793773321845,48.98661924062979],[39.51201919187185,48.991378162642874],[39.54057272394146,48.985429510126785],[39.559608411988194,48.98780897113279],[39.614336015122554,49.01993169471186],[39.66073550473642,49.05324414879392],[39.751155022957704,49.050864687787026],[39.801123704080496,49.06871064533156],[39.85466157671168,49.06871064533156],[39.90344052733049,49.066331184326344],[39.95578866945911,49.131766361985704],[39.98077301002051,49.15080205003235],[39.99267031504922,49.155560972044455],[39.995049776054955,49.17578639059321],[40.03669034365734,49.19601180914286],[40.05215684019507,49.20909884467528],[40.085469294276955,49.20909884467528],[40.108074173831895,49.24241129875735],[40.21396018859153,49.25787779529489],[40.21396018859153,49.27096483082642],[40.20563207507112,49.28524159686185],[40.18064773451043,49.29475944088517],[40.17350935149241,49.3566254270372],[40.13186878389082,49.391127611621386],[40.08784875528269,49.41016329966901],[40.05691576220654,49.45061413676652],[40.039069804663086,49.456562789281634],[40.0140854641016,49.48511632135248],[40.024793038627834,49.52675688895398],[40.04501845717784,49.538654193983305],[40.09141794679171,49.55768988202907],[40.143766088919534,49.574346109069694],[40.1164022873523,49.59814071912933],[40.108074173831895,49.63026344270751],[40.09379740779745,49.612417485163874],[40.075951450253186,49.60646883264867],[39.99980869806724,49.60884829365477],[39.941511903423866,49.610038024158754],[39.912958371354165,49.58148449208781],[39.88559456978703,49.56601799555027],[39.836815619167425,49.56363853454426],[39.77494963301584,49.57791530057969],[39.72855014340196,49.60527910214567],[39.69880688082979,49.613607215666875],[39.65240739121593,49.620745598683214],[39.60243871009305,49.696888350869784],[39.58221329154394,49.72782134394673],[39.58578248305214,49.74804676249637],[39.53938299343899,49.756374876015805],[39.44420455320551,49.775410564063336],[39.42159967364985,49.76946191154823],[39.388287219568674,49.74804676249637],[39.31809311989659,49.7551851455128],[39.26931416927707,49.771841372555215],[39.221724949160645,49.8099127486485],[39.216966027148445,49.83370735870538],[39.186033034073006,49.90033226686951],[39.17532545954677,49.91103984139593],[39.168187076529634,49.90390145837773],[39.16580761552309,49.89676307535953],[39.147961657979636,49.88843496184019],[39.136064352950925,49.88010684831898],[39.10275189886904,49.86939927379265],[39.07657782780508,49.83489708920936],[38.9813993875716,49.82418951468294],[38.91953340142001,49.81586140116174],[38.90525663538486,49.826568975688154],[38.907636096390505,49.8491738552439],[38.89454906085862,49.88010684831898],[38.858857145771694,49.88010684831898],[38.829113883198815,49.87653765681077],[38.76010951402921,49.90628091938285],[38.73393544296525,49.918178224412266],[38.720848407433365,49.932454990448576],[38.70062298888336,49.94197283447102],[38.682777031339896,49.96576744452887],[38.686346222849,49.98361340207251],[38.71014083290713,49.994320976598836],[38.67563864832276,50.014546395148486],[38.66374134329325,49.99313124609583],[38.65422349927029,49.98242367156942],[38.62804942820563,49.98361340207251],[38.61377266217117,49.99075178509062],[38.59592670462692,49.99194151559274],[38.57808074708355,49.988372324084615],[38.563803981048295,49.96933663603886],[38.54238883199582,49.96933663603886],[38.52454287445245,49.96814690553488],[38.46862554081481,49.97528528855308],[38.43174389522463,49.96695717503188],[38.41865685969273,49.98123394106828],[38.42698497321314,49.9871825935825],[38.39724171064026,49.996700437605824],[38.36511898706155,49.9859928630794],[38.37225737007887,49.94554202597922],[38.41032874617224,49.94554202597922],[38.46148715779759,49.915798763407146],[38.47457419332957,49.90509118888073],[38.46505634930661,49.86464035178144],[38.46624607980898,49.83489708920936],[38.457917966288576,49.826568975688154],[38.34727302951818,49.81705113166483],[38.330616802476655,49.81229220965362],[38.32228868895696,49.782548947079675],[38.32109895845352,49.767082450542134],[38.32228868895696,49.744477570987364],[38.308011922921715,49.73139053545494],[38.283027582360674,49.71711376942041],[38.27826866034866,49.706406194893106],[38.287786504371894,49.700457542378885],[38.30444273141306,49.702837003385866],[38.329427071974095,49.73020080495283],[38.35322168203258,49.73495972696307],[38.37820602259353,49.73258026595795],[38.411518476675155,49.70997538640309],[38.37701629209097,49.68261158483622],[38.39962117164592,49.64810940025204],[38.44840012226544,49.59695098862633],[38.50907637791411,49.60289964113966],[38.5066969169081,49.55768988202995],[38.435313086733544,49.49820335688402],[38.355601143038584,49.43276817922288],[38.32347841945952,49.40778383866202],[38.30444273141306,49.382799498100184],[38.30444273141306,49.35900488804232],[38.32228868895696,49.30665674591459],[38.34370383800935,49.25906752579798],[38.47219473232383,49.25311887328279],[38.47219473232383,49.238842107248246],[38.4912304203702,49.238842107248246],[38.493609881376216,49.19958100065196],[38.46743581031261,49.20196046165708],[38.46505634930661,49.22694480221892],[38.45672823578602,49.228134532721924],[38.43769254773956,49.22218588020681],[38.43174389522498,49.20196046165708],[38.40319036315457,49.20196046165708],[38.355601143038584,49.20196046165708],[38.35917033454716,49.16626854656989],[38.347273029517915,49.125817709471484],[38.33894491599733,49.084177141869986],[38.327047610968094,49.04967495728394],[38.28421731286332,49.0389673827585],[38.250904858781695,49.03777765225638],[38.25447405029044,49.02944953873616]]]]}},{"type":"Feature","properties":{"kind":"district","id":"uyezd-1897-339","name":"Изюмский","provinceId":"gubernia-1897-17"},"geometry":{"type":"MultiPolygon","coordinates":[[[[38.250904858781695,49.03777765225638],[38.223541057214646,49.0353981912494],[38.216402674197425,49.015172772699756],[38.219971865706086,48.96996301359013],[38.177141567601225,48.96401436107502],[38.10694746792932,48.95687597805771],[38.096239893402725,48.96758355258315],[38.07958366636156,48.96639382208014],[38.04508148177729,48.96996301359013],[38.02009714121625,48.97829112711045],[37.991543609145836,48.955686247553814],[37.98083603462005,48.97710139660735],[37.96299007707623,48.990188432139774],[37.94871331104098,49.02825980823218],[37.93681600601174,49.04610576577581],[37.91778031796537,49.05562360980002],[37.92134950947403,49.067520914828464],[37.93086735349716,49.086556602875106],[37.94871331104098,49.10678202142484],[37.93562627550918,49.12462797896839],[37.878519211369166,49.14009447550593],[37.85710406231678,49.156750702547455],[37.83806837427032,49.1817350431093],[37.82736079974373,49.20196046165708],[37.750028317054685,49.213857766686495],[37.667936912353625,49.225755071715824],[37.622727153242764,49.235272915739145],[37.58346604664656,49.235272915739145],[37.53944601803826,49.235272915739145],[37.50375410295062,49.249549681773686],[37.475200570881015,49.25906752579798],[37.44069838629683,49.29000051887395],[37.426421620261586,49.318554050943916],[37.41928323724436,49.35067677452298],[37.3919194356766,49.373281654077836],[37.3919194356766,49.3946968031296],[37.41095512372378,49.42800925721167],[37.447836769313966,49.44942440626343],[37.483528684401605,49.466080633304955],[37.490667067418826,49.529136349959984],[37.447836769313966,49.530326080463084],[37.453785421828634,49.554120690519966],[37.445457308307965,49.56839745655539],[37.42285242875302,49.58624341409903],[37.35503779008632,49.56125907353817],[37.26699773287069,49.53508500247332],[37.250341505830235,49.538654193983305],[37.221787973759824,49.54698230750274],[37.19442417219287,49.545792577000626],[37.164602179126035,49.54707277396213],[37.136048647055546,49.52922681641938],[37.10154646247136,49.53755492993881],[37.05157778134874,49.49948355384552],[37.003988561232674,49.47449921328555],[36.90999985150184,49.43999702870039],[36.91237931250767,49.41620241864253],[36.88739497194672,49.40192565260808],[36.84337494333859,49.373372120538114],[36.81601114177181,49.4007359221041],[36.81244195026315,49.42215107115683],[36.745817042099816,49.395977000092884],[36.77437057416951,49.35552616299261],[36.70893539650909,49.3579056239996],[36.6887099779598,49.34005966645507],[36.68752024745689,49.3126958648882],[36.67800240343365,49.279383410807014],[36.657776984884364,49.24488122622186],[36.63160291381969,49.199671467111344],[36.59591099873259,49.12233898442177],[36.581634232697795,49.09854437436391],[36.60430315471598,49.09948207006713],[36.622149112260146,49.055462041458654],[36.653082105335585,48.984078211285166],[36.66854860187331,48.92816087764735],[36.682825367908464,48.910314920103716],[36.685204828914294,48.87105381350831],[36.66735887137084,48.84844893395257],[36.64237453080935,48.825844054396825],[36.6566512968446,48.813946749367496],[36.67806644589699,48.81156728836228],[36.713758360984706,48.79491106132174],[36.76253731160432,48.77825483428022],[36.735173510037086,48.743752649695146],[36.70543024746421,48.70449154309877],[36.728589954632426,48.6975436309494],[36.72922485752234,48.69735316008243],[36.76491677261006,48.68664558555611],[36.78633192166244,48.69140450756733],[36.78633192166244,48.69973262108853],[36.81369572322967,48.70092235159065],[36.82797248926411,48.69735316008243],[36.847008177310755,48.70568127360186],[36.89816658893611,48.71044019561485],[36.92077146849185,48.69616342957854],[36.95408392257295,48.69021477706432],[36.993345029169674,48.69378396857245],[37.036175327274535,48.68545585505311],[37.0623493983384,48.679507202537906],[37.080195355882665,48.64619474845584],[37.12064619298178,48.62240013839896],[37.13611268951949,48.600984989346216],[37.14800999454812,48.59503633683111],[37.16942514360059,48.53792927269207],[37.17180460460713,48.516514123638444],[37.20511705868822,48.520083315147545],[37.238429512770196,48.53911900319419],[37.28244954137753,48.55458549973173],[37.37286905959961,48.56291361325293],[37.385956095131505,48.57124172677227],[37.40261232217249,48.566482804761144],[37.41450962720111,48.581949301298685],[37.42878639323636,48.585518492808674],[37.43830423726013,48.57838010979047],[37.45852965580933,48.57362118777925],[37.464478308324075,48.581949301298685],[37.465668038826465,48.61645148588376],[37.48946264888548,48.62240013839896],[37.498980492908444,48.64738447895982],[37.51206752844042,48.668799628011584],[37.521585372464095,48.68545585505311],[37.5334826774928,48.68664558555611],[37.54062106051083,48.70211208209365],[37.53943133000756,48.70925046511185],[37.52753402497805,48.71400938712307],[37.52991348598459,48.728286153157605],[37.52872375548132,48.74137318868905],[37.55489782654527,48.740183458186934],[37.55608755704854,48.71876830913428],[37.588210280627166,48.69735316008243],[37.62866111772637,48.678317472034905],[37.67625033784262,48.666420167005484],[37.690527103877955,48.67355855002457],[37.716701174941825,48.67355855002457],[37.73454713248529,48.665230436503364],[37.77856716109332,48.658092053485255],[37.79165419662539,48.660471514492244],[37.79165419662539,48.669989358514584],[37.80831042366629,48.679507202537906],[37.81663853718679,48.70211208209365],[37.84400233875401,48.71757857863119],[37.87255587082362,48.73423480567271],[37.91776562993422,48.73899372768393],[37.964165119548085,48.749701302210255],[38.01056460916196,48.75683968522846],[38.02841056670542,48.748511571708136],[38.046256524249586,48.750891032713255],[38.052205176763636,48.76159860723968],[38.04387706324385,48.772306181766],[38.06172302078731,48.804428905344174],[38.053394907266906,48.813946749367496],[38.06172302078731,48.824654323893824],[38.07599978682256,48.83893108992836],[38.07599978682256,48.85082839495769],[38.06886140380453,48.86272569998711],[38.06529221229632,48.89246896256096],[38.046256524249586,48.903176537085514],[38.02960029720869,48.92221222513304],[38.03197975821443,48.93529926066546],[38.05577436827255,48.9412479131788],[38.074810056319286,48.94005818267668],[38.09384574436602,48.92935060815124],[38.14262469498563,48.93529926066546],[38.17950634057573,48.93173006915548],[38.20568041163969,48.93529926066546],[38.22352636918386,48.9412479131788],[38.22114690817811,48.94481710468878],[38.209249603148606,48.94719656569488],[38.21043933365188,48.9567144097182],[38.22947502169861,48.96147333172942],[38.26159774527723,48.973370636758744],[38.25564909276248,48.98526794178728],[38.242562057230586,48.99954470782271],[38.24494151823633,49.01263174335415],[38.25447405029044,49.02944953873616],[38.250904858781695,49.03777765225638]]]]}},{"type":"Feature","properties":{"kind":"district","id":"uyezd-1897-755","name":"Сумский","provinceId":"gubernia-1897-17"},"geometry":{"type":"MultiPolygon","coordinates":[[[[34.3041444079092,51.231973548822715],[34.23751949974595,51.21174813027298],[34.15780755605073,51.21055839977086],[34.11497725794543,51.171297293174575],[34.11616698844834,51.155830796636145],[34.11021833593385,51.14036430009763],[34.088803186881556,51.10467238501044],[34.11266838276753,51.08398116716121],[34.14360137584297,51.028063833522516],[34.213795475514964,51.00783841497376],[34.25305658211152,50.98999245743012],[34.28161011418113,50.97452596089169],[34.25543604311726,50.96738757787536],[34.23164143305931,50.96500811686837],[34.25305658211152,50.94240323731351],[34.28042038367821,50.93526485429629],[34.30421499373705,50.91384970524266],[34.33157879530383,50.916229166248755],[34.37440909340904,50.92098808826175],[34.439844271068665,50.89362428669391],[34.48148483867105,50.87577832914938],[34.52312540627335,50.83413776154886],[34.554058399348875,50.83770695305698],[34.58261193141928,50.83175830054187],[34.61116546348889,50.78892800243737],[34.65042657008544,50.76870258388861],[34.669462258131915,50.75323608735018],[34.68135956316088,50.72468255528022],[34.713482286739236,50.71635444175901],[34.74084608830673,50.722303094275006],[34.79200449993235,50.722303094275006],[34.813419648984556,50.73539012980565],[34.84792183356874,50.73420039930354],[34.90740835871459,50.68899064019205],[34.96570515335752,50.70802632823958],[34.99663814643296,50.69731875371326],[35.02043275649179,50.710405789245684],[35.0704014376137,50.69493929270716],[35.089437125660965,50.70802632823958],[35.100144700187016,50.73420039930354],[35.1346468847712,50.74252851282288],[35.12869823225672,50.75918473986529],[35.11204200521608,50.781789619420145],[35.08110901214056,50.79606638545468],[35.082298742643474,50.81153288199312],[35.10609335270151,50.82580964802765],[35.11204200521608,50.863881024120936],[35.10787345876779,50.88893458714849],[35.087648040217616,50.88893458714849],[35.08288911820604,50.911539466704234],[35.02459232356311,50.95674922581563],[35.02221286255728,50.98649248838771],[35.04124855060454,50.99957952392013],[35.07218154367989,50.99244114090291],[35.10906318927071,50.99957952392013],[35.130478338322916,51.013856289955555],[35.14832429586646,50.99957952392013],[35.168549714415754,51.00195898492623],[35.119770763796765,51.05787631856306],[35.122150224802596,51.086429850633024],[35.1364269908374,51.088809311639125],[35.15665240938678,51.086429850633024],[35.166170253410016,51.09832715566156],[35.151893487375204,51.11141419119487],[35.14832429586646,51.12807041823541],[35.1364269908374,51.145916375778164],[35.119770763796765,51.15424448929937],[35.11025291977362,51.16852125533391],[35.09478642323511,51.18398775187234],[35.09121723172636,51.19945424840899],[35.101924806252505,51.21373101444442],[35.08526857921187,51.23276670249194],[35.0519561251306,51.22443858897074],[35.03292043708414,51.20897209243231],[35.01507447953988,51.2101618229362],[35.00079771350507,51.22919751098284],[34.9751524115537,51.237922201336936],[34.92875292193975,51.21531732178119],[34.92756319143683,51.20342001675364],[34.90733777288754,51.20460974725576],[34.89187127634902,51.19985082524365],[34.85736909176484,51.19747136423844],[34.85617936126192,51.172487023676695],[34.84309232573003,51.170107562670594],[34.81215933265379,51.173676754179695],[34.79788256661899,51.15702052713915],[34.74315496348471,51.155830796636145],[34.69080682135698,51.19747136423844],[34.6646327502924,51.2272146268115],[34.674150594315634,51.246250314858145],[34.59324892011749,51.24744004536026],[34.584920806597175,51.21412759127908],[34.57064404056237,51.21769678278818],[34.54803916100645,51.26290654189869],[34.50282940189621,51.264096272400806],[34.480224522341,51.25695788938358],[34.44810179876193,51.264096272400806],[34.42906611071547,51.264096272400806],[34.39218446512474,51.27718330793323],[34.361251472049304,51.270044924916],[34.35768228054056,51.25695788938358],[34.32436982645849,51.24149139284604],[34.3041444079092,51.231973548822715]]]]}},{"type":"Feature","properties":{"kind":"district","id":"uyezd-1897-756","name":"Змиевский","provinceId":"gubernia-1897-17"},"geometry":{"type":"MultiPolygon","coordinates":[[[[35.93370125463914,49.006245820233715],[35.95226679665568,49.012883778153046],[35.97606140671371,49.012883778153046],[35.97249221520505,48.9950378206095],[36.018891704818216,48.983140515581944],[36.03673766236247,48.992658359605265],[36.0391171233683,49.00455566463282],[36.05815281141477,49.00455566463282],[36.073619307952484,49.02002216117125],[36.07123984694665,49.03191946619969],[36.087896073987295,49.03905784921878],[36.10336257052581,49.05452434575543],[36.12239825857219,49.056903806761525],[36.1378647551099,49.07237030329996],[36.14857232963605,49.071180572796955],[36.153331251647714,49.08069841681939],[36.168797748186144,49.07831895581418],[36.230663734337824,49.0937854523527],[36.237802117355315,49.10687248788512],[36.26992484093358,49.10806221838723],[36.26397618841909,49.12114925391868],[36.28896052898004,49.12233898442177],[36.28301187646555,49.15208224699563],[36.2508891528872,49.159220630012854],[36.28658106797421,49.173497396047395],[36.37581085569347,49.20443038912345],[36.39008762172827,49.19729200610525],[36.394846543739845,49.18658443157892],[36.386518430219525,49.168738474036175],[36.386518430219525,49.155651438502865],[36.3781903166993,49.144943863978405],[36.41745142329496,49.12947736743989],[36.44362549435964,49.13304655894899],[36.46504064341184,49.12233898442177],[36.48526606196113,49.13066709794289],[36.49835309749311,49.13066709794289],[36.501922289001854,49.11876979291267],[36.53642447358675,49.11639033190844],[36.54237312610124,49.0973546438618],[36.581634232697795,49.09854437436391],[36.59591099873259,49.12233898442177],[36.63160291381969,49.199671467111344],[36.657776984884364,49.24488122622186],[36.67800240343365,49.279383410807014],[36.68752024745689,49.3126958648882],[36.6887099779598,49.34005966645507],[36.70893539650909,49.3579056239996],[36.77437057416951,49.35552616299261],[36.745817042099816,49.395977000092884],[36.81244195026315,49.42215107115683],[36.81601114177181,49.4007359221041],[36.84337494333859,49.373372120538114],[36.88739497194672,49.40192565260808],[36.91237931250767,49.41620241864253],[36.90999985150184,49.43999702870039],[37.003988561232674,49.47449921328555],[37.05157778134874,49.49948355384552],[37.10154646247136,49.53755492993881],[37.136048647055546,49.52922681641938],[37.164602179126035,49.54707277396213],[37.16341244862312,49.60061064659473],[37.14437676057666,49.62083606514349],[37.20624274672754,49.633923100675915],[37.199104363710134,49.6719944767692],[37.134858916552716,49.68508151230162],[37.119392420014904,49.70649666135436],[37.14556649107958,49.70887612235948],[37.14199729957083,49.72196315789101],[37.183637867172415,49.72434261889702],[37.19196598069273,49.73386046292123],[37.228847626283454,49.73148100191433],[37.2324168177922,49.72553234940003],[37.27762657690245,49.72434261889702],[37.278816307405364,49.74099884593765],[37.316887683499004,49.78858806605515],[37.247883314329925,49.81952105913023],[37.152704874096976,49.764793455995424],[37.12891026403814,49.77193183901451],[37.11582322850616,49.760034533985184],[37.08489023543081,49.765983186499405],[37.07299293040175,49.74099884593765],[37.06704427788647,49.72434261889702],[37.050388050845825,49.71958369688491],[37.0206447882733,49.72196315789101],[36.99566044771164,49.73386046292123],[36.97424529865935,49.757655072978196],[36.95758907161871,49.80762375410179],[36.92665607854248,49.83022863365753],[36.944502036086824,49.831418364159646],[36.942122575080994,49.838556747176874],[36.91832796502216,49.854023243715304],[36.90881012099892,49.849264321704176],[36.90762039049601,49.839746477680855],[36.89810254647287,49.826659442147545],[36.87430793641483,49.838556747176874],[36.82909817730379,49.836177286170866],[36.804113836742836,49.848074591200195],[36.77199111316368,49.857592435223516],[36.77556030467234,49.88495623679047],[36.748196503105646,49.89209461980859],[36.7232121625447,49.8885254282986],[36.70655593550326,49.90756111634524],[36.70893539650909,49.9456324924395],[36.6887099779598,49.951581144954616],[36.670864020416246,49.99322171255611],[36.6101877647674,49.9896525210479],[36.57449584967968,50.01820605311697],[36.54237312610124,50.01463686160787],[36.50906067201926,49.9896525210479],[36.504301750007684,49.96942710249736],[36.49478390598436,49.9373043789183],[36.474558487435075,49.90875084684922],[36.46147145190318,49.89209461980859],[36.425779536815284,49.88376650628747],[36.41864115379788,49.86235135723473],[36.40436438776308,49.849264321704176],[36.400795196254336,49.83498755566866],[36.432917919832775,49.81714159812422],[36.410313040277565,49.8052442930957],[36.393656813237016,49.812382676113],[36.37343139468764,49.8052442930957],[36.35201624563463,49.81357240661512],[36.33773947959983,49.80762375410179],[36.31037567803305,49.823090250638444],[36.29728864250036,49.84331566918809],[36.27111457143649,49.83498755566866],[36.22947400383491,49.81476213711902],[36.23185346484074,49.79810591007847],[36.2151972377993,49.78501887454516],[36.18426424472386,49.774311300018745],[36.17474640070063,49.74932695945877],[36.16046963466583,49.748137228954874],[36.14976206013897,49.761224264487296],[36.125967450080935,49.76717291700152],[36.10574203153155,49.76360372549331],[36.07242957744957,49.73505019342335],[36.040306853871215,49.73505019342335],[36.010563591297895,49.75408588146999],[35.99390736425717,49.75408588146999],[35.977251137216626,49.72553234940003],[35.965353832187205,49.710065852862485],[35.965353832187205,49.70054800883827],[35.97606140671344,49.69697881733006],[35.958215449169714,49.660097171739864],[35.958215449169714,49.64225121419534],[35.94988733564985,49.63035390916779],[35.86541646994225,49.601800377097824],[35.845661197423595,49.59278295816964],[35.86469688547006,49.541624546543936],[35.892060687036846,49.533296433024596],[35.94916775117686,49.4857072129071],[35.97296236123489,49.47024071636956],[36.01460292883728,49.46548179435834],[36.02650023386626,49.45715368083714],[36.045535921912716,49.46072287234624],[36.06933053197147,49.44882556731771],[36.05862295744541,49.40123634720021],[36.02531050336334,49.37863146764536],[36.03125915587792,49.32033467300243],[36.05743322694249,49.3131962899852],[36.06338187945698,49.27869410540004],[36.05029484392429,49.2703659918807],[36.05148457442721,49.19779243120323],[36.05624349643958,49.16804916862929],[36.04196673040397,49.16923889913327],[36.03601807788949,49.15734159410296],[36.03601807788949,49.141875097564444],[36.03125915587792,49.13235725354112],[36.038397538895225,49.12045994851357],[36.02650023386626,49.11808048750756],[36.0086542763227,49.07762965040729],[35.988428857773414,49.078819380911185],[35.98248020525884,49.06097342336675],[35.98248020525884,49.02647123878345],[35.958685595200095,49.02528150827947],[35.93727044614779,49.02052258626826],[35.93370125463914,49.006245820233715]]]]}},{"type":"Feature","properties":{"kind":"district","id":"uyezd-1897-757","name":"Купянский","provinceId":"gubernia-1897-17"},"geometry":{"type":"MultiPolygon","coordinates":[[[[37.247883314329925,49.81952105913023],[37.316887683499004,49.78858806605515],[37.278816307405364,49.74099884593765],[37.27762657690245,49.72434261889702],[37.2324168177922,49.72553234940003],[37.228847626283454,49.73148100191433],[37.19196598069273,49.73386046292123],[37.183637867172415,49.72434261889702],[37.14199729957083,49.72196315789101],[37.14556649107958,49.70887612235948],[37.119392420014904,49.70649666135436],[37.134858916552716,49.68508151230162],[37.199104363710134,49.6719944767692],[37.20624274672754,49.633923100675915],[37.14437676057666,49.62083606514349],[37.16341244862312,49.60061064659473],[37.164602179126035,49.54707277396213],[37.19442417219287,49.545792577000626],[37.221787973759824,49.54698230750274],[37.250341505830235,49.538654193983305],[37.26699773287069,49.53508500247332],[37.35503779008632,49.56125907353817],[37.42285242875302,49.58624341409903],[37.445457308307965,49.56839745655539],[37.453785421828634,49.554120690519966],[37.447836769313966,49.530326080463084],[37.490667067418826,49.529136349959984],[37.483528684401605,49.466080633304955],[37.447836769313966,49.44942440626343],[37.41095512372378,49.42800925721167],[37.3919194356766,49.3946968031296],[37.3919194356766,49.373281654077836],[37.41928323724436,49.35067677452298],[37.426421620261586,49.318554050943916],[37.44069838629683,49.29000051887395],[37.475200570881015,49.25906752579798],[37.50375410295062,49.249549681773686],[37.53944601803826,49.235272915739145],[37.58346604664656,49.235272915739145],[37.622727153242764,49.235272915739145],[37.667936912353625,49.225755071715824],[37.750028317054685,49.213857766686495],[37.82736079974373,49.20196046165708],[37.83806837427032,49.1817350431093],[37.85710406231678,49.156750702547455],[37.878519211369166,49.14009447550593],[37.93562627550918,49.12462797896839],[37.94871331104098,49.10678202142484],[37.93086735349716,49.086556602875106],[37.92134950947403,49.067520914828464],[37.91778031796537,49.05562360980002],[37.93681600601174,49.04610576577581],[37.94871331104098,49.02825980823218],[37.96299007707623,48.990188432139774],[37.98083603462005,48.97710139660735],[37.991543609145836,48.955686247553814],[38.02009714121625,48.97829112711045],[38.04508148177729,48.96996301359013],[38.07958366636156,48.96639382208014],[38.096239893402725,48.96758355258315],[38.10694746792932,48.95687597805771],[38.177141567601225,48.96401436107502],[38.219971865706086,48.96996301359013],[38.216402674197425,49.015172772699756],[38.223541057214646,49.0353981912494],[38.250904858781695,49.03777765225638],[38.28421731286332,49.0389673827585],[38.327047610968094,49.04967495728394],[38.33894491599733,49.084177141869986],[38.347273029517915,49.125817709471484],[38.35917033454716,49.16626854656989],[38.355601143038584,49.20196046165708],[38.40319036315457,49.20196046165708],[38.43174389522498,49.20196046165708],[38.43769254773956,49.22218588020681],[38.45672823578602,49.228134532721924],[38.46505634930661,49.22694480221892],[38.46743581031261,49.20196046165708],[38.493609881376216,49.19958100065196],[38.4912304203702,49.238842107248246],[38.47219473232383,49.238842107248246],[38.47219473232383,49.25311887328279],[38.34370383800935,49.25906752579798],[38.32228868895696,49.30665674591459],[38.30444273141306,49.35900488804232],[38.30444273141306,49.382799498100184],[38.32347841945952,49.40778383866202],[38.355601143038584,49.43276817922288],[38.435313086733544,49.49820335688402],[38.5066969169081,49.55768988202995],[38.50907637791411,49.60289964113966],[38.44840012226544,49.59695098862633],[38.39962117164592,49.64810940025204],[38.37701629209097,49.68261158483622],[38.411518476675155,49.70997538640309],[38.37820602259353,49.73258026595795],[38.35322168203258,49.73495972696307],[38.329427071974095,49.73020080495283],[38.30444273141306,49.702837003385866],[38.287786504371894,49.700457542378885],[38.27826866034866,49.706406194893106],[38.283027582360674,49.71711376942041],[38.308011922921715,49.73139053545494],[38.32228868895696,49.744477570987364],[38.32109895845352,49.767082450542134],[38.32228868895696,49.782548947079675],[38.330616802476655,49.81229220965362],[38.29611461789247,49.82062032317296],[38.269940546828074,49.842035472225696],[38.250904858781695,49.849173855242924],[38.2330589012378,49.85869169926722],[38.18903887263046,49.842035472225696],[38.14739830502817,49.8456046637348],[38.12479342547233,49.853932777255025],[38.08077339686492,49.85869169926722],[38.027235524233475,49.916988493910154],[38.00582037518109,49.9372139124598],[37.953472233053,50.001459359616064],[37.940385197521195,50.030012891687],[37.903503551930115,50.05261777124177],[37.86900136734593,50.06570480677419],[37.836878643766866,50.06808426777931],[37.795238076165546,50.084740494820835],[37.73448309002222,50.083641230778106],[37.67380683437346,50.083641230778106],[37.61907923123918,50.08483096128022],[37.6202689617421,50.03843147166751],[37.601233273695726,50.01820605311697],[37.55364405357885,49.99084225155001],[37.55126459257302,49.976565485514584],[37.558402975590425,49.96109898897794],[37.53936728754395,49.918268690871656],[37.50248564195403,49.90756111634524],[37.475121840386535,49.91469949936433],[37.439429925299436,49.93611464841618],[37.37756393914776,49.920648151877664],[37.3739947476391,49.873058931761946],[37.38470232216517,49.863541087738625],[37.37280501713619,49.84688486069808],[37.33830283255121,49.831418364159646],[37.30142118696128,49.82903890315355],[37.2669190023763,49.831418364159646],[37.247883314329925,49.81952105913023]]]]}}]}
