{"type":"FeatureCollection","features":[{"type":"Feature","properties":{"kind":"province","id":"gubernia-1897-42","name":"Улеаборгская губерния"},"geometry":{"type":"MultiPolygon","coordinates":[[[[25.118199391875123,63.4651585367792],[25.063471788741595,63.45445096225285],[25.01350310761893,63.47943530281282],[24.99446741957223,63.47705584180676],[24.981380384040108,63.49728126035643],[24.901668440345247,63.515127217900044],[24.876684099783915,63.54249101946789],[24.8528894897255,63.58413158707117],[24.80054134759706,63.58770077857844],[24.729157517422607,63.6031672751169],[24.63040988568025,63.655515417244715],[24.576872013048906,63.68182168058782],[24.532851984441667,63.735359553217755],[24.441242735716756,63.83053799345097],[24.319890224419677,63.87098883055026],[24.286577770337963,63.87455802205936],[24.274680465308812,63.89835263211722],[24.211624748653954,63.93166508619929],[24.133102535461997,63.981633767321995],[24.090272237356963,64.02089487391828],[24.05933924428099,64.06372517202358],[24.029595981708024,64.08038139906421],[23.992714336117476,64.08633005157755],[23.951073768516068,64.11131439214019],[23.883259129849638,64.12916034968391],[23.79997799464522,64.14700630722658],[23.76428607955839,64.1600933427599],[23.718303874474206,64.19239297101839],[23.756593994957115,64.21403521302908],[23.725480423021722,64.23403679498821],[23.847712312769126,64.25848317293827],[23.90549466064998,64.2473711829598],[23.941053028576903,64.2740399589056],[23.923273844613085,64.32737751079644],[23.949942620557657,64.34960149074956],[23.98105619249385,64.34737909275371],[24.001057774452722,64.3584910827312],[24.00772496843851,64.38738225667208],[24.167737624108693,64.45183179853845],[24.229964767981077,64.44960940054446],[24.269967931898023,64.46516618651003],[24.23440956397181,64.49405736045179],[24.37886543367394,64.55183970833247],[24.414423801600066,64.64073562814791],[24.576658855265215,64.72963154796531],[24.607073269115048,64.74371740625975],[24.659286709920064,64.78522039767],[24.707483732202512,64.81467413350944],[24.7101613445516,64.84278906317283],[24.75434194831006,64.85617712491775],[24.778440459450884,64.857515931093],[24.783147010368417,64.88081482591676],[24.8346703187798,64.88696966693175],[24.902949433679172,64.8896472792803],[24.967212130055355,64.89232489162993],[25.002646946026857,64.90669035756423],[25.01674795851187,64.91240698424826],[25.070300205491776,64.92445623981894],[25.133224095692697,64.92847265834189],[25.150628575961264,64.94587713860983],[25.18142111797573,64.93784430156302],[25.209536047639517,64.9003577286785],[25.238989783478246,64.87492041136284],[25.265765906968568,64.85751593109308],[25.284509193412134,64.83877264464991],[25.339400246566242,64.83207861377832],[25.394291299721147,64.84011145082513],[25.439810709653443,64.84814428787104],[25.44918235287446,64.8588547372674],[25.418234014387167,64.86209773758037],[25.421067423210673,64.88563086075919],[25.471942057841375,64.88830847310783],[25.500056987506696,64.90705175955009],[25.48800773193574,64.92311743364462],[25.44650474052679,64.94052191391256],[25.383580850324336,64.93382788304007],[25.35680472683481,64.92445623981894],[25.30726889837831,64.9365054953887],[25.284509193412134,64.9579263941805],[25.256394263746813,64.97399206827413],[25.240328589653245,64.99273535471912],[25.24434500817665,65.00880102881092],[25.271121131666973,65.0128174473366],[25.308607704552514,64.99407416089161],[25.346094277438056,64.99407416089161],[25.38893607502274,64.98202490532367],[25.441149515828442,64.96194281270436],[25.47729728253978,64.96060400652914],[25.52013908012367,64.96060400652914],[25.53352714186883,64.97800848679981],[25.512106243076857,64.99675177324207],[25.479974894888926,64.99675177324207],[25.461231608446155,65.00612341646229],[25.46524802696956,65.01683386585955],[25.483991313411536,65.01951147820819],[25.475958476365577,65.0342383461275],[25.443827128177645,65.05833685726793],[25.40767936146551,65.09983984867904],[25.402324136767902,65.11858313512221],[25.374209207103377,65.12661597216902],[25.347433083613055,65.12795477834152],[25.31797934777427,65.13732642156447],[25.26174948844522,65.14268164626264],[25.24166739582745,65.15339209565809],[25.248361426700058,65.1748129944499],[25.29388083663315,65.18150702532239],[25.305093338345046,65.19506243784053],[25.28701945498858,65.2020911702557],[25.308105652236577,65.20409937951626],[25.334212372639854,65.20108706562496],[25.353290360626545,65.1920501239465],[25.371364243982214,65.19405833320707],[25.369356034720113,65.20108706562496],[25.342245209687405,65.21012400730251],[25.319150803176512,65.21514453045802],[25.314130280022084,65.23924304159846],[25.354294465257567,65.23723483233516],[25.37939708102897,65.24325946012232],[25.36433551156648,65.25229640179805],[25.342245209687405,65.25229640179805],[25.33220416337855,65.2633415527389],[25.353290360626545,65.2633415527389],[25.345257523578994,65.27237849441735],[25.295052292036132,65.27840312220087],[25.298064605928516,65.28442774998985],[25.32517543096202,65.28744006387933],[25.338228791163203,65.29647700555779],[25.333208268008775,65.3045098426046],[25.32617953559304,65.30551394723534],[25.316138489284185,65.32057551669823],[25.337224686532977,65.32258372596061],[25.367347825458808,65.32559603985464],[25.393454545862028,65.33061656300742],[25.3864258134455,65.3376452954235],[25.370360139351135,65.34969455099326],[25.378392976398743,65.35873149267172],[25.361323197674096,65.36977664361075],[25.340237000425304,65.38082179454977],[25.309109756867656,65.38082179454977],[25.305093338345046,65.38584231770619],[25.32617953559304,65.3888546315984],[25.317142593915207,65.3988956779076],[25.30308512908215,65.39989978253743],[25.301076919820844,65.41596545663288],[25.32517543096202,65.40793261958424],[25.354294465257567,65.40492030569203],[25.371364243982214,65.41395724737049],[25.3633314069354,65.43203113072468],[25.376384767136642,65.43203113072468],[25.42056537089553,65.43303523535633],[25.410524324586675,65.44207217703479],[25.395462755123333,65.44508449092609],[25.376384767136642,65.4551255372362],[25.38341349955317,65.46115016502063],[25.406507906062473,65.46115016502063],[25.400483278277818,65.46918300206744],[25.370360139351135,65.47821994374772],[25.354294465257567,65.48524867616288],[25.327183640224064,65.51035129193315],[25.305093338345046,65.53444980307358],[25.27195788552524,65.54951137253738],[25.24384295586151,65.55453189569198],[25.244847060491793,65.56658115126265],[25.263925048478484,65.56658115126265],[25.25589221143167,65.57360988367873],[25.22396263146504,65.57360988367873],[25.223760863243886,65.57360988367866],[25.223760863243886,65.58766734851085],[25.214750239160324,65.59968151395607],[25.204884643478806,65.59770839481916],[25.19484359716995,65.57863040683242],[25.16672866750463,65.56858936052504],[25.166526899283706,65.56858936052501],[25.158494062236528,65.5746139883085],[25.159498166867703,65.58666324388011],[25.14660333883986,65.58963897342538],[25.133593214686414,65.57863040683242],[25.133500737585038,65.57872288393375],[25.13339144646524,65.5786304068324],[25.121342190894783,65.59067966240303],[25.122346295525247,65.6007207087123],[25.115317563109244,65.61176585965131],[25.099251889015598,65.61979869669814],[25.098247784384334,65.63184795226877],[25.084190319552327,65.63084384763893],[25.07013285472032,65.63184795226877],[25.03599329726988,65.63586437079267],[25.0319768787466,65.64188899857794],[25.022939937069047,65.6479136263633],[25.007878367605777,65.64289310320964],[24.98076754257214,65.63586437079267],[24.968718287001682,65.64389720784038],[24.93658693881359,65.65193004488623],[24.929558206397587,65.66498340508858],[24.914496636934405,65.67502445139685],[24.874332451699136,65.67803676529002],[24.83718058035659,65.67803676529002],[24.82011080163177,65.68205318381294],[24.802036918276485,65.6800449745506],[24.78396303492049,65.6800449745506],[24.776934302504486,65.6689998236115],[24.759864523779665,65.65594646341013],[24.73978243116203,65.63787258005502],[24.71668802465238,65.644901312472],[24.6805402579403,65.65092594025639],[24.696605932034746,65.65996288193305],[24.694597722773107,65.67100803287393],[24.694597722773107,65.67904086992164],[24.68455667646429,65.6840613930753],[24.683552571833026,65.69109012549139],[24.68656488572593,65.70414348569187],[24.67150331626266,65.71920505515567],[24.64640070049057,65.7272378922016],[24.630335026397013,65.73025020609468],[24.616277561564118,65.73828304314151],[24.601215992101736,65.73828304314151],[24.581133899484012,65.7352707292502],[24.576113376329648,65.7483240894498],[24.58916673653128,65.75434871723604],[24.581133899484012,65.7674020774375],[24.58916673653128,65.78145954226959],[24.580129794852837,65.7965211117334],[24.563060016128016,65.80656215804079],[24.539965609618367,65.81158268119542],[24.50281373827591,65.80656215804079],[24.48373575028945,65.80354984414949],[24.473694703980634,65.78346775153203],[24.45963723914774,65.77945133300724],[24.418468949282094,65.78748417005495],[24.363243194584353,65.80656215804079],[24.35018983438272,65.81158268119542],[24.332115951026726,65.80857036730323],[24.313037963040266,65.81660320435094],[24.299984602838634,65.83066066918303],[24.27588609169781,65.84471813401522],[24.246767057402533,65.85074276180057],[24.22467675552326,65.84471813401522],[24.206602872167263,65.8396976108597],[24.186520779550428,65.84371402938449],[24.169451000825518,65.85676738958497],[24.151377117469522,65.88990284240387],[24.133303234113438,65.91098903965207],[24.10217599055661,65.92805881837644],[24.06402001458378,65.94010807394805],[24.041929712704505,65.9521573295178],[24.026868143241234,65.9742476313977],[24.034900980287702,66.0103953981097],[24.02184762008687,66.02244465367943],[23.98971627189878,66.0465431648199],[23.96662186538833,66.06160473428281],[23.950556191294684,66.08369503616262],[23.942523354247506,66.1047812334109],[23.948547982033045,66.11783459361226],[23.94553566814023,66.12887974455315],[23.935494621831413,66.13490437233753],[23.937502831093052,66.14594952327654],[23.933486412569863,66.16000698810873],[23.917420738475418,66.16904392978716],[23.845125205052856,66.1851096038817],[23.793915868878393,66.20719990575974],[23.76078041605904,66.2312984169011],[23.734673695656575,66.25539692804156],[23.70153824283731,66.29957753180038],[23.68246025485085,66.32367604294262],[23.684468464112577,66.33371708925002],[23.69551361505257,66.36082791428356],[23.704550556730123,66.38091000690112],[23.705554661361298,66.39797978562727],[23.683464359482112,66.41906598287545],[23.67643562706602,66.44015218012373],[23.690493091898116,66.46525479589485],[23.719612126193393,66.47730405146734],[23.747727055858206,66.4933697255592],[23.776846090153484,66.51847234133308],[23.810985647603214,66.52650517837803],[23.837092368005678,66.54056264321022],[23.88227707639531,66.56566525898319],[23.92043305236823,66.59478429327731],[23.92043305236823,66.62089101368112],[23.918424843106592,66.65904698965367],[23.94352745887868,66.69419065173405],[23.954572609817873,66.72330968602995],[23.957584923710687,66.74238767401579],[23.94955208666351,66.76447797589569],[23.94955208666351,66.77652723146632],[23.97063828391232,66.78255185925079],[23.974654702435597,66.79962163797694],[23.990720376529154,66.81167089354669],[24.018835306194056,66.80564626576142],[24.045946131227694,66.81066678891597],[24.058999491429326,66.8267324630096],[24.04895844512051,66.84581045099634],[24.022851724717246,66.86087202045925],[24.009798364516413,66.87894590381711],[23.96260544686514,66.90103620569425],[23.916416633844953,66.92011419368275],[23.9073796921666,66.92915113535852],[23.885289390287326,66.94622091408468],[23.862194983777677,66.9763440530114],[23.815002066126404,67.0014466687826],[23.770821462367856,67.02855749381615],[23.734673695656575,67.05366010958727],[23.707562870622937,67.0807709346209],[23.686476673374926,67.11290228280997],[23.64932480203247,67.13599668931873],[23.628238604783572,67.14704184025952],[23.61920166310602,67.17415266529316],[23.6342632325692,67.18821013012526],[23.65133301129402,67.200259385695],[23.63827965109239,67.23439894314464],[23.662378162233303,67.23339483851392],[23.66639458075729,67.2474523033461],[23.69149719652858,67.26251387280892],[23.740698323441404,67.280587756165],[23.761784520690302,67.29665343025954],[23.783874822569487,67.31773962750773],[23.795924078139944,67.33581351086283],[23.81399796149594,67.345854557172],[23.802952810555947,67.35689970811289],[23.781866613307937,67.36593664978956],[23.76078041605904,67.38802695166936],[23.768813253106305,67.41011725354838],[23.787891241092765,67.41614188133364],[23.798936392032758,67.43521986931948],[23.787891241092765,67.45128554341402],[23.745718846595857,67.45228964804572],[23.709571079884576,67.45329375267646],[23.688484882636477,67.44526091562963],[23.675431522434845,67.44526091562963],[23.675431522434845,67.45931838046181],[23.64731659277083,67.46433890361547],[23.61217293068997,67.46433890361547],[23.571004640824235,67.4512855434141],[23.530840455588876,67.45429785730629],[23.498709107400874,67.46233069435311],[23.477622910152775,67.47036353140082],[23.452520294380776,67.4743799499256],[23.446495666595148,67.4874333101261],[23.467581863843957,67.49446204254218],[23.483647537937603,67.50851950737427],[23.505737839816877,67.5135400305289],[23.508750153709602,67.53261801851474],[23.488668061092056,67.54065085556157],[23.502725525924063,67.54868369260927],[23.541885606528158,67.55571242502538],[23.56598411766978,67.56876578522673],[23.57401695471616,67.59286429636907],[23.571004640824235,67.60692176119939],[23.549918443575336,67.625999749187],[23.5298363509577,67.625999749187],[23.519795304648884,67.6430695279105],[23.519795304648884,67.66114341126737],[23.506741944448052,67.6772090853628],[23.483647537937603,67.69729117797937],[23.488668061092056,67.72239379375057],[23.47862701478315,67.73946357247495],[23.477622910152775,67.77962775771084],[23.483647537937603,67.81376731516048],[23.508750153709602,67.84188224482386],[23.525819932434512,67.85895202354914],[23.566988222300157,67.8689930698592],[23.59309494270342,67.8720053837505],[23.604140093642613,67.8830505346896],[23.634263232569154,67.89208747636805],[23.657357639078803,67.90413673193957],[23.662378162233257,67.91719009214103],[23.64631248813952,67.92723113844842],[23.600123675119423,67.93727218475759],[23.567992326931332,67.94430091717368],[23.547910234313786,67.96438300979113],[23.513770676864056,67.98145278851553],[23.451516189749512,68.0025389857637],[23.403319167467863,68.0216169737514],[23.34508109887731,68.05073600804731],[23.310941541427667,68.06378936824876],[23.29889228585721,68.0828673562346],[23.261740414514666,68.10194534422044],[23.24366653115867,68.12704795999252],[23.219568020017846,68.14913826187144],[23.168358683843294,68.13608490167007],[23.1291986032392,68.12905616925399],[23.10208777820556,68.12001922757644],[23.08100158095675,68.12805206462326],[23.09104262726557,68.14110542482462],[23.092046731896744,68.15817520354997],[23.090038522635194,68.17223266838207],[23.105100092098375,68.19833938878489],[23.092046731896744,68.21641327214],[23.06393180223193,68.23247894623454],[23.028788140151825,68.25557335274516],[23.0046896290102,68.2716390268397],[22.988623954916555,68.29272522408789],[22.958500815990103,68.29573753797919],[22.93440230484919,68.30778679354991],[22.918336630755544,68.3188319444907],[22.878172445520274,68.32887299079809],[22.85005751585546,68.33790993247653],[22.81993437692972,68.35096329267799],[22.799852284312173,68.36702896677252],[22.77575377317126,68.37204948992618],[22.745630634244808,68.36301254824774],[22.709482867533527,68.36702896677252],[22.68638846102308,68.37104538529545],[22.671326891559808,68.37907822234227],[22.64019964800298,68.38811516402072],[22.618109346123706,68.40116852422217],[22.614092927600517,68.41522598905426],[22.590998521090068,68.41623009368499],[22.56187948679479,68.41020546589874],[22.52171530155952,68.41321777979192],[22.48757574410988,68.42125061683963],[22.45343618666015,68.43329987240938],[22.427329466257685,68.4322957677805],[22.396202222700857,68.44334091871863],[22.374706921407185,68.46478293444576],[22.303590185554047,68.46700533244163],[22.24803023566896,68.4736725264274],[22.14579992787963,68.47145012843245],[22.04801441608183,68.48700691439899],[21.987521034117265,68.52183643734953],[21.894668954397435,68.58479242619883],[21.799105840594603,68.60701640615204],[21.712432318774212,68.6092388041479],[21.687985940823808,68.64035237608365],[21.636870786929453,68.65813156004694],[21.592422827020975,68.66479875403459],[21.512416499186283,68.68924513198269],[21.432410171350792,68.68924513198269],[21.399074201420433,68.71813630592347],[21.4012965994154,68.75147227585418],[21.36351583349342,68.7670290618225],[21.28350950565793,68.76480666382665],[21.21239276980559,68.77814105179822],[21.210170371809824,68.807032225739],[21.085716084066565,68.87592656359718],[20.87681067249717,68.90481773753893],[20.839029906575192,68.94926569744715],[20.867921080516417,68.97148967740125],[20.803471538648978,69.03371682127363],[20.650126076965382,69.05594080122685],[20.54789576917605,69.08038717917591],[20.71457561883282,69.13372473106666],[20.87236587650635,69.08260957717178],[21.01237695021766,69.05149600523505],[21.105717666025438,69.12483513908502],[21.00793215422693,69.14705911903823],[20.95237220434184,69.24039983484548],[21.063492104112814,69.29595978473021],[21.22350475978291,69.33151815265776],[21.37462782346994,69.33151815265776],[21.56145834022315,69.30277472071882],[21.703896027865145,69.23704161816563],[21.812440228567688,69.17150549698722],[21.91911533234793,69.12483513908502],[22.002425856626097,69.05668149741088],[22.092125870317204,68.98572477016295],[22.15103334199521,68.9388665540546],[22.18851991488148,68.90137998116913],[22.272864703874408,68.8438113156662],[22.370597554612782,68.71126950439066],[22.525899070854972,68.73135159700811],[22.76420656991608,68.67913815620159],[23.007869293675277,68.681815768552],[23.143088717299033,68.62023068452339],[23.31579471380977,68.65771725741064],[23.412188758374043,68.68583218707502],[23.598282816629336,68.68583218707502],[23.69869327971671,68.72733517848332],[23.746890301998448,68.80230832425603],[23.80981419220044,68.82506802922214],[23.939678391126908,68.82640683539651],[24.029378404818015,68.78222623163857],[24.113723193811833,68.76883816989357],[24.194051564281573,68.71126950439066],[24.389517265758233,68.68583218707502],[24.568917293141336,68.66575009445747],[24.71350835998726,68.632279940095],[24.816596435423723,68.55462918197463],[24.855421814484803,68.5385635078801],[24.895585999719362,68.55061276344983],[24.90094122441745,68.57337246841692],[24.965203920793634,68.58943814251145],[25.045532291263374,68.59747097955818],[25.12987708025719,68.60416501043073],[25.12987708025719,68.63897397096657],[25.163347234619383,68.7099306982154],[25.206189032203742,68.77419339459175],[25.236981574216934,68.80632474277895],[25.29053382119676,68.83443967244332],[25.352118905223765,68.8625546021085],[25.457884593009318,68.87995908237642],[25.515453258512423,68.90137998116913],[25.56498908696906,68.90271878734438],[25.60381446602943,68.8893307255994],[25.64665626361379,68.88397550090122],[25.688159255023248,68.90539639969205],[25.739033889653985,68.95894864667206],[25.75509956374843,69.0419546294925],[25.76313240079481,69.11291135674033],[25.779198074889255,69.1490591234524],[25.775181656366065,69.18922330868644],[25.740372695828885,69.21064420747825],[25.733678664955896,69.2307263000966],[25.75242195139934,69.272229291505],[25.75911598227162,69.29231138412254],[25.75242195139934,69.30971586439225],[25.776520462540166,69.33783079405563],[25.814007035426435,69.34318601875381],[25.811329423077346,69.36728452989517],[25.83141151569498,69.37531736694288],[25.855510026835805,69.3846890101631],[25.86889808858045,69.40343229660716],[25.898351824419365,69.41815916452653],[25.87157570092945,69.43154722627153],[25.87023689475535,69.44761290036419],[25.883624956499908,69.46367857445873],[25.884963762674808,69.47974424855416],[25.902368242943442,69.49179350412399],[25.897174555333947,69.51776194216924],[25.897013018245264,69.51856962761302],[25.99876228750683,69.55605620050027],[25.99876228750683,69.59488157955911],[25.976002582540904,69.63772337714454],[26.010811543077285,69.66182188828492],[26.022860798648452,69.67788756237945],[26.14870857905084,69.71403532908968],[26.191550376635288,69.73679503405765],[26.273217553279927,69.78097563781468],[26.277233971803117,69.79971892425874],[26.364256373145224,69.82247862922485],[26.405759364554683,69.87335326385622],[26.440568325091775,69.88272490707732],[26.441907131266763,69.8974517749966],[26.57846536106542,69.92422789848749],[26.65076089448869,69.9322607355343],[26.7377832958308,69.9322607355343],[26.80338479838108,69.94297118493066],[26.855598239186808,69.94430999110405],[26.898440036771166,69.92556670466087],[27.010899755428998,69.92422789848749],[27.030981848046633,69.90548461204341],[27.103277381469194,69.90280699969477],[27.23314158039566,69.92958312318567],[27.371038616369216,69.98447417633905],[27.42726847569813,70.02463836157406],[27.490192365899414,70.03401000479604],[27.558471480799586,70.06346374063469],[27.641477463618326,70.07952941472922],[27.70306254764542,70.07952941472922],[27.77268046871898,70.0942562826485],[27.843637195967354,70.10630553821825],[27.919949147913904,70.11567718143944],[27.966807364021452,70.10898315056778],[27.97216258871963,70.04739806654015],[28.036425285095724,69.98045775781613],[28.12344768643783,69.93761596023248],[28.20243725073347,69.90414580587003],[28.293476070599567,69.88406371325257],[28.336317868183926,69.8880801317755],[28.351044736102583,69.87067565150667],[28.35907757314985,69.84122191566715],[28.39790295221013,69.82381743539912],[28.55052685610332,69.79570250573573],[28.78481793664115,69.76089354519812],[29.02312543570217,69.71939055378786],[29.13558515436,69.69127562412358],[29.165038890199003,69.65914427593539],[29.207880687782563,69.59622038573428],[29.317662794091394,69.48911589177436],[29.203864269259373,69.42619200157336],[29.049901559192083,69.34318601875381],[28.86380750093599,69.25348600506182],[28.819626897178242,69.22269346304986],[28.79552838603662,69.15575315432397],[28.799544804560696,69.10621732586698],[28.86380750093599,69.07810239620359],[28.917507628029842,69.06132110648635],[28.864925615287145,68.95951821295967],[28.837719952667722,68.88567427156708],[28.656996622412894,68.69134811000183],[28.43546479822973,68.53394391913483],[28.65116683756585,68.17055399700892],[29.23608858387367,68.07144765461086],[29.39737929797183,67.92958955666927],[29.560613273686414,67.77024210418772],[29.921854387978424,67.65799568950933],[30.225910752698287,67.56107772325414],[30.330430128071722,67.4375548250855],[30.488159367269823,67.3311350974327],[30.638287197351104,67.24751959713464],[30.650523526452673,67.24238033891383],[30.73330481132689,67.20761219926499],[30.51096359462406,66.98147027800405],[30.54326958337566,66.94916428925262],[30.531867469698966,66.93206111873769],[30.47295654903411,66.93396147101612],[30.434949503444216,66.91115724366227],[30.56797416300975,66.84654526615941],[30.5736752198481,66.81233892512773],[30.497661128667403,66.7534280044647],[30.49956148094742,66.73442448166952],[30.26581815056869,66.7078195497561],[30.216408991301307,66.63940686769456],[30.220209695860433,66.61850299262096],[30.184103002549705,66.59569876526439],[30.193604763947178,66.53298714004177],[30.14039490012067,66.48737868533317],[30.163199127474797,66.46647481025866],[30.161397667638255,66.4653416339097],[30.16365625860101,66.46625727889477],[30.34740052020851,66.42241816036312],[30.384938197371923,66.3533488343819],[30.41947286036259,66.3458412989512],[30.426980395794487,66.29479005800658],[30.36842161942019,66.29479005800658],[30.34589901312131,66.2812764942264],[30.457010537525264,66.16415894147576],[30.469022594217904,66.10710167218895],[30.457010537525264,66.08457906588865],[30.463016565871555,66.06355796667867],[30.64019440208409,65.93142534306298],[30.65520947294948,65.90289670841867],[30.629683852477854,65.86235601708177],[30.57562959736191,65.83232587535258],[30.517070820987556,65.81430779031143],[30.396950254063768,65.81130477613897],[30.321874899736883,65.77376709897635],[30.263316123361733,65.78427764858225],[30.237790502890164,65.77526860606395],[30.26481763044893,65.7572505210228],[30.16271514856328,65.70619928008091],[30.150703091871435,65.67917215252601],[30.06511718793911,65.69719023756261],[29.731782614726512,65.64013296827397],[29.784335362755314,65.59809076985039],[29.850401674562363,65.5665591210336],[29.771698639874614,65.5062201277733],[29.77113385824771,65.50635512708504],[29.759854118243823,65.49770732641628],[29.750845075724783,65.45716663507937],[29.750845075724783,65.38359278783719],[29.76435863950377,65.36107018153962],[29.74483904737849,65.33104003981043],[29.695289313523176,65.30100989807852],[29.62621998754264,65.27848729177913],[29.64123505840803,65.2424511217032],[29.809403852099933,65.24094961461651],[29.91601085524468,65.2214300224905],[29.940034968629163,65.20941796579973],[29.92051537650383,65.18989837367371],[29.86495961430228,65.16437275320368],[29.899494277292945,65.14635466816526],[29.956551546581693,65.11632452643335],[29.888983727687503,65.09530342722246],[29.79138576706174,65.10431246974167],[29.678772735571442,65.07428232801158],[29.674268214311496,65.02623410124033],[29.665259171792457,64.99320094533596],[29.663757664706054,64.9391466902216],[29.68778177809054,64.87608339258713],[29.816911387533366,64.80551255951923],[30.013608815869645,64.81151858786598],[30.04213745051402,64.80401105243436],[30.093188691456476,64.81452160203935],[30.1157112977545,64.8085155736917],[30.14273842531253,64.78298995322166],[30.087182663110127,64.76497186818415],[30.141236918226127,64.70641309180883],[30.183279116649487,64.67938596424938],[30.175771581215997,64.66887541464439],[30.181777609563085,64.63884527291248],[30.13673239696618,64.63884527291248],[30.12171732610085,64.62533170913503],[30.08417964893738,64.6268332162208],[30.061657042640093,64.61482115952822],[30.07967512767823,64.51722319890268],[30.111206776494612,64.4751810004791],[30.13823390405338,64.44665236583478],[30.129224861534283,64.42262825245143],[30.109705269409005,64.39860413906626],[30.152449965542814,64.36394627733534],[30.165261031610555,64.35355892647021],[30.25234844263008,64.34755289812438],[30.351447910341392,64.32953481308505],[30.384481066245712,64.30551069969988],[30.423520250495528,64.29049562883574],[30.419015729236378,64.27698206505556],[30.455051899313446,64.25746247293227],[30.540637803246568,64.24995493749884],[30.552649859938356,64.21692178159537],[30.51361067568854,64.19139616112352],[30.53313026781308,64.17187656899932],[30.562357133584726,64.15016518299763],[30.562798856523955,64.14983704595761],[30.58568301584188,64.13283738475002],[30.60219959379441,64.11481929971069],[30.59319055127537,64.06677107294126],[30.567664930803744,64.03523942412266],[30.546189394004784,64.02337136431379],[30.51060766151579,64.00370777530588],[30.396493122938296,63.96016406979561],[30.349946403255785,63.93764146349713],[30.297393655226188,63.871575151690195],[30.2838800914472,63.85505857373846],[30.253849949716425,63.83854199578673],[30.18327911664938,63.8160193894887],[30.106702255235668,63.82052391074834],[30.03613142216835,63.84604953121925],[29.9775726457932,63.88208570129611],[29.910004826898856,63.871575151690166],[29.857452078869834,63.89109474381442],[29.79739179540775,63.886590222556194],[29.51360695605128,63.868572137517724],[29.130722648983692,63.8445480241317],[28.884475486790922,63.82953295326665],[28.746336834828462,63.85055405247934],[28.537627349799305,63.87758118003603],[28.480570080511086,63.886590222556194],[28.458047474212705,63.87758118003603],[28.479068573424154,63.86256610917009],[28.399488697837555,63.785989247756376],[28.264353060049224,63.67637923044002],[28.205794283673807,63.7034063579968],[28.139727971865597,63.73343649972868],[28.09918728052892,63.76346664145968],[28.072160152971342,63.785989247756376],[27.99708479864394,63.80701034696818],[27.92351095140347,63.83103446035331],[27.840928061643805,63.86256610917009],[27.70879543802827,63.91511885720044],[27.69227886007602,63.898602279246944],[27.654741182913117,63.91962337845875],[27.626212548268608,63.91962337845875],[27.567653771893458,63.94965352018974],[27.363448808123586,63.96617009814146],[27.12771219553694,64.00520928239254],[26.994078064834387,64.0157198319985],[26.895586820550005,64.04409694530707],[26.831940085185884,64.03371752489512],[26.755797332999848,64.02300995036879],[26.679654580812212,63.99683587930306],[26.617788594661157,63.98255911326764],[26.558302069515133,63.9682823472331],[26.542835572977147,63.964713155725775],[26.528558806942875,63.970661808239996],[26.51071284939835,63.95162612019335],[26.502384735877854,63.93615962365581],[26.39411926011293,63.893329325550425],[26.259679713283695,63.843360644427804],[26.27514620982177,63.70535190609098],[26.290612706358868,63.60303508283957],[26.25611052177424,63.60065562183356],[26.254920791272035,63.59232750831325],[26.27038728781002,63.58756858630025],[26.26324890479173,63.582809664289925],[26.239454294734138,63.58637885579716],[26.208521301658166,63.576861011773836],[26.212090493167,63.53403071367031],[26.174019117073538,63.494769607073934],[26.155333185519996,63.48157953774082],[26.153793698523884,63.48049284103763],[26.025302804209275,63.45788796148372],[25.93964220799984,63.465026344500984],[25.92417571146109,63.48049284103763],[25.87896595235088,63.486441493553684],[25.823048618713642,63.51261556461759],[25.758803171555996,63.529271791657266],[25.686229610877888,63.53403071367029],[25.607707397685942,63.52570260015],[25.564877099581565,63.52213340864091],[25.518477609967704,63.53759990517756],[25.497062460915117,63.53165125266423],[25.382848332634808,63.573291820266604],[25.26506501284655,63.616122118370185],[25.247219055302708,63.61374265736595],[25.1936811826713,63.56734316775055],[25.15389130696275,63.55200886349121],[25.1467529239452,63.492522338345225],[25.118199391875123,63.4651585367792]]]]}},{"type":"Feature","properties":{"kind":"district","id":"uyezd-1897-1","name":"Улеоский","provinceId":"gubernia-1897-42"},"geometry":{"type":"MultiPolygon","coordinates":[[[[26.880023709308773,64.52744217759482],[26.84429919838908,64.5287180529831],[26.693745902372825,64.55423556078313],[26.612089877414803,64.56061493773359],[26.46281245678722,64.56444256390114],[26.41050156579945,64.5287180529831],[26.355638924030416,64.49809704362451],[26.311571917078027,64.4765761989529],[26.242502591097207,64.47207167769193],[26.060820233625797,64.46005962099932],[25.966225287173433,64.50210181942204],[25.831089649384126,64.5006003123344],[25.647905784827035,64.62372389343268],[25.314571211614606,64.71081130445057],[25.17643255965259,64.76786857373915],[24.99625170926741,64.80991077216275],[24.972227595882718,64.8369378997213],[25.00375924470038,64.84744844932538],[25.00526075178669,64.86246352019133],[25.01426979430606,64.88798914066322],[25.002646946026857,64.90669035756423],[25.01674795851187,64.91240698424826],[25.070300205491776,64.92445623981894],[25.133224095692697,64.92847265834189],[25.150628575961264,64.94587713860983],[25.18142111797573,64.93784430156302],[25.209536047639517,64.9003577286785],[25.238989783478246,64.87492041136284],[25.265765906968568,64.85751593109308],[25.284509193412134,64.83877264464991],[25.339400246566242,64.83207861377832],[25.394291299721147,64.84011145082513],[25.439810709653443,64.84814428787104],[25.44918235287446,64.8588547372674],[25.418234014387167,64.86209773758037],[25.421067423210673,64.88563086075919],[25.471942057841375,64.88830847310783],[25.500056987506696,64.90705175955009],[25.48800773193574,64.92311743364462],[25.44650474052679,64.94052191391256],[25.383580850324336,64.93382788304007],[25.35680472683481,64.92445623981894],[25.30726889837831,64.9365054953887],[25.284509193412134,64.9579263941805],[25.256394263746813,64.97399206827413],[25.240328589653245,64.99273535471912],[25.24434500817665,65.00880102881092],[25.271121131666973,65.0128174473366],[25.308607704552514,64.99407416089161],[25.346094277438056,64.99407416089161],[25.38893607502274,64.98202490532367],[25.441149515828442,64.96194281270436],[25.47729728253978,64.96060400652914],[25.52013908012367,64.96060400652914],[25.53352714186883,64.97800848679981],[25.512106243076857,64.99675177324207],[25.479974894888926,64.99675177324207],[25.461231608446155,65.00612341646229],[25.46524802696956,65.01683386585955],[25.483991313411536,65.01951147820819],[25.475958476365577,65.0342383461275],[25.443827128177645,65.05833685726793],[25.40767936146551,65.09983984867904],[25.402324136767902,65.11858313512221],[25.374209207103377,65.12661597216902],[25.347433083613055,65.12795477834152],[25.31797934777427,65.13732642156447],[25.26174948844522,65.14268164626264],[25.24166739582745,65.15339209565809],[25.248361426700058,65.1748129944499],[25.29388083663315,65.18150702532239],[25.305093338345046,65.19506243784053],[25.28701945498858,65.2020911702557],[25.308105652236577,65.20409937951626],[25.334212372639854,65.20108706562496],[25.353290360626545,65.1920501239465],[25.371364243982214,65.19405833320707],[25.369356034720113,65.20108706562496],[25.342245209687405,65.21012400730251],[25.319150803176512,65.21514453045802],[25.314130280022084,65.23924304159846],[25.354294465257567,65.23723483233516],[25.37939708102897,65.24325946012232],[25.36433551156648,65.25229640179805],[25.342245209687405,65.25229640179805],[25.33220416337855,65.2633415527389],[25.353290360626545,65.2633415527389],[25.345257523578994,65.27237849441735],[25.295052292036132,65.27840312220087],[25.298064605928516,65.28442774998985],[25.32517543096202,65.28744006387933],[25.338228791163203,65.29647700555779],[25.333208268008775,65.3045098426046],[25.32617953559304,65.30551394723534],[25.316138489284185,65.32057551669823],[25.337224686532977,65.32258372596061],[25.367347825458808,65.32559603985464],[25.393454545862028,65.33061656300742],[25.3864258134455,65.3376452954235],[25.370360139351135,65.34969455099326],[25.378392976398743,65.35873149267172],[25.361323197674096,65.36977664361075],[25.340237000425304,65.38082179454977],[25.309109756867656,65.38082179454977],[25.305093338345046,65.38584231770619],[25.32617953559304,65.3888546315984],[25.317142593915207,65.3988956779076],[25.30308512908215,65.39989978253743],[25.301076919820844,65.41596545663288],[25.32517543096202,65.40793261958424],[25.354294465257567,65.40492030569203],[25.371364243982214,65.41395724737049],[25.3633314069354,65.43203113072468],[25.376384767136642,65.43203113072468],[25.42056537089553,65.43303523535633],[25.410524324586675,65.44207217703479],[25.395462755123333,65.44508449092609],[25.376384767136642,65.4551255372362],[25.38341349955317,65.46115016502063],[25.406507906062473,65.46115016502063],[25.400483278277818,65.46918300206744],[25.370360139351135,65.47821994374772],[25.354294465257567,65.48524867616288],[25.327183640224064,65.51035129193315],[25.305093338345046,65.53444980307358],[25.27195788552524,65.54951137253738],[25.24384295586151,65.55453189569198],[25.244847060491793,65.56658115126265],[25.263925048478484,65.56658115126265],[25.25589221143167,65.57360988367873],[25.22396263146504,65.57360988367866],[25.22396263146504,65.58766734851085],[25.214925689787396,65.59971660408148],[25.214750239160303,65.5996815139561],[25.204884643478806,65.59770839481916],[25.19484359716995,65.57863040683242],[25.166663580981933,65.56863817541722],[25.15869583045768,65.5746139883085],[25.159699935088856,65.58666324388011],[25.159498166867703,65.58666324388011],[25.14660333883986,65.58963897342538],[25.133593214686414,65.57863040683242],[25.133500737585038,65.57872288393375],[25.121543959116025,65.59067966240303],[25.1225480637464,65.6007207087122],[25.325359354981384,65.69311655346792],[25.332960764099358,65.75012712185432],[25.445081548590057,65.76723029236928],[25.77384249294409,65.75582817869045],[26.167215414801795,65.82804156531165],[26.182418233037655,65.89265354281817],[26.229927040026194,65.91545777017103],[26.28503725613102,66.03137925922053],[26.503577768274514,66.06178489569083],[26.539684461585736,66.13399828231283],[26.967263724473792,66.10359264584164],[27.07748415668522,66.14159969143196],[27.278921498312606,66.14730074827004],[27.277021146033334,66.19655858137132],[27.505063419573275,66.32578253637892],[27.63998843141852,66.37694072175867],[27.63998843141852,66.39784459683422],[27.826222954810135,66.42825023330442],[27.944044796138648,66.40354565367213],[28.223396581226382,66.41304741506981],[28.250001513138848,66.40734635822898],[28.280407149611367,66.42254917646635],[28.409631104617908,66.47005798345337],[28.723189230736082,66.46815763117411],[28.789701560519113,66.46055622205675],[29.101359334357127,66.41874847190772],[29.409216403637398,66.38264177859668],[29.595450927028924,66.35033578984523],[29.679066427326376,66.34843543756597],[29.88240412123392,66.35223614212646],[30.045834417271614,66.39214353999614],[30.15924293999374,66.46348115912583],[30.16365625860101,66.46625727889477],[30.34740052020851,66.42241816036312],[30.384938197371923,66.3533488343819],[30.41947286036259,66.3458412989512],[30.426980395794487,66.29479005800658],[30.36842161942019,66.29479005800658],[30.34589901312131,66.2812764942264],[30.457010537525264,66.16415894147576],[30.469022594217904,66.10710167218895],[30.457010537525264,66.08457906588865],[30.463016565871555,66.06355796667867],[30.64019440208409,65.93142534306298],[30.65520947294948,65.90289670841867],[30.629683852477854,65.86235601708177],[30.57562959736191,65.83232587535258],[30.517070820987556,65.81430779031143],[30.396950254063768,65.81130477613897],[30.321874899736883,65.77376709897635],[30.263316123361733,65.78427764858225],[30.237790502890164,65.77526860606395],[30.26481763044893,65.7572505210228],[30.16271514856328,65.70619928008091],[30.150703091871435,65.67917215252601],[30.06511718793911,65.69719023756261],[29.731782614726512,65.64013296827397],[29.784335362755314,65.59809076985039],[29.850401674562363,65.5665591210336],[29.771698639874614,65.5062201277733],[29.77113385824771,65.50635512708504],[29.71374295043762,65.52007323099315],[29.632086925479655,65.52390085716343],[29.595086539170495,65.52007323099315],[29.57594840832121,65.53028023411298],[29.55681027747113,65.52517673255352],[29.530016894281346,65.5264526079427],[29.517258140382353,65.52262498177151],[29.535120395841375,65.50859035248413],[29.519809891162765,65.4932798478012],[29.519352760036497,65.49349737916509],[29.373084221314798,65.53283198489225],[29.245496682318503,65.53155610950307],[29.241669056147884,65.49583159858321],[29.204668669838725,65.47031409078227],[29.13959902495037,65.44479658298405],[29.064322376941846,65.42821020291467],[29.063865245815634,65.42842773427674],[29.01711498751331,65.44479658298405],[28.713456644699647,65.38865806582635],[28.63690412130171,65.28658803462895],[28.130381591482433,65.24320827136853],[28.10613995907306,65.22151838973787],[28.0385185634035,65.19344913115947],[28.02065630794442,65.16665574797116],[28.0244839341143,65.15389699407024],[27.95558666305527,65.0862755984017],[27.79865399008878,65.10286197847108],[27.75399835143992,65.11051723081255],[27.691480457331977,65.11051723081255],[27.60089330464325,65.08882734918188],[27.4209948746568,65.09648260152153],[27.3138213418992,65.02375770429353],[27.349545852818892,64.99313669493313],[27.46519338218019,64.93083633218794],[27.470754014866486,64.90765304380602],[27.40823612075701,64.88341141139517],[27.431201877776118,64.83492814657802],[27.367408108278767,64.80047951105007],[27.153061042763625,64.82089351728882],[26.92978284951772,64.75965149856984],[26.896610089379237,64.71116823374814],[26.873644332359277,64.70478885679859],[26.85960970306928,64.67799547361301],[26.842566191873402,64.65779899873542],[26.914015213712048,64.63738499249484],[26.936162226468014,64.58102894397416],[26.880023709308773,64.52744217759482]]]]}},{"type":"Feature","properties":{"kind":"district","id":"uyezd-1897-2","name":"Каянаский","provinceId":"gubernia-1897-42"},"geometry":{"type":"MultiPolygon","coordinates":[[[[26.410044434673182,64.52893558434698],[26.462355325661804,64.56466009526503],[26.611632746288592,64.56083246909657],[26.693288771246614,64.5544530921452],[26.84384206726361,64.52893558434698],[26.879566578183358,64.52765970895689],[26.935705095341746,64.58124647533623],[26.914015213712048,64.63738499249484],[26.842566191873402,64.65779899873542],[26.85915257194307,64.67821300497417],[26.873187201233065,64.70500638816247],[26.89615295825297,64.71138576511203],[26.92932571839225,64.7598690299319],[27.152603911637357,64.82111104865089],[27.366950977152555,64.80069704241123],[27.430744746650703,64.83514567794009],[27.407778989631538,64.88362894275906],[27.470296883740275,64.90787057516809],[27.46519338218019,64.93083633218794],[27.349545852818892,64.99313669493313],[27.313364210773727,65.02397523565742],[27.420537743531327,65.09670013288451],[27.600436173516982,65.08904488054577],[27.69102332620571,65.11073476217462],[27.753541220314446,65.11073476217462],[27.79819685896331,65.10307950983497],[27.95512953192906,65.08649312976377],[28.024026802988033,65.15411452543412],[28.02019917681821,65.16687327933323],[28.038061432278027,65.19366666252154],[28.10568282794685,65.22173592110175],[28.12992446035622,65.24342580273242],[28.6364469901755,65.28680556599284],[28.712999513573436,65.38887559718842],[29.0166578563871,65.44501411434703],[29.01711498751331,65.44479658298405],[29.063865245815634,65.42842773427674],[29.1391418938249,65.44501411434703],[29.204211538712457,65.47053162214615],[29.241211925021616,65.49604912994619],[29.245039551192292,65.53177364086514],[29.372627090189383,65.53304951625705],[29.373084221314798,65.53283198489225],[29.519352760036497,65.49349737916509],[29.53466326471596,65.5088078838462],[29.516801009256085,65.5228425131354],[29.529559763155873,65.52667013930477],[29.55635314634486,65.52539426391468],[29.57594840832121,65.53028023411298],[29.595086539170495,65.52007323099315],[29.631629794354183,65.52411838852458],[29.713285819312205,65.52029076235522],[29.771241508748403,65.50643765913537],[29.77113385824771,65.50635512708504],[29.759854118243823,65.49770732641628],[29.750845075724783,65.45716663507937],[29.750845075724783,65.38359278783719],[29.76435863950377,65.36107018153962],[29.74483904737849,65.33104003981043],[29.695289313523176,65.30100989807852],[29.62621998754264,65.27848729177913],[29.64123505840803,65.2424511217032],[29.809403852099933,65.24094961461651],[29.91601085524468,65.2214300224905],[29.940034968629902,65.20941796579973],[29.920515376504625,65.18989837367371],[29.86495961430228,65.16437275320368],[29.899494277292945,65.14635466816526],[29.956551546581693,65.11632452643335],[29.888983727687503,65.09530342722246],[29.79138576706174,65.10431246974167],[29.678772735571442,65.07428232801158],[29.674268214311496,65.02623410124033],[29.665259171792457,64.99320094533596],[29.663757664706054,64.9391466902216],[29.68778177809054,64.87608339258713],[29.816911387533366,64.80551255951923],[30.013608815869645,64.81151858786598],[30.042137450514815,64.80401105243436],[30.093188691456476,64.81452160203935],[30.115711297755297,64.8085155736917],[30.14273842531253,64.78298995322166],[30.087182663110127,64.76497186818415],[30.141236918226127,64.70641309180883],[30.183279116649487,64.67938596424938],[30.175771581215997,64.66887541464439],[30.181777609563085,64.63884527291248],[30.13673239696618,64.63884527291248],[30.12171732610085,64.62533170913503],[30.08417964893738,64.6268332162208],[30.061657042640093,64.61482115952822],[30.07967512767823,64.51722319890268],[30.111206776494612,64.4751810004791],[30.13823390405338,64.44665236583478],[30.129224861534283,64.42262825245143],[30.109705269409005,64.39860413906626],[30.152449965542814,64.36394627733534],[30.165261031610555,64.35355892647021],[30.25234844263008,64.34755289812438],[30.351447910341392,64.32953481308505],[30.384481066245712,64.30551069969988],[30.423520250495528,64.29049562883574],[30.419015729236378,64.27698206505556],[30.455051899313446,64.25746247293227],[30.540637803246568,64.24995493749884],[30.552649859938356,64.21692178159537],[30.51361067568854,64.19139616112352],[30.53313026781308,64.17187656899932],[30.562357133584726,64.15016518299763],[30.562798856523955,64.14983704595761],[30.58568301584188,64.13283738475002],[30.60219959379441,64.11481929971069],[30.59319055127537,64.06677107294126],[30.567664930803744,64.03523942412266],[30.546189394004784,64.02337136431379],[30.51060766151579,64.00370777530588],[30.396493122938296,63.96016406979561],[30.349946403255785,63.93764146349713],[30.297393655226188,63.871575151690195],[30.2838800914472,63.85505857373846],[30.253849949716425,63.83854199578673],[30.183279116649487,63.816019389489156],[30.10670225523546,63.82052391074831],[30.036131422168467,63.84604953122016],[29.977572645793373,63.88208570129609],[29.910004826899183,63.871575151690195],[29.857452078869585,63.89109474381439],[29.79739179540809,63.88659022255706],[29.513606956051547,63.86857213751864],[29.130722648983635,63.844548024131655],[28.884475486791303,63.82953295326661],[28.74633683482864,63.85055405247931],[28.53762734979972,63.87758118003694],[28.480570080510972,63.88659022255706],[28.458047474212947,63.87758118003694],[28.47906857342383,63.862566109170075],[28.399488697837796,63.78598924775724],[28.264353060049416,63.676379230440034],[28.205794283673526,63.703406357996755],[28.139727971865682,63.73343649972867],[28.099187280528724,63.76346664145967],[28.07216015297149,63.78598924775724],[27.99708479864381,63.80701034696813],[27.92351095140333,63.831034460353294],[27.84092806164375,63.862566109170075],[27.70879543802812,63.91511885720138],[27.692278860076385,63.898602279247825],[27.65474118291297,63.91962337845871],[27.626212548268597,63.91962337845871],[27.567653771893447,63.94965352018971],[27.363448808123735,63.96617009814145],[27.127712195536844,64.00520928239348],[26.99407806483407,64.01571983199847],[26.89558682055008,64.0440969453075],[26.832137744982333,64.06237777442766],[26.844149801674178,64.15396970670736],[26.847152815846925,64.21402999016937],[26.824630209549696,64.25156766733289],[26.698503614280355,64.32364000748748],[26.56937400483673,64.32514151457508],[26.483788100904405,64.36868522008172],[26.52132577806782,64.38820481220773],[26.414718774923813,64.44075756023722],[26.311571917078027,64.4765761989529],[26.31111478595176,64.47679373031406],[26.355181792904204,64.49831457498658],[26.410044434673182,64.52893558434698]]]]}},{"type":"Feature","properties":{"kind":"district","id":"uyezd-1897-22","name":"Гапавесиский","provinceId":"gubernia-1897-42"},"geometry":{"type":"MultiPolygon","coordinates":[[[[26.212090493166954,63.53403071367029],[26.20852130165821,63.57686101177387],[26.239454294734117,63.58637885579719],[26.263248904791737,63.582809664289925],[26.270387287810024,63.58756858630022],[26.25492079127207,63.59232750831325],[26.256110521774247,63.60065562183354],[26.2906127063589,63.6030350828396],[26.27514620982174,63.70535190609098],[26.25967971328373,63.843360644427776],[26.394119260112916,63.89332932555044],[26.502384735877854,63.93615962365584],[26.510712849398317,63.951626120193396],[26.528558806942897,63.97066180824004],[26.54283557297714,63.9647131557258],[26.55830206951515,63.96828234723307],[26.617788594661135,63.9825591132676],[26.679654580812212,63.996835879303035],[26.75579733299986,64.02300995036876],[26.83194008518592,64.03371752489511],[26.89558682055008,64.0440969453075],[26.832137744982333,64.06237777442766],[26.844149801674178,64.15396970670736],[26.847152815846925,64.21402999016937],[26.824630209549696,64.25156766733289],[26.698503614280355,64.32364000748748],[26.56937400483673,64.32514151457508],[26.483788100904405,64.36868522008172],[26.52132577806782,64.38820481220773],[26.414718774923813,64.44075756023722],[26.311571917078027,64.4765761989529],[26.242502591097207,64.47207167769193],[26.175737616689446,64.42156966884431],[26.172168425179905,64.40610317230767],[26.1495635456252,64.4084826333119],[26.135286779589364,64.38825721476223],[26.094835942490874,64.385877753758],[26.060333757905426,64.39896478928858],[25.99846777175435,64.38706748426102],[25.98538073622302,64.40253398079858],[25.94849909063248,64.38706748426102],[25.905668792527365,64.37873937073891],[25.869976877439797,64.37041125721862],[25.820008196317133,64.34066799464563],[25.784316281230304,64.3430474556526],[25.78788547273831,64.35970368269227],[25.741485983125187,64.36446260470348],[25.714122181558025,64.35018583866895],[25.679619996973372,64.35375503017713],[25.630841046353623,64.34661664716168],[25.515437187571194,64.34899610816592],[25.490452847009863,64.37992910124194],[25.495211769021523,64.39182640627132],[25.451191740413492,64.39539559778132],[25.34887491716313,64.34542691665683],[25.3274597681106,64.33233988112625],[25.303665158052183,64.33828853364139],[25.297716505537608,64.3311501506223],[25.303665158052183,64.29902742704508],[25.287008931011314,64.29069931352296],[25.241799171900368,64.28831985251873],[25.204917526310624,64.26333551195694],[25.212055909328114,64.25381766793362],[25.200158604298906,64.2442998239103],[25.182312646755122,64.24548955441333],[25.118067199597476,64.21931548334942],[25.112118547082844,64.1931414122846],[25.071667709983558,64.18124410725522],[25.006232532323736,64.15982895820343],[24.983627652767495,64.1669673412207],[24.968161156230337,64.15744949719738],[24.933658971645627,64.16339814971161],[24.92414112762225,64.15269057518526],[24.95150492918941,64.1407932701577],[24.92771031913105,64.12770623462438],[25.00980172383254,64.115808929595],[25.05739094394852,64.10153216356139],[25.05977040495435,64.09320405003928],[25.026457950873407,64.05870186545508],[25.008611993328827,64.02657914187603],[24.996714688300415,63.99088722678971],[24.985544440801107,63.97099228893421],[24.929032241911614,63.968414539511286],[24.88263275229849,63.969604270014315],[24.805300269608722,63.9945886105761],[24.755331588486058,63.960086425990994],[24.722019134405116,63.926773971908915],[24.731536978427698,63.91011774486833],[24.757711049491945,63.905358822856215],[24.786264581562023,63.90773828386227],[24.805300269608722,63.87561556028504],[24.863597064251792,63.861338794248695],[24.954016582472946,63.837544184191756],[24.976621462028447,63.78757550306909],[24.968293348507984,63.742365743958544],[24.906427362356908,63.66146406975986],[24.762469971503606,63.71619167289373],[24.714880751387568,63.69239706283588],[24.63040988568025,63.655515417244715],[24.729157517422607,63.6031672751169],[24.80054134759706,63.58770077857844],[24.8528894897255,63.58413158707117],[24.876684099783915,63.54249101946789],[24.901668440345247,63.515127217900044],[24.981380384040108,63.49728126035643],[24.99446741957223,63.47705584180676],[25.01350310761893,63.47943530281282],[25.063471788741595,63.45445096225285],[25.118199391875123,63.4651585367792],[25.1467529239452,63.492522338345225],[25.15389130696275,63.55200886349121],[25.1936811826713,63.56734316775055],[25.247219055302708,63.61374265736595],[25.26506501284655,63.616122118370185],[25.382848332634808,63.573291820266604],[25.497062460915117,63.53165125266423],[25.518477609967704,63.53759990517756],[25.564877099581565,63.52213340864091],[25.607707397685942,63.52570260015],[25.686229610877888,63.53403071367029],[25.758803171555996,63.529271791657266],[25.823048618713642,63.51261556461759],[25.87896595235088,63.486441493553684],[25.92417571146109,63.48049284103763],[25.93964220799984,63.465026344500984],[26.025302804209275,63.45788796148372],[26.153793698523884,63.48049284103763],[26.155333185519996,63.48157953774082],[26.1740191170735,63.49476960707398],[26.212090493166954,63.53403071367029]]]]}},{"type":"Feature","properties":{"kind":"district","id":"uyezd-1897-31","name":"Кемиский","provinceId":"gubernia-1897-42"},"geometry":{"type":"MultiPolygon","coordinates":[[[[25.166526899283706,65.56858936052501],[25.158494062236528,65.5746139883085],[25.159498166867703,65.58666324388011],[25.159699935088856,65.58666324388011],[25.15869583045768,65.5746139883085],[25.166663580981933,65.56863817541722],[25.166526899283706,65.56858936052501]]],[[[25.223760863243886,65.58766734851085],[25.214750239160303,65.5996815139561],[25.214925689787396,65.59971660408148],[25.22396263146504,65.58766734851085],[25.22396263146504,65.57360988367866],[25.223760863243886,65.57360988367866],[25.223760863243886,65.58766734851085]]],[[[25.121342190894783,65.59067966240303],[25.122346295525247,65.6007207087123],[25.115317563109244,65.61176585965131],[25.099251889015598,65.61979869669814],[25.098247784384334,65.63184795226877],[25.084190319552327,65.63084384763893],[25.07013285472032,65.63184795226877],[25.03599329726988,65.63586437079267],[25.0319768787466,65.64188899857794],[25.022939937069047,65.6479136263633],[25.007878367605777,65.64289310320964],[24.98076754257214,65.63586437079267],[24.968718287001682,65.64389720784038],[24.93658693881359,65.65193004488623],[24.929558206397587,65.66498340508858],[24.914496636934405,65.67502445139685],[24.874332451699136,65.67803676529002],[24.83718058035659,65.67803676529002],[24.82011080163177,65.68205318381294],[24.802036918276485,65.6800449745506],[24.78396303492049,65.6800449745506],[24.776934302504486,65.6689998236115],[24.759864523779665,65.65594646341013],[24.73978243116203,65.63787258005502],[24.71668802465238,65.644901312472],[24.6805402579403,65.65092594025639],[24.696605932034746,65.65996288193305],[24.694597722773107,65.67100803287393],[24.694597722773107,65.67904086992164],[24.68455667646429,65.6840613930753],[24.683552571833026,65.69109012549139],[24.68656488572593,65.70414348569187],[24.67150331626266,65.71920505515567],[24.64640070049057,65.7272378922016],[24.630335026397013,65.73025020609468],[24.616277561564118,65.73828304314151],[24.601215992101736,65.73828304314151],[24.581133899484012,65.7352707292502],[24.576113376329648,65.7483240894498],[24.58916673653128,65.75434871723604],[24.581133899484012,65.7674020774375],[24.58916673653128,65.78145954226959],[24.580129794852837,65.7965211117334],[24.563060016128016,65.80656215804079],[24.539965609618367,65.81158268119542],[24.50281373827591,65.80656215804079],[24.48373575028945,65.80354984414949],[24.473694703980634,65.78346775153203],[24.45963723914774,65.77945133300724],[24.418468949282094,65.78748417005495],[24.363243194584353,65.80656215804079],[24.35018983438272,65.81158268119542],[24.332115951026726,65.80857036730323],[24.313037963040266,65.81660320435094],[24.299984602838634,65.83066066918303],[24.27588609169781,65.84471813401522],[24.246767057402533,65.85074276180057],[24.22467675552326,65.84471813401522],[24.206602872167263,65.8396976108597],[24.186520779550428,65.84371402938449],[24.169451000825518,65.85676738958497],[24.151377117469522,65.88990284240387],[24.133303234113438,65.91098903965207],[24.10217599055661,65.92805881837644],[24.06402001458378,65.94010807394805],[24.041929712704505,65.9521573295178],[24.026868143241234,65.9742476313977],[24.034900980287702,66.0103953981097],[24.02184762008687,66.02244465367943],[23.98971627189878,66.0465431648199],[23.96662186538833,66.06160473428281],[23.950556191294684,66.08369503616262],[23.942523354247506,66.1047812334109],[23.948547982033045,66.11783459361226],[23.94553566814023,66.12887974455315],[23.935494621831413,66.13490437233753],[23.937502831093052,66.14594952327654],[23.933486412569863,66.16000698810873],[23.917420738475418,66.16904392978716],[23.845125205052856,66.1851096038817],[23.793915868878393,66.20719990575974],[23.76078041605904,66.2312984169011],[23.734673695656575,66.25539692804156],[23.70153824283731,66.29957753180038],[23.68246025485085,66.32367604294262],[23.684468464112577,66.33371708925002],[23.69551361505257,66.36082791428356],[23.704550556730123,66.38091000690112],[23.705554661361298,66.39797978562727],[23.683464359482112,66.41906598287545],[23.67643562706602,66.44015218012373],[23.690493091898116,66.46525479589485],[23.719612126193393,66.47730405146734],[23.747727055858206,66.4933697255592],[23.776846090153484,66.51847234133308],[23.810985647603214,66.52650517837803],[23.837092368005678,66.54056264321022],[23.88227707639531,66.56566525898319],[23.92043305236823,66.59478429327731],[23.92043305236823,66.62089101368112],[23.918424843106592,66.65904698965367],[23.94352745887868,66.69419065173405],[23.954572609817873,66.72330968602995],[23.957584923710687,66.74238767401579],[23.94955208666351,66.76447797589569],[23.94955208666351,66.77652723146632],[23.97063828391232,66.78255185925079],[23.974654702435597,66.79962163797694],[23.990720376529154,66.81167089354669],[24.018835306194056,66.80564626576142],[24.045946131227694,66.81066678891597],[24.058999491429326,66.8267324630096],[24.04895844512051,66.84581045099634],[24.022851724717246,66.86087202045925],[24.009798364516413,66.87894590381711],[23.96260544686514,66.90103620569425],[23.916416633844953,66.92011419368275],[23.9073796921666,66.92915113535852],[23.885289390287326,66.94622091408468],[23.862194983777677,66.9763440530114],[23.815002066126404,67.0014466687826],[23.770821462367856,67.02855749381615],[23.734673695656575,67.05366010958727],[23.707562870622937,67.0807709346209],[23.686476673374926,67.11290228280997],[23.64932480203247,67.13599668931873],[23.628238604783572,67.14704184025952],[23.61920166310602,67.17415266529316],[23.6342632325692,67.18821013012526],[23.65133301129402,67.200259385695],[23.63827965109239,67.23439894314464],[23.662378162233303,67.23339483851392],[23.66639458075729,67.2474523033461],[23.69149719652858,67.26251387280892],[23.740698323441404,67.280587756165],[23.761784520690302,67.29665343025954],[23.783874822569487,67.31773962750773],[23.795924078139944,67.33581351086283],[23.81399796149594,67.345854557172],[23.802952810555947,67.35689970811289],[23.781866613307937,67.36593664978956],[23.76078041605904,67.38802695166936],[23.768813253106305,67.41011725354838],[23.787891241092765,67.41614188133364],[23.798936392032758,67.43521986931948],[23.787891241092765,67.45128554341402],[23.745718846595857,67.45228964804572],[23.709571079884576,67.45329375267646],[23.688484882636477,67.44526091562963],[23.675431522434845,67.44526091562963],[23.675431522434845,67.45931838046181],[23.64731659277083,67.46433890361547],[23.61217293068997,67.46433890361547],[23.88823261762637,67.55454006485066],[24.115594226656935,67.63032726785966],[24.315750173067453,67.61283791331968],[24.321579957914675,67.56036984969796],[24.383764329614944,67.5040152628435],[24.451778486162436,67.41462522852363],[24.54894156694524,67.33106497905196],[24.611125938645507,67.28831322350747],[24.73938120527809,67.17366078818486],[24.949253459766986,67.20280971241938],[25.425352555599513,67.16200121849033],[25.915054482741663,67.12313598617762],[26.486373397740216,66.93658287107522],[26.540784722977996,66.93075308622879],[26.69818891384509,66.97350484177328],[26.787578948164693,66.98516441146782],[26.937210092569387,67.01237007408687],[27.568770117652942,67.01042681247054],[27.782528895373883,67.02985942862597],[28.085677707413627,67.05317856801415],[28.369393903297325,67.08038423063411],[28.67837250018509,67.13285229425583],[28.707521424419514,67.1892068811094],[28.828003644588897,67.23390189826934],[28.88630149305872,67.33495150228187],[29.002897189996858,67.44571741437447],[29.10977657885733,67.53316418707801],[29.5606132736865,67.77024210418678],[29.921854387978424,67.65799568950933],[30.225910752698287,67.56107772325414],[30.330430128071722,67.4375548250855],[30.488159367269823,67.3311350974327],[30.638287197351104,67.24751959713464],[30.650523526450495,67.24238033891379],[30.73330481132689,67.20761219926499],[30.51096359462406,66.98147027800405],[30.54326958337566,66.94916428925262],[30.531867469698966,66.93206111873769],[30.47295654903411,66.93396147101612],[30.434949503444216,66.91115724366227],[30.56797416300975,66.84654526615941],[30.5736752198481,66.81233892512773],[30.497661128667403,66.7534280044647],[30.49956148094742,66.73442448166952],[30.26581815056869,66.7078195497561],[30.216408991301307,66.63940686769456],[30.220209695860433,66.61850299262096],[30.184103002549705,66.59569876526439],[30.193604763947178,66.53298714004177],[30.14039490012067,66.48737868533317],[30.163199127474797,66.46647481025866],[30.161397667638255,66.4653416339097],[30.16365625860101,66.46625727889477],[30.15924293999374,66.46348115912583],[30.045834417271614,66.39214353999614],[29.88240412123392,66.35223614212646],[29.679066427326376,66.34843543756597],[29.595450927028924,66.35033578984523],[29.409216403637398,66.38264177859668],[29.101359334357127,66.41874847190772],[28.789701560519113,66.46055622205675],[28.723189230736082,66.46815763117411],[28.409631104617908,66.47005798345337],[28.280407149611367,66.42254917646635],[28.250001513138848,66.40734635822898],[28.223396581226382,66.41304741506981],[27.944044796138648,66.40354565367213],[27.826222954810135,66.42825023330442],[27.63998843141852,66.39784459683422],[27.63998843141852,66.37694072175867],[27.505063419573275,66.32578253637892],[27.277021146033334,66.19655858137132],[27.278921498312606,66.14730074827004],[27.07748415668522,66.14159969143196],[26.967263724473792,66.10359264584164],[26.539684461585736,66.13399828231283],[26.503577768274514,66.06178489569083],[26.28503725613102,66.03137925922053],[26.229927040026194,65.91545777017103],[26.182418233037655,65.89265354281817],[26.167215414801795,65.82804156531165],[25.77384249294409,65.75582817869045],[25.445081548590057,65.76723029236928],[25.332960764099358,65.75012712185432],[25.325359354981384,65.69311655346792],[25.1225480637464,65.6007207087122],[25.121543959116025,65.59067966240303],[25.133500737585038,65.57872288393375],[25.13339144646524,65.5786304068324],[25.121342190894783,65.59067966240303]]]]}},{"type":"Feature","properties":{"kind":"district","id":"uyezd-1897-551","name":"Лапмарский","provinceId":"gubernia-1897-42"},"geometry":{"type":"MultiPolygon","coordinates":[[[[23.61217293068997,67.46433890361547],[23.88823261762637,67.55454006485066],[24.115594226656935,67.63032726785966],[24.315750173067453,67.61283791331968],[24.321579957914675,67.56036984969796],[24.383764329614944,67.5040152628435],[24.451778486162436,67.41462522852363],[24.54894156694524,67.33106497905196],[24.611125938645507,67.28831322350747],[24.73938120527809,67.17366078818486],[24.949253459766986,67.20280971241938],[25.425352555599513,67.16200121849033],[25.915054482741663,67.12313598617762],[26.486373397740216,66.93658287107522],[26.540784722977996,66.93075308622879],[26.69818891384509,66.97350484177328],[26.787578948164693,66.98516441146782],[26.937210092569387,67.01237007408687],[27.568770117652942,67.01042681247054],[27.782528895373883,67.02985942862597],[28.085677707413627,67.05317856801415],[28.369393903297325,67.08038423063411],[28.67837250018509,67.13285229425583],[28.707521424419514,67.1892068811094],[28.828003644588897,67.23390189826934],[28.88630149305872,67.33495150228187],[29.002897189996858,67.44571741437447],[29.10977657885733,67.53316418707801],[29.5606132736865,67.77024210418678],[29.397379297972183,67.92958955666833],[29.236088583873844,68.07144765461089],[28.65116683756567,68.17055399700897],[28.43546479822955,68.53394391913477],[28.65699662241289,68.69134811000187],[28.837719952667364,68.88567427156615],[28.864925615286698,68.95951821295971],[28.917507628030638,69.06132110648745],[28.86380750093599,69.07810239620359],[28.799544804560696,69.10621732586698],[28.79552838603662,69.15575315432397],[28.819626897178242,69.22269346304986],[28.86380750093599,69.25348600506182],[29.049901559192083,69.34318601875381],[29.203864269259373,69.42619200157336],[29.317662794091394,69.48911589177436],[29.207880687782563,69.59622038573428],[29.165038890199003,69.65914427593539],[29.13558515436,69.69127562412358],[29.02312543570217,69.71939055378786],[28.78481793664115,69.76089354519812],[28.55052685610332,69.79570250573573],[28.39790295221013,69.82381743539912],[28.35907757314985,69.84122191566715],[28.351044736102583,69.87067565150667],[28.336317868183926,69.8880801317755],[28.293476070599567,69.88406371325257],[28.20243725073347,69.90414580587003],[28.12344768643783,69.93761596023248],[28.036425285095724,69.98045775781613],[27.97216258871963,70.04739806654015],[27.966807364021452,70.10898315056778],[27.919949147913904,70.11567718143944],[27.843637195967354,70.10630553821825],[27.77268046871898,70.0942562826485],[27.70306254764542,70.07952941472922],[27.641477463618326,70.07952941472922],[27.558471480799586,70.06346374063469],[27.490192365899414,70.03401000479604],[27.42726847569813,70.02463836157406],[27.371038616369216,69.98447417633905],[27.23314158039566,69.92958312318567],[27.103277381469194,69.90280699969477],[27.030981848046633,69.90548461204341],[27.010899755428998,69.92422789848749],[26.898440036771166,69.92556670466087],[26.855598239186808,69.94430999110405],[26.80338479838108,69.94297118493066],[26.7377832958308,69.9322607355343],[26.65076089448869,69.9322607355343],[26.57846536106542,69.92422789848749],[26.441907131266763,69.8974517749966],[26.440568325091775,69.88272490707732],[26.405759364554683,69.87335326385622],[26.364256373145224,69.82247862922485],[26.277233971803117,69.79971892425874],[26.273217553279927,69.78097563781468],[26.191550376635288,69.73679503405765],[26.14870857905084,69.71403532908968],[26.022860798648452,69.67788756237945],[26.010811543077285,69.66182188828492],[25.976002582540904,69.63772337714454],[25.99876228750683,69.59488157955911],[25.99876228750683,69.55605620050027],[25.897013018245264,69.51856962761302],[25.897174555333947,69.51776194216924],[25.902368242943442,69.49179350412399],[25.884963762674808,69.47974424855416],[25.883624956499908,69.46367857445873],[25.87023689475535,69.44761290036419],[25.87157570092945,69.43154722627153],[25.898351824419365,69.41815916452653],[25.86889808858045,69.40343229660716],[25.855510026835805,69.3846890101631],[25.83141151569498,69.37531736694288],[25.811329423077346,69.36728452989517],[25.814007035426435,69.34318601875381],[25.776520462540166,69.33783079405563],[25.75242195139934,69.30971586439225],[25.75911598227162,69.29231138412254],[25.75242195139934,69.272229291505],[25.733678664955896,69.2307263000966],[25.740372695828885,69.21064420747825],[25.775181656366065,69.18922330868644],[25.779198074889255,69.1490591234524],[25.76313240079481,69.11291135674033],[25.75509956374843,69.0419546294925],[25.739033889653985,68.95894864667206],[25.688159255023248,68.90539639969205],[25.64665626361379,68.88397550090122],[25.60381446602943,68.8893307255994],[25.56498908696906,68.90271878734438],[25.515453258512423,68.90137998116913],[25.457884593009318,68.87995908237642],[25.352118905223765,68.8625546021085],[25.29053382119676,68.83443967244332],[25.236981574216934,68.80632474277895],[25.206189032203742,68.77419339459175],[25.163347234619383,68.7099306982154],[25.12987708025719,68.63897397096657],[25.12987708025719,68.60416501043073],[25.045532291263374,68.59747097955818],[24.965203920793634,68.58943814251145],[24.90094122441745,68.57337246841692],[24.895585999719362,68.55061276344983],[24.855421814484803,68.5385635078801],[24.816596435423723,68.55462918197463],[24.71350835998726,68.632279940095],[24.568917293141336,68.66575009445747],[24.389517265758233,68.68583218707502],[24.194051564281573,68.71126950439066],[24.113723193811833,68.76883816989357],[24.029378404818015,68.78222623163857],[23.939678391126908,68.82640683539651],[23.80981419220044,68.82506802922214],[23.746890301998448,68.80230832425603],[23.69869327971671,68.72733517848332],[23.598282816629336,68.68583218707502],[23.412188758374043,68.68583218707502],[23.31579471380977,68.65771725741064],[23.143088717299033,68.62023068452339],[23.007869293675277,68.681815768552],[22.76420656991608,68.67913815620159],[22.525899070854972,68.73135159700811],[22.370597554612782,68.71126950439066],[22.272864703874408,68.8438113156662],[22.18851991488148,68.90137998116913],[22.15103334199521,68.9388665540546],[22.092125870317204,68.98572477016295],[22.002425856626097,69.05668149741088],[21.91911533234793,69.12483513908502],[21.812440228567688,69.17150549698722],[21.703896027865145,69.23704161816563],[21.56145834022315,69.30277472071882],[21.37462782346994,69.33151815265776],[21.22350475978291,69.33151815265776],[21.063492104112814,69.29595978473021],[20.95237220434184,69.24039983484548],[21.00793215422693,69.14705911903823],[21.105717666025438,69.12483513908502],[21.01237695021766,69.05149600523505],[20.87236587650635,69.08260957717178],[20.71457561883282,69.13372473106666],[20.54789576917605,69.08038717917591],[20.650126076965382,69.05594080122685],[20.803471538648978,69.03371682127363],[20.867921080516417,68.97148967740125],[20.839029906575192,68.94926569744715],[20.87681067249717,68.90481773753893],[21.085716084066565,68.87592656359718],[21.210170371809824,68.807032225739],[21.21239276980559,68.77814105179822],[21.28350950565793,68.76480666382665],[21.36351583349342,68.7670290618225],[21.4012965994154,68.75147227585418],[21.399074201420433,68.71813630592347],[21.432410171350792,68.68924513198269],[21.512416499186283,68.68924513198269],[21.592422827020975,68.66479875403459],[21.636870786929453,68.65813156004694],[21.687985940823808,68.64035237608365],[21.712432318774212,68.6092388041479],[21.799105840594603,68.60701640615204],[21.894668954397435,68.58479242619883],[21.987521034117265,68.52183643734953],[22.04801441608183,68.48700691439899],[22.14579992787963,68.47145012843245],[22.24803023566896,68.4736725264274],[22.303590185554047,68.46700533244163],[22.374706921407185,68.46478293444576],[22.396202222700857,68.44334091871863],[22.427329466257685,68.4322957677805],[22.45343618666015,68.43329987240938],[22.48757574410988,68.42125061683963],[22.52171530155952,68.41321777979192],[22.56187948679479,68.41020546589874],[22.590998521090068,68.41623009368499],[22.614092927600517,68.41522598905426],[22.618109346123706,68.40116852422217],[22.64019964800298,68.38811516402072],[22.671326891559808,68.37907822234227],[22.68638846102308,68.37104538529545],[22.709482867533527,68.36702896677252],[22.745630634244808,68.36301254824774],[22.77575377317126,68.37204948992618],[22.799852284312173,68.36702896677252],[22.81993437692972,68.35096329267799],[22.85005751585546,68.33790993247653],[22.878172445520274,68.32887299079809],[22.918336630755544,68.3188319444907],[22.93440230484919,68.30778679354991],[22.958500815990103,68.29573753797919],[22.988623954916555,68.29272522408789],[23.0046896290102,68.2716390268397],[23.028788140151825,68.25557335274516],[23.06393180223193,68.23247894623454],[23.092046731896744,68.21641327214],[23.105100092098375,68.19833938878489],[23.090038522635194,68.17223266838207],[23.092046731896744,68.15817520354997],[23.09104262726557,68.14110542482462],[23.08100158095675,68.12805206462326],[23.10208777820556,68.12001922757644],[23.1291986032392,68.12905616925399],[23.168358683843294,68.13608490167007],[23.219568020017846,68.14913826187144],[23.24366653115867,68.12704795999252],[23.261740414514666,68.10194534422044],[23.29889228585721,68.0828673562346],[23.310941541427667,68.06378936824876],[23.34508109887731,68.05073600804731],[23.403319167467863,68.0216169737514],[23.451516189749512,68.0025389857637],[23.513770676864056,67.98145278851553],[23.547910234313786,67.96438300979113],[23.567992326931332,67.94430091717368],[23.600123675119423,67.93727218475759],[23.64631248813952,67.92723113844842],[23.662378162233257,67.91719009214103],[23.657357639078803,67.90413673193957],[23.634263232569154,67.89208747636805],[23.604140093642613,67.8830505346896],[23.59309494270342,67.8720053837505],[23.566988222300157,67.8689930698592],[23.525819932434512,67.85895202354914],[23.508750153709602,67.84188224482386],[23.483647537937603,67.81376731516048],[23.477622910152775,67.77962775771084],[23.47862701478315,67.73946357247495],[23.488668061092056,67.72239379375057],[23.483647537937603,67.69729117797937],[23.506741944448052,67.6772090853628],[23.519795304648884,67.66114341126737],[23.519795304648884,67.6430695279105],[23.5298363509577,67.625999749187],[23.549918443575336,67.625999749187],[23.571004640824235,67.60692176119939],[23.57401695471616,67.59286429636907],[23.56598411766978,67.56876578522673],[23.541885606528158,67.55571242502538],[23.502725525924063,67.54868369260927],[23.488668061092056,67.54065085556157],[23.508750153709602,67.53261801851474],[23.505737839816877,67.5135400305289],[23.483647537937603,67.50851950737427],[23.467581863843957,67.49446204254218],[23.446495666595148,67.4874333101261],[23.452520294380776,67.4743799499256],[23.477622910152775,67.47036353140082],[23.498709107400874,67.46233069435311],[23.530840455588876,67.45429785730629],[23.571004640824235,67.4512855434141],[23.61217293068997,67.46433890361547]]]]}},{"type":"Feature","properties":{"kind":"district","id":"uyezd-1897-654","name":"Салоский","provinceId":"gubernia-1897-42"},"geometry":{"type":"MultiPolygon","coordinates":[[[[26.242502591097207,64.47207167769193],[26.060820233625797,64.46005962099932],[25.966225287173433,64.50210181942204],[25.831089649384126,64.5006003123344],[25.647905784827035,64.62372389343268],[25.314571211614606,64.71081130445057],[25.17643255965259,64.76786857373915],[24.99625170926741,64.80991077216275],[24.972227595882718,64.8369378997213],[25.00375924470038,64.84744844932538],[25.00526075178669,64.86246352019133],[25.01426979430606,64.88798914066322],[25.002646946026857,64.90669035756423],[24.967212130055355,64.89232489162993],[24.902949433679172,64.8896472792803],[24.8346703187798,64.88696966693175],[24.783147010368417,64.88081482591676],[24.778440459450884,64.857515931093],[24.75434194831006,64.85617712491775],[24.7101613445516,64.84278906317283],[24.707483732202512,64.81467413350944],[24.659286709920064,64.78522039767],[24.607073269115048,64.74371740625975],[24.576658855265215,64.72963154796531],[24.414423801600066,64.64073562814791],[24.37886543367394,64.55183970833247],[24.23440956397181,64.49405736045179],[24.269967931898023,64.46516618651003],[24.229964767981077,64.44960940054446],[24.167737624108693,64.45183179853845],[24.00772496843851,64.38738225667208],[24.001057774452722,64.3584910827312],[23.98105619249385,64.34737909275371],[23.949942620557657,64.34960149074956],[23.923273844613085,64.32737751079644],[23.941053028576903,64.2740399589056],[23.90549466064998,64.2473711829598],[23.847712312769126,64.25848317293827],[23.725480423021722,64.23403679498821],[23.756593994957115,64.21403521302908],[23.718303874474206,64.19239297101839],[23.76428607955839,64.1600933427599],[23.79997799464522,64.14700630722658],[23.883259129849638,64.12916034968391],[23.951073768516068,64.11131439214019],[23.992714336117476,64.08633005157755],[24.029595981708024,64.08038139906421],[24.05933924428099,64.06372517202358],[24.090272237356963,64.02089487391828],[24.133102535461997,63.981633767321995],[24.211624748653954,63.93166508619929],[24.274680465308812,63.89835263211722],[24.286577770337963,63.87455802205936],[24.319890224419677,63.87098883055026],[24.441242735716756,63.83053799345097],[24.532851984441667,63.735359553217755],[24.576872013048906,63.68182168058782],[24.63040988568025,63.655515417244715],[24.714880751387568,63.69239706283588],[24.762469971503606,63.71619167289373],[24.906427362356908,63.66146406975986],[24.968293348507984,63.742365743958544],[24.976621462028447,63.78757550306909],[24.954016582472946,63.837544184191756],[24.863597064251792,63.861338794248695],[24.805300269608722,63.87561556028504],[24.786264581562023,63.90773828386227],[24.757711049491945,63.905358822856215],[24.731536978427698,63.91011774486833],[24.722019134405116,63.926773971908915],[24.755331588486058,63.960086425990994],[24.805300269608722,63.9945886105761],[24.88263275229849,63.969604270014315],[24.929032241911614,63.968414539511286],[24.985544440801107,63.97099228893421],[24.996714688300415,63.99088722678971],[25.008611993328827,64.02657914187603],[25.026457950873407,64.05870186545508],[25.05977040495435,64.09320405003928],[25.05739094394852,64.10153216356139],[25.00980172383254,64.115808929595],[24.92771031913105,64.12770623462438],[24.95150492918941,64.1407932701577],[24.92414112762225,64.15269057518526],[24.933658971645627,64.16339814971161],[24.968161156230337,64.15744949719738],[24.983627652767495,64.1669673412207],[25.006232532323736,64.15982895820343],[25.071667709983558,64.18124410725522],[25.112118547082844,64.1931414122846],[25.118067199597476,64.21931548334942],[25.182312646755122,64.24548955441333],[25.200158604298906,64.2442998239103],[25.212055909328114,64.25381766793362],[25.204917526310624,64.26333551195694],[25.241799171900368,64.28831985251873],[25.287008931011314,64.29069931352296],[25.303665158052183,64.29902742704508],[25.297716505537608,64.3311501506223],[25.303665158052183,64.33828853364139],[25.3274597681106,64.33233988112625],[25.34887491716313,64.34542691665683],[25.451191740413492,64.39539559778132],[25.495211769021523,64.39182640627132],[25.490452847009863,64.37992910124194],[25.515437187571194,64.34899610816592],[25.630841046353623,64.34661664716168],[25.679619996973372,64.35375503017713],[25.714122181558025,64.35018583866895],[25.741485983125187,64.36446260470348],[25.78788547273831,64.35970368269227],[25.784316281230304,64.3430474556526],[25.820008196317133,64.34066799464563],[25.869976877439797,64.37041125721862],[25.905668792527365,64.37873937073891],[25.94849909063248,64.38706748426102],[25.98538073622302,64.40253398079858],[25.99846777175435,64.38706748426102],[26.060333757905426,64.39896478928858],[26.094835942490874,64.385877753758],[26.135286779589364,64.38825721476223],[26.1495635456252,64.4084826333119],[26.172168425179905,64.40610317230767],[26.175737616689446,64.42156966884431],[26.242502591097207,64.47207167769193]]]]}}]}
