{"type":"FeatureCollection","features":[{"type":"Feature","properties":{"kind":"province","id":"gubernia-1897-38","name":"Псковская губерния"},"geometry":{"type":"MultiPolygon","coordinates":[[[[31.802352533105918,56.037727698404524],[31.804731994111748,56.05438392544603],[31.839234178696465,56.04367635091971],[31.851131483725528,56.05914284745627],[31.897530973339396,56.06152230846325],[31.943930462953265,56.05795311695327],[31.961776420496548,56.063901769469354],[31.97843264753727,56.087696379526236],[31.96772507301148,56.09840395405265],[31.96653534250821,56.136475330145934],[31.946309923959095,56.160269940205566],[31.980812108543102,56.17216724523401],[31.992709413572165,56.18168508925733],[32.01174510161952,56.180495358755216],[32.048626747209354,56.19596185529187],[32.07242135726748,56.19834131629885],[32.07480081827331,56.22808457887182],[32.06885216575918,56.247120266918465],[32.08669812330246,56.26615595496511],[32.13309761291633,56.27448406848454],[32.14380518744284,56.298278678543284],[32.155702492471896,56.324452749606266],[32.14618464844867,56.3494370901681],[32.154512761968626,56.36371385620255],[32.202101982085765,56.387508466262275],[32.18187656353594,56.394646849279496],[32.17116898901015,56.40059550179372],[32.174738180518446,56.40773388481104],[32.19734306007419,56.41368253732526],[32.205671173594155,56.42439011185256],[32.18544575504504,56.42676957285856],[32.12239003839045,56.41368253732526],[32.11406192486969,56.42320038134858],[32.12952842140794,56.4303387643658],[32.18306629403921,56.4458052609052],[32.22232740063488,56.49577394202693],[32.2389836276756,56.52670693510299],[32.155702492471896,56.544552892646635],[32.1902046770567,56.60522914829468],[32.22351713113815,56.60879833980467],[32.238160967845744,56.60325651285986],[32.25481719488593,56.62586139241374],[32.26671449991535,56.65084573297558],[32.28693991846473,56.660363576999785],[32.301216684499714,56.68534791756065],[32.30359614550528,56.7091425276194],[32.285750187961554,56.71509118013362],[32.29407830148222,56.744834442706676],[32.31430372003152,56.747213903711796],[32.332149677575245,56.746024173209676],[32.32620102506093,56.766249591759326],[32.29764749299097,56.77219824427355],[32.292888570979045,56.7876647408102],[32.251248003377185,56.79718258483352],[32.25957611689786,56.80670042885782],[32.24648908136526,56.81740800338326],[32.23816096784539,56.83763342193291],[32.202469052757934,56.840012882939],[32.16201821565855,56.840012882939],[32.16796686817277,56.85666910998043],[32.141792797109176,56.86499722350075],[32.15250037163541,56.899499408084935],[32.11799818705033,56.91853509613158],[32.09777276850096,56.94946808920764],[32.10967007353047,56.985160004294826],[32.0811165414605,56.987539465299946],[32.060891122911116,56.987539465299946],[32.038286243355465,57.00300596183847],[32.0097327112855,57.00776488384968],[31.971661335192394,57.02561084139421],[31.964522952174903,57.045836259942966],[31.944297533624813,57.061302756481396],[31.938348881110503,57.07082060050472],[31.920130229919277,57.07949946988086],[31.897525350364333,57.08901731390418],[31.8880075063411,57.11757084597414],[31.847556669241452,57.10686327144782],[31.814244215160006,57.0985351579275],[31.78807014409596,57.0973454274245],[31.747619306997024,57.0925865054124],[31.690512242856652,57.09377623591451],[31.660768980284217,57.10329407993783],[31.638164100728563,57.11876057647715],[31.608420838155507,57.11995030697926],[31.581057036588902,57.11638111547114],[31.545365121501625,57.11876057647715],[31.501345092893587,57.140175725529005],[31.52394997244853,57.16516006609075],[31.539416468986783,57.17705737111831],[31.539416468986783,57.18776494564561],[31.52632943345436,57.19966225067493],[31.497379324550092,57.2089157101409],[31.48310255851511,57.2089157101409],[31.425995494375538,57.22081301517023],[31.398631692808223,57.21129517114691],[31.355801394703455,57.22081301517023],[31.355801394703455,57.23390005070354],[31.315350557604518,57.241038433719964],[31.289176486540562,57.23984870321687],[31.253484571452486,57.24698708623507],[31.245156457932524,57.26126385227059],[31.198756968318655,57.256504930258394],[31.149978017698956,57.250556277743286],[31.096440145067685,57.268402235286835],[31.051230385957087,57.28505846232836],[31.038143350425464,57.27078169629293],[31.050040655454616,57.23627951170866],[31.01434874036654,57.2089157101409],[30.973897903267602,57.18750056108914],[30.973897903267602,57.17917244756873],[30.95367248471849,57.16489568153428],[30.927498413653733,57.168464873042495],[30.892996229069816,57.16489568153428],[30.85730431398174,57.18512110008402],[30.79900751933952,57.22438220668022],[30.785920483807185,57.2553151997553],[30.787110214310456,57.27910980981325],[30.80495617185374,57.29814549785989],[30.769264256766462,57.29457630635168],[30.69431123508272,57.273161157299825],[30.60270198635834,57.26959196578993],[30.533697617188817,57.2969557673568],[30.48967758858158,57.31361199439832],[30.44922675148195,57.315991455403534],[30.463503517517534,57.33383741294803],[30.536077078194648,57.36714986702921],[30.586045759317617,57.38975474658406],[30.631255518428215,57.40760070412762],[30.619358213399064,57.43139531418734],[30.60270198635834,57.43377477519246],[30.619358213399064,57.44686181072399],[30.627686326919825,57.459948846257305],[30.65386039798387,57.451620732736984],[30.666947433515492,57.47065642078363],[30.659809050498,57.477794803799966],[30.636014440439787,57.47898453430395],[30.624117135410724,57.48612291732028],[30.641963092954718,57.49326130033839],[30.636014440439787,57.50634833586993],[30.619358213399064,57.50634833586993],[30.60746090837,57.51110725788203],[30.639583631948888,57.536091598442894],[30.631255518428215,57.55512728648954],[30.570579262779365,57.56583486101684],[30.513472198639704,57.57654243554316],[30.469452170031754,57.57892189654828],[30.43376025494439,57.58725001006949],[30.39449914834801,57.614613811636445],[30.356427772254904,57.634839230186095],[30.330253701190948,57.64911599622063],[30.301700169121073,57.65387491823274],[30.27671582855959,57.67766952829059],[30.275526098056318,57.70979225186878],[30.298130977611972,57.73834578393874],[30.3457201977284,57.74905335846506],[30.381412112815678,57.75381228047716],[30.38379157382222,57.78117608204324],[30.43851917695605,57.80021177008988],[30.474211092043326,57.80616042260499],[30.48967758858158,57.83709341568016],[30.48848785807822,57.859698295235816],[30.49205704958741,57.87040586976312],[30.484918666569918,57.88349290529456],[30.43494998544695,57.88825182730578],[30.427811602429458,57.87873398328246],[30.39925807035967,57.87635452227645],[30.38855049583388,57.88825182730578],[30.348099658734142,57.904908054346414],[30.311218013144305,57.91323616786762],[30.300510438617803,57.926323203399065],[30.28266448107372,57.939410238932375],[30.27671582855959,57.95368700496603],[30.219608764419217,57.97629188452177],[30.258869871015595,57.98580972854509],[30.252921218501463,58.002465955585635],[30.257680140513035,58.011983799608956],[30.27671582855959,58.014363260615056],[30.277905559062148,58.02150164363228],[30.29218232509704,58.01793245212326],[30.28861313358874,58.0381578706738],[30.271956906547928,58.05600382821655],[30.268387715038827,58.0762292467662],[30.307648821635294,58.09526493481284],[30.332633162196778,58.10597250934005],[30.34334073672257,58.12500819738581],[30.36744118875795,58.14130536100495],[30.3519746922197,58.165099971062816],[30.34959523121387,58.194843233635694],[30.343646578699026,58.205550808163],[30.312173392487722,58.20284494647046],[30.25744578935318,58.189757910937146],[30.24078956231237,58.20165521596843],[30.156318696604682,58.17191195339537],[30.131334356043997,58.1481173433376],[30.103970554476682,58.1350303078042],[30.09326297995089,58.14454815182752],[30.05162241234868,58.12432273327877],[30.012361305753014,58.12194327227276],[29.98380777368243,58.107666506237244],[29.921941787531107,58.094579470705796],[29.896957446969623,58.07792324366427],[29.867214184397366,58.06959513014307],[29.807727659251874,58.07316432165306],[29.797020084725283,58.093389740202795],[29.750620595111414,58.0922000096997],[29.72920544605903,58.0886308181906],[29.688754608960092,58.095769201207915],[29.697082722480143,58.07792324366427],[29.6709086514161,58.08030270466939],[29.656631885381206,58.101717853722135],[29.61380158727564,58.094579470705796],[29.591196707719984,58.07911297416639],[29.588817246714953,58.04580052008619],[29.57097128917096,58.022005910026465],[29.57691994168509,58.001780491478684],[29.554315062130147,57.997021569464714],[29.52814099106619,57.9934523779565],[29.494828536984745,57.98750372544317],[29.482931231955593,57.98750372544317],[29.448429047370876,57.997021569464714],[29.42106524580356,58.010108604998024],[29.380614408704623,58.006539413488035],[29.37228629518466,58.014867527010125],[29.385373330716284,58.023195640529465],[29.346112224119906,58.03390321505775],[29.318748422553302,58.02676483203777],[29.247364592378037,58.04580052008619],[29.217621329804892,58.06959513014307],[29.247364592378037,58.11123569774457],[29.218811060308163,58.131461116294304],[29.228328904331395,58.15168653484572],[29.032023371351016,58.16953249238759],[29.00346983928043,58.13622003830721],[28.961829271678223,58.140978960317625],[28.8963940940186,58.131461116294304],[28.865461100942895,58.0922000096997],[28.833338377364008,58.06721566913795],[28.7881286182527,58.06840539964095],[28.763144277691126,58.095769201207915],[28.672724759470018,58.108856236739356],[28.659637723937685,58.095769201207915],[28.57397712772815,58.07673351316127],[28.58118160688466,58.044015924330765],[28.578008992209952,58.002771933562144],[28.44634548322112,58.0154623922608],[28.40668779979026,58.01387608492313],[28.378134267720384,58.053533768354086],[28.33371766227795,58.05670638302763],[28.314681974231398,58.07732837841194],[28.290887364173184,58.09001883711059],[28.287714749499276,58.10429560314424],[28.27165338770939,58.12749534795144],[28.258566352177766,58.12749534795144],[28.250238238657094,58.109649390407895],[28.22882308960471,58.097752085378474],[28.18123386948828,58.09061370236125],[28.144352223897734,58.08347531934491],[28.061071088693318,58.06562936180039],[28.03132782612097,58.06087043978819],[27.840970945653925,58.07752666682883],[27.668460022731672,58.08585478035003],[27.633957838146866,58.08823424135515],[27.579230235013036,58.11321858191788],[27.55566091105827,58.096328669219474],[27.542573875526646,58.07729298117283],[27.503312768930268,58.05468810161797],[27.503312768930268,58.004719420496244],[27.485466811386274,57.99282211546692],[27.480707889374614,57.96902750540808],[27.491415463901117,57.952371278368425],[27.50807169094193,57.952371278368425],[27.542573875526646,57.95950966138476],[27.55923010256737,57.938094512332114],[27.573506868602262,57.91192044126913],[27.541384145023375,57.89883340573582],[27.549712258544137,57.88336690919917],[27.56398902457903,57.87741825668397],[27.573506868602262,57.865520951655526],[27.56279929407576,57.85243391612222],[27.56398902457903,57.83815715008768],[27.51877926546852,57.83815715008768],[27.503312768930268,57.84410580260279],[27.474759236860482,57.8429160720989],[27.433118669258274,57.83339822807558],[27.40932405920006,57.82507011455615],[27.390288371153506,57.8048446960065],[27.40218567618257,57.792947390976195],[27.40575486769096,57.77153224192443],[27.387908910147676,57.75487601488291],[27.387908910147676,57.72751221331693],[27.4117035202058,57.709666255773286],[27.430739208252444,57.709666255773286],[27.45215435730474,57.701338142252084],[27.433118669258274,57.67873326269732],[27.387908910147676,57.6620770356558],[27.35459645606623,57.657318113645466],[27.341509420533807,57.64185161710704],[27.340319690031247,57.61448781553919],[27.318904540978153,57.59664185799555],[27.30938669695483,57.58474455296622],[27.318904540978153,57.57641643944591],[27.346268342545468,57.57760616994891],[27.35935537807789,57.57641643944591],[27.376011605118524,57.563329403914366],[27.374821874615254,57.550242368382925],[27.386719179644405,57.547862907375944],[27.41408298121163,57.546673176872936],[27.425980286240783,57.53239641083928],[27.42003163372665,57.50384287876844],[27.422411094732393,57.485996921224796],[27.40932405920006,57.46815096368027],[27.4009959456793,57.45268446714361],[27.397426754170997,57.43959743161032],[27.40932405920006,57.44435635362332],[27.445015974287248,57.458633119656966],[27.46643112333972,57.447925545131525],[27.503312768930268,57.450305006136645],[27.537814953514985,57.42770012658188],[27.581834982123024,57.41223363004336],[27.642511237771785,57.39676713350582],[27.698428571408176,57.365834140430735],[27.744828061022044,57.365834140430735],[27.763863749068598,57.35274710489921],[27.77219186258936,57.32657303383445],[27.791227550635913,57.32657303383445],[27.800745394659145,57.33252168634956],[27.82810919622646,57.32538330333047],[27.838816770752253,57.302778423775614],[27.853093536787146,57.290881118746285],[27.845955153769744,57.27303516120264],[27.856662728296246,57.23377405460636],[27.841196231758083,57.23258432410336],[27.82454000471736,57.207599983543375],[27.83286811823812,57.20284106153029],[27.840006501255612,57.18737456499365],[27.811452969185737,57.17309779895733],[27.811452969185737,57.16239022443189],[27.797176203150045,57.15644157191679],[27.749586983033705,57.13859561437403],[27.7222231814671,57.1231291178356],[27.72103345096383,57.11004208230407],[27.760294557560297,57.09338585526255],[27.742448600016214,57.071970706210784],[27.746017791525315,57.05531447916926],[27.72460264247293,57.03508906061961],[27.713895067946428,56.96965388295937],[27.71270533744307,56.96132576944003],[27.700808032414006,56.95299765591972],[27.692479918894044,56.93277223737007],[27.704377223923107,56.92682358485496],[27.713895067946428,56.908977627310435],[27.699618301911446,56.8970803222819],[27.701997762917276,56.87804463423526],[27.68296207487081,56.87090625121715],[27.67701342235579,56.841162988644086],[27.704377223923107,56.842352719147186],[27.735310216998723,56.85068083266741],[27.77338159309183,56.85781921568561],[27.787658359126812,56.86971652071405],[27.812642699688208,56.873285712224046],[27.81502216069404,56.88518301725346],[27.87331895533706,56.88399328675045],[27.86974976382787,56.86733705970893],[27.895923834892713,56.863767868200725],[27.899493026401014,56.837593797135966],[27.93161574997999,56.837593797135966],[27.97338850985959,56.842749295981754],[27.97338850985959,56.832041721455425],[27.961491204830438,56.832041721455425],[27.97933716237452,56.81776495542],[27.943645247287243,56.81419576391179],[27.93293767276065,56.80348818938546],[27.947214438795545,56.79278061485914],[27.947214438795545,56.78445250133882],[27.916281445719928,56.78326277083582],[27.887727913650142,56.76184762178406],[27.898435488175934,56.754709238765855],[27.913901984714098,56.754709238765855],[27.909143062702437,56.745191394742534],[27.947214438795545,56.73448382021621],[27.944834977789714,56.72496597619289],[27.97338850985959,56.71068921015924],[27.97695770136869,56.69998163563291],[27.986475545391922,56.68808433060261],[27.997183119918514,56.6892740611065],[27.999562580924344,56.70593028814625],[28.012649616455967,56.70949947965623],[28.074515602608,56.682135678089274],[28.110207517695276,56.686894600099606],[28.13400212775349,56.69641244412293],[28.167314581834937,56.69046379160959],[28.194678383402252,56.65596160702443],[28.19348865289898,56.63335672746966],[28.206575688431403,56.62621834445146],[28.222042184968856,56.632166996966575],[28.23869841201029,56.6452540324981],[28.270821135588466,56.622649152943254],[28.260113561062674,56.610751847913036],[28.275580057600127,56.596475081878495],[28.279149249109228,56.56197289729333],[28.28747736262919,56.55245505327001],[28.277959518605957,56.538178287235475],[28.28985682363502,56.52866044321215],[28.313651433693945,56.522711790697045],[28.330307660734757,56.47988149259254],[28.34101523526046,56.47631230108442],[28.34696388777548,56.452517691025584],[28.374327689341996,56.439430655494135],[28.38979418588016,56.439430655494135],[28.426675831470796,56.43348200297894],[28.49924939214862,56.44537930800925],[28.487352087119557,56.47512257058044],[28.482593165107897,56.50129664164528],[28.50519804466275,56.508435024662504],[28.483782895610457,56.523901521201026],[28.530182385224325,56.527470712709146],[28.515905619189343,56.56911128031153],[28.570633222323174,56.586957237855174],[28.612273789925382,56.58933669886029],[28.622981364451263,56.56911128031153],[28.65153489652185,56.55840370578521],[28.667001393059213,56.55840370578521],[28.678898698088364,56.535798826230355],[28.682467889597465,56.5120042161725],[28.70388303864976,56.50486583315438],[28.71102142166725,56.48939933661586],[28.728867379211334,56.47750203158742],[28.80738959240329,56.49534798913106],[28.879963153081203,56.50724529416039],[28.96919294079975,56.49772745013707],[29.02630000494021,56.520332329691925],[29.034628118460173,56.556024244780005],[29.027489735442682,56.57268047182063],[29.041766501477664,56.57981885483697],[29.058422728518387,56.57505993282665],[29.07626868606238,56.58338804634696],[29.1345654807054,56.59290589037028],[29.170257395792678,56.58338804634696],[29.17739577881008,56.56911128031153],[29.158360090763527,56.56316262779731],[29.164308743277658,56.556024244780005],[29.150031977242765,56.545316670253676],[29.13694494171123,56.54650640075579],[29.13694494171123,56.529850173715246],[29.252348800493824,56.52866044321215],[29.28090233256361,56.50129664164528],[29.357045084750535,56.49296852812586],[29.366562928773856,56.45489715203257],[29.32730182217748,56.440620385996255],[29.32730182217748,56.41920523694449],[29.360614276258925,56.40849766241808],[29.364183467768026,56.36566736431358],[29.43318783693675,56.34068302375182],[29.48315651805901,56.32045760520218],[29.5497814262227,56.3252165272134],[29.554540348234273,56.31331922218398],[29.584283610806708,56.30261164765854],[29.611647412373934,56.31569868319008],[29.635442022432148,56.307370569670645],[29.658046901987802,56.30618083916676],[29.70087720009257,56.31569868319008],[29.679462051040186,56.33949329324882],[29.65328797997623,56.36090844230147],[29.59975010734487,56.35020086777514],[29.564058192257594,56.373995477833006],[29.54145331270185,56.40016954889785],[29.554540348234273,56.42277442845261],[29.554540348234273,56.45489715203257],[29.59857506487319,56.47475536980798],[29.664010242533525,56.46404779528166],[29.731824881199778,56.4497710292481],[29.79250113684774,56.430735341201455],[29.85198766199403,56.427166149691374],[29.922181761666113,56.42240722768025],[29.99832451385224,56.41764830566805],[30.020929393407894,56.41407911415993],[30.029257506927944,56.39385369561029],[30.043534272962837,56.38790504309509],[30.064949422015932,56.39266396510719],[30.097072145594197,56.39266396510719],[30.131574330178914,56.37957692957575],[30.123246216658153,56.353402858510904],[30.11134891162909,56.33436717046426],[30.093502954085807,56.32960824845394],[30.066139152518492,56.34150555348246],[29.985237478320617,56.3129520214125],[29.976909364799855,56.30105471638397],[29.979288825805686,56.28201902833733],[30.0030834358639,56.25346549626647],[30.018549932402063,56.25346549626647],[30.031636967933686,56.24751684375137],[30.05067265598033,56.24751684375137],[30.070898074530152,56.25346549626647],[30.089933762576706,56.277260106324334],[30.122056486155593,56.28320875883944],[30.15417920973457,56.28082929783432],[30.15536894023713,56.271311453811],[30.16726624526619,56.270121723307994],[30.15536894023713,56.24751684375137],[30.16726624526619,56.24156819123803],[30.16726624526619,56.22967088620773],[30.21247600437679,56.21539412017319],[30.21961438739499,56.205876276149866],[30.2612549549964,56.198737893131664],[30.27077279901972,56.199927623634764],[30.287429026060444,56.19159951011444],[30.290998217569545,56.17851247458202],[30.273152260025462,56.15947678653538],[30.277911182037123,56.14282055949484],[30.3100339056161,56.126164332455176],[30.348105281709206,56.134492445975404],[30.36476150874993,56.14757948150694],[30.399263693334646,56.16066651703838],[30.436145338925282,56.1701843610617],[30.462319409989238,56.16423570854846],[30.489683211556553,56.14757948150694],[30.52775458764966,56.13925136798662],[30.588430843298422,56.10950810541365],[30.603897339835875,56.09166214787001],[30.611035722853366,56.07857511233759],[30.638796101255075,56.07579907449781],[30.66378044181656,56.06390176946937],[30.675677746845622,56.057953116954174],[30.704231278915497,56.05200446443995],[30.7113696619329,56.01036389683668],[30.71255939243546,55.978241173258596],[30.72207723645878,55.96158494621885],[30.774425378587434,55.949687641188554],[30.794650797136605,55.973482251246395],[30.81844540719553,55.977051442755496],[30.846998939265404,55.977051442755496],[30.863655166306128,55.983000095269716],[30.87912166284358,56.00560497482644],[30.889829237370083,56.00798443583156],[30.906485464410807,56.00798443583156],[30.916003308434128,56.0222612018661],[30.93028007446902,56.0282098543812],[30.954074684527235,56.03653796790152],[30.97430010307706,56.03296877639331],[30.98976659961531,56.03296877639331],[31.018320131685098,56.061522308463275],[31.042114741743312,56.06747096097661],[31.052822316269904,56.053194194943046],[31.07542719582476,56.056763386451166],[31.093273153368752,56.055573655948166],[31.115878032923696,56.061522308463275],[31.125395876947728,56.0222612018661],[31.149190487005942,56.00917416633456],[31.178933749578288,56.00322551382034],[31.226522969695427,55.978241173258596],[31.271732728806025,55.965154137727055],[31.34073709797475,55.963964407223074],[31.40260308412678,55.99846659180824],[31.44186419072245,56.0282098543812],[31.458520417763882,56.0270201238782],[31.471607453295505,56.037727698404524],[31.464469070278103,56.048435272929964],[31.477556105810525,56.06390176946937],[31.49659179385699,56.06390176946937],[31.51086855989197,56.05438392544605],[31.523955595423594,56.06271203896637],[31.537042630955927,56.06509149997149],[31.54656047497925,56.055573655948166],[31.565596163025802,56.06390176946937],[31.581062659563965,56.06390176946937],[31.59533942559886,56.048435272929964],[31.623892957668733,56.06509149997149],[31.633410801691966,56.06509149997149],[31.629841610183664,56.040107159409644],[31.664343794767582,56.050814733936065],[31.71074328438145,56.04248662041663],[31.745245468966257,56.03534823739852],[31.769040079024382,56.043676350919725],[31.802352533105918,56.037727698404524]]]]}},{"type":"Feature","properties":{"kind":"district","id":"uyezd-1897-71","name":"Порховский","provinceId":"gubernia-1897-38"},"geometry":{"type":"MultiPolygon","coordinates":[[[[30.449226751481856,57.315991455403484],[30.463503517517548,57.333837412948014],[30.536077078194662,57.36714986702919],[30.58604575931763,57.389754746584046],[30.63125551842823,57.407600704127596],[30.619358213399078,57.43139531418732],[30.602701986358355,57.43377477519244],[30.619358213399078,57.44686181072397],[30.62768632691984,57.459948846257284],[30.653860397983884,57.45162073273697],[30.666947433515507,57.47065642078361],[30.659809050498016,57.477794803799945],[30.6360144404398,57.478984534303926],[30.62411713541074,57.48612291732026],[30.641963092954732,57.493261300338375],[30.6360144404398,57.50634833586991],[30.619358213399078,57.50634833586991],[30.607460908370015,57.51110725788202],[30.639583631948902,57.53609159844288],[30.63125551842823,57.55512728648952],[30.57057926277938,57.565834861016825],[30.513472198639718,57.576542435543146],[30.46945217003177,57.578921896548266],[30.433760254944403,57.58725001006947],[30.394499148348025,57.61461381163643],[30.356427772254918,57.634839230186074],[30.330253701190962,57.649115996220615],[30.301700169121087,57.65387491823272],[30.276715828559603,57.67766952829058],[30.275526098056332,57.709792251868755],[30.298130977611986,57.73834578393872],[30.345720197728415,57.74905335846505],[30.381412112815692,57.75381228047715],[30.383791573822233,57.78117608204322],[30.438519176956063,57.80021177008986],[30.47421109204334,57.806160422604975],[30.489677588581593,57.837093415680144],[30.488487858078233,57.8596982952358],[30.492057049587423,57.870405869763104],[30.484918666569932,57.883492905294545],[30.434949985446963,57.888251827305766],[30.427811602429472,57.878733983282444],[30.399258070359686,57.87635452227643],[30.388550495833893,57.888251827305766],[30.348099658734156,57.90490805434639],[30.31121801314432,57.9132361678676],[30.300510438617817,57.92632320339905],[30.282664481073734,57.93941023893235],[30.276715828559603,57.95368700496601],[30.21960876441923,57.97629188452175],[30.25886987101561,57.98580972854507],[30.252921218501477,58.00246595558562],[30.25768014051305,58.01198379960894],[30.276715828559603,58.014363260615035],[30.277905559062162,58.02150164363226],[30.292182325097055,58.01793245212325],[30.288613133588754,58.038157870673786],[30.271956906547942,58.05600382821653],[30.26838771503884,58.076229246766175],[30.307648821635308,58.09526493481282],[30.332633162196792,58.105972509340035],[30.343340736722585,58.12500819738579],[30.367441188757965,58.14130536100491],[30.351974692219713,58.16509997106277],[30.349595231213883,58.19484323363574],[30.34364657869904,58.20555080816304],[30.31217339248769,58.202844946470556],[30.257445789353135,58.1897579109372],[30.240789562312322,58.201655215968486],[30.156318696604636,58.17191195339542],[30.13133435604395,58.14811734333766],[30.103970554476636,58.13503030780426],[30.093262979950843,58.14454815182758],[30.051622412348635,58.12432273327882],[30.012361305752968,58.121943272272816],[29.983807773682383,58.107666506237294],[29.92194178753106,58.09457947070585],[29.896957446969576,58.07792324366433],[29.86721418439732,58.06959513014313],[29.807727659251828,58.07316432165311],[29.797020084725236,58.09338974020285],[29.750620595111368,58.09220000969975],[29.729205446058984,58.08863081819065],[29.688754608960046,58.09576920120797],[29.697082722480097,58.07792324366433],[29.670908651416052,58.08030270466945],[29.65663188538116,58.10171785372219],[29.613801587275592,58.09457947070585],[29.591196707719938,58.07911297416645],[29.588817246714907,58.045800520086246],[29.570971289170913,58.02200591002652],[29.576919941685045,58.00178049147874],[29.5543150621301,57.99702156946476],[29.528140991066145,57.99345237795656],[29.4948285369847,57.98750372544322],[29.482931231955547,57.98750372544322],[29.44842904737083,57.99702156946476],[29.421065245803515,58.01010860499808],[29.380614408704577,58.006539413488085],[29.372286295184615,58.01486752701018],[29.385373330716238,58.02319564052952],[29.34611222411986,58.033903215057805],[29.318748422553256,58.02676483203783],[29.24736459237799,58.045800520086246],[29.217621329804846,58.06959513014313],[29.24736459237799,58.11123569774462],[29.218811060308116,58.13146111629436],[29.22832890433135,58.15168653484578],[29.03202337135097,58.169532492387646],[29.003469839280385,58.13622003830726],[28.961829271678177,58.14097896031768],[28.896394094018554,58.13146111629436],[28.86546110094285,58.09220000969975],[28.83333837736396,58.06721566913801],[28.80480277517549,58.03948164882152],[28.791715739643067,58.01092811675156],[28.80361304467213,57.989512967698815],[28.81907954121038,57.989512967698815],[28.841684420765237,57.96690808814219],[28.840494690262766,57.943113478085216],[28.853581725795188,57.920508598528585],[28.846443342777697,57.90504210199104],[28.85477145629766,57.8931447969626],[28.870237952835822,57.86697072589776],[28.90830932892893,57.87529883941896],[28.923775825466382,57.89671398847072],[28.980882889606843,57.88957560545439],[29.039179684249774,57.87410910891596],[29.036800223243944,57.852693959862336],[29.059405102798888,57.846745307348115],[29.085579173862843,57.844365846342995],[29.085579173862843,57.837227463324794],[29.11770189744182,57.834848002319674],[29.131978663476712,57.831278810811455],[29.12840947196841,57.81938150578115],[29.139117046494203,57.81462258376993],[29.142686238003215,57.80510473974661],[29.11294297543016,57.79915608723151],[29.099855939898536,57.78131012968787],[29.082009982354542,57.770602555161545],[29.07368186883378,57.76584363315121],[29.06535375531373,57.74918740610978],[29.11413270593343,57.71468522152551],[29.190275458119643,57.65638842688257],[29.206931685160367,57.63259381682383],[29.191465188622914,57.629024625315616],[29.17718842258802,57.59214297972444],[29.17005003957062,57.5671586391627],[29.146255429511605,57.539794837596716],[29.180757614096322,57.521948880053074],[29.237864678235983,57.4898261564749],[29.259279827289166,57.49815426999521],[29.365165842048526,57.461272624404934],[29.49127727535771,57.43152936183196],[29.607870864642774,57.44223693635829],[29.619768169671925,57.41606286529256],[29.59954275112281,57.39345798573868],[29.601922212128642,57.37918121970237],[29.582886524082088,57.363714723165714],[29.58526598508792,57.34229957411297],[29.560281644526434,57.314935772546015],[29.551953531005672,57.297089815001485],[29.559091914023075,57.28043358796094],[29.575748141064686,57.27805412695484],[29.58526598508792,57.26377736091942],[29.63761412721592,57.26377736091942],[29.708997957390473,57.2649670914234],[29.708997957390473,57.25663897790308],[29.74231041147272,57.2542595168961],[29.80774558913234,57.27686439645273],[29.823212085670505,57.289951431984264],[29.84700669572872,57.299469276007585],[29.886267802325186,57.301848737012705],[29.921959717412463,57.27448493544672],[30.06234791675645,57.28638224047605],[30.089711718323855,57.304228198019686],[30.176562045036572,57.33159199958576],[30.228910187164573,57.33516119109575],[30.280068598790102,57.363714723165714],[30.309811861363247,57.377991489199275],[30.334796201923933,57.38156068070926],[30.364539464497078,57.375612028194155],[30.394282727070134,57.35776607064963],[30.42402598964257,57.33159199958576],[30.449226751481856,57.315991455403484]]]]}},{"type":"Feature","properties":{"kind":"district","id":"uyezd-1897-72","name":"Холмский","provinceId":"gubernia-1897-38"},"geometry":{"type":"MultiPolygon","coordinates":[[[[30.228910187164573,57.33516119109575],[30.235080883932532,57.295316904078376],[30.216045195885624,57.24177903144755],[30.20771708236575,57.23702010943634],[30.179163550295787,57.24177903144755],[30.145851096213807,57.216794690885806],[30.119677025150207,57.203707655354265],[30.10302079810886,57.18467196730762],[30.126815408167698,57.18705142831274],[30.158938131745607,57.17634385378731],[30.155368940236862,57.141841669203124],[30.14823055721937,57.11209840662927],[30.093502954085718,57.08949352707353],[30.053052116986336,57.07521676103899],[30.0423445424601,57.054991342489345],[30.059000769501445,57.02881727142628],[30.106589989617607,56.96338209376514],[30.125625677664516,56.92650044817495],[30.150610018225734,56.905085299122206],[30.172025167278207,56.88842907208255],[30.17440462828377,56.87058311453802],[30.170835436775025,56.85868580950958],[30.18035328079808,56.832511738443856],[30.195819777336244,56.828942546935636],[30.20771708236575,56.83608092995384],[30.22794250091504,56.817045241907195],[30.251737110973078,56.815855511404195],[30.283859834551876,56.80871712838688],[30.31360309712502,56.77778413530993],[30.323120941148076,56.75993817776727],[30.35762312573315,56.733764106702424],[30.400453423838183,56.733764106702424],[30.408781537358056,56.76469709977849],[30.423058303393038,56.76945602178971],[30.446852913451075,56.75993817776727],[30.47064752351,56.7742149438027],[30.500390786082345,56.76588683028149],[30.512288091111763,56.74447168122875],[30.55749785022236,56.748040872736965],[30.587241112795507,56.740902489719744],[30.659814673473686,56.70996949664368],[30.683609283531634,56.695692730610034],[30.72049092912156,56.69807219161613],[30.73952661716847,56.69093380859704],[30.77402880175283,56.675467312060384],[30.80020287281723,56.681415964573716],[30.828756404887194,56.66594946803706],[30.850171553939756,56.65643162401285],[30.870396972489047,56.657621354515854],[30.876320261282366,56.653788638238524],[30.890622391039138,56.64453431898441],[30.913227270593993,56.6409651274762],[30.916796462102738,56.65643162401285],[30.942970533167138,56.64572404948741],[31.000077597307154,56.62787809194289],[31.02268247686201,56.64810351049253],[31.097635498545753,56.63977539697319],[31.16307067620644,56.62668836143989],[31.192813938779587,56.63977539697319],[31.224936662357585,56.63858566647011],[31.270146421468894,56.62787809194289],[31.30583833655635,56.65048297149863],[31.285612918006258,56.676657042562496],[31.308217797561912,56.677846773065504],[31.30107941454442,56.68974407809404],[31.321304833093713,56.70759003563856],[31.31892537208815,56.72186680167398],[31.362945400696365,56.70996949664368],[31.40458596829813,56.673087851054376],[31.448605996906345,56.70759003563856],[31.45098545791191,56.74566141173273],[31.481918450987436,56.757558716761174],[31.521179557583725,56.75279979474996],[31.548543359150507,56.748040872736965],[31.57590716071809,56.755179255756055],[31.592563387758634,56.76945602178971],[31.627065572342996,56.781353326819925],[31.67703425346552,56.78492251832813],[31.69488021100925,56.781353326819925],[31.684172636483012,56.76707656078361],[31.63658341636685,56.75993817776727],[31.64848072139547,56.740902489719744],[31.68893155849485,56.70521057463246],[31.704398055033014,56.718297610164],[31.737710509114194,56.719487340667],[31.750797544646794,56.72424626268],[31.753177005652358,56.737333298211524],[31.809094339289192,56.733764106702424],[31.83407867985041,56.72067707117],[32.01610744679661,56.75874844726427],[32.047040439872134,56.74566141173273],[32.07321451093654,56.75993817776727],[32.091060468480265,56.74447168122875],[32.133890766585296,56.76588683028149],[32.18742863921656,56.77540467430393],[32.19099783072531,56.811096589392974],[32.23816096784539,56.83763342193288],[32.202469052757934,56.84001288293898],[32.16201821565855,56.84001288293898],[32.16796686817277,56.856669109980416],[32.141792797109176,56.86499722350073],[32.15250037163541,56.899499408084914],[32.11799818705033,56.918535096131556],[32.09777276850096,56.94946808920761],[32.10967007353047,56.985160004294805],[32.0811165414605,56.987539465299925],[32.060891122911116,56.987539465299925],[32.038286243355465,57.00300596183844],[32.0097327112855,57.00776488384966],[31.971661335192394,57.02561084139418],[31.964522952174903,57.045836259942945],[31.944297533624813,57.061302756481375],[31.938348881110503,57.070820600504696],[31.92013022991929,57.07949946988082],[31.897525350364347,57.089017313904144],[31.888007506341115,57.11757084597411],[31.847556669241467,57.10686327144778],[31.81424421516002,57.098535157927465],[31.788070144095975,57.09734542742446],[31.747619306997038,57.092586505412356],[31.690512242856666,57.093776235914476],[31.66076898028423,57.1032940799378],[31.638164100728577,57.118760576477115],[31.60842083815552,57.11995030697923],[31.581057036588916,57.1163811154711],[31.54536512150164,57.118760576477115],[31.5013450928936,57.14017572552896],[31.523949972448545,57.16516006609071],[31.539416468986797,57.177057371118266],[31.539416468986797,57.18776494564557],[31.526329433454375,57.1996622506749],[31.497379324550106,57.20891571014094],[31.483102558515125,57.20891571014094],[31.425995494375552,57.22081301517027],[31.398631692808237,57.21129517114695],[31.35580139470347,57.22081301517027],[31.35580139470347,57.23390005070358],[31.315350557604532,57.24103843371992],[31.289176486540576,57.239848703216914],[31.2534845714525,57.246987086235116],[31.245156457932538,57.261263852270545],[31.19875696831867,57.25650493025844],[31.14997801769897,57.25055627774324],[31.0964401450677,57.26840223528688],[31.0512303859571,57.2850584623284],[31.03814335042548,57.27078169629297],[31.05004065545463,57.2362795117087],[31.014348740366554,57.20891571014094],[30.973897903267616,57.187500561089095],[30.973897903267616,57.179172447568774],[30.953672484718503,57.164895681534325],[30.927498413653748,57.16846487304245],[30.89299622906983,57.164895681534325],[30.857304313981754,57.185121100083975],[30.799007519339533,57.22438220668026],[30.7859204838072,57.255315199755344],[30.78711021431047,57.27910980981321],[30.804956171853753,57.29814549785985],[30.769264256766476,57.29457630635172],[30.694311235082733,57.27316115729987],[30.602701986358355,57.269591965789886],[30.53369761718883,57.29695576735684],[30.489677588581593,57.313611994398364],[30.449226751481856,57.315991455403484],[30.42402598964257,57.33159199958576],[30.394282727070134,57.35776607064963],[30.364539464497078,57.375612028194155],[30.334796201923933,57.38156068070926],[30.309811861363247,57.377991489199275],[30.280068598790102,57.363714723165714],[30.228910187164573,57.33516119109575]]]]}},{"type":"Feature","properties":{"kind":"district","id":"uyezd-1897-73","name":"Великолуцкий","provinceId":"gubernia-1897-38"},"geometry":{"type":"MultiPolygon","coordinates":[[[[29.59857506487319,56.474755369807966],[29.664010242533525,56.464047795281644],[29.731824881199778,56.44977102924808],[29.79250113684774,56.43073534120144],[29.85198766199403,56.42716614969136],[29.922181761666113,56.42240722768023],[29.99832451385224,56.41764830566804],[30.020929393407894,56.41407911415992],[30.029257506927944,56.39385369561027],[30.043534272962837,56.387905043095074],[30.064949422015932,56.392663965107175],[30.097072145594197,56.392663965107175],[30.131574330178914,56.379576929575734],[30.123246216658153,56.35340285851089],[30.11134891162909,56.33436717046425],[30.093502954085807,56.329608248453916],[30.066139152518492,56.34150555348245],[29.985237478320617,56.312952021412485],[29.976909364799855,56.30105471638395],[29.979288825805686,56.28201902833731],[30.0030834358639,56.25346549626646],[30.018549932402063,56.25346549626646],[30.031636967933686,56.24751684375135],[30.05067265598033,56.24751684375135],[30.070898074530152,56.25346549626646],[30.089933762576706,56.27726010632432],[30.122056486155593,56.28320875883942],[30.15417920973457,56.2808292978343],[30.15536894023713,56.27131145381098],[30.16726624526619,56.27012172330798],[30.15536894023713,56.24751684375135],[30.16726624526619,56.24156819123802],[30.16726624526619,56.229670886207714],[30.21247600437679,56.21539412017317],[30.21961438739499,56.20587627614985],[30.2612549549964,56.19873789313165],[30.27077279901972,56.19992762363474],[30.287429026060444,56.19159951011443],[30.290998217569545,56.17851247458201],[30.273152260025462,56.159476786535365],[30.277911182037123,56.142820559494815],[30.3100339056161,56.12616433245516],[30.348105281709206,56.13449244597538],[30.36476150874993,56.147579481506924],[30.399263693334646,56.160666517038365],[30.436145338925282,56.170184361061686],[30.462319409989238,56.164235708548446],[30.489683211556553,56.147579481506924],[30.52775458764966,56.1392513679866],[30.588430843298422,56.10950810541364],[30.603897339835875,56.09166214787],[30.611035722853366,56.078575112337575],[30.638796101255075,56.075799074497795],[30.641175562260905,56.09602449304744],[30.676867477348182,56.10197314556264],[30.678057207851452,56.11743964209929],[30.7113696619329,56.11743964209929],[30.708990200927158,56.136475330145934],[30.737543732996944,56.1293369471296],[30.783943222610812,56.13528559964382],[30.81368648518387,56.159080209702566],[30.811307024178127,56.17692616724523],[30.831532442727152,56.20191050780707],[30.849378400271146,56.24830999742156],[30.908864925416637,56.27091487697632],[30.958833606538896,56.29351975653118],[30.949315762515575,56.312555444577825],[30.949315762515575,56.34824735966599],[30.97548983358033,56.380370083244074],[30.963592528550556,56.392267388272515],[30.93503899648068,56.386318735759275],[30.92433142195489,56.389887927267395],[30.913623847428298,56.40059550179372],[30.905295733908336,56.41606199833224],[30.92195196094906,56.41606199833224],[30.940987648995613,56.40297496279893],[30.944556840503914,56.41130307631916],[30.92552115245745,56.42557984235556],[30.91838276943996,56.4458052609052],[30.882690854352592,56.455323104928524],[30.87555247133519,56.47673825398029],[30.857706513791197,56.48268690649549],[30.841050286750473,56.4791177149855],[30.8160659461897,56.468410140460065],[30.783943222610812,56.471979331968186],[30.756579421043497,56.454133374425524],[30.763717804060988,56.485066367501496],[30.787512414119114,56.51005070806147],[30.82439405970975,56.520758282587884],[30.857706513791197,56.52789666560511],[30.87198327982609,56.561209119688066],[30.863655166306128,56.5731064247166],[30.87555247133519,56.624264836341325],[30.876320261282366,56.653788638238524],[30.870396972489047,56.657621354515854],[30.850171553939756,56.65643162401285],[30.828756404887194,56.66594946803706],[30.80020287281723,56.681415964573716],[30.77402880175283,56.675467312060384],[30.73952661716847,56.69093380859704],[30.72049092912156,56.69807219161613],[30.683609283531634,56.695692730610034],[30.659814673473686,56.70996949664368],[30.587241112795507,56.740902489719744],[30.55749785022236,56.748040872736965],[30.512288091111763,56.74447168122875],[30.500390786082345,56.76588683028149],[30.47064752351,56.7742149438027],[30.446852913451075,56.75993817776727],[30.423058303393038,56.76945602178971],[30.408781537358056,56.76469709977849],[30.400453423838183,56.733764106702424],[30.35762312573315,56.733764106702424],[30.323120941148076,56.75993817776727],[30.31360309712502,56.77778413530993],[30.283859834551876,56.80871712838688],[30.251737110973078,56.815855511404195],[30.22794250091504,56.817045241907195],[30.20771708236575,56.83608092995384],[30.195819777336244,56.828942546935636],[30.18035328079808,56.832511738443856],[30.170835436775025,56.85868580950958],[30.17440462828377,56.87058311453802],[30.172025167278207,56.88842907208255],[30.150610018225734,56.905085299122206],[30.125625677664516,56.92650044817495],[30.086364571068405,56.910593310709395],[30.085174840565045,56.89631654467486],[30.06256996101019,56.89393708366974],[30.044724003466108,56.88560897014853],[30.01736020189888,56.8749013956231],[29.995945052846498,56.858245168581576],[29.976909364799855,56.860624629586695],[29.970960712285812,56.843968402547034],[29.94954556323263,56.82969163651161],[29.930509875186075,56.82612244500339],[29.923371492168584,56.80946621796196],[29.9055255346253,56.80351756544677],[29.891248768590497,56.79756891293343],[29.868643889034754,56.79756891293343],[29.84722873998237,56.785671607904106],[29.825813590929986,56.784481877400125],[29.79844978936276,56.782102416395006],[29.781793562321948,56.772584572372566],[29.763947604777954,56.777343494383786],[29.74967083874306,56.77377430287557],[29.73777353371391,56.77377430287557],[29.6925637746034,56.761876997845356],[29.69018431359757,56.74641050130772],[29.665199973036085,56.74641050130772],[29.664010242533525,56.7368926572844],[29.64973347649872,56.72975427426718],[29.64735401549289,56.71904669974086],[29.656871859516123,56.70595966420932],[29.659251320521953,56.691682898173006],[29.64854374599536,56.682165054149685],[29.622369674931317,56.67502667113237],[29.559313958276814,56.67145747962425],[29.48079174508477,56.67859586264147],[29.448669021505793,56.66907801861815],[29.43558198597337,56.64885260006939],[29.458186865529026,56.64131764021662],[29.490309589108,56.63774844870841],[29.521242582183707,56.62228195216998],[29.52600150419528,56.613953838650545],[29.504586355142894,56.599677072614234],[29.499827433131323,56.59134895909392],[29.545037192241832,56.540190547469095],[29.567642071797575,56.48903213584437],[29.59857506487319,56.474755369807966]]]]}},{"type":"Feature","properties":{"kind":"district","id":"uyezd-1897-74","name":"Опочецкий","provinceId":"gubernia-1897-38"},"geometry":{"type":"MultiPolygon","coordinates":[[[[29.43558198597337,56.64885260006939],[29.417736028430177,56.63814502554307],[29.38918249635959,56.623868259506665],[29.353490581272315,56.627437451016746],[29.3332651627232,56.63814502554307],[29.3296959712141,56.65480125258273],[29.315419205179207,56.65837044409271],[29.285675942606062,56.65718071358971],[29.263071063051118,56.65718071358971],[29.236896991986363,56.64885260006939],[29.194066693881595,56.695252089682995],[29.204774268408187,56.72023643024297],[29.179789927846702,56.72380562175296],[29.16313370080598,56.71785696923776],[29.11435475018628,56.72023643024297],[29.06676553006994,56.71547750823264],[29.047729842023386,56.73332346577539],[29.037022267496795,56.769015380862584],[29.054868225040877,56.79399972142345],[29.075093643589902,56.82017379248829],[29.048919572525946,56.848727324558254],[29.032263345485223,56.87371166512],[29.01560711844441,56.87371166512],[28.993002238888756,56.88085004813634],[29.01203792693611,56.89036789215966],[29.02036604045607,56.90226519718996],[29.040591459005984,56.91297277171638],[29.039401728502625,56.94390576479147],[29.0191763099536,56.95937226132901],[29.022745501461902,56.96770037484932],[29.051299033531777,56.97483875786743],[29.081042296104833,57.009340942452596],[29.086990948619853,57.04146366603068],[29.081042296104833,57.0581198930722],[29.056057955543437,57.11165776570303],[29.034642806490965,57.12831399274367],[29.01559243041362,57.13423326919657],[28.985849167840474,57.12709488617837],[28.959675096776518,57.11876677265805],[28.937070217220864,57.14851003523111],[28.91089614615682,57.167545723277755],[28.897809110625197,57.1913403333365],[28.872824770063712,57.19490952484462],[28.846650698999756,57.161597070763534],[28.81214851441495,57.172304645289856],[28.784784712848435,57.172304645289856],[28.76336956379525,57.177063567301076],[28.724108457199673,57.13542299969957],[28.70983169116478,57.149699765735],[28.720539265690572,57.169925184282874],[28.700313847140748,57.18301221981618],[28.682467889597465,57.178253297804964],[28.667001393059213,57.1842019503183],[28.643206783001087,57.18182248931318],[28.615842981433772,57.1842019503183],[28.59561756288466,57.175873836797976],[28.564684569809042,57.178253297804964],[28.54564888176249,57.166355992774655],[28.528992654720966,57.165166262271654],[28.49092127862786,57.172304645289856],[28.468316399073004,57.167545723277755],[28.44333205851152,57.167545723277755],[28.430245022979097,57.154458687746214],[28.386224994371858,57.154458687746214],[28.363620114816204,57.15088949623623],[28.34101523526046,57.15564841824833],[28.33387685224306,57.14494084372289],[28.316030894699775,57.13899219120779],[28.313651433693945,57.11281812014295],[28.255354639051014,57.0616597085191],[28.23988814251285,57.03786509846036],[28.23988814251285,57.015260218905496],[28.225611376477868,57.000983452869185],[28.170883773344126,56.98908614784065],[28.120915092221068,56.93673800571283],[28.08879236864298,56.948635310741366],[28.068566950093068,56.931979083699844],[28.066187489087238,56.89747689911654],[28.047151801040773,56.89152824660144],[28.041203148525753,56.8736822890578],[27.991234467403583,56.86892336704658],[27.97338850985959,56.84274929598173],[27.97338850985959,56.83204172145541],[27.961491204830438,56.83204172145541],[27.97933716237452,56.81776495541999],[27.943645247287243,56.81419576391177],[27.93293767276065,56.80348818938545],[27.947214438795545,56.792780614859126],[27.947214438795545,56.784452501338805],[27.916281445719928,56.783262770835805],[27.887727913650142,56.76184762178404],[27.898435488175934,56.75470923876584],[27.913901984714098,56.75470923876584],[27.909143062702437,56.74519139474252],[27.947214438795545,56.73448382021619],[27.944834977789714,56.72496597619287],[27.97338850985959,56.71068921015922],[27.97695770136869,56.699981635632895],[27.986475545391922,56.68808433060259],[27.997183119918514,56.68927406110648],[27.999562580924344,56.70593028814623],[28.012649616455967,56.709499479656216],[28.074515602608,56.68213567808925],[28.110207517695276,56.686894600099585],[28.13400212775349,56.696412444122906],[28.167314581834937,56.690463791609574],[28.194678383402252,56.65596160702441],[28.19348865289898,56.633356727469646],[28.206575688431403,56.626218344451445],[28.222042184968856,56.63216699696655],[28.23869841201029,56.64525403249809],[28.270821135588466,56.62264915294323],[28.260113561062674,56.610751847913015],[28.275580057600127,56.59647508187848],[28.279149249109228,56.561972897293316],[28.28747736262919,56.552455053269995],[28.277959518605957,56.53817828723545],[28.28985682363502,56.52866044321213],[28.313651433693945,56.52271179069703],[28.330307660734757,56.479881492592526],[28.34101523526046,56.476312301084405],[28.34696388777548,56.45251769102556],[28.374327689341996,56.43943065549412],[28.38979418588016,56.43943065549412],[28.426675831470796,56.43348200297892],[28.49924939214862,56.44537930800923],[28.487352087119557,56.475122570580425],[28.482593165107897,56.50129664164527],[28.50519804466275,56.50843502466249],[28.483782895610457,56.52390152120101],[28.530182385224325,56.52747071270913],[28.515905619189343,56.56911128031152],[28.570633222323174,56.58695723785516],[28.612273789925382,56.58933669886028],[28.622981364451263,56.56911128031152],[28.65153489652185,56.558403705785196],[28.667001393059213,56.558403705785196],[28.678898698088364,56.535798826230334],[28.682467889597465,56.51200421617248],[28.70388303864976,56.50486583315437],[28.71102142166725,56.48939933661585],[28.728867379211334,56.477502031587406],[28.80738959240329,56.49534798913105],[28.879963153081203,56.50724529416037],[28.96919294079975,56.49772745013705],[29.02630000494021,56.52033232969191],[29.034628118460173,56.556024244779984],[29.027489735442682,56.57268047182062],[29.041766501477664,56.57981885483696],[29.058422728518387,56.575059932826626],[29.07626868606238,56.58338804634694],[29.1345654807054,56.59290589037026],[29.170257395792678,56.58338804634694],[29.17739577881008,56.56911128031152],[29.158360090763527,56.5631626277973],[29.164308743277658,56.556024244779984],[29.150031977242765,56.545316670253655],[29.13694494171123,56.546506400755774],[29.13694494171123,56.52985017371523],[29.252348800493824,56.52866044321213],[29.28090233256361,56.50129664164527],[29.357045084750535,56.492968528125836],[29.366562928773856,56.45489715203255],[29.32730182217748,56.44062038599624],[29.32730182217748,56.41920523694448],[29.360614276258925,56.40849766241806],[29.364183467768026,56.36566736431356],[29.43318783693675,56.34068302375181],[29.48315651805901,56.320457605202165],[29.5497814262227,56.32521652721338],[29.554540348234273,56.313319222183964],[29.584283610806708,56.30261164765852],[29.611647412373934,56.31569868319006],[29.635442022432148,56.307370569670624],[29.658046901987802,56.306180839166736],[29.70087720009257,56.31569868319006],[29.679462051040186,56.33949329324881],[29.65328797997623,56.36090844230145],[29.59975010734487,56.35020086777513],[29.564058192257594,56.37399547783299],[29.54145331270185,56.400169548897836],[29.554540348234273,56.4227744284526],[29.554540348234273,56.45489715203255],[29.59857506487319,56.474755369807966],[29.567642071797575,56.48903213584437],[29.545037192241832,56.540190547469095],[29.499827433131323,56.59134895909392],[29.504586355142894,56.599677072614234],[29.52600150419528,56.613953838650545],[29.521242582183707,56.62228195216998],[29.490309589108,56.63774844870841],[29.458186865529026,56.64131764021662],[29.43558198597337,56.64885260006939]]]]}},{"type":"Feature","properties":{"kind":"district","id":"uyezd-1897-75","name":"Островский","provinceId":"gubernia-1897-38"},"geometry":{"type":"MultiPolygon","coordinates":[[[[29.365165842048526,57.461272624404934],[29.330738821407678,57.45625365865183],[29.267683104753797,57.43364877909697],[29.22723226765415,57.45506392814873],[29.204627388099293,57.44792554513151],[29.173694395022878,57.46815096368027],[29.164176550999557,57.462202311166934],[29.13681274943304,57.46815096368027],[29.122535983398148,57.49551476524812],[29.096361912334103,57.49551476524812],[29.07137757177262,57.48956611273301],[29.090413259819172,57.466961233178154],[29.058290536240197,57.470530424686366],[29.02854727366785,57.48242772971658],[28.996424550088964,57.484807190721796],[28.934558563936932,57.477668807703594],[28.92504071991361,57.462202311166934],[28.935748294440113,57.45863311965695],[28.91790233689612,57.43840770110819],[28.904815301364497,57.43483850959998],[28.890538535329604,57.409854169038226],[28.859605542253988,57.403905516524006],[28.845328776218295,57.38368009797338],[28.827482818675012,57.37892117596216],[28.785842251072804,57.395577403003685],[28.776324407049483,57.3920082114937],[28.76204764101468,57.402715786020025],[28.738253030956464,57.402715786020025],[28.71207895989242,57.38724928948248],[28.695422732851696,57.38962875048858],[28.679956236313533,57.408664438535226],[28.66211027876945,57.408664438535226],[28.640695129717066,57.42651039607877],[28.60857240613818,57.42651039607877],[28.60381348412652,57.44792554513151],[28.568121569039242,57.45268446714361],[28.55622426401018,57.44078716211331],[28.519342618419543,57.43721797060519],[28.487219894841367,57.43126931808999],[28.470563667800644,57.43245904859397],[28.46342528478324,57.44792554513151],[28.471753398303203,57.46815096368027],[28.45747663226822,57.48242772971658],[28.475322589812304,57.491945573739905],[28.475322589812304,57.51098126178655],[28.437251213718397,57.52287856681596],[28.409887412151882,57.51930937530598],[28.384903071590397,57.5288272193293],[28.370626305555504,57.546673176872936],[28.371816036058064,57.555001290394145],[28.368246844549674,57.5811753614589],[28.332554929462397,57.58474455296622],[28.317088432924145,57.60259051051075],[28.257601907778742,57.60140078000765],[28.258791638281213,57.59069320548222],[28.212392148667433,57.58712401397223],[28.211202418164874,57.60259051051075],[28.162423467545175,57.60615970201887],[28.14814670151028,57.57760616994891],[28.132680204972118,57.54905263787983],[28.104126672902243,57.53953479385651],[28.079142332341558,57.5288272193293],[28.051778530774243,57.51574018379776],[28.026794190212758,57.52168883631296],[27.98634335311382,57.51692991429988],[27.951841168529015,57.51692991429988],[27.907821139921776,57.5335861413414],[27.87807787734872,57.54548344636984],[27.844765423267273,57.546673176872936],[27.83048865723229,57.537155332849615],[27.81502216069404,57.53953479385651],[27.760294557560297,57.53834506335262],[27.742448600016214,57.550242368382925],[27.740069139010384,57.58236509196101],[27.72222318146639,57.59307266648743],[27.67582369185332,57.59069320548222],[27.646080429280175,57.57165751743469],[27.61871662771286,57.566898595422586],[27.591352826146345,57.550242368382925],[27.56636848558486,57.51930937530598],[27.541384145023375,57.471720155190255],[27.51639980446269,57.471720155190255],[27.503312768930268,57.45030500613663],[27.537814953514985,57.42770012658187],[27.581834982123024,57.412233630043346],[27.642511237771785,57.396767133505804],[27.698428571408176,57.36583414043072],[27.744828061022044,57.36583414043072],[27.763863749068598,57.35274710489919],[27.77219186258936,57.326573033834435],[27.791227550635913,57.326573033834435],[27.800745394659145,57.33252168634954],[27.82810919622646,57.325383303330455],[27.838816770752253,57.30277842377559],[27.853093536787146,57.29088111874627],[27.845955153769744,57.27303516120263],[27.856662728296246,57.23377405460634],[27.841196231758083,57.232584324103335],[27.82454000471736,57.20759998354336],[27.83286811823812,57.20284106153028],[27.840006501255612,57.187374564993625],[27.811452969185737,57.173097798957315],[27.811452969185737,57.162390224431874],[27.797176203150045,57.156441571916766],[27.749586983033705,57.13859561437401],[27.7222231814671,57.12312911783559],[27.72103345096383,57.11004208230405],[27.760294557560297,57.093385855262525],[27.742448600016214,57.07197070621076],[27.746017791525315,57.05531447916924],[27.72460264247293,57.0350890606196],[27.713895067946428,56.96965388295935],[27.71270533744307,56.96132576944001],[27.700808032414006,56.952997655919695],[27.692479918894044,56.932772237370045],[27.704377223923107,56.926823584854944],[27.713895067946428,56.90897762731041],[27.699618301911446,56.89708032228188],[27.701997762917276,56.87804463423524],[27.68296207487081,56.87090625121713],[27.67701342235579,56.84116298864407],[27.704377223923107,56.842352719147165],[27.735310216998723,56.85068083266739],[27.77338159309183,56.857819215685595],[27.787658359126812,56.869716520714036],[27.812642699688208,56.873285712224025],[27.81502216069404,56.88518301725344],[27.87331895533706,56.88399328675044],[27.86974976382787,56.867337059708916],[27.895923834892713,56.8637678682007],[27.899493026401014,56.83759379713595],[27.93161574997999,56.83759379713595],[27.97338850985959,56.84274929598173],[27.991234467403583,56.86892336704658],[28.041203148525753,56.8736822890578],[28.047151801040773,56.89152824660144],[28.066187489087238,56.89747689911654],[28.068566950093068,56.931979083699844],[28.08879236864298,56.948635310741366],[28.120915092221068,56.93673800571283],[28.170883773344126,56.98908614784065],[28.225611376477868,57.000983452869185],[28.23988814251285,57.015260218905496],[28.23988814251285,57.03786509846036],[28.255354639051014,57.0616597085191],[28.313651433693945,57.11281812014295],[28.316030894699775,57.13899219120779],[28.33387685224306,57.14494084372289],[28.34101523526046,57.15564841824833],[28.363620114816204,57.15088949623623],[28.386224994371858,57.154458687746214],[28.430245022979097,57.154458687746214],[28.44333205851152,57.167545723277755],[28.468316399073004,57.167545723277755],[28.49092127862786,57.172304645289856],[28.528992654720966,57.165166262271654],[28.54564888176249,57.166355992774655],[28.564684569809042,57.178253297804964],[28.59561756288466,57.175873836797976],[28.615842981433772,57.1842019503183],[28.643206783001087,57.18182248931318],[28.667001393059213,57.1842019503183],[28.682467889597465,57.178253297804964],[28.700313847140748,57.18301221981618],[28.720539265690572,57.169925184282874],[28.70983169116478,57.149699765735],[28.724108457199673,57.13542299969957],[28.76336956379525,57.177063567301076],[28.784784712848435,57.172304645289856],[28.81214851441495,57.172304645289856],[28.846650698999756,57.161597070763534],[28.872824770063712,57.19490952484462],[28.897809110625197,57.1913403333365],[28.91089614615682,57.167545723277755],[28.937070217220864,57.14851003523111],[28.959675096776518,57.11876677265805],[28.985849167840474,57.12709488617837],[29.01559243041362,57.13423326919657],[29.034642806490965,57.12831399274367],[29.052488764035047,57.142590758778205],[29.084611487614023,57.14140102827511],[29.11435475018628,57.13188318425179],[29.106026636666318,57.153298333304534],[29.11316501968381,57.17828267386628],[29.11197528918054,57.19493890090594],[29.127441785718702,57.19850809241602],[29.140528821250324,57.1866107873866],[29.17384127533257,57.1830415958775],[29.22737914796313,57.19255943990082],[29.244035375004653,57.21159512794746],[29.27615809858274,57.21278485844958],[29.314229474675848,57.20445674492926],[29.390372226862862,57.228251354988984],[29.3856133048512,57.246097312532626],[29.410597645412686,57.25442542605197],[29.449858752008353,57.233010276999224],[29.474843092569838,57.237769199012305],[29.498637702627963,57.235389738006205],[29.54027827023017,57.230630815994104],[29.558124227773455,57.250856234542866],[29.575748141064686,57.27805412695484],[29.559091914023075,57.28043358796094],[29.551953531005672,57.297089815001485],[29.560281644526434,57.314935772546015],[29.58526598508792,57.34229957411297],[29.582886524082088,57.363714723165714],[29.601922212128642,57.37918121970237],[29.59954275112281,57.39345798573868],[29.619768169671925,57.41606286529256],[29.607870864642774,57.44223693635829],[29.49127727535771,57.43152936183196],[29.365165842048526,57.461272624404934]]]]}},{"type":"Feature","properties":{"kind":"district","id":"uyezd-1897-99","name":"Торопецкий","provinceId":"gubernia-1897-38"},"geometry":{"type":"MultiPolygon","coordinates":[[[[30.77442537858749,55.94968764118861],[30.794650797136605,55.97348225124638],[30.81844540719553,55.97705144275548],[30.846998939265404,55.97705144275548],[30.863655166306128,55.9830000952697],[30.87912166284358,56.005604974826426],[30.889829237370083,56.007984435831546],[30.906485464410807,56.007984435831546],[30.916003308434128,56.02226120186608],[30.93028007446902,56.02820985438119],[30.954074684527235,56.03653796790151],[30.97430010307706,56.03296877639329],[30.98976659961531,56.03296877639329],[31.018320131685098,56.06152230846325],[31.042114741743312,56.06747096097659],[31.052822316269904,56.05319419494303],[31.07542719582476,56.05676338645115],[31.093273153368752,56.05557365594815],[31.115878032923696,56.06152230846325],[31.125395876947728,56.02226120186608],[31.149190487005942,56.009174166334546],[31.178933749578288,56.003225513820325],[31.226522969695427,55.978241173258574],[31.271732728806025,55.96515413772704],[31.34073709797475,55.96396440722306],[31.40260308412678,55.998466591808224],[31.44186419072245,56.02820985438119],[31.458520417763882,56.02702012387819],[31.471607453295505,56.03772769840451],[31.464469070278103,56.04843527292995],[31.477556105810525,56.063901769469354],[31.49659179385699,56.063901769469354],[31.51086855989197,56.05438392544603],[31.523955595423594,56.06271203896635],[31.537042630955927,56.06509149997147],[31.54656047497925,56.05557365594815],[31.565596163025802,56.063901769469354],[31.581062659563965,56.063901769469354],[31.59533942559886,56.04843527292995],[31.623892957668733,56.06509149997147],[31.633410801691966,56.06509149997147],[31.629841610183664,56.04010715940963],[31.664343794767582,56.05081473393604],[31.71074328438145,56.04248662041661],[31.745245468966257,56.0353482373985],[31.769040079024382,56.04367635091971],[31.802352533105918,56.03772769840451],[31.804731994111748,56.05438392544603],[31.839234178696465,56.04367635091971],[31.851131483725528,56.05914284745627],[31.897530973339396,56.06152230846325],[31.943930462953265,56.05795311695327],[31.961776420496548,56.063901769469354],[31.97843264753727,56.087696379526236],[31.96772507301148,56.09840395405265],[31.96653534250821,56.136475330145934],[31.946309923959095,56.160269940205566],[31.980812108543102,56.17216724523401],[31.992709413572165,56.18168508925733],[32.01174510161952,56.180495358755216],[32.048626747209354,56.19596185529187],[32.07242135726748,56.19834131629885],[32.07480081827331,56.22808457887182],[32.06885216575918,56.247120266918465],[32.08669812330246,56.26615595496511],[32.13309761291633,56.27448406848454],[32.14380518744284,56.298278678543284],[32.155702492471896,56.324452749606266],[32.14618464844867,56.3494370901681],[32.154512761968626,56.36371385620255],[32.202101982085765,56.387508466262275],[32.18187656353594,56.394646849279496],[32.17116898901015,56.40059550179372],[32.174738180518446,56.40773388481104],[32.19734306007419,56.41368253732526],[32.205671173594155,56.42439011185256],[32.18544575504504,56.42676957285856],[32.12239003839045,56.41368253732526],[32.11406192486969,56.42320038134858],[32.12952842140794,56.4303387643658],[32.18306629403921,56.4458052609052],[32.22232740063488,56.49577394202693],[32.2389836276756,56.52670693510299],[32.155702492471896,56.544552892646635],[32.1902046770567,56.60522914829468],[32.22351713113815,56.60879833980467],[32.23816096784539,56.60325651285984],[32.25481719488593,56.62586139241372],[32.26671449991535,56.650845732975554],[32.28693991846473,56.66036357699977],[32.301216684499714,56.685347917560634],[32.30359614550528,56.70914252761938],[32.285750187961554,56.7150911801336],[32.29407830148222,56.744834442706654],[32.31430372003152,56.747213903711774],[32.332149677575245,56.74602417320966],[32.32620102506093,56.766249591759305],[32.29764749299097,56.772198244273525],[32.292888570979045,56.78766474081018],[32.251248003377185,56.7971825848335],[32.25957611689786,56.806700428857795],[32.24648908136526,56.817408003383235],[32.23816096784539,56.83763342193288],[32.19099783072531,56.811096589392974],[32.18742863921656,56.77540467430393],[32.133890766585296,56.76588683028149],[32.091060468480265,56.74447168122875],[32.07321451093654,56.75993817776727],[32.047040439872134,56.74566141173273],[32.01610744679661,56.75874844726427],[31.83407867985041,56.72067707117],[31.809094339289192,56.733764106702424],[31.753177005652358,56.737333298211524],[31.750797544646794,56.72424626268],[31.737710509114194,56.719487340667],[31.704398055033014,56.718297610164],[31.68893155849485,56.70521057463246],[31.64848072139547,56.740902489719744],[31.63658341636685,56.75993817776727],[31.684172636483012,56.76707656078361],[31.69488021100925,56.781353326819925],[31.67703425346552,56.78492251832813],[31.627065572342996,56.781353326819925],[31.592563387758634,56.76945602178971],[31.57590716071809,56.755179255756055],[31.548543359150507,56.748040872736965],[31.521179557583725,56.75279979474996],[31.481918450987436,56.757558716761174],[31.45098545791191,56.74566141173273],[31.448605996906345,56.70759003563856],[31.40458596829813,56.673087851054376],[31.362945400696365,56.70996949664368],[31.31892537208815,56.72186680167398],[31.321304833093713,56.70759003563856],[31.30107941454442,56.68974407809404],[31.308217797561912,56.677846773065504],[31.285612918006258,56.676657042562496],[31.30583833655635,56.65048297149863],[31.270146421468894,56.62787809194289],[31.224936662357585,56.63858566647011],[31.192813938779587,56.63977539697319],[31.16307067620644,56.62668836143989],[31.097635498545753,56.63977539697319],[31.02268247686201,56.64810351049253],[31.000077597307154,56.62787809194289],[30.942970533167138,56.64572404948741],[30.916796462102738,56.65643162401285],[30.913227270593993,56.6409651274762],[30.890622391039138,56.64453431898441],[30.876320261282366,56.653788638238524],[30.87555247133519,56.624264836341325],[30.863655166306128,56.5731064247166],[30.87198327982609,56.561209119688066],[30.857706513791197,56.52789666560511],[30.82439405970975,56.520758282587884],[30.787512414119114,56.51005070806147],[30.763717804060988,56.485066367501496],[30.756579421043497,56.454133374425524],[30.783943222610812,56.471979331968186],[30.8160659461897,56.468410140460065],[30.841050286750473,56.4791177149855],[30.857706513791197,56.48268690649549],[30.87555247133519,56.47673825398029],[30.882690854352592,56.455323104928524],[30.91838276943996,56.4458052609052],[30.92552115245745,56.42557984235556],[30.944556840503914,56.41130307631916],[30.940987648995613,56.40297496279893],[30.92195196094906,56.41606199833224],[30.905295733908336,56.41606199833224],[30.913623847428298,56.40059550179372],[30.92433142195489,56.389887927267395],[30.93503899648068,56.386318735759275],[30.963592528550556,56.392267388272515],[30.97548983358033,56.380370083244074],[30.949315762515575,56.34824735966599],[30.949315762515575,56.312555444577825],[30.958833606538896,56.29351975653118],[30.908864925416637,56.27091487697632],[30.849378400271146,56.24830999742156],[30.831532442727152,56.20191050780707],[30.811307024178127,56.17692616724523],[30.81368648518387,56.159080209702566],[30.783943222610812,56.13528559964382],[30.737543732996944,56.1293369471296],[30.708990200927158,56.136475330145934],[30.7113696619329,56.11743964209929],[30.678057207851452,56.11743964209929],[30.676867477348182,56.10197314556264],[30.641175562260905,56.09602449304744],[30.638796101255075,56.075799074497795],[30.66378044181656,56.063901769469354],[30.675677746845622,56.05795311695415],[30.704231278915497,56.05200446443993],[30.7113696619329,56.010363896836665],[30.71255939243546,55.978241173258574],[30.72207723645878,55.96158494621883],[30.77442537858749,55.94968764118861]]]]}},{"type":"Feature","properties":{"kind":"district","id":"uyezd-1897-518","name":"Псковский","provinceId":"gubernia-1897-38"},"geometry":{"type":"MultiPolygon","coordinates":[[[[28.573977127728117,58.07673351316137],[28.58118160688466,58.044015924330765],[28.578008992209952,58.002771933562144],[28.44634548322112,58.0154623922608],[28.40668779979026,58.01387608492313],[28.378134267720384,58.053533768354086],[28.33371766227795,58.05670638302763],[28.314681974231398,58.07732837841194],[28.290887364173184,58.09001883711059],[28.287714749499276,58.10429560314424],[28.27165338770939,58.12749534795144],[28.258566352177766,58.12749534795144],[28.250238238657094,58.109649390407895],[28.22882308960471,58.097752085378474],[28.18123386948828,58.09061370236125],[28.144352223897734,58.08347531934491],[28.061071088693318,58.06562936180039],[28.03132782612097,58.06087043978819],[27.840970945653925,58.07752666682883],[27.668460022731672,58.08585478035003],[27.633957838146866,58.08823424135515],[27.579230235013036,58.11321858191788],[27.55566091105827,58.096328669219474],[27.542573875526646,58.07729298117283],[27.503312768930268,58.05468810161797],[27.503312768930268,58.004719420496244],[27.485466811386274,57.99282211546692],[27.480707889374614,57.96902750540808],[27.491415463901117,57.952371278368425],[27.50807169094193,57.952371278368425],[27.542573875526646,57.95950966138476],[27.55923010256737,57.938094512332114],[27.573506868602262,57.91192044126913],[27.541384145023375,57.89883340573582],[27.549712258544137,57.88336690919917],[27.56398902457903,57.87741825668397],[27.573506868602262,57.865520951655526],[27.56279929407576,57.85243391612222],[27.56398902457903,57.83815715008768],[27.51877926546852,57.83815715008768],[27.503312768930268,57.84410580260279],[27.474759236860482,57.8429160720989],[27.433118669258274,57.83339822807558],[27.40932405920006,57.82507011455615],[27.390288371153506,57.8048446960065],[27.40218567618257,57.792947390976195],[27.40575486769096,57.77153224192443],[27.387908910147676,57.75487601488291],[27.387908910147676,57.72751221331693],[27.4117035202058,57.709666255773286],[27.430739208252444,57.709666255773286],[27.45215435730474,57.701338142252084],[27.433118669258274,57.67873326269732],[27.387908910147676,57.6620770356558],[27.35459645606623,57.657318113645466],[27.341509420533807,57.64185161710704],[27.340319690031247,57.61448781553919],[27.318904540978153,57.59664185799555],[27.30938669695483,57.58474455296622],[27.318904540978153,57.57641643944591],[27.346268342545468,57.57760616994891],[27.35935537807789,57.57641643944591],[27.376011605118524,57.563329403914366],[27.374821874615254,57.550242368382925],[27.386719179644405,57.547862907375944],[27.41408298121163,57.546673176872936],[27.425980286240783,57.53239641083928],[27.42003163372665,57.50384287876844],[27.422411094732393,57.485996921224796],[27.40932405920006,57.46815096368027],[27.4009959456793,57.45268446714361],[27.397426754170997,57.43959743161031],[27.40932405920006,57.4443563536233],[27.445015974287248,57.45863311965695],[27.46643112333972,57.44792554513151],[27.503312768930268,57.45030500613663],[27.51639980446269,57.471720155190255],[27.541384145023375,57.471720155190255],[27.56636848558486,57.51930937530598],[27.591352826146345,57.550242368382925],[27.61871662771286,57.566898595422586],[27.646080429280175,57.57165751743469],[27.67582369185332,57.59069320548222],[27.72222318146639,57.59307266648743],[27.740069139010384,57.58236509196101],[27.742448600016214,57.550242368382925],[27.760294557560297,57.53834506335262],[27.81502216069404,57.53953479385651],[27.83048865723229,57.537155332849615],[27.844765423267273,57.546673176872936],[27.87807787734872,57.54548344636984],[27.907821139921776,57.5335861413414],[27.951841168529015,57.51692991429988],[27.98634335311382,57.51692991429988],[28.026794190212758,57.52168883631296],[28.051778530774243,57.51574018379776],[28.079142332341558,57.5288272193293],[28.104126672902243,57.53953479385651],[28.132680204972118,57.54905263787983],[28.14814670151028,57.57760616994891],[28.162423467545175,57.60615970201887],[28.211202418164874,57.60259051051075],[28.212392148667433,57.58712401397223],[28.258791638281213,57.59069320548222],[28.257601907778742,57.60140078000765],[28.317088432924145,57.60259051051075],[28.332554929462397,57.58474455296622],[28.368246844549674,57.5811753614589],[28.371816036058064,57.555001290394145],[28.370626305555504,57.546673176872936],[28.384903071590397,57.5288272193293],[28.409887412151882,57.51930937530598],[28.437251213718397,57.52287856681596],[28.475322589812304,57.51098126178655],[28.475322589812304,57.491945573739905],[28.45747663226822,57.48242772971658],[28.471753398303203,57.46815096368027],[28.46342528478324,57.44792554513151],[28.470563667800644,57.43245904859397],[28.487219894841367,57.43126931808999],[28.519342618419543,57.43721797060519],[28.55622426401018,57.44078716211331],[28.568121569039242,57.45268446714361],[28.60381348412652,57.44792554513151],[28.60857240613818,57.42651039607877],[28.640695129717066,57.42651039607877],[28.66211027876945,57.408664438535226],[28.679956236313533,57.408664438535226],[28.695422732851696,57.38962875048858],[28.71207895989242,57.38724928948248],[28.738253030956464,57.402715786020025],[28.76204764101468,57.402715786020025],[28.776324407049483,57.3920082114937],[28.785842251072804,57.395577403003685],[28.827482818675012,57.37892117596216],[28.845328776218295,57.38368009797338],[28.859605542253988,57.403905516524006],[28.890538535329604,57.409854169038226],[28.904815301364497,57.43483850959998],[28.91790233689612,57.43840770110819],[28.935748294440113,57.45863311965695],[28.92504071991361,57.462202311166934],[28.934558563936932,57.477668807703594],[28.996424550088964,57.484807190721796],[29.02854727366785,57.48242772971658],[29.058290536240197,57.470530424686366],[29.090413259819172,57.466961233178154],[29.07137757177262,57.48956611273301],[29.096361912334103,57.49551476524812],[29.122535983398148,57.49551476524812],[29.13681274943304,57.46815096368027],[29.164176550999557,57.462202311166934],[29.173694395022878,57.46815096368027],[29.204627388099293,57.44792554513151],[29.22723226765415,57.45506392814873],[29.267683104753797,57.43364877909697],[29.330738821407678,57.45625365865183],[29.365165842048526,57.461272624404934],[29.259279827289166,57.49815426999521],[29.237864678235983,57.4898261564749],[29.180757614096322,57.521948880053074],[29.146255429511605,57.539794837596716],[29.17005003957062,57.5671586391627],[29.17718842258802,57.59214297972444],[29.191465188622914,57.629024625315616],[29.206931685160367,57.63259381682383],[29.190275458119643,57.65638842688257],[29.11413270593343,57.71468522152551],[29.06535375531373,57.74918740610978],[29.07368186883378,57.76584363315121],[29.082009982354542,57.770602555161545],[29.099855939898536,57.78131012968787],[29.11294297543016,57.79915608723151],[29.142686238003215,57.80510473974661],[29.139117046494203,57.81462258376993],[29.12840947196841,57.81938150578115],[29.131978663476712,57.831278810811455],[29.11770189744182,57.834848002319674],[29.085579173862843,57.837227463324794],[29.085579173862843,57.844365846342995],[29.059405102798888,57.846745307348115],[29.036800223243944,57.852693959862336],[29.039179684249774,57.87410910891596],[28.980882889606843,57.88957560545439],[28.923775825466382,57.89671398847072],[28.90830932892893,57.87529883941896],[28.870237952835822,57.86697072589776],[28.85477145629766,57.8931447969626],[28.846443342777697,57.90504210199104],[28.853581725795188,57.920508598528585],[28.840494690262766,57.943113478085216],[28.841684420765237,57.96690808814219],[28.81907954121038,57.989512967698815],[28.80361304467213,57.989512967698815],[28.791715739643067,58.01092811675156],[28.80480277517549,58.03948164882152],[28.83333837736396,58.06721566913801],[28.788128618252653,58.06840539964104],[28.76314427769108,58.095769201208],[28.672724759469972,58.10885623673944],[28.65963772393764,58.095769201208],[28.573977127728117,58.07673351316137]]]]}},{"type":"Feature","properties":{"kind":"district","id":"uyezd-1897-689","name":"Новоржевский","provinceId":"gubernia-1897-38"},"geometry":{"type":"MultiPolygon","coordinates":[[[[30.228910187164573,57.33516119109575],[30.176562045036572,57.33159199958576],[30.089711718323855,57.304228198019686],[30.06234791675645,57.28638224047605],[29.921959717412463,57.27448493544672],[29.886267802325186,57.301848737012705],[29.84700669572872,57.299469276007585],[29.823212085670505,57.289951431984264],[29.80774558913234,57.27686439645273],[29.74231041147272,57.2542595168961],[29.708997957390473,57.25663897790308],[29.708997957390473,57.2649670914234],[29.63761412721592,57.26377736091942],[29.58526598508792,57.26377736091942],[29.575748141064686,57.27805412695484],[29.558124227773455,57.250856234542866],[29.54027827023017,57.230630815994104],[29.498637702627963,57.235389738006205],[29.474843092569838,57.237769199012305],[29.449858752008353,57.233010276999224],[29.410597645412686,57.25442542605197],[29.3856133048512,57.246097312532626],[29.390372226862862,57.228251354988984],[29.314229474675848,57.20445674492926],[29.27615809858274,57.21278485844958],[29.244035375004653,57.21159512794746],[29.22737914796313,57.19255943990082],[29.17384127533257,57.1830415958775],[29.140528821250324,57.1866107873866],[29.127441785718702,57.19850809241602],[29.11197528918054,57.19493890090594],[29.11316501968381,57.17828267386628],[29.106026636666318,57.153298333304534],[29.11435475018628,57.13188318425179],[29.084611487614023,57.14140102827511],[29.052488764035047,57.142590758778205],[29.034642806490965,57.12831399274367],[29.056057955543437,57.11165776570303],[29.081042296104833,57.0581198930722],[29.086990948619853,57.04146366603068],[29.081042296104833,57.009340942452596],[29.051299033531777,56.97483875786743],[29.022745501461902,56.96770037484932],[29.0191763099536,56.95937226132901],[29.039401728502625,56.94390576479147],[29.040591459005984,56.91297277171638],[29.02036604045607,56.90226519718996],[29.01203792693611,56.89036789215966],[28.993002238888756,56.88085004813634],[29.01560711844441,56.87371166512],[29.032263345485223,56.87371166512],[29.048919572525946,56.848727324558254],[29.075093643589902,56.82017379248829],[29.054868225040877,56.79399972142345],[29.037022267496795,56.769015380862584],[29.047729842023386,56.73332346577539],[29.06676553006994,56.71547750823264],[29.11435475018628,56.72023643024297],[29.16313370080598,56.71785696923776],[29.179789927846702,56.72380562175296],[29.204774268408187,56.72023643024297],[29.194066693881595,56.695252089682995],[29.236896991986363,56.64885260006939],[29.263071063051118,56.65718071358971],[29.285675942606062,56.65718071358971],[29.315419205179207,56.65837044409271],[29.3296959712141,56.65480125258273],[29.3332651627232,56.63814502554307],[29.353490581272315,56.627437451016746],[29.38918249635959,56.623868259506665],[29.417736028430177,56.63814502554307],[29.43558198597337,56.64885260006939],[29.448669021505793,56.66907801861815],[29.48079174508477,56.67859586264147],[29.559313958276814,56.67145747962425],[29.622369674931317,56.67502667113237],[29.64854374599536,56.682165054149685],[29.659251320521953,56.691682898173006],[29.656871859516123,56.70595966420932],[29.64735401549289,56.71904669974086],[29.64973347649872,56.72975427426718],[29.664010242533525,56.7368926572844],[29.665199973036085,56.74641050130772],[29.69018431359757,56.74641050130772],[29.6925637746034,56.761876997845356],[29.73777353371391,56.77377430287557],[29.74967083874306,56.77377430287557],[29.763947604777954,56.777343494383786],[29.781793562321948,56.772584572372566],[29.79844978936276,56.782102416395006],[29.825813590929986,56.784481877400125],[29.84722873998237,56.785671607904106],[29.868643889034754,56.79756891293343],[29.891248768590497,56.79756891293343],[29.9055255346253,56.80351756544677],[29.923371492168584,56.80946621796196],[29.930509875186075,56.82612244500339],[29.94954556323263,56.82969163651161],[29.970960712285812,56.843968402547034],[29.976909364799855,56.860624629586695],[29.995945052846498,56.858245168581576],[30.01736020189888,56.8749013956231],[30.044724003466108,56.88560897014853],[30.06256996101019,56.89393708366974],[30.085174840565045,56.89631654467486],[30.086364571068405,56.910593310709395],[30.125625677664516,56.92650044817495],[30.106589989617607,56.96338209376514],[30.059000769501445,57.02881727142628],[30.0423445424601,57.054991342489345],[30.053052116986336,57.07521676103899],[30.093502954085718,57.08949352707353],[30.14823055721937,57.11209840662927],[30.155368940236862,57.141841669203124],[30.158938131745607,57.17634385378731],[30.126815408167698,57.18705142831274],[30.10302079810886,57.18467196730762],[30.119677025150207,57.203707655354265],[30.145851096213807,57.216794690885806],[30.179163550295787,57.24177903144755],[30.20771708236575,57.23702010943634],[30.216045195885624,57.24177903144755],[30.235080883932532,57.295316904078376],[30.228910187164573,57.33516119109575]]]]}}]}
