{"type":"FeatureCollection","features":[{"type":"Feature","properties":{"kind":"province","id":"gubernia-1897-82","name":"Седлецкая губерния"},"geometry":{"type":"MultiPolygon","coordinates":[[[[22.02786531171549,52.66537419784373],[22.021216817728675,52.644378953674305],[22.023596278734505,52.627722726633664],[22.014078434711273,52.60868703858614],[21.97124813660686,52.60273838607192],[21.949832987553766,52.571805392996836],[21.9105718809581,52.567046470985616],[21.884397809893432,52.559908087967415],[21.870121043858628,52.565856740481635],[21.855844277823824,52.559908087967415],[21.847516164303507,52.55157997444621],[21.87963888788177,52.54563132193287],[21.916520533472585,52.544441591428985],[21.965299484092284,52.53373401690257],[21.990283824653236,52.54087239992166],[22.005750321190956,52.557528626962295],[22.04025250577594,52.55157997444621],[22.034303853261363,52.54682105243499],[22.02478600923742,52.53968266941777],[22.04025250577594,52.52897509489233],[22.06523684633689,52.52302644237713],[22.066426576839806,52.499231832319275],[22.086651995389097,52.47543722225964],[22.099739030920986,52.473057761255404],[22.106877413939188,52.4623501867281],[22.146138520534944,52.4682988392433],[22.168743400090154,52.43498638516212],[22.127102832488568,52.43379665465814],[22.11877471896825,52.413571236108496],[22.077134151365865,52.406432853091275],[22.06285738533106,52.39096635655275],[22.07594442086295,52.37193066850611],[22.1009287614239,52.36717174649587],[22.125913101985653,52.34932578895135],[22.105687683436273,52.337428483922814],[22.102118491926817,52.324341448390484],[22.081893073377525,52.321961987384384],[22.079513612371695,52.30292629933774],[22.06523684633689,52.29578791632052],[22.054529271810743,52.26723438425056],[22.04263196678177,52.243439774192694],[22.06047792432523,52.24225004368871],[22.06285738533106,52.22083489463695],[22.06761630734272,52.19109163206301],[22.005750321190956,52.170866213513364],[21.9664892145952,52.169676483011244],[21.949832987553766,52.15658944747882],[21.931987030010305,52.154209986472814],[21.92246918598711,52.14588187295342],[21.93066021737511,52.133542985255175],[21.928280756369368,52.11450729720853],[21.963972671457178,52.07881538212135],[21.923521834357796,52.060969424577706],[21.898537493796756,52.044313197536184],[21.85689692619446,52.03241589250774],[21.858086656697374,52.019328856976216],[21.87474288373872,52.01813912647321],[21.887829919270697,52.007431551946],[21.871173692229263,51.999103438426566],[21.869983961726348,51.98720613339724],[21.889019649773523,51.974119097864815],[21.86641477021769,51.964601253841494],[21.858086656697374,51.94913475730297],[21.822394741610275,51.94675529629697],[21.80097959255727,51.95627314032029],[21.780754174007978,51.95389367931605],[21.74744171992671,51.974119097864815],[21.7281001821929,51.977020328524304],[21.723647109867873,51.977688289372935],[21.69866276930692,51.99077532490536],[21.682006542266286,52.00386236043778],[21.674868159248884,52.019328856976216],[21.64512489667556,52.02646723999264],[21.634417322149414,52.02646723999264],[21.605863790079805,52.03479535351384],[21.565412952980335,52.02051858747833],[21.529721037893324,52.00029316892868],[21.504736697331573,51.984826672390255],[21.47261397375322,52.00267262993567],[21.440491250174066,52.01694939596932],[21.410747987601543,52.01694939596932],[21.38338418603476,52.03836454502286],[21.336984696420892,52.02884670099954],[21.34055388792955,52.01219047395899],[21.316759277871512,52.00624182144388],[21.306051703344654,52.02289804848442],[21.295344128818506,52.02765697049564],[21.285826284795274,52.01219047395899],[21.283446823789443,52.00148289943266],[21.222770568140696,51.98601640289326],[21.24523314326534,51.96989948470852],[21.26902775332338,51.962761101690404],[21.274976405837865,51.95205352716399],[21.266648292317548,51.93658703062556],[21.25832017879723,51.92468972559801],[21.241663951756596,51.913982151070705],[21.23809476024794,51.904464307047384],[21.24523314326534,51.891377271515054],[21.26902775332338,51.87472104447441],[21.274976405837865,51.85806481743387],[21.289013999419193,51.84175197376496],[21.318757261992516,51.83580332125163],[21.356828638085446,51.8215265552162],[21.398469205687743,51.8179573637071],[21.405607588705145,51.80843951968378],[21.411556241219632,51.79059356214112],[21.42940219876318,51.77631679610481],[21.425833007254525,51.762040030071155],[21.407987049710975,51.747763264034845],[21.403228127699403,51.73586595900631],[21.40679731920806,51.71802000146178],[21.43535085127767,51.71564054045756],[21.448437886809646,51.69541512190702],[21.46747357485682,51.684707547380604],[21.48056061038871,51.65972320682063],[21.501975759441006,51.658533476316734],[21.544806057546218,51.65734374581462],[21.55908282358111,51.63354913575499],[21.576928781124572,51.61094425620013],[21.634035845264677,51.62046210022345],[21.642363958784994,51.61213398670402],[21.64831261129948,51.594288029158605],[21.670917490855402,51.594288029158605],[21.67924560437572,51.58714964614227],[21.673296951861232,51.581200993627164],[21.687573717896036,51.56573449708864],[21.71493751946273,51.5609755750784],[21.744680782036053,51.57525234111196],[21.774424044608665,51.57168314960384],[21.814874881708047,51.56573449708864],[21.81172576788296,51.58662087702942],[21.816484689894533,51.60446683457395],[21.834330647438083,51.611605217591176],[21.868832832023067,51.602087373567855],[21.953303697729865,51.60803602608118],[21.996133995834366,51.5794824940122],[22.031825910922088,51.569964649988876],[22.078225400536134,51.574723572],[22.11272758512023,51.56282626697156],[22.15555788322553,51.574723572],[22.17102437976325,51.585431146527306],[22.207906025353175,51.59137979904064],[22.236459557423583,51.59137979904064],[22.281669316533915,51.59970791256184],[22.306653657095577,51.592569529544534],[22.31855096212464,51.59732845155575],[22.347104494194248,51.58900033803454],[22.353053146709534,51.59851818205786],[22.416108863363416,51.60803602608118],[22.449421317445395,51.640158749660245],[22.494631076556438,51.63421009714692],[22.527943530637707,51.654435515695674],[22.571963559245834,51.68179931726263],[22.605276013327103,51.70559392732138],[22.627880892882224,51.723439884865016],[22.6469165809294,51.723439884865016],[22.665952268975865,51.715111771343814],[22.699264723057134,51.69726581380017],[22.706403106075335,51.68060958675963],[22.73376690764203,51.66514309022209],[22.731387446636287,51.656814976700886],[22.711162028086996,51.637779288655125],[22.68022903501067,51.631830636140904],[22.66714199947878,51.62588198362571],[22.68022903501067,51.59970791256184],[22.726628524624715,51.5794824940122],[22.784925319267646,51.56520572797668],[22.809909659828598,51.441473755673506],[22.83727346139538,51.44266348617749],[22.849170766425154,51.459319713218036],[22.880103759500592,51.45456079120593],[22.90627783056446,51.435525103160174],[22.912226483078946,51.39983318807121],[22.932451901629037,51.39507426605999],[22.9730008134032,51.40498100374042],[22.986087848935888,51.42044750027893],[23.009882458993925,51.42282696128494],[23.061040870619454,51.4026015427353],[23.119337665261675,51.385945315694656],[23.163357693869802,51.383565854688655],[23.183583112419182,51.36215070563591],[23.244259368067944,51.33597663457205],[23.28589993567024,51.34668420909926],[23.253777212091176,51.374048010665334],[23.259725864605663,51.387135046197756],[23.279951283155754,51.387135046197756],[23.315643198242853,51.37523774116922],[23.34419673031326,51.35382259211657],[23.434616248534635,51.372858280163214],[23.417960021494,51.390704237705876],[23.445323823060694,51.4002220817292],[23.470308163621645,51.37523774116922],[23.54288172429947,51.370478819157114],[23.554779029329243,51.33835609557805],[23.571435256369877,51.32526906004572],[23.59879905793666,51.28005930093512],[23.628542320509982,51.28005930093512],[23.645198547550528,51.28243876194122],[23.651147200065015,51.296715527975756],[23.64162935604187,51.31694094652629],[23.635680703527296,51.33240744306295],[23.635680703527296,51.34906367010349],[23.64995746956219,51.34787393960137],[23.67494181012314,51.393083698711976],[23.69040830666157,51.40973992575252],[23.678511001631797,51.4466215713428],[23.664234235596993,51.47755456441886],[23.655906122076676,51.49302106095729],[23.627352590007067,51.49540052196241],[23.620214206989576,51.51800540151904],[23.595229866427914,51.547748664090236],[23.575004447878623,51.57154327414996],[23.551209837820497,51.5905789621966],[23.544071454802385,51.62389141627769],[23.53812280228749,51.64768602633558],[23.542881724299548,51.66315252287404],[23.55358929882624,51.672670366898274],[23.55120983782018,51.70003416846339],[23.550020107317607,51.72382877852306],[23.535743341282227,51.726208239530024],[23.532174149773596,51.746433658079695],[23.55715849033487,51.76308988511937],[23.613075823971258,51.76546934612543],[23.621403937492744,51.780935842662984],[23.63211151201864,51.814248296744154],[23.626162859504007,51.82733533227747],[23.607127171456625,51.82971479328171],[23.602368249445362,51.84280182881321],[23.609506632462626,51.84994021183229],[23.604747710451363,51.8725450913862],[23.624973129001376,51.87373482189105],[23.62973205101264,51.89633970144496],[23.604747710451363,51.91418565898948],[23.604747710451363,51.9272726945228],[23.63211151201864,51.92608296401886],[23.64162935604196,51.94035973005339],[23.63211151201864,51.953446765586705],[23.64281908654459,51.95939541810003],[23.658285583082545,51.95582622659185],[23.670182888111867,51.98081056715182],[23.688028845655822,51.99508733318635],[23.679700732134393,52.01174356022875],[23.66780342710581,52.01650248224087],[23.659475313585176,52.028399787270246],[23.670182888111867,52.03791763129266],[23.659475313585176,52.052194397327185],[23.646388278053223,52.05338412783021],[23.645198547550592,52.072419815876856],[23.628542320510007,52.072419815876856],[23.619024476486743,52.095024695432585],[23.608316901958162,52.1093014614665],[23.55834822083799,52.11881930548951],[23.526225497258835,52.13309607152591],[23.511948731223942,52.140234454542245],[23.48458492965725,52.152131759572555],[23.47982600764559,52.169977717115216],[23.452462206078096,52.18782367465974],[23.41558056048817,52.17830583063642],[23.398924333446736,52.19258259667096],[23.371560531879954,52.20091071019216],[23.34657619131909,52.21042855421548],[23.334678886289318,52.20329017119817],[23.296607510196388,52.2092388237115],[23.296607510196388,52.21518747622572],[23.26567451712095,52.21042855421548],[23.19429068694533,52.23541289477546],[23.190721495436584,52.26872534885841],[23.175254998898865,52.283002114892064],[23.13599389230311,52.28062265388597],[23.12052739576459,52.28895076740717],[23.09554305520364,52.28895076740717],[23.07531763665426,52.29489941992237],[23.08007655866592,52.28062265388597],[23.050333296092596,52.28419184539507],[23.04438464357811,52.32107349098624],[23.027728416537474,52.33178106551168],[22.98480004375748,52.331392171853594],[22.96457462520739,52.350427859900236],[22.955056781184158,52.36589435643876],[22.90627783056446,52.37898139197118],[22.86820645447153,52.36470462593664],[22.851550227430984,52.36946354794786],[22.836083730892465,52.362325164930546],[22.77659720574733,52.36946354794786],[22.748043673676833,52.38374031398328],[22.7254387941218,52.377791661468976],[22.679039304507754,52.39563761901172],[22.670711190987525,52.38493004448629],[22.605276013327103,52.39563761901172],[22.596947899806786,52.40039654102383],[22.586240325280727,52.405155463035044],[22.574343020251664,52.39682734951562],[22.543410027175426,52.41229384605227],[22.530322991643537,52.43965764762012],[22.54222029667251,52.45988306616888],[22.51961541711739,52.46702144918619],[22.508907842591242,52.493195520250055],[22.513666764602903,52.51104147779547],[22.50176945957384,52.53721554885943],[22.480354310520834,52.54435393187666],[22.46845700549177,52.5610101589164],[22.455369969959882,52.566958811431505],[22.44347266493091,52.58837396048327],[22.416108863363416,52.596702074004476],[22.408544345577475,52.61237449397099],[22.400740848159185,52.60749730808402],[22.388843543130122,52.60749730808402],[22.3591002805568,52.62415353512465],[22.375756507597433,52.632481648645765],[22.369807855082858,52.64318922317129],[22.353151628042312,52.641999492669086],[22.33292620949302,52.64913787568641],[22.318649443458128,52.65627625870363],[22.30318294691961,52.65746598920575],[22.288906180884805,52.66579410272695],[22.27462941485,52.66817356373305],[22.253214265797705,52.66579410272695],[22.243696421773762,52.67055302473817],[22.21871208121281,52.66936329423605],[22.20562504568092,52.67888113825937],[22.154466634055304,52.68482979077359],[22.093790378406542,52.68126059926547],[22.061667654828188,52.67055302473817],[22.052149810805044,52.66579410272695],[22.04382169728464,52.66936329423605],[22.02786531171549,52.66537419784373]]]]}},{"type":"Feature","properties":{"kind":"district","id":"uyezd-1897-126","name":"Венгровский","provinceId":"gubernia-1897-82"},"geometry":{"type":"MultiPolygon","coordinates":[[[[21.922469185987072,52.14588187295338],[21.931987030010305,52.154209986472814],[21.949832987553766,52.15658944747882],[21.9664892145952,52.169676483011244],[22.005750321190956,52.170866213513364],[22.06761630734272,52.19109163206301],[22.06285738533106,52.22083489463695],[22.06047792432523,52.24225004368871],[22.04263196678177,52.243439774192694],[22.054529271810743,52.26723438425056],[22.06523684633689,52.29578791632052],[22.079513612371695,52.30292629933774],[22.081893073377525,52.321961987384384],[22.102118491926817,52.324341448390484],[22.105687683436273,52.337428483922814],[22.125913101985653,52.34932578895135],[22.1009287614239,52.36717174649587],[22.07594442086295,52.37193066850611],[22.06285738533106,52.39096635655275],[22.077134151365865,52.406432853091275],[22.11877471896825,52.413571236108496],[22.127102832488568,52.43379665465814],[22.168743400090154,52.43498638516212],[22.146138520534944,52.4682988392433],[22.106877413939188,52.4623501867281],[22.099739030920986,52.473057761255404],[22.086651995389097,52.47543722225964],[22.066426576839806,52.499231832319275],[22.06523684633689,52.52302644237713],[22.04025250577594,52.52897509489233],[22.02478600923742,52.53968266941777],[22.034303853261363,52.54682105243499],[22.04025250577594,52.55157997444621],[22.005750321190956,52.557528626962295],[21.990283824653236,52.54087239992166],[21.965299484092284,52.53373401690257],[21.916520533472585,52.544441591428985],[21.87963888788177,52.54563132193287],[21.847516164303507,52.55157997444621],[21.855844277823824,52.559908087967415],[21.870121043858628,52.565856740481635],[21.884397809893432,52.559908087967415],[21.9105718809581,52.567046470985616],[21.949832987553766,52.571805392996836],[21.97124813660686,52.60273838607192],[22.014078434711273,52.60868703858614],[22.023596278734505,52.627722726633664],[22.021216817728675,52.644378953674305],[22.02786531171549,52.66537419784373],[22.010509243202616,52.66103518071484],[21.992663285659066,52.65627625870363],[21.977196789121347,52.66698383322906],[21.949832987553766,52.66460437222483],[21.914141072466755,52.66817356373304],[21.89034646240792,52.68364006027147],[21.85703400832674,52.682450329767576],[21.81658317122727,52.67650167725238],[21.80587559670112,52.66817356373304],[21.79635775267789,52.65984545021183],[21.78089125614017,52.65984545021183],[21.75233772406976,52.64794814518242],[21.73211230552047,52.64556868417819],[21.728543114011725,52.636050840154866],[21.713076617474005,52.619394613112455],[21.695230659930456,52.625343265628544],[21.690471737918884,52.61820488260945],[21.677384702386195,52.62177407411855],[21.657159283836815,52.58727188953526],[21.644072248304926,52.59678973355858],[21.61789817724106,52.59797946406069],[21.60481114170837,52.590841081043465],[21.596483028188054,52.592030811545584],[21.59291383667931,52.602738386071906],[21.581016531650334,52.6063075775819],[21.573878148632932,52.61344596059912],[21.56673976561553,52.611066499593115],[21.56198084360396,52.59441027255248],[21.54651434706615,52.589651350539484],[21.550083538574896,52.58013350651618],[21.565550035112615,52.57894377601406],[21.573878148632932,52.557528626962295],[21.58696518416482,52.52659563388623],[21.61789817724106,52.50637021533659],[21.647641439813583,52.495662640809286],[21.646451709310757,52.479006413768744],[21.650020900819413,52.45759126471698],[21.677384702386195,52.43498638516212],[21.69642039043337,52.41119177510249],[21.717835539485577,52.38144851252943],[21.7404404190407,52.36241282448279],[21.76542475960245,52.36241282448279],[21.772563142619852,52.37668959051919],[21.789219369660486,52.37668959051919],[21.80349613569529,52.36717174649587],[21.777322064631512,52.346946327946135],[21.786839908654745,52.337428483922814],[21.748768532561016,52.321961987384384],[21.719025269988492,52.321961987384384],[21.71188688697109,52.316013334869275],[21.708317695462345,52.29340845531442],[21.705938234456603,52.27080357575868],[21.733302036023296,52.27913168927988],[21.74995826306393,52.26604465374746],[21.675005241380365,52.256526809724136],[21.675005241380365,52.250578157209915],[21.70117931244503,52.243439774192694],[21.721404730994323,52.23273219966539],[21.757096646082132,52.252957618216016],[21.797547483180804,52.25533707922202],[21.804685866198206,52.248198696202934],[21.82610101525121,52.23511166067149],[21.832049667765787,52.22202462513907],[21.842757242291846,52.20774785910542],[21.83442912877153,52.20179920659031],[21.83442912877153,52.179194327034566],[21.84156751178902,52.15658944747882],[21.858223738829565,52.15777917798182],[21.867741582852798,52.172055944017345],[21.889156731905004,52.180384057536685],[21.901054036934866,52.174435405022464],[21.922469185987072,52.14588187295338]]]]}},{"type":"Feature","properties":{"kind":"district","id":"uyezd-1897-171","name":"Гарволинский","provinceId":"gubernia-1897-82"},"geometry":{"type":"MultiPolygon","coordinates":[[[[21.274976405837865,51.85806481743387],[21.289013999419193,51.84175197376496],[21.318757261992516,51.83580332125163],[21.356828638085446,51.8215265552162],[21.398469205687743,51.8179573637071],[21.405607588705145,51.80843951968378],[21.411556241219632,51.79059356214112],[21.42940219876318,51.77631679610481],[21.425833007254525,51.762040030071155],[21.407987049710975,51.747763264034845],[21.403228127699403,51.73586595900631],[21.40679731920806,51.71802000146178],[21.43535085127767,51.71564054045756],[21.448437886809646,51.69541512190702],[21.46747357485682,51.684707547380604],[21.48056061038871,51.65972320682063],[21.501975759441006,51.658533476316734],[21.544806057546218,51.65734374581462],[21.55908282358111,51.63354913575499],[21.576928781124572,51.61094425620013],[21.634035845264677,51.62046210022345],[21.642363958784994,51.61213398670402],[21.64831261129948,51.594288029158605],[21.670917490855402,51.594288029158605],[21.67924560437572,51.58714964614227],[21.673296951861232,51.581200993627164],[21.687573717896036,51.56573449708864],[21.71493751946273,51.5609755750784],[21.744680782036053,51.57525234111196],[21.774424044608665,51.57168314960384],[21.814874881708047,51.56573449708864],[21.81172576788296,51.58662087702942],[21.816484689894533,51.60446683457395],[21.834330647438083,51.611605217591176],[21.868832832023067,51.602087373567855],[21.953303697729865,51.60803602608118],[21.996133995834366,51.5794824940122],[22.031825910922088,51.569964649988876],[22.078225400536134,51.574723572],[22.11272758512023,51.56282626697156],[22.15555788322553,51.574723572],[22.17102437976325,51.585431146527306],[22.17102437976325,51.60327710406997],[22.163885996745847,51.63539982764903],[22.127004351155033,51.66276362921688],[22.13533246467544,51.69250689178985],[22.127004351155033,51.70440419681749],[22.092502166570938,51.72106042385981],[22.060379442991785,51.730578267882244],[22.057999981985954,51.7079733883265],[22.044912946454065,51.715111771343814],[22.03896429393958,51.72581934587103],[22.047292407459807,51.757942069450095],[22.04134375494532,51.77935721850096],[22.00803130086414,51.77102910498162],[21.964011272255924,51.77578802699284],[21.9342680096834,51.79006479302738],[21.919991243647797,51.825756708116344],[21.881919867554956,51.841223204653],[21.881919867554956,51.81742859459523],[21.841469030455485,51.81504913358913],[21.828381994923596,51.841223204653],[21.762946817263174,51.85787943169363],[21.73082409368482,51.87929458074628],[21.73082409368482,51.91379676533144],[21.722495980164503,51.92331460935476],[21.722495980164503,51.9352119143832],[21.736772746199307,51.957816793938946],[21.7281001821929,51.977020328524304],[21.723647109867873,51.977688289372935],[21.69866276930692,51.99077532490536],[21.682006542266286,52.00386236043778],[21.674868159248884,52.019328856976216],[21.64512489667556,52.02646723999264],[21.634417322149414,52.02646723999264],[21.605863790079805,52.03479535351384],[21.565412952980335,52.02051858747833],[21.529721037893324,52.00029316892868],[21.504736697331573,51.984826672390255],[21.47261397375322,52.00267262993567],[21.440491250174066,52.01694939596932],[21.410747987601543,52.01694939596932],[21.38338418603476,52.03836454502286],[21.336984696420892,52.02884670099954],[21.34055388792955,52.01219047395899],[21.316759277871512,52.00624182144388],[21.306051703344654,52.02289804848442],[21.295344128818506,52.02765697049564],[21.285826284795274,52.01219047395899],[21.283446823789443,52.00148289943266],[21.22277056814068,51.986016402893256],[21.24523314326534,51.96989948470852],[21.26902775332338,51.962761101690404],[21.274976405837865,51.95205352716399],[21.266648292317548,51.93658703062556],[21.25832017879723,51.92468972559801],[21.241663951756596,51.913982151070705],[21.23809476024794,51.904464307047384],[21.24523314326534,51.891377271515054],[21.26902775332338,51.87472104447441],[21.274976405837865,51.85806481743387]]]]}},{"type":"Feature","properties":{"kind":"district","id":"uyezd-1897-172","name":"Седлецкий","provinceId":"gubernia-1897-82"},"geometry":{"type":"MultiPolygon","coordinates":[[[[21.889019649773523,51.974119097864815],[21.912852860630395,51.962575715951054],[21.941406392700802,51.96852436846616],[21.953303697729865,51.98637032600891],[21.988995612816876,51.99350870902614],[22.00089291784594,52.018493049587974],[22.03896429393958,52.02325197160008],[22.06632809550636,52.00540601405555],[22.104399471599912,52.00421628355344],[22.144850308699382,52.02325197160008],[22.192439528815456,52.00659574455856],[22.24954659295556,52.00897520556465],[22.28285904703754,52.02444170210309],[22.310222848604322,52.036339007130636],[22.330448267153614,52.018493049587974],[22.342345572182676,52.00659574455856],[22.382796409282058,52.01730331908399],[22.3792272177734,52.03158008511942],[22.42324724638153,52.04704658165794],[22.42800616839319,52.06132334769248],[22.457749430965713,52.0684617307097],[22.48154404102375,52.06370280869849],[22.516046225608733,52.06965146121368],[22.51723595611156,52.05180550366916],[22.583860864274897,52.054184964675166],[22.630260353888055,52.05299523417305],[22.63145008439097,52.07560011372702],[22.65643442495272,52.07560011372702],[22.660003616461378,52.08273849674602],[22.624311701373568,52.10534337630087],[22.58861978628647,52.139845560885945],[22.587430055783553,52.15055313541049],[22.620742509864822,52.17434774546924],[22.625501431876483,52.206470469048305],[22.607655474332844,52.22907534860405],[22.581481403269066,52.25049049765581],[22.550548410192828,52.25049049765581],[22.529133261140622,52.24216238413647],[22.52199487812313,52.255249419668004],[22.531512722146452,52.258818611176125],[22.52437433912896,52.27785429922366],[22.53508191365511,52.279044029725775],[22.52437433912896,52.296889987270305],[22.489872154544067,52.2921310652582],[22.48392350202958,52.30878729229883],[22.531512722146452,52.31473594481305],[22.523184608626046,52.333771632859694],[22.424436976884444,52.31830513632215],[22.380416948276316,52.31711540581906],[22.36138126022985,52.32306405833425],[22.355432607715365,52.31949486682605],[22.357812068721195,52.30283863978363],[22.3292585366507,52.30997702280273],[22.32093042313047,52.2992694482764],[22.297135813072344,52.2921310652582],[22.281669316533915,52.27428510771465],[22.26263362848745,52.28380295173797],[22.27810012502517,52.30759756179574],[22.288807699552116,52.31473594481305],[22.30070500458109,52.33853055487269],[22.284048777540455,52.334961363362694],[22.266202819996195,52.326633249843354],[22.255495245470048,52.32425378883637],[22.24716713194973,52.306407831293626],[22.199577911832858,52.29451052626429],[22.19362925931837,52.28380295173797],[22.18054222378648,52.29570025676641],[22.162696266242932,52.29094133475519],[22.163885996745847,52.30164890928152],[22.154368152722615,52.30759756179574],[22.113917315623144,52.30164890928152],[22.079513612371695,52.30292629933774],[22.06523684633689,52.29578791632052],[22.054529271810743,52.26723438425056],[22.04263196678177,52.243439774192694],[22.06047792432523,52.24225004368871],[22.06285738533106,52.22083489463695],[22.06761630734272,52.19109163206301],[22.005750321190956,52.170866213513364],[21.9664892145952,52.169676483011244],[21.949832987553766,52.15658944747882],[21.931987030010305,52.154209986472814],[21.922469185987072,52.14588187295338],[21.93066021737511,52.133542985255175],[21.928280756369368,52.11450729720853],[21.963972671457178,52.07881538212135],[21.923521834357796,52.060969424577706],[21.898537493796756,52.044313197536184],[21.85689692619446,52.03241589250774],[21.858086656697374,52.019328856976216],[21.87474288373872,52.01813912647321],[21.887829919270697,52.007431551946],[21.871173692229263,51.999103438426566],[21.869983961726348,51.98720613339724],[21.889019649773523,51.974119097864815]]]]}},{"type":"Feature","properties":{"kind":"district","id":"uyezd-1897-173","name":"Луковский","provinceId":"gubernia-1897-82"},"geometry":{"type":"MultiPolygon","coordinates":[[[[22.236459557423583,51.59137979904064],[22.281669316533915,51.59970791256184],[22.306653657095577,51.592569529544534],[22.31855096212464,51.59732845155575],[22.347104494194248,51.58900033803454],[22.353053146709534,51.59851818205786],[22.416108863363416,51.60803602608118],[22.449421317445395,51.640158749660245],[22.494631076556438,51.63421009714692],[22.527943530637707,51.654435515695674],[22.571963559245834,51.68179931726263],[22.554117601701574,51.69369662229205],[22.53508191365511,51.69250689178985],[22.50414892057967,51.70321446631537],[22.473215927503432,51.69726581380017],[22.462508352977284,51.71749123234982],[22.477974849515004,51.72581934587103],[22.497010537562268,51.72700907637314],[22.502959190076755,51.737716650900445],[22.497010537562268,51.746044764419786],[22.487492693538236,51.74485503391767],[22.45061104794831,51.746044764419786],[22.433954820907676,51.750803686431],[22.41253967185467,51.784116140514044],[22.458939161468628,51.805531289565806],[22.495820807059353,51.78530587101616],[22.536271644158024,51.8067210200697],[22.58267113377198,51.866207545214834],[22.576722481257406,51.90665838231324],[22.561255984718976,51.92093514834867],[22.568394367737177,51.961385985447166],[22.583860864274897,51.96733463796227],[22.589809516789384,51.982801134500704],[22.620742509864822,51.99826763103833],[22.619552779361907,52.02325197160008],[22.652865233443976,52.03039035461731],[22.65643442495272,52.07560011372702],[22.63145008439097,52.07560011372702],[22.630260353888055,52.05299523417305],[22.583860864274897,52.054184964675166],[22.51723595611156,52.05180550366916],[22.516046225608733,52.06965146121368],[22.48154404102375,52.06370280869849],[22.457749430965713,52.0684617307097],[22.42800616839319,52.06132334769248],[22.42324724638153,52.04704658165794],[22.3792272177734,52.03158008511942],[22.382796409282058,52.01730331908399],[22.342345572182676,52.00659574455856],[22.330448267153614,52.018493049587974],[22.310222848604322,52.036339007130636],[22.28285904703754,52.02444170210309],[22.24954659295556,52.00897520556465],[22.192439528815456,52.00659574455856],[22.144850308699382,52.02325197160008],[22.104399471599912,52.00421628355344],[22.06632809550636,52.00540601405555],[22.03896429393958,52.02325197160008],[22.00089291784594,52.018493049587974],[21.988995612816876,51.99350870902614],[21.953303697729865,51.98637032600891],[21.941406392700802,51.96852436846616],[21.912852860630395,51.962575715951054],[21.889019649773523,51.974119097864815],[21.86641477021769,51.964601253841494],[21.858086656697374,51.94913475730297],[21.822394741610275,51.94675529629697],[21.80097959255727,51.95627314032029],[21.780754174007978,51.95389367931605],[21.74744171992671,51.974119097864815],[21.7281001821929,51.977020328524304],[21.736772746199307,51.957816793938946],[21.722495980164503,51.9352119143832],[21.722495980164503,51.92331460935476],[21.73082409368482,51.91379676533144],[21.73082409368482,51.87929458074628],[21.762946817263174,51.85787943169363],[21.828381994923596,51.841223204653],[21.841469030455485,51.81504913358913],[21.881919867554956,51.81742859459523],[21.881919867554956,51.841223204653],[21.919991243647797,51.825756708116344],[21.9342680096834,51.79006479302738],[21.964011272255924,51.77578802699284],[22.00803130086414,51.77102910498162],[22.04134375494532,51.77935721850096],[22.047292407459807,51.757942069450095],[22.03896429393958,51.72581934587103],[22.044912946454065,51.715111771343814],[22.057999981985954,51.7079733883265],[22.060379442991785,51.730578267882244],[22.092502166570938,51.72106042385981],[22.127004351155033,51.70440419681749],[22.13533246467544,51.69250689178985],[22.127004351155033,51.66276362921688],[22.163885996745847,51.63539982764903],[22.17102437976325,51.60327710406997],[22.17102437976325,51.585431146527306],[22.207906025353175,51.59137979904064],[22.236459557423583,51.59137979904064]]]]}},{"type":"Feature","properties":{"kind":"district","id":"uyezd-1897-179","name":"Радинский","provinceId":"gubernia-1897-82"},"geometry":{"type":"MultiPolygon","coordinates":[[[[22.620742509864822,51.99826763103833],[22.589809516789384,51.982801134500704],[22.583860864274897,51.96733463796227],[22.568394367737177,51.961385985447166],[22.561255984718976,51.92093514834867],[22.576722481257406,51.90665838231324],[22.58267113377198,51.866207545214834],[22.536271644158024,51.8067210200697],[22.495820807059353,51.78530587101616],[22.458939161468628,51.805531289565806],[22.41253967185467,51.784116140514044],[22.433954820907676,51.750803686431],[22.45061104794831,51.746044764419786],[22.487492693538236,51.74485503391767],[22.497010537562268,51.746044764419786],[22.502959190076755,51.737716650900445],[22.497010537562268,51.72700907637314],[22.477974849515004,51.72581934587103],[22.462508352977284,51.71749123234982],[22.473215927503432,51.69726581380017],[22.50414892057967,51.70321446631537],[22.53508191365511,51.69250689178985],[22.554117601701574,51.69369662229205],[22.571963559245834,51.68179931726263],[22.605276013327103,51.70559392732138],[22.627880892882224,51.723439884865016],[22.6469165809294,51.723439884865016],[22.665952268975865,51.715111771343814],[22.699264723057134,51.69726581380017],[22.706403106075335,51.68060958675963],[22.73376690764203,51.66514309022209],[22.731387446636287,51.656814976700886],[22.711162028086996,51.637779288655125],[22.68022903501067,51.631830636140904],[22.66714199947878,51.62588198362571],[22.68022903501067,51.59970791256184],[22.726628524624715,51.5794824940122],[22.784925319267646,51.56520572797668],[22.809909659828598,51.5794824940122],[22.826565886869233,51.592569529544534],[22.840842652904037,51.584241416023325],[22.843222113910578,51.56282626697156],[22.88367295100925,51.580672224514316],[22.90627783056446,51.60089764306396],[22.943159476155095,51.58662087702942],[22.953867050681243,51.567585188982775],[22.983610313254566,51.574723572],[23.00740492331269,51.56401599747457],[23.021681689347496,51.56877491948667],[23.00740492331269,51.58662087702942],[23.024061150353237,51.59494899055063],[23.008594653815518,51.652056054689666],[23.03357899437647,51.66395335971988],[23.027630341861983,51.68655823927474],[23.0002665402952,51.69131716128595],[22.98242058275094,51.70321446631537],[22.945538937160926,51.70083500530927],[22.93126217112612,51.723439884865016],[22.889621603523736,51.72581934587103],[22.865826993465788,51.75913179995221],[22.882483220506334,51.78173667950706],[22.907467561067374,51.77578802699284],[22.914605944085487,51.78887506252428],[22.934831362634867,51.792444254033384],[22.943159476155095,51.79720317604549],[22.912226483078946,51.825756708116344],[22.88843187302082,51.84360266565909],[22.846791305419323,51.84360266565909],[22.809909659828598,51.823377247110336],[22.784925319267646,51.81504913358913],[22.706403106075335,51.819808055601236],[22.626691162379398,51.81861832509735],[22.627880892882224,51.83765401314399],[22.681418765513584,51.84479239616299],[22.74328475166526,51.85668970119063],[22.76351017021464,51.866207545214834],[22.74090529065952,51.8900021552727],[22.731387446636287,51.91617622633656],[22.777786936250244,51.92450433985777],[22.79920208530245,51.954247602429845],[22.798012354799535,51.974473020979495],[22.798012354799535,51.99945736154045],[22.815858312343085,52.01016493606677],[22.818237773348827,52.018493049587974],[22.784925319267646,52.038718468136736],[22.748043673676833,52.02325197160008],[22.752802595688493,51.99707790053613],[22.706403106075335,51.99588817003223],[22.694505801045562,52.01254439707278],[22.620742509864822,51.99826763103833]]]]}},{"type":"Feature","properties":{"kind":"district","id":"uyezd-1897-180","name":"Константиновский","provinceId":"gubernia-1897-82"},"geometry":{"type":"MultiPolygon","coordinates":[[[[22.798012354799535,51.99945736154045],[22.852838032609302,52.009364099222736],[22.907565635742777,52.01888194324606],[22.92184240177838,52.01650248223996],[22.974190543906115,52.015312751735976],[22.978949465917687,52.03910736179481],[22.987277579438803,52.06290197185258],[22.981328926923517,52.081937659899225],[22.951585664350905,52.10335280895285],[22.940878089824846,52.11287065297617],[22.987277579438803,52.11762957498739],[23.01583111150841,52.13309607152591],[23.045574374080935,52.11406038347829],[23.0646100621282,52.10573226995895],[23.08007655866592,52.087886312414426],[23.09792251620947,52.09145550392353],[23.11576847375293,52.09026577342043],[23.145511736326252,52.074799276882885],[23.168116615881463,52.074799276882885],[23.18715230392784,52.080747929397106],[23.193100956442414,52.10454253945497],[23.21689556650116,52.09502469543165],[23.24782855957669,52.085506851408326],[23.27043343913252,52.085506851408326],[23.334678886289318,52.08669658191231],[23.35728376584515,52.09978361744287],[23.42033948249974,52.10811173096407],[23.477446546639847,52.10811173096407],[23.52265630575009,52.09740415643775],[23.579763369890195,52.09978361744287],[23.608316901959803,52.10930146146619],[23.55834822083799,52.11881930548951],[23.526225497258835,52.13309607152591],[23.511948731223942,52.140234454542245],[23.48458492965725,52.152131759572555],[23.47982600764559,52.169977717115216],[23.452462206078096,52.18782367465974],[23.41558056048817,52.17830583063642],[23.398924333446736,52.19258259667096],[23.371560531879954,52.20091071019216],[23.34657619131909,52.21042855421548],[23.334678886289318,52.20329017119817],[23.296607510196388,52.2092388237115],[23.296607510196388,52.21518747622572],[23.26567451712095,52.21042855421548],[23.19429068694533,52.23541289477546],[23.190721495436584,52.26872534885841],[23.175254998898865,52.283002114892064],[23.13599389230311,52.28062265388597],[23.12052739576459,52.28895076740717],[23.09554305520364,52.28895076740717],[23.07531763665426,52.29489941992237],[23.08007655866592,52.28062265388597],[23.050333296092596,52.28419184539507],[23.04438464357811,52.32107349098624],[23.027728416537474,52.33178106551168],[22.98480004375748,52.331392171853594],[22.940780015149354,52.30402837028761],[22.89557025603831,52.264767263691326],[22.909847022073116,52.25049049765581],[22.930072440623206,52.24811103665069],[22.930072440623206,52.23859319262737],[22.913416213582572,52.23383427061526],[22.881293490003507,52.23264454011226],[22.83251453938372,52.22193696558682],[22.81228912083443,52.23026507910616],[22.784925319267646,52.23026507910616],[22.793253432787964,52.2493007671528],[22.77659720574733,52.26000834167913],[22.713541489092737,52.25049049765581],[22.66476253847295,52.23621373162136],[22.607655474332844,52.22907534860405],[22.625501431876483,52.206470469048305],[22.620742509864822,52.17434774546924],[22.587430055783553,52.15055313541049],[22.58861978628647,52.139845560885945],[22.624311701373568,52.10534337630087],[22.660003616461378,52.08273849674602],[22.65643442495272,52.07560011372702],[22.652865233443976,52.03039035461731],[22.619552779361907,52.02325197160008],[22.620742509864822,51.99826763103833],[22.694505801045562,52.01254439707278],[22.706403106075335,51.99588817003223],[22.752802595688493,51.99707790053613],[22.748043673676833,52.02325197160008],[22.784925319267646,52.038718468136736],[22.818237773348827,52.018493049587974],[22.815858312343085,52.01016493606677],[22.798012354799535,51.99945736154045]]]]}},{"type":"Feature","properties":{"kind":"district","id":"uyezd-1897-191","name":"Влодавский","provinceId":"gubernia-1897-82"},"geometry":{"type":"MultiPolygon","coordinates":[[[[23.53812280228749,51.64768602633558],[23.492913043177793,51.650065487341635],[23.456031397587196,51.65601413985678],[23.415580560487967,51.64530656533134],[23.406062716464703,51.659583331365866],[23.354904304839522,51.660773061868895],[23.327540503272246,51.67029090589131],[23.329919964277508,51.68932659393795],[23.359663226850785,51.70717255148338],[23.396544872440586,51.72382877852306],[23.398924333446644,51.736915814055465],[23.391785950429323,51.747623388581815],[23.417960021494025,51.759520693611194],[23.429857326523347,51.77379745964572],[23.413201099482762,51.801161261213565],[23.370370801376737,51.80829964423083],[23.30017670170497,51.82019694926021],[23.25496694259448,51.83923263730503],[23.213326374992675,51.86540670836894],[23.19667014795209,51.86421697786682],[23.17168580739002,51.83804290680291],[23.157409041355493,51.84637102032411],[23.130045239788956,51.84637102032411],[23.113389012746836,51.834473715294735],[23.090784133192358,51.845181289820175],[23.05628194860782,51.84280182881321],[23.032487338549174,51.8166277577493],[23.032487338549174,51.78688449517631],[23.04319491307507,51.76190015461634],[23.06936898413977,51.7428644665697],[23.09554305520362,51.746433658079695],[23.127665778782955,51.73929527506061],[23.14313227532091,51.71312120399671],[23.13956308381148,51.69765470745915],[23.09554305520362,51.683377941422805],[23.05152302659576,51.661962792371014],[23.008594653815518,51.652056054689666],[23.024061150353237,51.59494899055063],[23.00740492331269,51.58662087702942],[23.021681689347496,51.56877491948667],[23.00740492331269,51.56401599747457],[22.983610313254566,51.574723572],[22.953867050681243,51.567585188982775],[22.943159476155095,51.58662087702942],[22.90627783056446,51.60089764306396],[22.88367295100925,51.580672224514316],[22.843222113910578,51.56282626697156],[22.840842652904037,51.584241416023325],[22.826565886869233,51.592569529544534],[22.809909659828598,51.5794824940122],[22.784925319267646,51.56520572797668],[22.809909659828598,51.441473755673506],[22.83727346139538,51.44266348617749],[22.849170766425154,51.459319713218036],[22.880103759500592,51.45456079120593],[22.90627783056446,51.435525103160174],[22.912226483078946,51.39983318807121],[22.932451901629037,51.39507426605999],[22.9730008134032,51.40498100374042],[22.986087848935888,51.42044750027893],[23.009882458993925,51.42282696128494],[23.061040870619454,51.4026015427353],[23.119337665261675,51.385945315694656],[23.163357693869802,51.383565854688655],[23.183583112419182,51.36215070563591],[23.244259368067944,51.33597663457205],[23.28589993567024,51.34668420909926],[23.253777212091176,51.374048010665334],[23.259725864605663,51.387135046197756],[23.279951283155754,51.387135046197756],[23.315643198242853,51.37523774116922],[23.34419673031326,51.35382259211657],[23.434616248534635,51.372858280163214],[23.417960021494,51.390704237705876],[23.445323823060694,51.4002220817292],[23.470308163621645,51.37523774116922],[23.54288172429947,51.370478819157114],[23.554779029329243,51.33835609557805],[23.571435256369877,51.32526906004572],[23.59879905793666,51.28005930093512],[23.628542320509982,51.28005930093512],[23.645198547550528,51.28243876194122],[23.651147200065015,51.296715527975756],[23.64162935604187,51.31694094652629],[23.635680703527296,51.33240744306295],[23.635680703527296,51.34906367010349],[23.64995746956219,51.34787393960137],[23.67494181012314,51.393083698711976],[23.69040830666157,51.40973992575252],[23.678511001631797,51.4466215713428],[23.664234235596993,51.47755456441886],[23.655906122076676,51.49302106095729],[23.627352590007067,51.49540052196241],[23.620214206989576,51.51800540151904],[23.595229866427914,51.547748664090236],[23.575004447878623,51.57154327414996],[23.551209837820497,51.5905789621966],[23.544071454802385,51.62389141627769],[23.53812280228749,51.64768602633558]]]]}},{"type":"Feature","properties":{"kind":"district","id":"uyezd-1897-717","name":"Соколовский","provinceId":"gubernia-1897-82"},"geometry":{"type":"MultiPolygon","coordinates":[[[[22.02786531171549,52.66537419784373],[22.021216817728675,52.644378953674305],[22.023596278734505,52.627722726633664],[22.014078434711273,52.60868703858614],[21.97124813660686,52.60273838607192],[21.949832987553766,52.571805392996836],[21.9105718809581,52.567046470985616],[21.884397809893432,52.559908087967415],[21.870121043858628,52.565856740481635],[21.855844277823824,52.559908087967415],[21.847516164303507,52.55157997444621],[21.87963888788177,52.54563132193287],[21.916520533472585,52.544441591428985],[21.965299484092284,52.53373401690257],[21.990283824653236,52.54087239992166],[22.005750321190956,52.557528626962295],[22.04025250577594,52.55157997444621],[22.034303853261363,52.54682105243499],[22.02478600923742,52.53968266941777],[22.04025250577594,52.52897509489233],[22.06523684633689,52.52302644237713],[22.066426576839806,52.499231832319275],[22.086651995389097,52.47543722225964],[22.099739030920986,52.473057761255404],[22.106877413939188,52.4623501867281],[22.146138520534944,52.4682988392433],[22.168743400090154,52.43498638516212],[22.127102832488568,52.43379665465814],[22.11877471896825,52.413571236108496],[22.077134151365865,52.406432853091275],[22.06285738533106,52.39096635655275],[22.07594442086295,52.37193066850611],[22.1009287614239,52.36717174649587],[22.125913101985653,52.34932578895135],[22.105687683436273,52.337428483922814],[22.102118491926817,52.324341448390484],[22.081893073377525,52.321961987384384],[22.079513612371695,52.30292629933774],[22.113917315623144,52.30164890928152],[22.154368152722615,52.30759756179574],[22.163885996745847,52.30164890928152],[22.162696266242932,52.29094133475519],[22.18054222378648,52.29570025676641],[22.19362925931837,52.28380295173797],[22.199577911832858,52.29451052626429],[22.24716713194973,52.306407831293626],[22.255495245470048,52.32425378883637],[22.266202819996195,52.326633249843354],[22.284048777540455,52.334961363362694],[22.30070500458109,52.33853055487269],[22.288807699552116,52.31473594481305],[22.27810012502517,52.30759756179574],[22.26263362848745,52.28380295173797],[22.281669316533915,52.27428510771465],[22.297135813072344,52.2921310652582],[22.32093042313047,52.2992694482764],[22.3292585366507,52.30997702280273],[22.357812068721195,52.30283863978363],[22.355432607715365,52.31949486682605],[22.36138126022985,52.32306405833425],[22.380416948276316,52.31711540581906],[22.424436976884444,52.31830513632215],[22.523184608626046,52.333771632859694],[22.531512722146452,52.31473594481305],[22.48392350202958,52.30878729229883],[22.489872154544067,52.2921310652582],[22.52437433912896,52.296889987270305],[22.53508191365511,52.279044029725775],[22.52437433912896,52.27785429922366],[22.531512722146452,52.258818611176125],[22.52199487812313,52.255249419668004],[22.529133261140622,52.24216238413647],[22.550548410192828,52.25049049765581],[22.581481403269066,52.25049049765581],[22.607655474332844,52.22907534860405],[22.66476253847295,52.23621373162136],[22.713541489092737,52.25049049765581],[22.77659720574733,52.26000834167913],[22.793253432787964,52.2493007671528],[22.784925319267646,52.23026507910616],[22.81228912083443,52.23026507910616],[22.83251453938372,52.22193696558682],[22.881293490003507,52.23264454011226],[22.913416213582572,52.23383427061526],[22.930072440623206,52.23859319262737],[22.930072440623206,52.24811103665069],[22.909847022073116,52.25049049765581],[22.89557025603831,52.264767263691326],[22.940780015149354,52.30402837028761],[22.98480004375748,52.331392171853594],[22.96457462520739,52.350427859900236],[22.955056781184158,52.36589435643876],[22.90627783056446,52.37898139197118],[22.86820645447153,52.36470462593664],[22.851550227430984,52.36946354794786],[22.836083730892465,52.362325164930546],[22.77659720574733,52.36946354794786],[22.748043673676833,52.38374031398328],[22.7254387941218,52.377791661468976],[22.679039304507754,52.39563761901172],[22.670711190987525,52.38493004448629],[22.605276013327103,52.39563761901172],[22.596947899806786,52.40039654102383],[22.586240325280727,52.405155463035044],[22.574343020251664,52.39682734951562],[22.543410027175426,52.41229384605227],[22.530322991643537,52.43965764762012],[22.54222029667251,52.45988306616888],[22.51961541711739,52.46702144918619],[22.508907842591242,52.493195520250055],[22.513666764602903,52.51104147779547],[22.50176945957384,52.53721554885943],[22.480354310520834,52.54435393187666],[22.46845700549177,52.5610101589164],[22.455369969959882,52.566958811431505],[22.44347266493091,52.58837396048327],[22.416108863363416,52.596702074004476],[22.408544345577475,52.61237449397099],[22.400740848159142,52.607497308084014],[22.38884354313008,52.607497308084014],[22.359100280556756,52.62415353512465],[22.37575650759739,52.632481648645765],[22.369807855082815,52.64318922317129],[22.35315162804227,52.641999492669086],[22.332926209492978,52.6491378756864],[22.318649443458085,52.65627625870363],[22.303182946919566,52.65746598920574],[22.288906180884762,52.66579410272695],[22.274629414849958,52.66817356373304],[22.253214265797663,52.66579410272695],[22.24369642177372,52.67055302473816],[22.218712081212768,52.66936329423605],[22.20562504568088,52.67888113825937],[22.15446663405526,52.68482979077359],[22.0937903784065,52.681260599265464],[22.061667654828145,52.67055302473816],[22.052149810805002,52.66579410272695],[22.043821697284596,52.66936329423605],[22.02786531171549,52.66537419784373]]]]}},{"type":"Feature","properties":{"kind":"district","id":"uyezd-1897-718","name":"Бельский","provinceId":"gubernia-1897-82"},"geometry":{"type":"MultiPolygon","coordinates":[[[[22.798012354799535,51.99945736154045],[22.798012354799535,51.974473020979495],[22.79920208530245,51.954247602429845],[22.777786936250244,51.92450433985777],[22.731387446636287,51.91617622633656],[22.74090529065952,51.8900021552727],[22.76351017021464,51.866207545214834],[22.74328475166526,51.85668970119063],[22.681418765513584,51.84479239616299],[22.627880892882224,51.83765401314399],[22.626691162379398,51.81861832509735],[22.706403106075335,51.819808055601236],[22.784925319267646,51.81504913358913],[22.809909659828598,51.823377247110336],[22.846791305419323,51.84360266565909],[22.88843187302082,51.84360266565909],[22.912226483078946,51.825756708116344],[22.943159476155095,51.79720317604549],[22.934831362634867,51.792444254033384],[22.914605944085487,51.78887506252428],[22.907467561067374,51.77578802699284],[22.882483220506334,51.78173667950706],[22.865826993465788,51.75913179995221],[22.889621603523736,51.72581934587103],[22.93126217112612,51.723439884865016],[22.945538937160926,51.70083500530927],[22.98242058275094,51.70321446631537],[23.0002665402952,51.69131716128595],[23.027630341861983,51.68655823927474],[23.03357899437647,51.66395335971988],[23.008594653815518,51.652056054689666],[23.05152302659576,51.661962792371014],[23.09554305520362,51.683377941422805],[23.13956308381148,51.69765470745915],[23.14313227532091,51.71312120399671],[23.127665778782955,51.73929527506061],[23.09554305520362,51.746433658079695],[23.06936898413977,51.7428644665697],[23.04319491307507,51.76190015461634],[23.032487338549174,51.78688449517631],[23.032487338549174,51.8166277577493],[23.05628194860782,51.84280182881321],[23.090784133192358,51.845181289820175],[23.113389012746836,51.834473715294735],[23.130045239788956,51.84637102032411],[23.157409041355493,51.84637102032411],[23.17168580739002,51.83804290680291],[23.19667014795209,51.86421697786682],[23.213326374992675,51.86540670836894],[23.25496694259448,51.83923263730503],[23.30017670170497,51.82019694926021],[23.370370801376737,51.80829964423083],[23.413201099482762,51.801161261213565],[23.429857326523347,51.77379745964572],[23.417960021494025,51.759520693611194],[23.391785950429323,51.747623388581815],[23.398924333446644,51.736915814055465],[23.396544872440586,51.72382877852306],[23.359663226850785,51.70717255148338],[23.329919964277508,51.68932659393795],[23.327540503272246,51.67029090589131],[23.354904304839522,51.660773061868895],[23.406062716464703,51.659583331365866],[23.415580560487967,51.64530656533134],[23.456031397587196,51.65601413985678],[23.492913043177793,51.650065487341635],[23.53812280228749,51.64768602633558],[23.542881724299548,51.66315252287404],[23.55358929882624,51.672670366898274],[23.55120983782018,51.70003416846339],[23.550020107317607,51.72382877852306],[23.535743341282227,51.726208239530024],[23.532174149773596,51.746433658079695],[23.55715849033487,51.76308988511937],[23.613075823971258,51.76546934612543],[23.621403937492744,51.780935842662984],[23.63211151201864,51.814248296744154],[23.626162859504007,51.82733533227747],[23.607127171456625,51.82971479328171],[23.602368249445362,51.84280182881321],[23.609506632462626,51.84994021183229],[23.604747710451363,51.8725450913862],[23.624973129001376,51.87373482189105],[23.62973205101264,51.89633970144496],[23.604747710451363,51.91418565898948],[23.604747710451363,51.9272726945228],[23.63211151201864,51.92608296401886],[23.64162935604196,51.94035973005339],[23.63211151201864,51.953446765586705],[23.64281908654459,51.95939541810003],[23.658285583082545,51.95582622659185],[23.670182888111867,51.98081056715182],[23.688028845655822,51.99508733318635],[23.679700732134393,52.01174356022875],[23.66780342710581,52.01650248224087],[23.659475313585176,52.028399787270246],[23.670182888111867,52.03791763129266],[23.659475313585176,52.052194397327185],[23.646388278053223,52.05338412783021],[23.645198547550592,52.072419815876856],[23.628542320510007,52.072419815876856],[23.619024476486743,52.095024695432585],[23.608316901959803,52.10930146146619],[23.579763369890195,52.09978361744287],[23.52265630575009,52.09740415643775],[23.477446546639847,52.10811173096407],[23.42033948249974,52.10811173096407],[23.35728376584515,52.09978361744287],[23.334678886289318,52.08669658191231],[23.27043343913252,52.085506851408326],[23.24782855957669,52.085506851408326],[23.21689556650116,52.09502469543165],[23.193100956442414,52.10454253945497],[23.18715230392784,52.080747929397106],[23.168116615881463,52.074799276882885],[23.145511736326252,52.074799276882885],[23.11576847375293,52.09026577342043],[23.09792251620947,52.09145550392353],[23.08007655866592,52.087886312414426],[23.0646100621282,52.10573226995895],[23.045574374080935,52.11406038347829],[23.01583111150841,52.13309607152591],[22.987277579438803,52.11762957498739],[22.940878089824846,52.11287065297617],[22.951585664350905,52.10335280895285],[22.981328926923517,52.081937659899225],[22.987277579438803,52.06290197185258],[22.978949465917687,52.03910736179481],[22.974190543906115,52.015312751735976],[22.92184240177838,52.01650248223996],[22.907565635742777,52.01888194324606],[22.852838032609302,52.009364099222736],[22.798012354799535,51.99945736154045]]]]}}]}
