{"type":"FeatureCollection","features":[{"type":"Feature","properties":{"kind":"province","id":"gubernia-1897-87","name":"Черноморская губерния"},"geometry":{"type":"MultiPolygon","coordinates":[[[[40.19808579103983,43.373006961536234],[40.210485801309616,43.388357695899714],[40.26640313494681,43.405013922940256],[40.31875127707525,43.41929068897568],[40.342545887133284,43.43713664651843],[40.325889660092656,43.465690178589284],[40.31042316355493,43.482346405629826],[40.287818283999016,43.485915597138046],[40.290197745004846,43.50733074619167],[40.317561546572335,43.51089993769979],[40.33897669562454,43.51684859021499],[40.380617263226924,43.51565885971101],[40.41630917831394,43.51565885971101],[40.47579570345988,43.519228051221],[40.510297888043965,43.52636643423831],[40.53290276759989,43.539453469770734],[40.55312818614918,43.554919966307295],[40.588820101237076,43.563248079828504],[40.61142498079221,43.563248079828504],[40.63410041383705,43.56631380299406],[40.62619134785713,43.57709889296804],[40.60953512081649,43.5889961979956],[40.53815129064158,43.61398053855734],[40.48461341801023,43.63420595710699],[40.43345500638469,43.66038002817095],[40.41679877934406,43.67227733320028],[40.404901474315,43.700830865271215],[40.40609120481791,43.72938439734118],[40.38467605576561,43.73533304985452],[40.35731225419812,43.7341433193524],[40.352553332186545,43.75198927689506],[40.345414949169154,43.7710249649417],[40.31805114760236,43.77221469544568],[40.2930668070407,43.76745577343349],[40.265703005473924,43.76031739041626],[40.21811378535705,43.76031739041626],[40.205026749825166,43.7734044259478],[40.19193971429327,43.77697361745681],[40.17290402624681,43.756748198908056],[40.125314806129936,43.74604062438173],[40.090812621544956,43.756748198908056],[40.04322340142896,43.76269685142236],[40.015859599861386,43.788870922486225],[40.03370555740564,43.792440113995326],[40.02180825237588,43.82575256807651],[40.012290408352726,43.84954717813437],[39.98849579829469,43.861444483163694],[39.98373687628303,43.89237747623878],[39.95875253572137,43.9018953202621],[39.94090657817782,43.931638582836044],[39.90521466309072,43.93044885233206],[39.86833301749999,43.91736181680062],[39.83621029392164,43.91141316428542],[39.811225953359894,43.92450019981784],[39.78981080430768,43.93877696585327],[39.75054969771193,43.94829480987659],[39.71723724362995,43.93758723535116],[39.67678640653048,43.91855154730452],[39.667268562507246,43.935207774345145],[39.68273505904577,43.94710507937448],[39.694632364074735,43.95900238440301],[39.66013017948984,43.98993537747898],[39.63395610842598,43.99826349099841],[39.60064365434391,44.01135052653083],[39.56971066126847,44.030386214577476],[39.53044955467192,44.048232172122],[39.51498305813419,44.07797543469496],[39.463824646509465,44.101770044752826],[39.44597868896511,44.12437492430759],[39.425753270415825,44.15292845637853],[39.38411270281344,44.1767230664363],[39.354369440240916,44.204086868004154],[39.32581590817131,44.205276598506266],[39.29488291509507,44.24096851359354],[39.28298561006601,44.265952854155294],[39.25205261698977,44.28974746421315],[39.24557519536279,44.30600711441913],[39.234867620836724,44.2976790008997],[39.21226274128152,44.29648927039581],[39.19203732273222,44.27983304335517],[39.16824271267339,44.27745358234917],[39.14206864160953,44.26436654681852],[39.12422268406597,44.275074121343955],[39.12065349255731,44.29054061788247],[39.07425400294336,44.30124819240791],[39.05759777590272,44.32623253296966],[39.058787506405636,44.36073471755385],[39.03856208785555,44.38571905811568],[38.98264475421915,44.41665205119166],[38.9636090661719,44.43211854772831],[38.9850242152249,44.44520558326073],[38.98859340673364,44.46900019331948],[38.95409122214875,44.5142099524291],[38.90412254102675,44.503502377903665],[38.854153859904144,44.49636399488644],[38.82084140582208,44.492794803377336],[38.78990841274664,44.485656420360115],[38.72328350458339,44.49041534237124],[38.68759158949558,44.491605072875224],[38.65784832692306,44.49636399488644],[38.59479261026837,44.527296987962416],[38.516270397076156,44.555850520031484],[38.50675255305292,44.55941971154148],[38.518649858081986,44.57726566908423],[38.51508066657324,44.59511162662778],[38.46868117695928,44.62485488920172],[38.419902226340284,44.65102896026559],[38.39005109035516,44.64772956123586],[38.35673863627318,44.64059117821856],[38.34603106174704,44.58705330558773],[38.24728343000544,44.60608899363437],[38.19374555737399,44.60608899363437],[38.1532947202746,44.6156068376568],[38.1318795712224,44.66200632727129],[38.094997925632384,44.666765249282506],[38.072393046076456,44.64059117821856],[38.04740870551551,44.66200632727129],[37.981973527855175,44.65843713576308],[37.94390215176145,44.67985228481582],[37.89631293164547,44.706026355879686],[37.839205867505356,44.74290800146997],[37.76901176783336,44.765512881025714],[37.68929982413813,44.79168695208958],[37.66074629206773,44.766702611527826],[37.57984461786958,44.77265126404205],[37.54415270278258,44.71792366090813],[37.51156756205636,44.67325154051446],[37.520551365086035,44.669468886606396],[37.57289950721537,44.65043319856153],[37.59312492576474,44.64924346805853],[37.621678457835415,44.64686400705154],[37.66093956443065,44.64805373755463],[37.706149323541595,44.63377697151921],[37.74422069963471,44.63020778001099],[37.77039477069901,44.6385358935322],[37.80132776377454,44.656381851075835],[37.790620189249196,44.68731484415004],[37.7739639622082,44.7206272982321],[37.815604529810685,44.70754026269968],[37.87984997696739,44.667089425601276],[37.911972700545746,44.65519212057097],[37.91435216155139,44.6385358935322],[37.90840350903726,44.61474128347257],[37.95123380714176,44.576669907379284],[37.99763329675625,44.5516855668202],[38.03927386435713,44.544547183801996],[38.02737655932816,44.57072125486497],[38.044032786369144,44.57191098536806],[38.07377604894265,44.55882394983564],[38.085673353971615,44.54573691430598],[38.05117116938682,44.536219070281675],[38.07853497095387,44.519562843239356],[38.096380928498476,44.51718338223503],[38.10351931151534,44.499337424689614],[38.132072843585306,44.48149146714607],[38.13802149610015,44.462455779101205],[38.15229826213549,44.456507126585116],[38.15348799263832,44.442230360551555],[38.17728260269689,44.425574133509144],[38.210595056777265,44.39107194892398],[38.292686461478596,44.39107194892398],[38.33670649008663,44.37322599138044],[38.359311369642455,44.36013895584979],[38.3866751712096,44.34586218981436],[38.41046978126745,44.344672459311354],[38.41513320439849,44.346304657407146],[38.43426439132611,44.353000572831675],[38.467576845407294,44.342292998306235],[38.49375091647151,44.349431381322574],[38.515166065524525,44.338723806797134],[38.53420175357037,44.342292998306235],[38.57703205167557,44.33158542377893],[38.598447200727875,44.32801623227073],[38.62819046330138,44.3137394662353],[38.64841588185075,44.3113600052284],[38.67815914442346,44.30541135271409],[38.70195375448141,44.30541135271409],[38.72574836453997,44.286375664669315],[38.77809650666859,44.27090916813266],[38.80665003873767,44.25782213259846],[38.83282410980189,44.2256994090194],[38.86375710287831,44.20309452946543],[38.91372578400039,44.17811018890368],[38.94584850757954,44.17454099739458],[38.97202257864305,44.16145396186216],[39.0077144937306,44.15788477035403],[39.03983721730896,44.13527989079918],[39.04697560032662,44.11029555023832],[39.062442096864785,44.09839824520801],[39.08028805440931,44.09958797571102],[39.11241077798775,44.072224174145035],[39.132847079916516,44.05612284535157],[39.15167188458298,44.041291181067194],[39.15286161508571,44.02939387603875],[39.20045083520303,43.996081421958465],[39.22186598425533,43.99132249994547],[39.27064493487538,43.967527889886725],[39.296819005938886,43.9508716628452],[39.327751999014424,43.91755920876491],[39.35035687857025,43.89733379021526],[39.367013105611235,43.88543648518584],[39.38247960214861,43.88900567669583],[39.403894751201605,43.8664007971392],[39.4419661272956,43.83427807356023],[39.477658042382345,43.79144777545572],[39.51097049646353,43.774791548415976],[39.55380079456803,43.74504828584301],[39.60020028418252,43.70578717924672],[39.62161543323472,43.67128499466156],[39.64184085178499,43.66890553365644],[39.65730734832307,43.673664455667655],[39.70489656843888,43.64868011510492],[39.72274252598261,43.63559307957437],[39.73226037000593,43.59871143398409],[39.76438309358508,43.580865476440536],[39.82981827124533,43.5523119443696],[39.89168425739717,43.52256868179752],[39.917858328460696,43.51186110726942],[39.922617250472,43.47973838369302],[39.94641186053066,43.43095943307341],[39.978534584109724,43.42144158905009],[40.02731353472906,43.41430320603375],[40.0463492227757,43.41430320603375],[40.11892278345361,43.40240590100255],[40.13438927999107,43.39407778748411],[40.18078876960547,43.376231829938604],[40.19808579103983,43.373006961536234]]]]}},{"type":"Feature","properties":{"kind":"district","id":"uyezd-1897-387","name":"Новороссийский","provinceId":"gubernia-1897-87"},"geometry":{"type":"MultiPolygon","coordinates":[[[[38.39005109035516,44.64772956123586],[38.35673863627318,44.64059117821856],[38.34603106174704,44.58705330558773],[38.24728343000544,44.60608899363437],[38.19374555737399,44.60608899363437],[38.1532947202746,44.6156068376568],[38.1318795712224,44.66200632727129],[38.094997925632384,44.666765249282506],[38.072393046076456,44.64059117821856],[38.04740870551551,44.66200632727129],[37.981973527855175,44.65843713576308],[37.94390215176145,44.67985228481582],[37.89631293164547,44.706026355879686],[37.839205867505356,44.74290800146997],[37.76901176783336,44.765512881025714],[37.68929982413813,44.79168695208958],[37.66074629206773,44.766702611527826],[37.57984461786958,44.77265126404205],[37.54415270278258,44.71792366090813],[37.51156756205636,44.67325154051446],[37.520551365086035,44.669468886606396],[37.57289950721537,44.65043319856153],[37.59312492576474,44.64924346805853],[37.621678457835415,44.64686400705154],[37.66093956443065,44.64805373755463],[37.706149323541595,44.63377697151921],[37.74422069963471,44.63020778001099],[37.77039477069901,44.6385358935322],[37.80132776377454,44.656381851075835],[37.790620189249196,44.68731484415004],[37.7739639622082,44.7206272982321],[37.815604529810685,44.70754026269968],[37.87984997696739,44.667089425601276],[37.911972700545746,44.65519212057097],[37.91435216155139,44.6385358935322],[37.90840350903726,44.61474128347257],[37.95123380714176,44.576669907379284],[37.99763329675625,44.5516855668202],[38.03927386435713,44.544547183801996],[38.02737655932816,44.57072125486497],[38.044032786369144,44.57191098536806],[38.07377604894265,44.55882394983564],[38.085673353971615,44.54573691430598],[38.05117116938682,44.536219070281675],[38.07853497095387,44.519562843239356],[38.096380928498476,44.51718338223503],[38.10351931151534,44.499337424689614],[38.132072843585306,44.48149146714607],[38.13802149610015,44.462455779101205],[38.15229826213549,44.456507126585116],[38.15348799263832,44.442230360551555],[38.17728260269689,44.425574133509144],[38.210595056777265,44.39107194892398],[38.292686461478596,44.39107194892398],[38.33670649008663,44.37322599138044],[38.359311369642455,44.36013895584979],[38.3866751712096,44.34586218981436],[38.41046978126745,44.344672459311354],[38.41513320439849,44.346304657407146],[38.384249479334855,44.38416212684022],[38.40209543687841,44.400818353879885],[38.413992741908174,44.42818215544685],[38.4294592384459,44.43888972997406],[38.44254627397788,44.4579254180207],[38.45206411800102,44.50313517713041],[38.46991007554466,44.51860167366884],[38.485376572083084,44.52574005668704],[38.507981451638216,44.538827092219464],[38.516270397076184,44.55585052003151],[38.50675255305295,44.55941971154151],[38.518649858082014,44.577265669084255],[38.51508066657327,44.595111626627805],[38.46868117695931,44.62485488920175],[38.41990222634032,44.65102896026562],[38.39005109035516,44.64772956123586]]]]}},{"type":"Feature","properties":{"kind":"district","id":"uyezd-1897-389","name":"Туапсинский","provinceId":"gubernia-1897-87"},"geometry":{"type":"MultiPolygon","coordinates":[[[[39.24557519536282,44.30600711441916],[39.23486762083675,44.29767900089973],[39.21226274128155,44.29648927039584],[39.192037322732254,44.2798330433552],[39.16824271267342,44.277453582349196],[39.142068641609555,44.26436654681855],[39.124222684066,44.275074121343984],[39.120653492557345,44.2905406178825],[39.07425400294339,44.30124819240794],[39.05759777590275,44.32623253296969],[39.058787506405665,44.360734717553875],[39.03856208785558,44.38571905811571],[38.98264475421919,44.41665205119169],[38.96360906617193,44.43211854772834],[38.985024215224925,44.44520558326076],[38.98859340673367,44.46900019331951],[38.954091222148776,44.51420995242913],[38.90412254102679,44.50350237790369],[38.85415385990417,44.496363994886465],[38.82084140582211,44.492794803377365],[38.78990841274667,44.485656420360144],[38.72328350458342,44.49041534237127],[38.68759158949561,44.49160507287525],[38.65784832692309,44.496363994886465],[38.5947926102684,44.527296987962444],[38.516270397076184,44.55585052003151],[38.507981451638216,44.538827092219464],[38.485376572083084,44.52574005668704],[38.46991007554466,44.51860167366884],[38.45206411800102,44.50313517713041],[38.44254627397788,44.4579254180207],[38.4294592384459,44.43888972997406],[38.413992741908174,44.42818215544685],[38.40209543687841,44.400818353879885],[38.384249479334855,44.38416212684022],[38.41513320439849,44.346304657407146],[38.43426439132611,44.353000572831675],[38.467576845407294,44.342292998306235],[38.49375091647151,44.349431381322574],[38.515166065524525,44.338723806797134],[38.53420175357037,44.342292998306235],[38.57703205167557,44.33158542377893],[38.598447200727875,44.32801623227073],[38.62819046330138,44.3137394662353],[38.64841588185075,44.3113600052284],[38.67815914442346,44.30541135271409],[38.70195375448141,44.30541135271409],[38.72574836453997,44.286375664669315],[38.77809650666859,44.27090916813266],[38.80665003873767,44.25782213259846],[38.83282410980189,44.2256994090194],[38.86375710287831,44.20309452946543],[38.91372578400039,44.17811018890368],[38.94584850757954,44.17454099739458],[38.97202257864305,44.16145396186216],[39.0077144937306,44.15788477035403],[39.03983721730896,44.13527989079918],[39.04697560032662,44.11029555023832],[39.062442096864785,44.09839824520801],[39.08028805440931,44.09958797571102],[39.11241077798775,44.072224174145035],[39.132847079916516,44.05612284535157],[39.15162565371513,44.06650408256152],[39.163522958744196,44.090298692619385],[39.18374837729438,44.097437075637586],[39.201594334837836,44.10457545865481],[39.224199214392954,44.11171384167213],[39.25156301596054,44.10933438066603],[39.29796250557369,44.078401387590944],[39.316998193620066,44.07126300457363],[39.33722361217025,44.083160309602164],[39.3693463357486,44.090298692619385],[39.41574582536256,44.07721165708696],[39.44310962692926,44.090298692619385],[39.463824646509494,44.10177004475284],[39.44597868896514,44.1243749243076],[39.42575327041585,44.15292845637855],[39.38411270281347,44.17672306643632],[39.354369440240944,44.20408686800417],[39.325815908171336,44.20527659850628],[39.2948829150951,44.24096851359356],[39.282985610066035,44.26595285415531],[39.2520526169898,44.289747464213164],[39.24557519536282,44.30600711441916]]]]}},{"type":"Feature","properties":{"kind":"district","id":"uyezd-1897-776","name":"Сочинский","provinceId":"gubernia-1897-87"},"geometry":{"type":"MultiPolygon","coordinates":[[[[39.132847079916516,44.05612284535157],[39.15167188458298,44.041291181067194],[39.15286161508571,44.02939387603875],[39.20045083520303,43.996081421958465],[39.22186598425533,43.99132249994547],[39.27064493487538,43.967527889886725],[39.296819005938886,43.9508716628452],[39.327751999014424,43.91755920876491],[39.35035687857025,43.89733379021526],[39.367013105611235,43.88543648518584],[39.38247960214861,43.88900567669583],[39.403894751201605,43.8664007971392],[39.4419661272956,43.83427807356023],[39.477658042382345,43.79144777545572],[39.51097049646353,43.774791548415976],[39.55380079456803,43.74504828584301],[39.60020028418252,43.70578717924672],[39.62161543323472,43.67128499466156],[39.64184085178499,43.66890553365644],[39.65730734832307,43.673664455667655],[39.70489656843888,43.64868011510492],[39.72274252598261,43.63559307957437],[39.73226037000593,43.59871143398409],[39.76438309358508,43.580865476440536],[39.82981827124533,43.5523119443696],[39.89168425739717,43.52256868179752],[39.917858328460696,43.51186110726942],[39.922617250472,43.47973838369302],[39.94641186053066,43.43095943307341],[39.978534584109724,43.42144158905009],[40.02731353472906,43.41430320603375],[40.0463492227757,43.41430320603375],[40.11892278345361,43.40240590100255],[40.13438927999107,43.39407778748411],[40.18078876960547,43.376231829938604],[40.19808579103983,43.373006961536234],[40.210485801309616,43.388357695899714],[40.26640313494681,43.405013922940256],[40.31875127707525,43.41929068897568],[40.342545887133284,43.43713664651843],[40.325889660092656,43.465690178589284],[40.31042316355493,43.482346405629826],[40.287818283999016,43.485915597138046],[40.290197745004846,43.50733074619167],[40.317561546572335,43.51089993769979],[40.33897669562454,43.51684859021499],[40.380617263226924,43.51565885971101],[40.41630917831394,43.51565885971101],[40.47579570345988,43.519228051221],[40.510297888043965,43.52636643423831],[40.53290276759989,43.539453469770734],[40.55312818614918,43.554919966307295],[40.588820101237076,43.563248079828504],[40.61142498079221,43.563248079828504],[40.63410041383705,43.56631380299406],[40.62619134785716,43.57709889296805],[40.60953512081652,43.58899619799561],[40.53815129064161,43.61398053855736],[40.484613418010255,43.63420595710701],[40.43345500638472,43.66038002817096],[40.41679877934409,43.67227733320029],[40.404901474315025,43.70083086527123],[40.40609120481794,43.72938439734119],[40.384676055765645,43.73533304985453],[40.35731225419815,43.73414331935241],[40.35255333218658,43.751989276895074],[40.34541494916918,43.77102496494172],[40.3180511476024,43.7722146954457],[40.29306680704073,43.767455773433504],[40.26570300547395,43.760317390416276],[40.218113785357076,43.760317390416276],[40.205026749825194,43.77340442594782],[40.1919397142933,43.776973617456825],[40.17290402624684,43.75674819890807],[40.125314806129964,43.74604062438174],[40.090812621544984,43.75674819890807],[40.043223401428996,43.762696851422376],[40.015859599861415,43.78887092248624],[40.033705557405675,43.79244011399534],[40.021808252375905,43.825752568076524],[40.012290408352754,43.84954717813439],[39.98849579829472,43.86144448316371],[39.98373687628306,43.89237747623879],[39.9587525357214,43.90189532026211],[39.940906578177845,43.93163858283606],[39.905214663090746,43.93044885233208],[39.86833301750002,43.917361816800636],[39.83621029392167,43.911413164285435],[39.81122595335992,43.92450019981786],[39.78981080430771,43.938776965853286],[39.75054969771196,43.94829480987661],[39.71723724362998,43.937587235351174],[39.67678640653051,43.91855154730453],[39.667268562507275,43.93520777434516],[39.6827350590458,43.947105079374495],[39.694632364074764,43.95900238440302],[39.66013017948987,43.98993537747899],[39.633956108426005,43.998263490998426],[39.60064365434394,44.01135052653085],[39.5697106612685,44.03038621457749],[39.53044955467195,44.04823217212201],[39.51498305813422,44.07797543469498],[39.463824646509494,44.10177004475284],[39.44310962692926,44.090298692619385],[39.41574582536256,44.07721165708696],[39.3693463357486,44.090298692619385],[39.33722361217025,44.083160309602164],[39.316998193620066,44.07126300457363],[39.29796250557369,44.078401387590944],[39.25156301596054,44.10933438066603],[39.224199214392954,44.11171384167213],[39.201594334837836,44.10457545865481],[39.18374837729438,44.097437075637586],[39.163522958744196,44.090298692619385],[39.15162565371513,44.06650408256152],[39.132847079916516,44.05612284535157]]]]}}]}
