{"type":"FeatureCollection","features":[{"type":"Feature","properties":{"kind":"province","id":"gubernia-1897-61","name":"Кутаисская губерния"},"geometry":{"type":"MultiPolygon","coordinates":[[[[42.32257078864342,43.17994922545765],[42.36897027825738,43.18708760847399],[42.40418562819403,43.189762220324155],[42.43630835177274,43.188572489820174],[42.45534403981884,43.18619302881417],[42.46724134484826,43.17667518479173],[42.463672153339516,43.13146542568025],[42.508881912450114,43.12551677316603],[42.56598897659004,43.119568120651806],[42.62428577123324,43.121947581656926],[42.67187499134931,43.13741407819456],[42.71351555895197,43.16715734076841],[42.753966396050636,43.14693192221877],[42.80393507717307,43.123137312160026],[42.84200645326689,43.10172216310728],[42.897923786903725,43.10410162411338],[42.924097857967325,43.10291189361028],[42.956220581546035,43.08149674455764],[42.987153574622454,43.037476715950135],[43.01094818468049,43.038666446453135],[43.049019560773594,43.023199949914705],[43.078762823346736,43.01725129740039],[43.1334904264811,42.972041538290775],[43.162043958550356,42.96609288577478],[43.19059749062032,42.944677736723904],[43.240566171742756,42.9411085452148],[43.27744781733348,42.9315907011905],[43.33217542046784,42.91374474364784],[43.355970030525704,42.90303716912054],[43.37998993944171,42.90303716912052],[43.38809275410477,42.90303716912054],[43.44757927925061,42.90303716912054],[43.47375335031448,42.90065770811454],[43.504686343390716,42.88043228956489],[43.548706371998136,42.870914445541565],[43.59034693960043,42.86377606252425],[43.60343397513232,42.84949929649069],[43.60581343613815,42.82094576441975],[43.624849124184614,42.82570468643097],[43.64745400373974,42.818566303413746],[43.65102319524928,42.799530615367104],[43.68552537983338,42.803099806875224],[43.70931998989141,42.79715115436189],[43.72835567793859,42.78049492732134],[43.74501190497922,42.77454627480526],[43.76285786252277,42.7935819628519],[43.78308328107207,42.801910076373105],[43.80092923861641,42.79120250184767],[43.8140162741483,42.77216681380014],[43.81163681314256,42.7483722037414],[43.79736004710767,42.73528516821084],[43.79022166409035,42.724577593683534],[43.79022166409035,42.70554190563778],[43.78070382006632,42.67936783457205],[43.76285786252277,42.66152187702939],[43.74620163548214,42.649624571999965],[43.76285786252277,42.61393265691189],[43.815206004651216,42.61155319590766],[43.86160549426518,42.60917373490156],[43.910384444884166,42.59489696886525],[43.957973665001035,42.573481819814354],[43.94369689896623,42.561584514784045],[43.90324606186676,42.54611801824553],[43.87588226030007,42.52827206070287],[43.85208765024123,42.52351313869076],[43.833051962194766,42.49020068460958],[43.79854977761058,42.48306230159227],[43.77594489805475,42.47354445756895],[43.74263244397339,42.47235472706505],[43.69504322385661,42.49020068460958],[43.67719726631306,42.481872571088374],[43.666489691786914,42.47235472706505],[43.68314591882755,42.44974984751118],[43.71883783391465,42.44261146449209],[43.77594489805475,42.43547308147487],[43.78189355056924,42.421196315440326],[43.7997395081135,42.411678471417005],[43.81758546565705,42.415247662926106],[43.83067250118903,42.414057932422125],[43.83186223169194,42.40454008839969],[43.81996492666288,42.4033503578958],[43.81758546565705,42.37717628683184],[43.81639573515413,42.3557611377792],[43.80092923861641,42.347433024259765],[43.78070382006632,42.345053563254645],[43.74263244397339,42.34624329375676],[43.7081302593885,42.324828144704114],[43.680766457821804,42.33553571923132],[43.67362807480431,42.320069222692894],[43.668869152792745,42.30341299565226],[43.62960804619619,42.262962158551986],[43.599864783623666,42.23797781799112],[43.580829095577286,42.21180374692726],[43.568931790547424,42.178491292845194],[43.543947449986476,42.174922101336975],[43.541567988980646,42.13566099474069],[43.54513718048939,42.10353827116251],[43.520152839928436,42.06308743406224],[43.50706580439575,42.03810309350236],[43.4892198468522,41.99170360388875],[43.4749430808174,41.958391149805706],[43.45947658427968,41.941734922765164],[43.44401008774196,41.92031977371242],[43.42140520818604,41.9179403127073],[43.37976464058445,41.9238889652225],[43.353590569519874,41.9179403127073],[43.340503533987984,41.89533543315254],[43.30719107990662,41.88224839762012],[43.2631710512985,41.86202297906949],[43.23223805822306,41.85131540454317],[43.21082290917026,41.838228369011595],[43.17394126358013,41.82871052498831],[43.11921366044585,41.82871052498831],[43.06924497932315,41.83465917750253],[43.0299838727274,41.82871052498831],[42.987153574622184,41.84417702152675],[42.97287680858729,41.83703863850952],[42.96811788657572,41.8239516029771],[42.94908219852934,41.8239516029771],[42.91695947495019,41.83227971649644],[42.85628321930134,41.82633106398319],[42.795606963652666,41.83465917750253],[42.72303340297484,41.80848510643867],[42.6492701117941,41.831089985994325],[42.62190631022732,41.8251413334793],[42.58145547312794,41.803726184426566],[42.55647113256698,41.797777531913226],[42.49460514641531,41.797777531913226],[42.507559989669275,41.77821307475365],[42.50637025916636,41.75203900368978],[42.48733457111999,41.727054663127944],[42.514698372686766,41.68660382602954],[42.514698372686766,41.66280921597079],[42.55039028777449,41.648532449936255],[42.589651394370335,41.618789187363284],[42.619394656943655,41.59737403831063],[42.59916923839353,41.59380484680145],[42.572995167329665,41.566441045235464],[42.568236245318005,41.53193886065039],[42.55514920978612,41.506954520088556],[42.52778540821862,41.502195598077336],[42.50755998966925,41.491488023551895],[42.50280106765767,41.47483179650949],[42.51112918117799,41.45103718645163],[42.502185207161915,41.449049636669805],[42.53135459972728,41.42248365438175],[42.565856784312174,41.415345271364444],[42.55514920978612,41.37846362577514],[42.55395947928321,41.345151171692095],[42.572995167329665,41.31540790911912],[42.5967897773877,41.3058900650958],[42.59203085537604,41.28447491604404],[42.55514920978612,41.27019815000861],[42.536113521738855,41.24164461793954],[42.51350864218382,41.23450623492134],[42.50399079816059,41.2178500078799],[42.47662699659381,41.20476297234837],[42.45164265603205,41.18929647580994],[42.440935081506,41.20595270285235],[42.419519932453795,41.20952189435958],[42.406432896921814,41.20357324184626],[42.406432896921814,41.19167593681595],[42.414761010442135,41.17739917078239],[42.38263828686297,41.15836348273477],[42.36955125133109,41.14170725569422],[42.35051556328462,41.13099968116879],[42.32553122272296,41.13337914217301],[42.305305804173585,41.12386129814969],[42.29578796015035,41.110774262618165],[42.27913173310981,41.110774262618165],[42.26485496707491,41.10839480161215],[42.255337123050964,41.09768722708574],[42.26723442808074,41.0869796525603],[42.2850803856242,41.08103100004519],[42.29578796015035,41.05961585099246],[42.29459822964752,41.0417698934489],[42.288649577132944,41.020354744396165],[42.27318308059523,40.99299094283018],[42.2505782010393,40.98109363779987],[42.230352782490016,40.96919633277233],[42.20655817243198,40.96562714126323],[42.17681490985865,40.97514498528565],[42.145881916783125,40.97038606327444],[42.106620810186655,40.964437410759245],[42.07211862560247,40.98109363779987],[42.04475482403498,40.97633471578955],[42.01620129196529,40.984662829308974],[41.98526829888985,40.984662829308974],[41.96742234134558,40.97752444629167],[41.94719692279621,40.956109297239905],[41.93410988726431,40.9454017227126],[41.92013140628448,40.94646935642142],[41.905854640249856,40.96550504446806],[41.87373191667071,40.98929965452583],[41.84636811510366,41.00119695955436],[41.827332427057016,41.02975049162521],[41.826142696554186,41.04878617967185],[41.87968056918554,41.05473483218519],[41.86778326415657,41.082098633752146],[41.847557845607184,41.1058932438109],[41.79758916448431,41.13206731487476],[41.79758916448431,41.155861924934484],[41.76665617140878,41.155861924934484],[41.730964256321144,41.14039542839596],[41.69170314972513,41.11660081833811],[41.64530366011144,41.08447809475904],[41.61556039753873,41.079719172747915],[41.589386326474425,41.086857555764254],[41.56559171641585,41.103513782805685],[41.544176567363564,41.11422135733121],[41.50967438277884,41.12135974034932],[41.476361928697656,41.12611866236054],[41.45613651014749,41.18560518750657],[41.464464623667894,41.22129710259375],[41.4906386947322,41.25698901768103],[41.48203224974539,41.32153735508271],[41.481120850708876,41.328372847856386],[41.49301815573786,41.37001341545779],[41.52276141831135,41.391428564510534],[41.54893548937487,41.414033444065296],[41.542986836860734,41.44258697613624],[41.52514087931701,41.44496643714136],[41.507294921773195,41.45686374217166],[41.48587977272098,41.480658352229526],[41.516812765796416,41.49136592675496],[41.540607375854364,41.50921188429851],[41.54893548937487,41.53062703335213],[41.57273009943343,41.560370295924216],[41.575109560439174,41.58297517548085],[41.577489021444734,41.60201086352749],[41.590576056977255,41.631754126099565],[41.60842201452107,41.65435900565443],[41.636975546590946,41.67815361571406],[41.64768312111708,41.68172280722227],[41.66552907866081,41.65911792766742],[41.70122099374845,41.685291998730484],[41.72620533430913,41.713845530801336],[41.73929236984165,41.7400196018652],[41.76189724939668,41.776901247455484],[41.77617401543202,41.81616235405089],[41.78569185945534,41.8268699285781],[41.783312398449766,41.84590561662474],[41.778553476437665,41.857802921653274],[41.77498428492919,41.87564887919691],[41.780932937443325,41.88754618422624],[41.779743206940495,41.905392141769966],[41.786881589958156,41.9196689078053],[41.77617401543202,41.94108405685795],[41.778553476437665,41.96487866691581],[41.769035632414344,42.00176031250609],[41.75951778839111,42.021985731055736],[41.73929236984165,42.03150357507906],[41.732153986823974,42.0529187241318],[41.71311829877733,42.07195441217844],[41.7119285682745,42.099318213744425],[41.697651802239264,42.11835390179107],[41.68575449721028,42.13976905084381],[41.68315138460642,42.154346481425826],[41.6738571921814,42.20639395900706],[41.65970812500164,42.25288375116929],[41.657200965140404,42.26112156214187],[41.65482150413476,42.28729563320662],[41.64530366011144,42.29086482471394],[41.63816527709376,42.315849165275694],[41.62745770256771,42.34083350583656],[41.62864743307044,42.3693870379075],[41.61556039753873,42.39199191746226],[41.604989131060464,42.40318502314484],[41.59533497898856,42.413407066514026],[41.57629929094192,42.43601194606977],[41.577489021444734,42.44909898160219],[41.589386326474425,42.45147844260731],[41.589386326474425,42.46694493914583],[41.59533497898856,42.478842244175155],[41.587006865468055,42.491929279706696],[41.58462740446241,42.51096496775334],[41.57867875194836,42.551415804853605],[41.56559171641585,42.57402068440837],[41.54536629786638,42.59186664195201],[41.53108953183104,42.60852286899353],[41.50848465227601,42.67514777715589],[41.4953976167443,42.690614273693434],[41.470413276182725,42.72035753626729],[41.458515971153844,42.74058295481703],[41.42877270858034,42.74653160733125],[41.41687540355146,42.75961864286367],[41.37761429695534,42.77032621738999],[41.35619914790314,42.77627486990421],[41.314558580300755,42.792931096944756],[41.277676934710385,42.8155359765005],[41.2526925941489,42.8143462459975],[41.21343148755288,42.80244894096808],[41.19082660799785,42.79174136644264],[41.16822172844202,42.8167257070036],[41.15156550140182,42.82981274253593],[41.12777089134316,42.85241762209078],[41.12896062184599,42.886919806675856],[41.10992493379935,42.91071441673371],[41.09683789826755,42.940457679306775],[41.09564816776481,42.96782148087276],[41.06471517468849,42.97139067238186],[41.03854110362417,42.97852905540006],[41.00403891904017,42.995185282439714],[40.97667511747312,42.99280582143548],[40.94455239389397,42.9987544739497],[40.91718859232692,43.01303123998326],[40.896963173777536,43.04277450255632],[40.87673775522806,43.05705126859175],[40.84580476215254,43.090363722673814],[40.806543655555714,43.097502105691035],[40.78512850650351,43.09988156669625],[40.75657497443355,43.10464048870924],[40.735159825381345,43.098691836194135],[40.69470898828179,43.10345075820535],[40.666155456211825,43.108209680216476],[40.616186775089645,43.105830219212244],[40.591202434528256,43.096312375188035],[40.566218093967564,43.105830219212244],[40.5543207889378,43.13557348178432],[40.5376645618976,43.14866051731674],[40.49245480278674,43.14985024781984],[40.47579857574584,43.14509132580862],[40.46509100121969,43.15460916983096],[40.42140308530989,43.17636724360548],[40.375904572083556,43.18587494947315],[40.3521099620249,43.20966955952915],[40.32712562146351,43.222756595063345],[40.31284885542888,43.25368958813763],[40.306900202914036,43.30127880825512],[40.29143370637587,43.32626314881598],[40.292623436879495,43.34172964535539],[40.25098286927711,43.36314479440804],[40.19808579103983,43.373006961536234],[40.210485801309616,43.388357695899714],[40.26640313494681,43.405013922940256],[40.31875127707525,43.41929068897568],[40.342545887133284,43.43713664651843],[40.325889660092656,43.465690178589284],[40.31042316355493,43.482346405629826],[40.287818283999016,43.485915597138046],[40.290197745004846,43.50733074619167],[40.317561546572335,43.51089993769979],[40.33897669562454,43.51684859021499],[40.380617263226924,43.51565885971101],[40.41630917831394,43.51565885971101],[40.47579570345988,43.519228051221],[40.510297888043965,43.52636643423831],[40.53290276759989,43.539453469770734],[40.55312818614918,43.554919966307295],[40.588820101237076,43.563248079828504],[40.61142498079221,43.563248079828504],[40.63410041383705,43.56631380299406],[40.63927838338904,43.55925293542353],[40.6571243409326,43.54021724737689],[40.70233410004366,43.51999182882719],[40.716434609707875,43.50831484426179],[40.74498814177757,43.50117646124457],[40.785438978876954,43.49403807822725],[40.81161304994082,43.482140773197926],[40.8377871210054,43.48452023420393],[40.88775580212739,43.47024346816762],[40.9163093341978,43.45239751062486],[40.940103944255746,43.44406939710366],[40.98412397286396,43.43812074459042],[41.04242076750698,43.42027478704589],[41.080492143599734,43.42027478704589],[41.12927109421952,43.408377482016476],[41.210172768417664,43.405998021010376],[41.245864683505474,43.38577260246073],[41.28274632909549,43.382203410952606],[41.325576627200704,43.38339314145472],[41.38744261335238,43.37030610592407],[41.39339126586687,43.33937311284811],[41.4171858759249,43.326286077315686],[41.45763671302437,43.313199041783264],[41.507605394146275,43.30130173675384],[41.5373486567196,43.2846455097133],[41.578989224321184,43.25847143864943],[41.614681139408994,43.244194672614896],[41.650373054496,43.246574133620015],[41.69915200511579,43.252522786134236],[41.72175688467091,43.244194672614896],[41.7348439202036,43.26085089965544],[41.78124340981676,43.244194672614896],[41.805038019875596,43.22040006255703],[41.830022360436544,43.21802060155093],[41.853816970494584,43.238246020100675],[41.884749963570826,43.25847143864943],[41.903785651617284,43.24895359462611],[41.93352891418981,43.238246020100675],[41.95494406324282,43.252522786134236],[41.9823078648096,43.25133305563212],[41.99777436134732,43.246574133620015],[42.02870735442356,43.23943575060279],[42.06558900001348,43.216830871047044],[42.12745498616516,43.21921033205305],[42.15243932672611,43.23586655909369],[42.20121827734581,43.21921033205305],[42.23334100092505,43.17638003394855],[42.32257078864342,43.17994922545765]]]]}},{"type":"Feature","properties":{"kind":"district","id":"uyezd-1897-390","name":"Сухумский","provinceId":"gubernia-1897-61"},"geometry":{"type":"MultiPolygon","coordinates":[[[[40.63410041383705,43.56631380299406],[40.61142498079221,43.563248079828504],[40.588820101237076,43.563248079828504],[40.55312818614918,43.554919966307295],[40.53290276759989,43.539453469770734],[40.510297888043965,43.52636643423831],[40.47579570345988,43.519228051221],[40.41630917831394,43.51565885971101],[40.380617263226924,43.51565885971101],[40.33897669562454,43.51684859021499],[40.317561546572335,43.51089993769979],[40.290197745004846,43.50733074619167],[40.287818283999016,43.485915597138046],[40.31042316355493,43.482346405629826],[40.325889660092656,43.465690178589284],[40.342545887133284,43.43713664651843],[40.31875127707525,43.41929068897568],[40.26640313494681,43.405013922940256],[40.210485801309616,43.388357695899714],[40.19808579103983,43.373006961536234],[40.25098286927711,43.36314479440804],[40.292623436879495,43.34172964535539],[40.29143370637587,43.32626314881598],[40.306900202914036,43.30127880825512],[40.31284885542888,43.25368958813763],[40.32712562146351,43.222756595063345],[40.3521099620249,43.20966955952915],[40.375904572083556,43.18587494947315],[40.42140308530989,43.17636724360548],[40.46509100121969,43.15460916983096],[40.47579857574584,43.14509132580862],[40.49245480278674,43.14985024781984],[40.5376645618976,43.14866051731674],[40.5543207889378,43.13557348178432],[40.566218093967564,43.105830219212244],[40.591202434528256,43.096312375188035],[40.616186775089645,43.105830219212244],[40.666155456211825,43.108209680216476],[40.69470898828179,43.10345075820535],[40.735159825381345,43.098691836194135],[40.75657497443355,43.10464048870924],[40.78512850650351,43.09988156669625],[40.806543655555714,43.097502105691035],[40.84580476215254,43.090363722673814],[40.87673775522806,43.05705126859175],[40.896963173777536,43.04277450255632],[40.91718859232692,43.01303123998326],[40.94455239389397,42.9987544739497],[40.97667511747312,42.99280582143548],[41.00403891904017,42.995185282439714],[41.03854110362417,42.97852905540006],[41.06471517468849,42.97139067238186],[41.09564816776481,42.96782148087276],[41.09683789826755,42.940457679306775],[41.10992493379935,42.91071441673371],[41.12896062184599,42.886919806675856],[41.12777089134316,42.85241762209078],[41.15156550140182,42.82981274253593],[41.16822172844202,42.8167257070036],[41.19082660799785,42.79174136644264],[41.21343148755288,42.80244894096808],[41.2526925941489,42.8143462459975],[41.277676934710385,42.8155359765005],[41.314558580300755,42.792931096944756],[41.35619914790314,42.77627486990421],[41.37761429695534,42.77032621738999],[41.41687540355146,42.75961864286367],[41.42877270858034,42.74653160733125],[41.458515971153844,42.74058295481703],[41.470413276182725,42.72035753626729],[41.4953976167443,42.690614273693434],[41.50848465227601,42.67514777715589],[41.53108953183104,42.60852286899353],[41.54536629786638,42.59186664195201],[41.56559171641585,42.57402068440837],[41.57867875194836,42.551415804853605],[41.58462740446241,42.51096496775334],[41.587006865468055,42.491929279706696],[41.59533497898856,42.478842244175155],[41.589386326474425,42.46694493914583],[41.589386326474425,42.45147844260731],[41.577489021444734,42.44909898160219],[41.57629929094192,42.43601194606977],[41.59533497898856,42.413407066514026],[41.604989131060464,42.40318502314484],[41.633109722178006,42.42048989973236],[41.656904332236834,42.43000774375568],[41.68426813380353,42.42524882174348],[41.70330382185,42.459751006328645],[41.71639085738188,42.464509928339865],[41.72947789291466,42.47759696387131],[41.744944389452385,42.48473534688862],[41.76873899951042,42.516858070467684],[41.79848226208374,42.526375914491005],[41.84012282968524,42.52875537549701],[41.83417417717084,42.55849863806998],[41.852020134714294,42.58705217013994],[41.88295312779054,42.60013920567236],[41.90555800734566,42.621554354725106],[41.932921808913235,42.62512354623421],[41.95314722746254,42.64772842578897],[41.97099318500608,42.65129761729807],[41.95195749695962,42.678661418864145],[41.95671641897128,42.688179262887466],[41.95433695796545,42.701266298419796],[41.92935261740449,42.7440965965243],[41.930542347907405,42.767891206584025],[41.91388612086598,42.80120366066521],[41.887712049802204,42.841654497763614],[41.89128124131085,42.857120994301155],[41.91626558187181,42.87377722134268],[41.94006019193064,42.8916231788872],[41.910999561613906,42.91584037081695],[41.90436827684283,42.921366441459284],[41.91150665986015,42.95705835654647],[41.87462501427022,42.97252485308499],[41.88176339728763,42.99037081062765],[41.90555800734566,42.999888654650974],[41.961475340982844,42.997509193646735],[41.974562376514825,43.003457846160074],[41.93173207841032,43.008216768172176],[41.961475340982844,43.02725245621793],[41.986459681543806,43.03558056973914],[42.057843511718715,43.05699571879178],[42.08044839127463,43.07127248482632],[42.08996623529778,43.09982601689629],[42.10543273183549,43.12718981846325],[42.13041707239644,43.150984428521994],[42.1554014129582,43.159312542042315],[42.21131874659538,43.17477903857986],[42.23334100092505,43.17638003394855],[42.20121827734581,43.21921033205305],[42.15243932672611,43.23586655909369],[42.12745498616516,43.21921033205305],[42.06558900001348,43.216830871047044],[42.02870735442356,43.23943575060279],[41.99777436134732,43.246574133620015],[41.9823078648096,43.25133305563212],[41.95494406324282,43.252522786134236],[41.93352891418981,43.238246020100675],[41.903785651617284,43.24895359462611],[41.884749963570826,43.25847143864943],[41.853816970494584,43.238246020100675],[41.830022360436544,43.21802060155093],[41.805038019875596,43.22040006255703],[41.78124340981676,43.244194672614896],[41.7348439202036,43.26085089965544],[41.72175688467091,43.244194672614896],[41.69915200511579,43.252522786134236],[41.650373054496,43.246574133620015],[41.614681139408994,43.244194672614896],[41.578989224321184,43.25847143864943],[41.5373486567196,43.2846455097133],[41.507605394146275,43.30130173675384],[41.45763671302437,43.313199041783264],[41.4171858759249,43.326286077315686],[41.39339126586687,43.33937311284811],[41.38744261335238,43.37030610592407],[41.325576627200704,43.38339314145472],[41.28274632909549,43.382203410952606],[41.245864683505474,43.38577260246073],[41.210172768417664,43.405998021010376],[41.12927109421952,43.408377482016476],[41.080492143599734,43.42027478704589],[41.04242076750698,43.42027478704589],[40.98412397286396,43.43812074459042],[40.940103944255746,43.44406939710366],[40.9163093341978,43.45239751062486],[40.88775580212739,43.47024346816762],[40.8377871210054,43.48452023420393],[40.81161304994082,43.482140773197926],[40.785438978876954,43.49403807822725],[40.74498814177757,43.50117646124457],[40.716434609707875,43.50831484426179],[40.702334100043636,43.51999182882715],[40.6571243409326,43.54021724737689],[40.63927838338904,43.55925293542353],[40.63410041383705,43.56631380299406]]]]}},{"type":"Feature","properties":{"kind":"district","id":"uyezd-1897-391","name":"Зугдидский","provinceId":"gubernia-1897-61"},"geometry":{"type":"MultiPolygon","coordinates":[[[[41.65970812500164,42.25288375116929],[41.674353712945816,42.25234132198595],[41.70766616702788,42.24996186097994],[41.71956347205686,42.23806455595239],[41.73859916010332,42.24758239997571],[41.75763484814969,42.245202938968724],[41.777860266699875,42.25234132198595],[41.80641379876948,42.25472078299293],[41.827828947821686,42.25115159148383],[41.83972625285155,42.24401320846661],[41.852813288383445,42.25353105248993],[41.86590032391533,42.25353105248993],[41.87660789844148,42.248772130477825],[41.88850520347046,42.25591051349505],[41.9063511610148,42.25472078299293],[41.91229981352929,42.271377010032595],[41.930145771072844,42.274946201541695],[41.94561226761056,42.27970512355291],[41.97892472169262,42.28684350657111],[41.99320148772743,42.29755108109744],[42.01342690627672,42.310638116628965],[42.044359899352955,42.328484074173495],[42.068154509411,42.35108895372924],[42.09313884997195,42.354658145237366],[42.10503615500102,42.38559113831245],[42.120502651539525,42.42009332289761],[42.14310753109466,42.427231705914835],[42.15024591411205,42.45221604647667],[42.18355836819323,42.47720038703842],[42.21806055277821,42.500994997096285],[42.250183276356566,42.52835879866227],[42.27754707792407,42.55810206123532],[42.30610060999376,42.58070694079106],[42.30848007099951,42.5997426288377],[42.28706492194729,42.61758858638223],[42.291823843958866,42.63424481342278],[42.30848007099951,42.6437626574461],[42.33465414206417,42.65922915398275],[42.350120638601894,42.68302376404239],[42.37272551815701,42.69373133856783],[42.38462282318608,42.71990540963178],[42.39889958922167,42.725854062146894],[42.39889958922167,42.74013082818143],[42.40960716374782,42.75440759421686],[42.41198662475357,42.76749462974928],[42.401279050227416,42.799617353328344],[42.36439740463669,42.82936061590042],[42.316808184519914,42.843637381934954],[42.278736808426984,42.84720657344495],[42.245424354345005,42.83768872942163],[42.23352704931594,42.82579142439221],[42.201404325737585,42.83411953791163],[42.14786645310622,42.861483339479484],[42.124071843048185,42.86743199199459],[42.07529289242849,42.89241633255457],[42.052688012873276,42.91145202060121],[42.0050987927565,42.91859040361844],[41.94204307610181,42.92215959512851],[41.910999561613906,42.91584037081695],[41.94006019193064,42.8916231788872],[41.91626558187181,42.87377722134268],[41.89128124131085,42.857120994301155],[41.887712049802204,42.841654497763614],[41.91388612086598,42.80120366066521],[41.930542347907405,42.767891206584025],[41.92935261740449,42.7440965965243],[41.95433695796545,42.701266298419796],[41.95671641897128,42.688179262887466],[41.95195749695962,42.678661418864145],[41.97099318500608,42.65129761729807],[41.95314722746254,42.64772842578897],[41.932921808913235,42.62512354623421],[41.90555800734566,42.621554354725106],[41.88295312779054,42.60013920567236],[41.852020134714294,42.58705217013994],[41.83417417717084,42.55849863806998],[41.84012282968524,42.52875537549701],[41.79848226208374,42.526375914491005],[41.76873899951042,42.516858070467684],[41.744944389452385,42.48473534688862],[41.72947789291466,42.47759696387131],[41.71639085738188,42.464509928339865],[41.70330382185,42.459751006328645],[41.68426813380353,42.42524882174348],[41.656904332236834,42.43000774375568],[41.633109722178006,42.42048989973236],[41.604989131060464,42.40318502314484],[41.61556039753873,42.39199191746226],[41.62864743307044,42.3693870379075],[41.62745770256771,42.34083350583656],[41.63816527709376,42.315849165275694],[41.64530366011144,42.29086482471394],[41.65482150413476,42.28729563320662],[41.657200965140404,42.26112156214187],[41.65970812500164,42.25288375116929]]]]}},{"type":"Feature","properties":{"kind":"district","id":"uyezd-1897-393","name":"Лечхумский","provinceId":"gubernia-1897-61"},"geometry":{"type":"MultiPolygon","coordinates":[[[[42.23334100092505,43.17638003394855],[42.21131874659538,43.17477903857986],[42.1554014129582,43.159312542042315],[42.13041707239644,43.150984428521994],[42.10543273183549,43.12718981846325],[42.08996623529778,43.09982601689629],[42.08044839127463,43.07127248482632],[42.057843511718715,43.05699571879178],[41.986459681543806,43.03558056973914],[41.961475340982844,43.02725245621793],[41.93173207841032,43.008216768172176],[41.974562376514825,43.003457846160074],[41.961475340982844,42.997509193646735],[41.90555800734566,42.999888654650974],[41.88176339728763,42.99037081062765],[41.87462501427022,42.97252485308499],[41.91150665986015,42.95705835654647],[41.90436827684283,42.921366441459284],[41.910999561613906,42.91584037081695],[41.94204307610181,42.92215959512851],[42.0050987927565,42.91859040361844],[42.052688012873276,42.91145202060121],[42.07529289242849,42.89241633255457],[42.124071843048185,42.86743199199459],[42.14786645310622,42.861483339479484],[42.201404325737585,42.83411953791163],[42.23352704931594,42.82579142439221],[42.245424354345005,42.83768872942163],[42.278736808426984,42.84720657344495],[42.316808184519914,42.843637381934954],[42.36439740463669,42.82936061590042],[42.401279050227416,42.799617353328344],[42.43154942976081,42.795961423858],[42.47081053635701,42.79239223234978],[42.50174352943262,42.77216681380103],[42.52553813949146,42.75789004776472],[42.56479924608766,42.749561934245285],[42.57312735960753,42.73766462921507],[42.577886281619456,42.728146785192635],[42.55766086307017,42.718628941169314],[42.53267652250895,42.71149055815111],[42.53981490552644,42.68174729557815],[42.54695328854393,42.63891699747453],[42.56598897659004,42.62582996194122],[42.58978358664896,42.62107103993],[42.604060352683945,42.60798400439856],[42.59216304765444,42.581809933334604],[42.610009005198165,42.56158451478407],[42.605250083186334,42.515185025171355],[42.59573223916318,42.494959606621705],[42.59811170016884,42.47830337958018],[42.61714738821575,42.47235472706596],[42.64094199827379,42.47354445756897],[42.67544418285806,42.4830623015914],[42.70042852341936,42.45569850002444],[42.74206909102193,42.45212930851543],[42.786089119629345,42.44856011700722],[42.79084804164127,42.46283688304176],[42.806314538179436,42.4830623015914],[42.831298878740654,42.494959606621705],[42.818211843208054,42.52827206070289],[42.806314538179436,42.56158451478407],[42.8217810347168,42.56039478428097],[42.84319618376927,42.55325640126464],[42.875318907348074,42.54373855724132],[42.88840594287987,42.55087694025863],[42.905062169921216,42.54849747925253],[42.924097857967325,42.55563586226985],[42.94075408500867,42.56753316729829],[42.9586000425524,42.563963975790074],[42.94670273752307,42.59251750786004],[42.93956435450558,42.61512238741578],[42.94789246802616,42.63177861445544],[42.970497347581016,42.655573224514185],[43.001430340657436,42.68293702608115],[43.035932525241705,42.68531648708813],[43.065675787814854,42.69721379211657],[43.08352174535858,42.7150597496611],[43.09660878089046,42.734095437706856],[43.11683419943976,42.719818671672314],[43.14538773150972,42.709111097145104],[43.17632072458534,42.70792136664201],[43.194166682129065,42.716249480164194],[43.17394126357978,42.729336515695636],[43.162043958550356,42.7459927427353],[43.16442341955663,42.76145923927382],[43.17751045508852,42.76978735279404],[43.20844344816405,42.77454627480526],[43.233427788725265,42.77930519681834],[43.25127374626899,42.794771693354996],[43.28458620035097,42.80666899838521],[43.306001349403445,42.83165333894519],[43.31670892392968,42.85782741001092],[43.31789865443286,42.88043228956489],[43.33217542046784,42.91374474364784],[43.27744781733348,42.9315907011905],[43.240566171742756,42.9411085452148],[43.19059749062032,42.944677736723904],[43.162043958550356,42.96609288577478],[43.1334904264811,42.972041538290775],[43.078762823346736,43.01725129740039],[43.049019560773594,43.023199949914705],[43.01094818468049,43.038666446453135],[42.987153574622454,43.037476715950135],[42.956220581546035,43.08149674455764],[42.924097857967325,43.10291189361028],[42.897923786903725,43.10410162411338],[42.84200645326689,43.10172216310728],[42.80393507717307,43.123137312160026],[42.753966396050636,43.14693192221877],[42.71351555895197,43.16715734076841],[42.67187499134931,43.13741407819456],[42.62428577123324,43.121947581656926],[42.56598897659004,43.119568120651806],[42.508881912450114,43.12551677316603],[42.463672153339516,43.13146542568025],[42.46724134484826,43.17667518479173],[42.45534403981884,43.18619302881417],[42.43630835177274,43.188572489820174],[42.40418562819403,43.189762220324155],[42.36897027825738,43.18708760847399],[42.32257078864342,43.17994922545765],[42.23334100092505,43.17638003394855]]]]}},{"type":"Feature","properties":{"kind":"district","id":"uyezd-1897-394","name":"Кутаисский","provinceId":"gubernia-1897-61"},"geometry":{"type":"MultiPolygon","coordinates":[[[[42.59811170016884,42.47830337958018],[42.592163047654,42.47235472706507],[42.59097331715108,42.460457422036626],[42.58145547312794,42.444990925498104],[42.542194366532186,42.43785254248088],[42.495794876918225,42.43190388996666],[42.442257004286866,42.41643739342814],[42.40537535869685,42.387883861358176],[42.39823697567945,42.373607095323635],[42.38396020964464,42.35219194627187],[42.366114252100296,42.34267410224855],[42.30543799645153,42.293895151628945],[42.26141796784421,42.25820323654167],[42.27926392538775,42.24392647050536],[42.30424826594871,42.23678808748813],[42.32209422349297,42.215372938435394],[42.344699103048086,42.19752698089273],[42.345888833551,42.17849129284511],[42.3387504505336,42.15945560479847],[42.31733530148139,42.13447126423849],[42.2959201524283,42.12019449820218],[42.27450500337609,42.0904512356301],[42.26379742885004,42.060707973057134],[42.2816433863935,42.03929282400439],[42.31495584047556,42.02977497998107],[42.33518125902486,42.03334417148928],[42.35183748606549,42.00241117841509],[42.381580748638015,41.99170360388867],[42.419652124731655,41.990513873384785],[42.4648618838427,41.97266791584203],[42.50293325993563,41.95839114980572],[42.558850593572814,41.93935546175908],[42.59097331715108,41.94530411427418],[42.6207165797244,41.94411438377207],[42.64689065078827,41.93578627025086],[42.6564084948115,41.917940312707316],[42.65283930330285,41.88224839762003],[42.6492701117941,41.831089985994325],[42.72303340297484,41.808485106438674],[42.795606963652666,41.834659177502544],[42.85628321930134,41.826331063983204],[42.91695947495019,41.832279716496444],[42.94908219852934,41.823951602977104],[42.96811788657572,41.823951602977104],[42.97287680858729,41.837038638509526],[42.987153574622184,41.84417702152675],[43.0299838727274,41.828710524988324],[43.06924497932315,41.834659177502544],[43.11921366044585,41.82871052498828],[43.113265007931275,41.847746213034924],[43.07876282334638,41.87986893661399],[43.07043470982607,41.90961219918607],[43.0513990217796,41.932217078741814],[43.05734767429418,41.95720141930356],[43.07162444032898,41.98099602936142],[43.07162444032898,42.008359830929265],[43.05258875228252,42.02739551897503],[43.02165575920708,42.04286201551257],[42.99072276613093,42.05356959003889],[42.951461659535084,42.067846356074405],[42.98120492210761,42.11781503719613],[42.96573842556989,42.12257395920912],[42.959789773055405,42.13447126423854],[42.94313354601397,42.140419916751874],[42.93956435450531,42.14874803027308],[42.92647731897333,42.15707614379242],[42.911010822435614,42.176111831839066],[42.897923786903725,42.19157832837758],[42.909821091932784,42.20942428592211],[42.93242597148791,42.243926470505315],[42.93956435450531,42.26177242804984],[42.97644600009603,42.311741109171656],[43.01094818468022,42.328397336212205],[43.044260638762196,42.35695086828305],[43.05853740479709,42.37598655632975],[43.02760441172157,42.39026332236429],[42.993102227136674,42.39978116638761],[42.97763573059895,42.39978116638761],[42.95860004255249,42.422386045942375],[42.969307617078634,42.44142173399],[42.97882546110186,42.45450876952144],[42.97763573059895,42.47711364907718],[42.93718489349948,42.4842520320944],[42.90030324790946,42.490200684609604],[42.861042141313,42.493769876117724],[42.831298878740654,42.494959606621705],[42.806314538179436,42.4830623015914],[42.79084804164127,42.46283688304176],[42.786089119629345,42.44856011700722],[42.74206909102193,42.45212930851543],[42.70042852341936,42.45569850002444],[42.67544418285806,42.4830623015914],[42.64094199827379,42.47354445756897],[42.61714738821575,42.47235472706596],[42.59811170016884,42.47830337958018]]]]}},{"type":"Feature","properties":{"kind":"district","id":"uyezd-1897-395","name":"Сенакский","provinceId":"gubernia-1897-61"},"geometry":{"type":"MultiPolygon","coordinates":[[[[41.68315138460642,42.154346481425826],[41.701054900971144,42.153506952284246],[41.72128031952043,42.14636856926702],[41.72365978052626,42.12138422870518],[41.73198789404658,42.10829719317276],[41.74864412108721,42.09996907965342],[41.76411061762565,42.10472800166463],[41.780766844666275,42.10472800166463],[41.774818192151784,42.114245845687954],[41.77957711416336,42.11900476770006],[41.787905227683765,42.133281533734596],[41.816458759753374,42.133281533734596],[41.82240741226866,42.141609647255805],[41.83787390880639,42.13804045574581],[41.856909596852844,42.141609647255805],[41.8890323204312,42.145178838764906],[41.903309086466805,42.15588641329034],[41.92353450501609,42.149937760775146],[41.95684695909736,42.15588641329034],[42.00324644871132,42.16064533530245],[42.02823078927227,42.16064533530245],[42.05797405184559,42.16421452681155],[42.0865275839152,42.16421452681155],[42.09485569743552,42.145178838764906],[42.098424888944265,42.1273328812194],[42.13768599554082,42.134471264238485],[42.16980871911909,42.09164096613221],[42.19836225118958,42.06427716456623],[42.26379742885004,42.060707973057134],[42.27450500337609,42.0904512356301],[42.2959201524283,42.12019449820218],[42.31733530148139,42.13447126423849],[42.3387504505336,42.15945560479847],[42.345888833551,42.17849129284511],[42.344699103048086,42.19752698089273],[42.32209422349297,42.215372938435394],[42.30424826594871,42.23678808748813],[42.27926392538775,42.24392647050536],[42.26141796784421,42.25820323654167],[42.30543799645153,42.293895151628945],[42.366114252100296,42.34267410224855],[42.38396020964464,42.35219194627187],[42.39823697567945,42.373607095323635],[42.40537535869685,42.387883861358176],[42.442257004286866,42.41643739342814],[42.495794876918225,42.43190388996666],[42.542194366532186,42.43785254248088],[42.58145547312794,42.444990925498104],[42.59097331715108,42.460457422036626],[42.592163047654,42.47235472706507],[42.59811170016884,42.47830337958018],[42.59573223916318,42.494959606621705],[42.605250083186334,42.515185025171355],[42.610009005198165,42.56158451478407],[42.59216304765444,42.581809933334604],[42.604060352683945,42.60798400439856],[42.58978358664896,42.62107103993],[42.56598897659004,42.62582996194122],[42.54695328854393,42.63891699747453],[42.53981490552644,42.68174729557815],[42.53267652250895,42.71149055815111],[42.55766086307017,42.718628941169314],[42.577886281619456,42.728146785192635],[42.57312735960753,42.73766462921507],[42.56479924608766,42.749561934245285],[42.52553813949146,42.75789004776472],[42.50174352943262,42.77216681380103],[42.47081053635701,42.79239223234978],[42.43154942976081,42.795961423858],[42.401279050227416,42.799617353328344],[42.41198662475357,42.76749462974928],[42.40960716374782,42.75440759421686],[42.39889958922167,42.74013082818143],[42.39889958922167,42.725854062146894],[42.38462282318608,42.71990540963178],[42.37272551815701,42.69373133856783],[42.350120638601894,42.68302376404239],[42.33465414206417,42.65922915398275],[42.30848007099951,42.6437626574461],[42.291823843958866,42.63424481342278],[42.28706492194729,42.61758858638223],[42.30848007099951,42.5997426288377],[42.30610060999376,42.58070694079106],[42.27754707792407,42.55810206123532],[42.250183276356566,42.52835879866227],[42.21806055277821,42.500994997096285],[42.18355836819323,42.47720038703842],[42.15024591411205,42.45221604647667],[42.14310753109466,42.427231705914835],[42.120502651539525,42.42009332289761],[42.10503615500102,42.38559113831245],[42.09313884997195,42.354658145237366],[42.068154509411,42.35108895372924],[42.044359899352955,42.328484074173495],[42.01342690627672,42.310638116628965],[41.99320148772743,42.29755108109744],[41.97892472169262,42.28684350657111],[41.94561226761056,42.27970512355291],[41.930145771072844,42.274946201541695],[41.91229981352929,42.271377010032595],[41.9063511610148,42.25472078299293],[41.88850520347046,42.25591051349505],[41.87660789844148,42.248772130477825],[41.86590032391533,42.25353105248993],[41.852813288383445,42.25353105248993],[41.83972625285155,42.24401320846661],[41.827828947821686,42.25115159148383],[41.80641379876948,42.25472078299293],[41.777860266699875,42.25234132198595],[41.75763484814969,42.245202938968724],[41.73859916010332,42.24758239997571],[41.71956347205686,42.23806455595239],[41.70766616702788,42.24996186097994],[41.674353712945816,42.25234132198595],[41.65970812500164,42.25288375116929],[41.6738571921814,42.20639395900706],[41.68315138460642,42.154346481425826]]]]}},{"type":"Feature","properties":{"kind":"district","id":"uyezd-1897-396","name":"Озургетский","provinceId":"gubernia-1897-61"},"geometry":{"type":"MultiPolygon","coordinates":[[[[42.26379742885004,42.060707973057134],[42.19836225118958,42.06427716456623],[42.16980871911909,42.09164096613221],[42.13768599554082,42.134471264238485],[42.098424888944265,42.1273328812194],[42.09485569743552,42.145178838764906],[42.0865275839152,42.16421452681155],[42.05797405184559,42.16421452681155],[42.02823078927227,42.16064533530245],[42.00324644871132,42.16064533530245],[41.95684695909736,42.15588641329034],[41.92353450501609,42.149937760775146],[41.903309086466805,42.15588641329034],[41.8890323204312,42.145178838764906],[41.856909596852844,42.141609647255805],[41.83787390880639,42.13804045574581],[41.82240741226866,42.141609647255805],[41.816458759753374,42.133281533734596],[41.787905227683765,42.133281533734596],[41.77957711416336,42.11900476770006],[41.774818192151784,42.114245845687954],[41.780766844666275,42.10472800166463],[41.76411061762565,42.10472800166463],[41.74864412108721,42.09996907965342],[41.73198789404658,42.10829719317276],[41.72365978052626,42.12138422870518],[41.72128031952043,42.14636856926702],[41.701054900971144,42.153506952284246],[41.68315138460642,42.154346481425826],[41.68575449721028,42.13976905084381],[41.697651802239264,42.11835390179107],[41.7119285682745,42.099318213744425],[41.71311829877733,42.07195441217844],[41.732153986823974,42.0529187241318],[41.73929236984165,42.03150357507906],[41.75951778839111,42.021985731055736],[41.769035632414344,42.00176031250609],[41.778553476437665,41.96487866691581],[41.77617401543202,41.94108405685795],[41.786881589958156,41.9196689078053],[41.779743206940495,41.905392141769966],[41.796233341204086,41.89176624164335],[41.80694091573014,41.88700731963134],[41.823597142771575,41.89176624164335],[41.85928905785859,41.90009435516269],[41.88070420691088,41.89414570264847],[41.897360433952315,41.895335433152454],[41.93543181004516,41.9108019296892],[41.9532777675887,41.90842246868399],[41.969933994630054,41.85845378756226],[41.97945183865329,41.8263310639832],[42.008005370722984,41.810864567445655],[42.04488701631362,41.79063914889592],[42.06749189586883,41.76922399984327],[42.10913246347113,41.76446507783206],[42.14363464805531,41.766844538836196],[42.16980871911909,41.77398292185538],[42.2066903647099,41.77160346084928],[42.219777400241796,41.7835007658787],[42.23524389677951,41.791828879398125],[42.279263925387724,41.803726184426566],[42.31852503198428,41.79896726241526],[42.34945802505972,41.78469049638081],[42.39466778417068,41.794208340403245],[42.42916996875495,41.79896726241526],[42.49460514641528,41.79777753191323],[42.556471132566955,41.79777753191323],[42.5814554731279,41.803726184426566],[42.62190631022729,41.82514133347931],[42.6492701117941,41.831089985994325],[42.65283930330285,41.88224839762003],[42.6564084948115,41.917940312707316],[42.64689065078827,41.93578627025086],[42.6207165797244,41.94411438377207],[42.59097331715108,41.94530411427418],[42.558850593572814,41.93935546175908],[42.50293325993563,41.95839114980572],[42.4648618838427,41.97266791584203],[42.419652124731655,41.990513873384785],[42.381580748638015,41.99170360388867],[42.35183748606549,42.00241117841509],[42.33518125902486,42.03334417148928],[42.31495584047556,42.02977497998107],[42.2816433863935,42.03929282400439],[42.26379742885004,42.060707973057134]]]]}},{"type":"Feature","properties":{"kind":"district","id":"uyezd-1897-397","name":"Артвинский","provinceId":"gubernia-1897-61"},"geometry":{"type":"MultiPolygon","coordinates":[[[[42.288649577132944,41.020354744396165],[42.29459822964752,41.0417698934489],[42.29578796015035,41.05961585099246],[42.2850803856242,41.08103100004519],[42.26723442808074,41.0869796525603],[42.255337123050964,41.09768722708574],[42.26485496707491,41.10839480161215],[42.27913173310981,41.110774262618165],[42.29578796015035,41.110774262618165],[42.305305804173585,41.12386129814969],[42.32553122272296,41.13337914217301],[42.35051556328462,41.13099968116879],[42.36955125133109,41.14170725569422],[42.38263828686297,41.15836348273477],[42.414761010442135,41.17739917078239],[42.406432896921814,41.19167593681595],[42.406432896921814,41.20357324184626],[42.419519932453795,41.20952189435958],[42.440935081506,41.20595270285235],[42.45164265603205,41.18929647580994],[42.47662699659381,41.20476297234837],[42.50399079816059,41.2178500078799],[42.51350864218382,41.23450623492134],[42.536113521738855,41.24164461793954],[42.55514920978612,41.27019815000861],[42.59203085537604,41.28447491604404],[42.5967897773877,41.3058900650958],[42.572995167329665,41.31540790911912],[42.55395947928321,41.345151171692095],[42.55514920978612,41.37846362577514],[42.565856784312174,41.415345271364444],[42.53135459972728,41.42248365438175],[42.502185207161915,41.449049636669805],[42.48971403212579,41.44627826443953],[42.452832386534965,41.45222691695472],[42.43022750697985,41.46055503047495],[42.402863705413154,41.47840098801859],[42.34218744976431,41.47483179650949],[42.32315176171713,41.48434964053281],[42.28151119411554,41.501005867575216],[42.2434398180219,41.506954520088556],[42.20536844192907,41.50457505908254],[42.187522484384715,41.52361074712918],[42.13279488125124,41.51647236411188],[42.106620810186655,41.51409290310586],[42.09115431364894,41.502195598077336],[42.07211862560247,41.48553937103679],[42.10543107968374,41.486729101539794],[42.150640838794786,41.489108562545894],[42.15777922181219,41.47840098801859],[42.142312725274465,41.45817556946894],[42.12803595923967,41.432001498404986],[42.12089757622226,41.40582742734112],[42.109000271192485,41.38203281728326],[42.08401593063154,41.380843086779365],[42.08044673912279,41.36180739873272],[42.074498086608216,41.342771710686975],[42.03880617152049,41.342771710686975],[42.01501156146237,41.32373602264033],[41.990027220901425,41.334443597165766],[41.96742234134558,41.31778737012513],[41.94362773128755,41.29042356855915],[41.915074199217855,41.28090572453583],[41.88057201463296,41.28090572453583],[41.85201848256327,41.28328518554193],[41.81037791496097,41.30351060408971],[41.788962765908664,41.3094592566049],[41.7568400423296,41.3094592566049],[41.73661462378023,41.32135656163423],[41.72947624076282,41.339202519178755],[41.715199474728024,41.340392249680875],[41.71044055271636,41.3558587462194],[41.69735351718447,41.36537659024272],[41.631918339524134,41.35942793772752],[41.54982693482228,41.346340902196076],[41.50580690621496,41.334443597165766],[41.48203224974539,41.32153735508271],[41.4906386947322,41.25698901768103],[41.464464623667894,41.22129710259375],[41.45613651014749,41.18560518750657],[41.476361928697656,41.12611866236054],[41.50967438277884,41.12135974034932],[41.544176567363564,41.11422135733121],[41.56559171641585,41.103513782805685],[41.589386326474425,41.086857555764254],[41.61556039753873,41.079719172747915],[41.64530366011144,41.08447809475904],[41.69170314972513,41.11660081833811],[41.730964256321144,41.14039542839596],[41.76665617140878,41.155861924934484],[41.79758916448431,41.155861924934484],[41.79758916448431,41.13206731487476],[41.847557845607184,41.1058932438109],[41.86778326415657,41.082098633752146],[41.87968056918554,41.05473483218519],[41.826142696554186,41.04878617967185],[41.827332427057016,41.02975049162521],[41.84636811510366,41.00119695955436],[41.87373191667071,40.98929965452583],[41.905854640249856,40.96550504446806],[41.92013140628448,40.94646935642142],[41.93410988726431,40.9454017227126],[41.94719692279621,40.956109297239905],[41.96742234134558,40.97752444629167],[41.98526829888985,40.984662829308974],[42.01620129196529,40.984662829308974],[42.04475482403498,40.97633471578955],[42.07211862560247,40.98109363779987],[42.106620810186655,40.964437410759245],[42.145881916783125,40.97038606327444],[42.17681490985865,40.97514498528565],[42.20655817243198,40.96562714126323],[42.230352782490016,40.96919633277233],[42.2505782010393,40.98109363779987],[42.27318308059523,40.99299094283018],[42.288649577132944,41.020354744396165]]]]}},{"type":"Feature","properties":{"kind":"district","id":"uyezd-1897-430","name":"Шорапанский","provinceId":"gubernia-1897-61"},"geometry":{"type":"MultiPolygon","coordinates":[[[[43.210822909170055,41.8382283690116],[43.23223805822306,41.851315404543136],[43.2631710512985,41.862022979069465],[43.30719107990662,41.88224839762009],[43.340503533987984,41.89533543315251],[43.353590569519874,41.91794031270727],[43.37976464058445,41.923888965222474],[43.42140520818604,41.91794031270727],[43.44401008774196,41.92031977371239],[43.45947658427968,41.941734922765136],[43.4749430808174,41.95839114980568],[43.4892198468522,41.99170360388872],[43.50706580439575,42.03810309350233],[43.520152839928436,42.06308743406221],[43.54513718048939,42.10353827116248],[43.541567988980646,42.13566099474066],[43.543947449986476,42.174922101336946],[43.568931790547424,42.17849129284516],[43.580829095577286,42.21180374692723],[43.599864783623666,42.237977817991094],[43.62960804619619,42.26296215855196],[43.668869152792745,42.303412995652224],[43.67362807480431,42.320069222692865],[43.680766457821804,42.33553571923129],[43.7081302593885,42.32482814470408],[43.74263244397339,42.34624329375673],[43.78070382006632,42.34505356325461],[43.80092923861641,42.34743302425973],[43.81639573515413,42.35576113777916],[43.81758546565705,42.37717628683181],[43.81996492666288,42.40335035789577],[43.83186223169194,42.404540088399656],[43.83067250118903,42.4140579324221],[43.81758546565705,42.41524766292608],[43.7997395081135,42.41167847141698],[43.78189355056924,42.4211963154403],[43.77594489805475,42.43547308147483],[43.71883783391465,42.44261146449206],[43.68314591882755,42.44974984751114],[43.666489691786914,42.47235472706508],[43.59272640060626,42.47235472706508],[43.504686343390716,42.47235472706508],[43.47970200282906,42.490200684609604],[43.461856045285415,42.46997526605996],[43.43687170472455,42.46640607455174],[43.4047489811454,42.47711364907718],[43.38809275410477,42.46640607455174],[43.33455488147341,42.490200684609604],[43.30957054091245,42.497339067626825],[43.30124242739214,42.480682840585395],[43.27387862582465,42.46997526605996],[43.25365320727526,42.45093957801332],[43.2143921006788,42.44023200348788],[43.197735873638166,42.42000658493814],[43.14062880949806,42.40929901041093],[43.09779851139356,42.39621197487851],[43.07400390133481,42.38669413085519],[43.05853740479709,42.37598655632975],[43.044260638762196,42.35695086828305],[43.01094818468022,42.328397336212205],[42.97644600009603,42.311741109171656],[42.93956435450531,42.26177242804984],[42.93242597148791,42.243926470505315],[42.909821091932784,42.20942428592211],[42.897923786903725,42.19157832837758],[42.911010822435614,42.176111831839066],[42.92647731897333,42.15707614379242],[42.93956435450531,42.14874803027308],[42.94313354601397,42.140419916751874],[42.959789773055405,42.13447126423854],[42.96573842556989,42.12257395920912],[42.98120492210761,42.11781503719613],[42.951461659535084,42.067846356074405],[42.99072276613093,42.05356959003889],[43.02165575920708,42.04286201551257],[43.05258875228252,42.02739551897503],[43.07162444032898,42.008359830929265],[43.07162444032898,41.98099602936142],[43.05734767429418,41.95720141930356],[43.0513990217796,41.932217078741814],[43.07043470982607,41.90961219918607],[43.07876282334638,41.87986893661399],[43.113265007931275,41.847746213034924],[43.11921366044585,41.82871052498828],[43.17394126358013,41.82871052498828],[43.210822909170055,41.8382283690116]]]]}},{"type":"Feature","properties":{"kind":"district","id":"uyezd-1897-436","name":"Рачинский","provinceId":"gubernia-1897-61"},"geometry":{"type":"MultiPolygon","coordinates":[[[[43.33217542046784,42.91374474364784],[43.31789865443286,42.88043228956489],[43.31670892392968,42.85782741001092],[43.306001349403445,42.83165333894519],[43.28458620035097,42.80666899838521],[43.25127374626899,42.794771693354996],[43.233427788725265,42.77930519681834],[43.20844344816405,42.77454627480526],[43.17751045508852,42.76978735279404],[43.16442341955663,42.76145923927382],[43.162043958550356,42.7459927427353],[43.17394126357978,42.729336515695636],[43.194166682129065,42.716249480164194],[43.17632072458534,42.70792136664201],[43.14538773150972,42.709111097145104],[43.11683419943976,42.719818671672314],[43.09660878089046,42.734095437706856],[43.08352174535858,42.7150597496611],[43.065675787814854,42.69721379211657],[43.035932525241705,42.68531648708813],[43.001430340657436,42.68293702608115],[42.970497347581016,42.655573224514185],[42.94789246802616,42.63177861445544],[42.93956435450558,42.61512238741578],[42.94670273752307,42.59251750786004],[42.9586000425524,42.563963975790074],[42.94075408500867,42.56753316729829],[42.924097857967325,42.55563586226985],[42.905062169921216,42.54849747925253],[42.88840594287987,42.55087694025863],[42.875318907348074,42.54373855724132],[42.84319618376927,42.55325640126464],[42.8217810347168,42.56039478428097],[42.806314538179436,42.56158451478407],[42.818211843208054,42.52827206070289],[42.831298878740654,42.494959606621705],[42.861042141313,42.493769876117724],[42.90030324790946,42.490200684609604],[42.93718489349948,42.4842520320944],[42.97763573059895,42.47711364907718],[42.97882546110186,42.45450876952144],[42.969307617078634,42.44142173399],[42.95860004255249,42.422386045942375],[42.97763573059895,42.39978116638761],[42.993102227136674,42.39978116638761],[43.02760441172157,42.39026332236429],[43.05853740479709,42.37598655632975],[43.07400390133481,42.38669413085519],[43.09779851139356,42.39621197487851],[43.14062880949806,42.40929901041093],[43.197735873638166,42.42000658493814],[43.2143921006788,42.44023200348788],[43.25365320727526,42.45093957801332],[43.27387862582465,42.46997526605996],[43.30124242739214,42.480682840585395],[43.30957054091245,42.497339067626825],[43.33455488147341,42.490200684609604],[43.38809275410477,42.46640607455174],[43.4047489811454,42.47711364907718],[43.43687170472455,42.46640607455174],[43.461856045285415,42.46997526605996],[43.47970200282906,42.490200684609604],[43.504686343390716,42.47235472706508],[43.59272640060626,42.47235472706508],[43.666489691786914,42.47235472706508],[43.67719726631306,42.4818725710884],[43.69504322385661,42.490200684609604],[43.74263244397339,42.47235472706508],[43.77594489805475,42.47354445756897],[43.79854977761058,42.48306230159229],[43.833051962194766,42.490200684609604],[43.85208765024123,42.52351313869079],[43.87588226030007,42.52827206070289],[43.90324606186676,42.54611801824555],[43.94369689896623,42.56158451478407],[43.957973665001035,42.573481819814376],[43.910384444884166,42.59489696886525],[43.86160549426518,42.60917373490156],[43.815206004651216,42.61155319590766],[43.76285786252277,42.61393265691189],[43.74620163548214,42.649624571999965],[43.76285786252277,42.66152187702939],[43.78070382006632,42.67936783457205],[43.79022166409035,42.70554190563778],[43.79022166409035,42.724577593683534],[43.79736004710767,42.73528516821084],[43.81163681314256,42.7483722037414],[43.8140162741483,42.77216681380014],[43.80092923861641,42.79120250184767],[43.78308328107207,42.801910076373105],[43.76285786252277,42.7935819628519],[43.74501190497922,42.77454627480526],[43.72835567793859,42.78049492732134],[43.70931998989141,42.79715115436189],[43.68552537983338,42.803099806875224],[43.65102319524928,42.799530615367104],[43.64745400373974,42.818566303413746],[43.624849124184614,42.82570468643097],[43.60581343613815,42.82094576441975],[43.60343397513232,42.84949929649069],[43.59034693960043,42.86377606252425],[43.548706371998136,42.870914445541565],[43.504686343390716,42.88043228956489],[43.47375335031448,42.90065770811454],[43.44757927925061,42.90303716912054],[43.38809275410477,42.90303716912054],[43.37998993944171,42.90303716912061],[43.355970030525704,42.90303716912054],[43.33217542046784,42.91374474364784]]]]}},{"type":"Feature","properties":{"kind":"district","id":"uyezd-1897-777","name":"Батумский","provinceId":"gubernia-1897-61"},"geometry":{"type":"MultiPolygon","coordinates":[[[[41.779743206940495,41.905392141769966],[41.780932937443325,41.88754618422624],[41.77498428492919,41.87564887919691],[41.778553476437665,41.857802921653274],[41.783312398449766,41.84590561662474],[41.78569185945534,41.8268699285781],[41.77617401543202,41.81616235405089],[41.76189724939668,41.776901247455484],[41.73929236984165,41.7400196018652],[41.72620533430913,41.713845530801336],[41.70122099374845,41.685291998730484],[41.66552907866081,41.65911792766742],[41.64768312111708,41.68172280722227],[41.636975546590946,41.67815361571406],[41.60842201452107,41.65435900565443],[41.590576056977255,41.631754126099565],[41.577489021444734,41.60201086352749],[41.575109560439174,41.58297517548085],[41.57273009943343,41.560370295924216],[41.54893548937487,41.53062703335213],[41.540607375854364,41.50921188429851],[41.516812765796416,41.49136592675496],[41.48587977272098,41.480658352229526],[41.507294921773195,41.45686374217166],[41.52514087931701,41.44496643714136],[41.542986836860734,41.44258697613624],[41.54893548937487,41.414033444065296],[41.52276141831135,41.391428564510534],[41.49301815573786,41.37001341545779],[41.481120850708876,41.328372847856386],[41.48203224974539,41.32153735508271],[41.50580690621496,41.334443597165766],[41.54982693482228,41.346340902196076],[41.631918339524134,41.35942793772752],[41.69735351718447,41.36537659024272],[41.71044055271636,41.3558587462194],[41.715199474728024,41.340392249680875],[41.72947624076282,41.339202519178755],[41.73661462378023,41.32135656163423],[41.7568400423296,41.3094592566049],[41.788962765908664,41.3094592566049],[41.81037791496097,41.30351060408971],[41.85201848256327,41.28328518554193],[41.88057201463296,41.28090572453583],[41.915074199217855,41.28090572453583],[41.94362773128755,41.29042356855915],[41.96742234134558,41.31778737012513],[41.990027220901425,41.334443597165766],[42.01501156146237,41.32373602264033],[42.03880617152049,41.342771710686975],[42.074498086608216,41.342771710686975],[42.08044673912279,41.36180739873272],[42.08401593063154,41.380843086779365],[42.109000271192485,41.38203281728326],[42.12089757622226,41.40582742734112],[42.12803595923967,41.432001498404986],[42.142312725274465,41.45817556946894],[42.15777922181219,41.47840098801859],[42.150640838794786,41.489108562545894],[42.10543107968374,41.486729101539794],[42.07211862560247,41.48553937103679],[42.09115431364894,41.502195598077336],[42.106620810186655,41.51409290310586],[42.13279488125124,41.51647236411188],[42.187522484384715,41.52361074712918],[42.20536844192907,41.50457505908254],[42.2434398180219,41.506954520088556],[42.28151119411554,41.501005867575216],[42.32315176171713,41.48434964053281],[42.34218744976431,41.47483179650949],[42.402863705413154,41.47840098801859],[42.43022750697985,41.46055503047495],[42.452832386534965,41.45222691695472],[42.48971403212579,41.44627826443953],[42.502185207161915,41.449049636669805],[42.51112918117799,41.45103718645163],[42.50280106765767,41.47483179650949],[42.50755998966925,41.491488023551895],[42.52778540821862,41.502195598077336],[42.55514920978612,41.506954520088556],[42.568236245318005,41.53193886065039],[42.572995167329665,41.566441045235464],[42.59916923839353,41.59380484680145],[42.619394656943626,41.59737403831055],[42.58965139437031,41.61878918736329],[42.55039028777446,41.648532449936255],[42.51469837268674,41.662809215970796],[42.51469837268674,41.68660382602954],[42.48733457111996,41.727054663127944],[42.50637025916633,41.75203900368979],[42.50755998966925,41.77821307475365],[42.49460514641528,41.79777753191323],[42.42916996875495,41.79896726241526],[42.39466778417068,41.794208340403245],[42.34945802505972,41.78469049638081],[42.31852503198428,41.79896726241526],[42.279263925387724,41.803726184426566],[42.23524389677951,41.791828879398125],[42.219777400241796,41.7835007658787],[42.2066903647099,41.77160346084928],[42.16980871911909,41.77398292185538],[42.14363464805531,41.766844538836196],[42.10913246347113,41.76446507783206],[42.06749189586883,41.76922399984327],[42.04488701631362,41.79063914889592],[42.008005370722984,41.810864567445655],[41.97945183865329,41.8263310639832],[41.969933994630054,41.85845378756226],[41.9532777675887,41.90842246868399],[41.93543181004516,41.9108019296892],[41.897360433952315,41.895335433152454],[41.88070420691088,41.89414570264847],[41.85928905785859,41.90009435516269],[41.823597142771575,41.89176624164335],[41.80694091573014,41.88700731963134],[41.796233341204086,41.89176624164335],[41.779743206940495,41.905392141769966]]]]}}]}
