{"type":"FeatureCollection","features":[{"type":"Feature","properties":{"kind":"province","id":"kaluga","name":"Калужская губерния"},"geometry":{"type":"MultiPolygon","coordinates":[[[[36.05357420664185,55.23066155697964],[36.11187100128487,55.22114371295632],[36.11662992329653,55.19734910289846],[36.16421914341331,55.19734910289846],[36.21537755503813,55.20091829440845],[36.214187824535216,55.212815599436894],[36.22608512956428,55.217574521448995],[36.25106947012594,55.212815599436894],[36.31650464778636,55.2163847909451],[36.321263569797935,55.23542047899174],[36.33791979683857,55.2604048195535],[36.32245330030085,55.274681585588034],[36.336730066335654,55.292527543132564],[36.360524676393695,55.31037350067531],[36.377180903435125,55.29728646514378],[36.39383713047576,55.302045387155886],[36.41882147103671,55.32227080570553],[36.468790152159414,55.29490700413866],[36.47592853517673,55.30799403966921],[36.49377449272036,55.303235117658],[36.55801993987778,55.33892703274616],[36.630593500555605,55.37699840883945],[36.61988592602946,55.38889571386789],[36.6650956851405,55.40912113241851],[36.69840813922177,55.38889571386789],[36.72220274927981,55.384136791856676],[36.74480762883573,55.37223948682734],[36.76979196939668,55.369860025822135],[36.790017387946065,55.356772990288825],[36.81857092001647,55.35201406827761],[36.8268990335367,55.31751188369253],[36.8768677146594,55.30085565665199],[36.87805744516231,55.27944050759925],[36.910180168740666,55.26992266357682],[36.92802612628422,55.23779993999873],[36.9613385803662,55.212815599436894],[36.9684769633836,55.177123684348814],[36.97442561589818,55.15213934378884],[36.98997165835348,55.15262515761516],[37.01249699199182,55.15332907429185],[37.04937863758174,55.14381123026763],[37.056517020599145,55.11168850668946],[37.041050524061426,55.09979120165915],[37.048188907078824,55.08789389662982],[37.069604056131126,55.08789389662982],[37.07198351713767,55.105739854174345],[37.10410624071602,55.102170662665245],[37.107675432224674,55.0831349746186],[37.11957273725373,55.08075551361251],[37.11838300675082,55.07004793908618],[37.10172677971019,55.06409928657196],[37.08745001367538,55.040304676514104],[37.1171932762479,55.03078683249078],[37.13265977278563,55.01769979695836],[37.145746808318314,55.00937168343902],[37.16954141837644,55.01175114444325],[37.19333602843447,55.02126898846746],[37.21118198597794,55.01888952746137],[37.23616632653969,54.98319761237329],[37.22545875201354,54.976059229355975],[37.21118198597794,54.967731115836635],[37.20642306396637,54.959403002315426],[37.20642306396637,54.93203920074936],[37.18619764541698,54.90705486018761],[37.18262845390833,54.89277809415307],[37.171920879382185,54.87731159761553],[37.21832036899614,54.8666040230892],[37.26709931961513,54.86065537057311],[37.29327339067979,54.85708617906588],[37.30636042621168,54.84756833504256],[37.27423770263253,54.82853264699592],[37.26234039760355,54.805927767440174],[37.256391745088976,54.77737423537021],[37.2088025249722,54.74049258977993],[37.22783821301937,54.733354206762705],[37.24925336207158,54.73811312877383],[37.25996093659772,54.726215823743615],[37.24687390106575,54.70123148318275],[37.224269021510715,54.6857649866461],[37.205233333463454,54.665539568096364],[37.19452575893739,54.63817576652852],[37.17786953189667,54.62032980898586],[37.16240303535895,54.577499510879576],[37.086260283172464,54.55132543981562],[37.081501361160896,54.54418705679839],[37.09815758820153,54.510874602717216],[37.088639744178295,54.500167028189914],[37.0541375595934,54.49183891467057],[37.02439429702079,54.49183891467057],[37.00773806998016,54.48470053165326],[36.99940995645913,54.46804430461272],[37.00358135723495,54.440264342169954],[36.98811486069714,54.41884919311632],[36.99049432170297,54.40100323557366],[36.977407286171086,54.3724497035037],[36.958371598124614,54.35698320696518],[36.96669971164502,54.34032697992463],[36.9857353996914,54.33913724942065],[36.9928737827088,54.3224810223801],[36.98930459120024,54.304635064837356],[36.977407286171086,54.29273775980714],[36.95480240661596,54.30225560383046],[36.939335910077446,54.28440964628771],[36.91078237800784,54.27489180226439],[36.90007480348169,54.24276907868533],[36.87390073241702,54.22968204315388],[36.8441574698445,54.22611285164478],[36.8096552852596,54.22611285164478],[36.79299905821897,54.1904209365575],[36.78467094469865,54.18328255354028],[36.71328711452374,54.17852363152817],[36.67759519943664,54.152349560464216],[36.71209738402082,54.14997009945732],[36.75849687363478,54.15591875197243],[36.80608609375086,54.16424686549364],[36.817983398780626,54.176144170521184],[36.83107043431261,54.17257497901298],[36.84296773934158,54.17852363152817],[36.85010612235898,54.152349560464216],[36.82512178179812,54.123796028393365],[36.77872229218407,54.10000141833551],[36.73589199407886,54.08810411330617],[36.693061695974365,54.08572465230008],[36.659749241892385,54.07858626928285],[36.64071355384591,54.03218677966925],[36.61334975227922,53.981028368043546],[36.597883255740705,53.971510524020225],[36.580037298197155,53.972700254524206],[36.56576053216235,53.98340782904964],[36.54196592210431,53.975079715529326],[36.538396730595565,53.9584234884878],[36.51460212053682,53.95604402748357],[36.457495056396716,53.959613218990896],[36.40871610577773,53.93343914792694],[36.356367963649284,53.908454807366965],[36.3290041620825,53.901316424347876],[36.28379440297146,53.907265076863965],[36.23263599134593,53.907265076863965],[36.22668733883144,53.93462887843092],[36.21716949480812,53.961992679996904],[36.201702998270406,53.97032079351811],[36.189805693241425,53.98340782904964],[36.14340620362747,53.98459755955265],[36.16720081368551,53.95366456647756],[36.149354856141954,53.93462887843092],[36.106524558036746,53.89536777183454],[36.1386472816159,53.89060884982155],[36.17077000519426,53.88228073630212],[36.17195973569717,53.87038343127279],[36.14816512563904,53.86562450926158],[36.10771428853966,53.86324504825548],[36.108904019042576,53.84182989920283],[36.06131479892642,53.8311223246765],[36.06845318194391,53.77639472154259],[36.0541764159091,53.76925633852536],[36.032761266856006,53.76687687751837],[36.03199000666749,53.75530797469039],[36.063180178850274,53.75085223580756],[36.05009314331848,53.70683220719907],[36.09530290242898,53.70445274619306],[36.09292344142342,53.6794684056322],[36.04771368231282,53.67708894462611],[36.023919072254074,53.66281217859068],[36.038195838289056,53.64377649054492],[36.05961098734153,53.63425864652071],[36.12147697349347,53.65210460406435],[36.10601047695522,53.6378278380307],[36.077456944885256,53.6259305330004],[36.00607311471114,53.61403322797196],[35.99298607917846,53.62117161098918],[35.97514012163473,53.6390175685337],[35.90375629145973,53.6390175685337],[35.87877195089851,53.61998188048618],[35.85973626285241,53.589048887411096],[35.832372461284734,53.581910504393775],[35.82404434776486,53.559305624838125],[35.8085778512267,53.54859805031082],[35.797870276700465,53.53670074528238],[35.80143946820921,53.51409586572664],[35.826423808770514,53.515285596229646],[35.84783895782299,53.511716404720545],[35.85854653234922,53.498629369189985],[35.839510844302225,53.479593681142454],[35.81214704273545,53.47721422013636],[35.78954216317979,53.481973142147574],[35.75503997859552,53.47840395063936],[35.76693728362484,53.45936826259272],[35.7954908156949,53.4522298795755],[35.820475156256116,53.44271203555218],[35.826423808770514,53.43319419152796],[35.84902868832617,53.43914284404396],[35.8668746458699,53.432004461026736],[35.85497734084048,53.421296886499434],[35.82999300027926,53.418917425494314],[35.81214704273545,53.41177904247709],[35.79192162418615,53.416537964488306],[35.79192162418615,53.435573652533975],[35.72648644652546,53.44271203555218],[35.72648644652546,53.46531691510792],[35.69198426194119,53.48078341164546],[35.655102616350554,53.45936826259272],[35.607513396234395,53.46888610661702],[35.56111390662052,53.491490986170895],[35.55493391761891,53.484154314736784],[35.55255445661308,53.46511862669014],[35.54779553460142,53.43775482512318],[35.53113930756079,53.44608293864439],[35.50020631448544,53.427047250597745],[35.469273321409204,53.42942671160384],[35.38599218620523,53.412770484561435],[35.34078242709418,53.410391023557196],[35.305090512007176,53.39254506601267],[35.27462415494432,53.382072255772044],[35.26701913591344,53.37945803048025],[35.22775802931769,53.38183749148723],[35.23013749032352,53.371129916960825],[35.21824018529455,53.38064776098325],[35.212291532779176,53.39016560500657],[35.193255844732796,53.405632101544114],[35.18254827020665,53.406821832047214],[35.16351258216027,53.415149945568416],[35.14804608562255,53.41396021506532],[35.14685635511964,53.400873179533875],[35.13614878059269,53.39492452701868],[35.11116444003174,53.36518126444483],[35.10997470952891,53.34971476790817],[35.080231446956304,53.33424827136965],[35.080231446956304,53.325920157848444],[35.023124382816285,53.337817462877865],[35.013606538793056,53.37826829997813],[34.973155701693585,53.38183749148723],[34.961258396664604,53.38897587450357],[34.90296160202159,53.38897587450357],[34.86251076492212,53.35447368991841],[34.8125420838003,53.35090449841029],[34.78398855172989,53.34614557639907],[34.74115825362539,53.35209422891418],[34.73639933161373,53.39373479651479],[34.667394962444654,53.39373479651479],[34.65430792691197,53.405632101544114],[34.63765169987133,53.404442371042],[34.584113827239975,53.417529406574424],[34.52581703259775,53.44608293864439],[34.48655592600129,53.47106727920436],[34.435397514375666,53.479395392725564],[34.396136407779906,53.51151811630463],[34.38899802476251,53.562676527930336],[34.39494667727699,53.5840916769821],[34.38423910275085,53.59479925150754],[34.38542883325376,53.634060358103824],[34.40208506029448,53.66618308168289],[34.431828322867005,53.69592634425683],[34.42231047884378,53.70425445777617],[34.39375694677417,53.68759823073563],[34.37829045023645,53.69116742224375],[34.360444492692096,53.70782364928439],[34.29738877603751,53.77444855744852],[34.28430174050562,53.791104784490045],[34.29262985402593,53.83393508259455],[34.28668120151136,53.85059130963421],[34.24147144240112,53.84940157913209],[34.183174647758186,53.943390288863185],[34.158190307196435,53.91007783478014],[34.142723810658715,53.91007783478014],[34.127257314120996,53.89104214673448],[34.05587348394609,53.88866268572838],[34.00590480282338,53.895801068745605],[33.96783342673054,53.887472955224396],[33.94522854717462,53.870816728183854],[33.90001878806438,53.87438591969384],[33.88693175253249,53.91007783478014],[33.85956795096491,53.91840594830135],[33.83577334090687,53.91245729578624],[33.829824688392385,53.9362519058441],[33.83339387990104,53.954097863388625],[33.814358191854666,53.957667054896746],[33.74416409218267,53.950528671879525],[33.73107705664998,53.964805437914066],[33.729887326147065,53.97789247344649],[33.740594900673926,53.99216923948191],[33.74178463117684,54.00406654451035],[33.75963058872039,54.00525627501433],[33.765579241234875,54.033809807084296],[33.67634945351651,54.0349995375873],[33.66543656096182,54.02927592358171],[33.640452220400874,54.047121881124454],[33.61903707134787,54.07091649118409],[33.631678838867515,54.08140922656368],[33.637627491382005,54.10163464511244],[33.629299377861685,54.115911411146975],[33.57814096623607,54.124239524668184],[33.53531066813166,54.15636224824725],[33.49010090902061,54.16350063126447],[33.47225495147707,54.17777739729901],[33.46392683795675,54.18967470232833],[33.47701387348864,54.19681308534565],[33.49248037002636,54.24083311395404],[33.54958743416646,54.24916122747347],[33.557915547686775,54.267007185018],[33.5805204272419,54.25867907149679],[33.61145342031823,54.25273041898257],[33.601935576294906,54.26938664602312],[33.631678838867515,54.277714759544324],[33.631678838867515,54.293181256081866],[33.69235509451628,54.3026991001043],[33.688785903007535,54.340770476197584],[33.695924286025026,54.362185625251215],[33.6864064420018,54.365754816759335],[33.678078328481476,54.3978775403384],[33.69711401652794,54.42643107240836],[33.73518539262149,54.438328377436804],[33.762549194188274,54.42167215039626],[33.81727679732255,54.447846221460125],[33.86843520894808,54.50019436358981],[33.92197308157873,54.55016304471154],[33.91840389006998,54.57752684627761],[33.9481471526433,54.588234420803936],[34.03380774885302,54.576337115775495],[34.05641262840814,54.56562954125006],[34.092104543496035,54.58347549879272],[34.10757104003376,54.58704469030093],[34.13017591958888,54.60489064784635],[34.144452685624486,54.598941995331145],[34.16586783467669,54.606080378348466],[34.21821597680513,54.61321876136569],[34.22892355133128,54.62273660538901],[34.27532304094444,54.61797768337779],[34.284840884968474,54.62630579689722],[34.27651277144736,54.63582364092054],[34.25271816138932,54.63701337142443],[34.23487220384577,54.64534148494386],[34.22535435982253,54.6631874424875],[34.21226732428985,54.684602591540155],[34.184903522723154,54.69174097455746],[34.18847271423181,54.70244854908468],[34.21821597680513,54.70601774059378],[34.278892232453096,54.69412043556348],[34.34075821860486,54.68698205254625],[34.369311750675266,54.688171783049256],[34.403813935259365,54.70006908807867],[34.43950585034726,54.71434585411312],[34.471628573925614,54.72267396763432],[34.462110729902385,54.69649989656957],[34.46924911291978,54.68222313053414],[34.48947453146908,54.68222313053414],[34.50732048901342,54.688171783049256],[34.52754590756281,54.683412861038036],[34.55966863114107,54.685792322044136],[34.58465297170282,54.69412043556348],[34.61082704276669,54.670325825505614],[34.66555464590097,54.679843669529916],[34.688159525456086,54.68936151355324],[34.70005683048506,54.70244854908468],[34.703626021993806,54.72743288964652],[34.757163894625165,54.72148423713132],[34.77619958267243,54.72267396763432],[34.80356338423921,54.720294506627425],[34.80594284524496,54.710776662604104],[34.82497853329133,54.71315612361012],[34.833306646811735,54.73933019467496],[34.8654293703908,54.73933019467496],[34.89279317195758,54.73695073366984],[34.89398290246049,54.72386369813644],[34.9011212854779,54.711966393108],[34.92372616503373,54.7179150456232],[34.92491589553664,54.73338154215976],[34.94157212257737,54.73576100316586],[34.96893592414406,54.7155355846171],[34.99629972571155,54.688171783049256],[35.02842244929,54.65247986796295],[35.04745813733638,54.64534148494386],[35.064114364377716,54.63225444941233],[35.06530409488063,54.654859328967184],[35.07839113041261,54.66080798148229],[35.08671924393293,54.67270528651082],[35.102185740470645,54.676274478020815],[35.121221428517025,54.68222313053414],[35.137877655558455,54.678653939026816],[35.16286199611941,54.68222313053414],[35.24138420931172,54.68698205254625],[35.2746966633937,54.664377172991394],[35.299681003954746,54.63939283242964],[35.325855075018524,54.64177229343565],[35.36511618161508,54.64534148494386],[35.39485944418769,54.63701337142443],[35.41032594072612,54.64058256293353],[35.41984378474935,54.64653121544687],[35.40794647972038,54.667946364499606],[35.38058267815279,54.67746420852293],[35.41865405424643,54.688171783049256],[35.42817189826967,54.70244854908468],[35.44363839480739,54.711966393108],[35.45553569983636,54.711966393108],[35.46981246587126,54.70839720159988],[35.48527896240968,54.68698205254625],[35.51621195548521,54.688171783049256],[35.538816835040336,54.70958693210199],[35.538816835040336,54.72386369813644],[35.51859141649104,54.72386369813644],[35.497176267438746,54.731002081153754],[35.48408923190686,54.741709655680964],[35.49955572844458,54.755986421715505],[35.47100219637408,54.76669399624281],[35.44720758631613,54.77859130127036],[35.39723890519343,54.77978103177425],[35.366305912117994,54.757176152219486],[35.34489076306569,54.755986421715505],[35.32942426652727,54.76312480473282],[35.32228588350986,54.77978103177425],[35.25566097534653,54.78572968428945],[35.22353825176826,54.79405779780879],[35.225917712774006,54.814283216358525],[35.204502563721704,54.826180521387855],[35.214020407745025,54.85473405345782],[35.237815017803065,54.86187243647513],[35.291352890434425,54.86782108899024],[35.31395776998954,54.898754082065324],[35.304439925966314,54.91184111759686],[35.32942426652727,54.948722763187135],[35.28540423791985,54.95586114620525],[35.28183504641119,54.983224947772214],[35.22472798227109,54.983224947772214],[35.18070795366296,55.00701955783007],[35.168810648633986,54.98560440877831],[35.140257116564285,54.99393252229952],[35.0914781659445,54.99512225280163],[35.08790897443585,55.00582982732706],[35.11646250650546,55.01772713235728],[35.112893314996796,55.0212963238655],[35.10694466248222,55.02367578487248],[35.11170358449388,55.0331936288958],[35.08196032192136,55.0248655153746],[35.08671924393293,55.03795255090604],[35.09623708795616,55.052229316942444],[35.05935544236615,55.06412662197],[35.033181371301566,55.07602392700031],[35.02247379677542,55.09743907605295],[35.014145683255194,55.12956179963024],[35.03437110180448,55.141459104660456],[35.052217059347946,55.1604947927071],[35.06530409488063,55.17596128924562],[35.08077059141844,55.17120236723254],[35.08671924393293,55.146218026672656],[35.105754931979305,55.12004395560692],[35.16524145712524,55.142648835162575],[35.16286199611943,55.177151019747726],[35.18903606718328,55.19261751628619],[35.20212310271597,55.18428940276499],[35.21164094673918,55.19142778578225],[35.20688202472758,55.20570455181769],[35.210451216236265,55.21522239584101],[35.21996906025947,55.209273743326776],[35.230676634785596,55.209273743326776],[35.236625287300114,55.22711970086948],[35.22353825176822,55.25091431092915],[35.25804043635236,55.26281161595671],[35.29016315993147,55.254483502437324],[35.35083941558025,55.23782727539674],[35.42698216776677,55.231878622881595],[35.453156238830616,55.242586197407945],[35.49717626743876,55.26757053796973],[35.51978114699392,55.27113972947791],[35.59116497716877,55.302072722553916],[35.65263502716006,55.275871316092015],[35.672860445709354,55.292527543132564],[35.701413977779055,55.27706104659502],[35.73948535387189,55.29728646514378],[35.77398753845679,55.27825077709625],[35.804920531533114,55.27706104659502],[35.81919729756792,55.266353472068694],[35.808489723041774,55.25207670603229],[35.83942271611721,55.24136913150686],[35.9024784327718,55.24612805351807],[35.957206035906076,55.24969724502628],[35.99884660350766,55.217574521448995],[36.01788229155413,55.228282095974436],[36.05357420664185,55.23066155697964]]]]}},{"type":"Feature","properties":{"kind":"district","id":"uyezd-1897-275","name":"Медынский","provinceId":"kaluga"},"geometry":{"type":"MultiPolygon","coordinates":[[[[36.00776283340367,55.206986498448416],[35.998846603507616,55.21757452144902],[35.9572060359061,55.249697245026255],[35.90247843277183,55.24612805351808],[35.83942271611721,55.24136913150687],[35.80848972304176,55.25207670603231],[35.81919729756788,55.26635347206866],[35.80492053153307,55.27706104659501],[35.77398753845682,55.27825077709622],[35.739485353871885,55.29728646514377],[35.701413977779055,55.27706104659501],[35.672860445709375,55.292527543132564],[35.652635027160045,55.27587131609198],[35.59116497716877,55.30207272255302],[35.51978114699392,55.27113972947791],[35.49717626743876,55.26757053796973],[35.453156238830616,55.242586197407945],[35.42698216776677,55.231878622881595],[35.35083941558025,55.23782727539674],[35.29016315993147,55.254483502437324],[35.25804043635236,55.26281161595671],[35.22353825176822,55.25091431092915],[35.236625287300114,55.22711970086948],[35.230676634785596,55.209273743326776],[35.21996906025947,55.209273743326776],[35.210451216236265,55.21522239584101],[35.20688202472758,55.20570455181769],[35.21164094673918,55.19142778578225],[35.20212310271597,55.18428940276499],[35.18903606718328,55.19261751628619],[35.16286199611943,55.177151019747726],[35.16524145712524,55.142648835162575],[35.105754931979305,55.12004395560692],[35.08671924393293,55.146218026672656],[35.08077059141844,55.17120236723254],[35.06530409488063,55.17596128924562],[35.052217059347946,55.1604947927071],[35.03437110180448,55.141459104660456],[35.014145683255194,55.12956179963024],[35.02247379677542,55.09743907605295],[35.033181371301566,55.07602392700031],[35.05935544236615,55.06412662197],[35.09623708795616,55.052229316942444],[35.08671924393293,55.03795255090604],[35.08196032192136,55.0248655153746],[35.11170358449388,55.0331936288958],[35.10694466248222,55.02367578487248],[35.112893314996796,55.0212963238655],[35.11646250650546,55.01772713235728],[35.08790897443585,55.00582982732706],[35.0914781659445,54.99512225280163],[35.140257116564285,54.99393252229952],[35.168810648633986,54.98560440877831],[35.18070795366296,55.00701955783007],[35.22472798227109,54.983224947772214],[35.28183504641119,54.983224947772214],[35.28540423791985,54.95586114620525],[35.32942426652727,54.948722763187135],[35.304439925966314,54.91184111759686],[35.31395776998954,54.898754082065324],[35.291352890434425,54.86782108899024],[35.237815017803065,54.86187243647513],[35.214020407745025,54.85473405345782],[35.204502563721704,54.826180521387855],[35.225917712774006,54.814283216358525],[35.22353825176826,54.79405779780879],[35.25566097534653,54.78572968428945],[35.32228588350986,54.77978103177425],[35.32942426652727,54.76312480473282],[35.34489076306569,54.755986421715505],[35.366305912117994,54.757176152219486],[35.39723890519343,54.77978103177425],[35.44720758631613,54.77859130127036],[35.47100219637408,54.76669399624281],[35.49955572844458,54.755986421715505],[35.48408923190686,54.741709655680964],[35.497176267438746,54.731002081153754],[35.51859141649104,54.72386369813644],[35.538816835040336,54.72386369813644],[35.538816835040336,54.70958693210199],[35.51621195548521,54.688171783049256],[35.524144132845095,54.67981633413092],[35.56221550893798,54.67624714262274],[35.593148502013435,54.68100606463304],[35.58244092748731,54.70361094418877],[35.65501448816508,54.705990405194825],[35.678809098223894,54.684575256142125],[35.70260370828271,54.684575256142125],[35.72877777934576,54.661970376586396],[35.71093182180226,54.641744958037634],[35.73829562336903,54.620329808985844],[35.772797807953964,54.64412441904369],[35.812058914550505,54.62746819200311],[35.829904872094005,54.60605304295132],[35.89177085824491,54.61200169546464],[35.93222169534437,54.639365497032486],[35.926273042830644,54.65483199356913],[35.935790886853056,54.675057412118804],[35.984569837472804,54.69052390865636],[36.02145148306357,54.696472561171504],[36.05119474563611,54.70242121368665],[36.046435823624506,54.72026717122935],[36.02383094406861,54.750010433804164],[36.066661242173836,54.7476309727972],[36.11068127078198,54.7428720507869],[36.12852722832554,54.7476309727972],[36.14518345536612,54.7476309727972],[36.16540887391545,54.760718008329604],[36.166598604419164,54.80830722844621],[36.1392348028524,54.82972237749982],[36.10473261826667,54.848758065544644],[36.10354288776455,54.88563971113672],[36.11068127078198,54.92728027873727],[36.08212773871236,54.943936505779675],[36.0940250437406,54.95821327181329],[36.07974827770573,54.97367976834994],[36.109491540279066,54.999853839415664],[36.12852722832554,54.99509491740355],[36.12495803681679,55.01769979695837],[36.129716958828396,55.02959710198866],[36.119009384302274,55.02959710198866],[36.10473261826667,55.022458718969574],[36.08331746921448,55.02959710198866],[36.071420164186236,55.03792521550804],[36.055953667647714,55.042684137520155],[36.07855854720361,55.065289017075884],[36.06309205066515,55.105739854176136],[36.050005015133195,55.11406796769552],[36.0416769016129,55.15213934378971],[36.01788229155483,55.194969641894204],[36.00776283340367,55.206986498448416]]]]}},{"type":"Feature","properties":{"kind":"district","id":"uyezd-1897-276","name":"Боровский","provinceId":"kaluga"},"geometry":{"type":"MultiPolygon","coordinates":[[[[36.11068127078198,54.92728027873727],[36.136855341845816,54.93798785326269],[36.17373698743654,54.92133162622214],[36.19277267548301,54.93798785326269],[36.23322351258239,54.94155704477268],[36.2558283921376,54.984387342877184],[36.29271003772753,55.00104356991781],[36.31412518678053,55.00580249192903],[36.329591683318256,55.04863279003531],[36.343868449353145,55.065289017075855],[36.37242198142356,55.08194524411649],[36.439046889586095,55.07242740009317],[36.46165176914192,55.0831349746186],[36.49734368422902,55.075996591601296],[36.54017398233424,55.0867041661277],[36.58895293295402,55.0843247051225],[36.632972961561435,55.09384254914582],[36.64487026659042,55.10455012367223],[36.69126975620437,55.09741174065314],[36.699597869724684,55.08194524411649],[36.79834550146709,55.07123766958919],[36.82214011152513,55.061719825565866],[36.84593472158316,55.041494407016216],[36.88519582817972,55.053391712046526],[36.88519582817972,55.06409928657196],[36.92564666527839,55.0783760526065],[36.94230289231982,55.07123766958919],[36.95895911936046,55.075996591601296],[36.97204615489235,55.06053009506286],[36.991081842938726,55.04863279003531],[37.01606618350047,55.05458144254864],[37.03391214104403,55.05220198154343],[37.050568368084654,55.03792521550801],[37.08745001367538,55.040304676514104],[37.10172677971019,55.06409928657196],[37.11838300675082,55.07004793908618],[37.11957273725373,55.08075551361251],[37.107675432224674,55.0831349746186],[37.10410624071602,55.102170662665245],[37.07198351713767,55.105739854174345],[37.069604056131126,55.08789389662982],[37.048188907078824,55.08789389662982],[37.041050524061426,55.09979120165915],[37.056517020599145,55.11168850668946],[37.04937863758174,55.14381123026763],[37.01249699199182,55.15332907429185],[36.98997165835348,55.15262515761516],[36.97442561589818,55.15213934378884],[36.9684769633836,55.177123684348814],[36.9613385803662,55.212815599436894],[36.92802612628422,55.23779993999873],[36.910180168740666,55.26992266357682],[36.87805744516231,55.27944050759925],[36.8768677146594,55.30085565665199],[36.8268990335367,55.31751188369253],[36.81857092001647,55.35201406827761],[36.790017387946065,55.356772990288825],[36.76979196939668,55.369860025822135],[36.74480762883573,55.37223948682734],[36.72220274927981,55.384136791856676],[36.69840813922177,55.38889571386789],[36.6650956851405,55.40912113241851],[36.61988592602946,55.38889571386789],[36.630593500555605,55.37699840883945],[36.55801993987778,55.33892703274616],[36.49377449272036,55.303235117658],[36.47592853517673,55.30799403966921],[36.468790152159414,55.29490700413866],[36.41882147103671,55.32227080570553],[36.39383713047576,55.302045387155886],[36.377180903435125,55.29728646514378],[36.360524676393695,55.31037350067531],[36.336730066335654,55.292527543132564],[36.32245330030085,55.274681585588034],[36.33791979683857,55.2604048195535],[36.321263569797935,55.23542047899174],[36.31650464778636,55.2163847909451],[36.25106947012594,55.212815599436894],[36.22608512956428,55.217574521448995],[36.214187824535216,55.212815599436894],[36.21537755503813,55.20091829440845],[36.16421914341331,55.19734910289846],[36.11662992329653,55.19734910289846],[36.11187100128487,55.22114371295632],[36.05357420664185,55.23066155697964],[36.01788229155413,55.228282095974436],[36.00776283340367,55.206986498448416],[36.01788229155483,55.194969641894204],[36.0416769016129,55.15213934378971],[36.050005015133195,55.11406796769552],[36.06309205066515,55.105739854176136],[36.07855854720361,55.065289017075884],[36.055953667647714,55.042684137520155],[36.071420164186236,55.03792521550804],[36.08331746921448,55.02959710198866],[36.10473261826667,55.022458718969574],[36.119009384302274,55.02959710198866],[36.129716958828396,55.02959710198866],[36.12495803681679,55.01769979695837],[36.12852722832554,54.99509491740355],[36.109491540279066,54.999853839415664],[36.07974827770573,54.97367976834994],[36.0940250437406,54.95821327181329],[36.08212773871236,54.943936505779675],[36.11068127078198,54.92728027873727]]]]}},{"type":"Feature","properties":{"kind":"district","id":"uyezd-1897-277","name":"Тарусский","provinceId":"kaluga"},"geometry":{"type":"MultiPolygon","coordinates":[[[[36.99940995645913,54.46804430461272],[37.00773806998016,54.48470053165326],[37.02439429702079,54.49183891467057],[37.0541375595934,54.49183891467057],[37.088639744178295,54.500167028189914],[37.09815758820153,54.510874602717216],[37.081501361160896,54.54418705679839],[37.086260283172464,54.55132543981562],[37.16240303535895,54.577499510879576],[37.17786953189667,54.62032980898586],[37.19452575893739,54.63817576652852],[37.205233333463454,54.665539568096364],[37.224269021510715,54.6857649866461],[37.24687390106575,54.70123148318275],[37.25996093659772,54.726215823743615],[37.24925336207158,54.73811312877383],[37.22783821301937,54.733354206762705],[37.2088025249722,54.74049258977993],[37.256391745088976,54.77737423537021],[37.26234039760355,54.805927767440174],[37.27423770263253,54.82853264699592],[37.30636042621168,54.84756833504256],[37.29327339067979,54.85708617906588],[37.26709931961513,54.86065537057311],[37.21832036899614,54.8666040230892],[37.171920879382185,54.87731159761553],[37.18262845390833,54.89277809415307],[37.18619764541698,54.90705486018761],[37.20642306396637,54.93203920074936],[37.20642306396637,54.959403002315426],[37.21118198597794,54.967731115836635],[37.22545875201354,54.976059229355975],[37.23616632653969,54.98319761237329],[37.21118198597794,55.01888952746137],[37.19333602843447,55.02126898846746],[37.16954141837644,55.01175114444325],[37.145746808318314,55.00937168343902],[37.13265977278563,55.01769979695836],[37.1171932762479,55.03078683249078],[37.08745001367538,55.040304676514104],[37.050568368084654,55.03792521550801],[37.03391214104403,55.05220198154343],[37.01606618350047,55.05458144254864],[36.991081842938726,55.04863279003531],[36.97204615489235,55.06053009506286],[36.95895911936046,55.075996591601296],[36.94230289231982,55.07123766958919],[36.92564666527839,55.0783760526065],[36.88519582817972,55.06409928657196],[36.88519582817972,55.053391712046526],[36.84593472158316,55.041494407016216],[36.84474499108033,54.993905186900506],[36.87210879264783,54.984387342877184],[36.88638555868263,54.97486949885386],[36.89352394170004,54.958213271813314],[36.859021757115144,54.954644080303325],[36.823329842028045,54.91895216521605],[36.75551520336179,54.888019172140964],[36.748376820344475,54.867793753591314],[36.754325472858966,54.83329156900616],[36.735289784812494,54.80473803693619],[36.76622277788793,54.807117497942286],[36.77098169989959,54.797599653918965],[36.76503304738502,54.788081809895644],[36.745997359338645,54.77618450486623],[36.732910323806756,54.74882070329936],[36.75313574235605,54.74644124229326],[36.77098169989959,54.727405554246616],[36.81619145901064,54.70955959670298],[36.82214011152513,54.671488220609696],[36.763843316882195,54.66078064608426],[36.748376820344475,54.63817576652852],[36.761463855876364,54.61795034797976],[36.80072496247292,54.61557088697286],[36.817381189513554,54.591776276915894],[36.79120711844889,54.55965355333683],[36.82570930303378,54.54537678730051],[36.8423655300745,54.53110002126597],[36.84831418258899,54.513254063723224],[36.87448825365357,54.48470053165326],[36.90066232471744,54.45971619109151],[36.9196980127639,54.45614699958241],[36.96252831086912,54.46090592159362],[36.99940995645913,54.46804430461272]]]]}},{"type":"Feature","properties":{"kind":"district","id":"uyezd-1897-278","name":"Калужский","provinceId":"kaluga"},"geometry":{"type":"MultiPolygon","coordinates":[[[[36.735289784812494,54.80473803693619],[36.69483894771302,54.80354830643408],[36.674613529163736,54.8094969589483],[36.656767571620186,54.80473803693619],[36.62464484804103,54.805927767440174],[36.628214039549775,54.82139426397683],[36.56396859239236,54.82853264699592],[36.53779452132849,54.79640992341685],[36.49972314523477,54.79878938442286],[36.46046203863901,54.79403046241076],[36.46165176914192,54.769046121849],[36.44499554210129,54.751200164306255],[36.428339315059944,54.752389894808374],[36.434287967574434,54.77380504386111],[36.41763174053379,54.77856396587232],[36.3890782084641,54.7702358523529],[36.36409386790244,54.767856391346],[36.323643030803765,54.74287205078505],[36.30222788175076,54.73811312877383],[36.28438192420721,54.741682320282045],[36.24869000912011,54.73811312877383],[36.20704944151781,54.751200164306255],[36.19039321447718,54.74644124229326],[36.17730617894529,54.75833854732268],[36.16540887391545,54.760718008329604],[36.14518345536612,54.7476309727972],[36.12852722832554,54.7476309727972],[36.11068127078198,54.7428720507869],[36.066661242173836,54.7476309727972],[36.02383094406861,54.750010433804164],[36.046435823624506,54.72026717122935],[36.05119474563611,54.70242121368665],[36.02145148306357,54.696472561171504],[35.984569837472804,54.69052390865636],[35.935790886853056,54.675057412118804],[35.926273042830644,54.65483199356913],[35.93222169534437,54.639365497032486],[35.94948013165212,54.62705203112638],[35.94948013165212,54.612775265092736],[35.97922339422544,54.602067690566415],[36.00182827378057,54.578273080506776],[36.06250452942933,54.57351415849645],[36.07678129546413,54.55566820095192],[36.10057590552226,54.5532887399468],[36.10771428853966,54.54496062642559],[36.13150889859841,54.54020170441349],[36.13150889859841,54.51878655536164],[36.123180785078176,54.503320058823206],[36.13507809010716,54.47833571826234],[36.11961159356943,54.4521616471975],[36.12556024608401,54.431936228648745],[36.149354856141954,54.44621299468328],[36.24334356587199,54.44502326418028],[36.27427655894823,54.416469732110315],[36.31948631805856,54.38315727802913],[36.37421392119283,54.38672646953726],[36.38492149571889,54.39386485255546],[36.39562907024584,54.38315727802913],[36.41704421929805,54.37839835601703],[36.4491669428764,54.365311320486384],[36.46582316991783,54.366501050988504],[36.493186971484526,54.37720862551394],[36.50389454601067,54.37363943400581],[36.52293023405705,54.37363943400581],[36.53958646109848,54.379588086520926],[36.549104305121716,54.366501050988504],[36.56100161015078,54.362931859480376],[36.569329723671004,54.353414015457055],[36.55981187964787,54.33318859690732],[36.57884756769424,54.33794751891854],[36.59669352523779,54.35222428495396],[36.600262716746535,54.365311320486384],[36.61334975227922,54.3724497035037],[36.62762651831403,54.37363943400581],[36.63714436233726,54.365311320486384],[36.674026007927985,54.37720862551394],[36.671646546921444,54.39386485255546],[36.683543851951214,54.39386485255546],[36.69425142647728,54.37839835601703],[36.71804603653531,54.37720862551394],[36.803706632745026,54.3724497035037],[36.84296773934158,54.37839835601703],[36.8727110019142,54.38434700853303],[36.897695342475856,54.379588086520926],[36.913161839013576,54.40219296607577],[36.946474293094845,54.39505458305757],[36.98811486069714,54.41884919311632],[37.00358135723495,54.440264342169954],[36.99940995645913,54.46804430461272],[36.96252831086912,54.46090592159362],[36.9196980127639,54.45614699958241],[36.90066232471744,54.45971619109151],[36.87448825365357,54.48470053165326],[36.84831418258899,54.513254063723224],[36.8423655300745,54.53110002126597],[36.82570930303378,54.54537678730051],[36.79120711844889,54.55965355333683],[36.817381189513554,54.591776276915894],[36.80072496247292,54.61557088697286],[36.761463855876364,54.61795034797976],[36.748376820344475,54.63817576652852],[36.763843316882195,54.66078064608426],[36.82214011152513,54.671488220609696],[36.81619145901064,54.70955959670298],[36.77098169989959,54.727405554246616],[36.75313574235605,54.74644124229326],[36.732910323806756,54.74882070329936],[36.745997359338645,54.77618450486623],[36.76503304738502,54.788081809895644],[36.77098169989959,54.797599653918965],[36.76622277788793,54.807117497942286],[36.735289784812494,54.80473803693619]]]]}},{"type":"Feature","properties":{"kind":"district","id":"uyezd-1897-279","name":"Перемышльский","provinceId":"kaluga"},"geometry":{"type":"MultiPolygon","coordinates":[[[[35.829904872094005,54.60605304295132],[35.79719462727907,54.60682661257763],[35.774589747724036,54.57232442799247],[35.75436432917386,54.55566820095192],[35.72105187509259,54.53663251290528],[35.71034430056653,54.511648172344415],[35.70558537855487,54.47952544876624],[35.73889783263614,54.47952544876624],[35.73889783263614,54.431936228648745],[35.7436567546478,54.39029566104636],[35.753174598670945,54.35222428495396],[35.74722594615646,54.3224810223801],[35.71629295308102,54.31058371735158],[35.69249834302298,54.295117220814035],[35.72462106660134,54.264184227737175],[35.72462106660134,54.25228692270865],[35.72581079710425,54.24514853969053],[35.760312981688436,54.24752800069654],[35.772210286718206,54.2391998871772],[35.77696920872978,54.21778473812357],[35.796004896776246,54.20826689410025],[35.81028166281105,54.214215546615364],[35.847163308401775,54.215405277117476],[35.85430169141918,54.209456624604144],[35.853111960916266,54.20469770259204],[35.83050708136043,54.20231824158603],[35.8352660033728,54.18328255354028],[35.83288654236697,54.17376470951696],[35.847163308401775,54.17376470951696],[35.86857845745398,54.15948794348064],[35.88404495399179,54.15948794348064],[35.89951145052951,54.148780368955116],[35.88761414550045,54.12022683688515],[35.88166549298596,54.097621957329494],[35.931634174108574,54.08096573028887],[35.97089528070442,54.06906842525953],[36.01610503981546,54.071447886265545],[36.05536614641201,54.07620680827676],[36.09700671401352,54.06906842525953],[36.11009374954549,54.07501707777375],[36.12912943759267,54.09286303531828],[36.13031916809558,54.11070899286183],[36.12199105457526,54.13688306392579],[36.118421863066516,54.15710848247454],[36.13626782061007,54.18090309253418],[36.15530350865653,54.197559319574815],[36.173149466199995,54.20469770259204],[36.16601108318268,54.21778473812357],[36.16958027469134,54.2284923126499],[36.192185154247255,54.22730258214689],[36.215979764305295,54.23444096516412],[36.237394913357505,54.24633827019443],[36.25048194888948,54.24157934818321],[36.26832790643374,54.25228692270865],[36.27427655894823,54.23682042617111],[36.29807116900626,54.23682042617111],[36.31710685705273,54.24157934818321],[36.32424524007093,54.26061503622896],[36.3504193111348,54.27251234125829],[36.394439339742924,54.28440964628771],[36.418233949800964,54.31177344785467],[36.44678748187066,54.3153426393628],[36.48842804947296,54.30939398684768],[36.52293023405705,54.30344533433346],[36.55981187964787,54.33318859690732],[36.569329723671004,54.353414015457055],[36.56100161015078,54.362931859480376],[36.549104305121716,54.366501050988504],[36.53958646109848,54.379588086520926],[36.52293023405705,54.37363943400581],[36.50389454601067,54.37363943400581],[36.493186971484526,54.37720862551394],[36.46582316991783,54.366501050988504],[36.4491669428764,54.365311320486384],[36.41704421929805,54.37839835601703],[36.39562907024584,54.38315727802913],[36.38492149571889,54.39386485255546],[36.37421392119283,54.38672646953726],[36.31948631805856,54.38315727802913],[36.27427655894823,54.416469732110315],[36.24334356587199,54.44502326418028],[36.149354856141954,54.44621299468328],[36.12556024608401,54.431936228648745],[36.11961159356943,54.4521616471975],[36.13507809010716,54.47833571826234],[36.123180785078176,54.503320058823206],[36.13150889859841,54.51878655536164],[36.13150889859841,54.54020170441349],[36.10771428853966,54.54496062642559],[36.10057590552226,54.5532887399468],[36.07678129546413,54.55566820095192],[36.06250452942933,54.57351415849645],[36.00182827378057,54.578273080506776],[35.97922339422544,54.602067690566415],[35.94948013165212,54.612775265092736],[35.94948013165212,54.62705203112638],[35.93222169534437,54.639365497032486],[35.89177085824491,54.61200169546464],[35.829904872094005,54.60605304295132]]]]}},{"type":"Feature","properties":{"kind":"district","id":"uyezd-1897-280","name":"Козельский","provinceId":"kaluga"},"geometry":{"type":"MultiPolygon","coordinates":[[[[35.72462106660134,54.25228692270865],[35.67651776540303,54.251728777533586],[35.634877197801174,54.24934931652936],[35.58847770818748,54.242210933510265],[35.57658040315806,54.22912389797962],[35.57658040315806,54.21484713194331],[35.56468309812945,54.204139557417875],[35.54921660159128,54.20294982691487],[35.52661172203554,54.21841632345241],[35.50876576449181,54.21841632345241],[35.50043765097194,54.216036862446316],[35.490919806948085,54.201760096412755],[35.47188411890188,54.198190904903655],[35.46593546638687,54.180344947359124],[35.44214085632874,54.156550337300374],[35.42072570727627,54.13632491875251],[35.3790851396745,54.110150847686775],[35.339824033078216,54.08992542913802],[35.31840888402574,54.080407585113804],[35.31959861452893,54.06851028008528],[35.30770130949951,54.055423244553836],[35.29223481296134,54.05899243606294],[35.24345586234209,54.035197826004186],[35.213712599768854,54.00902375494023],[35.24345586234209,53.974521570356046],[35.27795804692627,53.968572917839964],[35.29937319597883,53.94477830778308],[35.31840888402574,53.93288100275277],[35.34339322458696,53.92098369772433],[35.335065111066285,53.90432747068281],[35.32197807553449,53.881722591127065],[35.33149591955754,53.87101501660163],[35.345772685592614,53.89005070464738],[35.37313648716011,53.89005070464738],[35.39098244470384,53.886481513140055],[35.392172175206305,53.85673825056709],[35.36123918213069,53.83770256252045],[35.40406948023572,53.802010647433264],[35.45284843085498,53.82223606598202],[35.483781423930594,53.82223606598202],[35.509955494995,53.816287413466824],[35.5349398355563,53.81747714396991],[35.54921660159128,53.811528491455604],[35.536129566059394,53.790113342402954],[35.5289911830419,53.75799061882478],[35.543267949076885,53.740144661280254],[35.556354984608774,53.721108973234585],[35.55873444561425,53.703263015690055],[35.57658040315806,53.69374517166763],[35.58609824718192,53.68065813613431],[35.58371878617555,53.63187918551648],[35.609892857239956,53.61998188048618],[35.62179016226938,53.591428348416215],[35.609892857239956,53.55692616383203],[35.595616091204974,53.53551101477929],[35.57777013366125,53.52480344025385],[35.57658040315806,53.51290613522363],[35.55992417611752,53.503388291201205],[35.561113906620704,53.491490986170895],[35.607513396234395,53.46888610661702],[35.655102616350554,53.45936826259272],[35.69198426194119,53.48078341164546],[35.72648644652546,53.46531691510792],[35.72648644652546,53.44271203555218],[35.79192162418615,53.435573652533975],[35.79192162418615,53.416537964488306],[35.81214704273545,53.41177904247709],[35.82999300027926,53.418917425494314],[35.85497734084048,53.421296886499434],[35.8668746458699,53.432004461026736],[35.84902868832617,53.43914284404396],[35.826423808770514,53.43319419152796],[35.820475156256116,53.44271203555218],[35.7954908156949,53.4522298795755],[35.76693728362484,53.45936826259272],[35.75503997859552,53.47840395063936],[35.78954216317979,53.481973142147574],[35.81214704273545,53.47721422013636],[35.839510844302225,53.479593681142454],[35.85854653234922,53.498629369189985],[35.84783895782299,53.511716404720545],[35.826423808770514,53.515285596229646],[35.80143946820921,53.51409586572664],[35.797870276700465,53.53670074528238],[35.8085778512267,53.54859805031082],[35.82404434776486,53.559305624838125],[35.832372461284734,53.581910504393775],[35.85973626285241,53.589048887411096],[35.87877195089851,53.61998188048618],[35.90375629145973,53.6390175685337],[35.97514012163473,53.6390175685337],[35.99298607917846,53.62117161098918],[36.00607311471106,53.61403322797196],[36.077456944885256,53.6259305330004],[36.10601047695522,53.6378278380307],[36.12147697349347,53.65210460406435],[36.05961098734153,53.63425864652071],[36.038195838289056,53.64377649054492],[36.023919072254074,53.66281217859068],[36.04771368231282,53.67708894462611],[36.09292344142342,53.6794684056322],[36.09530290242898,53.70445274619306],[36.05009314331848,53.70683220719907],[36.063180178850274,53.75085223580756],[36.03199000666749,53.75530797469039],[36.031571536353184,53.749030919975624],[36.02086396182703,53.727615770922974],[35.97327474171096,53.72404657941387],[35.9697055502015,53.75854876399806],[35.954239053663784,53.76092822500415],[35.93996228762889,53.79424067908711],[35.951859592657954,53.81446609763587],[35.94948013165212,53.84777855171705],[35.92330606058826,53.871573161774904],[35.93877255712597,53.89179858032544],[35.96137743668119,53.904885615857864],[35.96613635869276,53.917972651390286],[35.98517204674002,53.92035211239452],[36.0113461178038,53.941767261447254],[36.0113461178038,53.95723375798569],[35.995879621266084,53.9584234884878],[35.995879621266084,53.97745917653533],[36.006587195792136,54.0095819001144],[36.006587195792136,54.03218677966925],[36.01610503981546,54.071447886265545],[35.97089528070442,54.06906842525953],[35.931634174108574,54.08096573028887],[35.88166549298596,54.097621957329494],[35.88761414550045,54.12022683688515],[35.89951145052951,54.148780368955116],[35.88404495399179,54.15948794348064],[35.86857845745398,54.15948794348064],[35.847163308401775,54.17376470951696],[35.83288654236697,54.17376470951696],[35.8352660033728,54.18328255354028],[35.83050708136043,54.20231824158603],[35.853111960916266,54.20469770259204],[35.85430169141918,54.209456624604144],[35.847163308401775,54.215405277117476],[35.81028166281105,54.214215546615364],[35.796004896776246,54.20826689410025],[35.77696920872978,54.21778473812357],[35.772210286718206,54.2391998871772],[35.760312981688436,54.24752800069654],[35.72581079710425,54.24514853969053],[35.72462106660134,54.25228692270865]]]]}},{"type":"Feature","properties":{"kind":"district","id":"uyezd-1897-281","name":"Мещонский","provinceId":"kaluga"},"geometry":{"type":"MultiPolygon","coordinates":[[[[35.51621195548521,54.688171783049256],[35.48527896240968,54.68698205254625],[35.46981246587126,54.70839720159988],[35.45553569983636,54.711966393108],[35.44363839480739,54.711966393108],[35.42817189826967,54.70244854908468],[35.41865405424643,54.688171783049256],[35.38058267815279,54.67746420852293],[35.40794647972038,54.667946364499606],[35.41984378474935,54.64653121544687],[35.41032594072612,54.64058256293353],[35.39485944418769,54.63701337142443],[35.36511618161508,54.64534148494386],[35.325855075018524,54.64177229343565],[35.299681003954746,54.63939283242964],[35.30323982011375,54.61519144617523],[35.30205008961093,54.59020710561349],[35.28063494055792,54.59615575812771],[35.267547905026035,54.59258656661949],[35.27111709653469,54.575930339578946],[35.262788983014374,54.54737680750898],[35.28182467106083,54.52834111946136],[35.24851221697956,54.50692597041049],[35.222338145914904,54.50692597041049],[35.21282030189175,54.48789028236385],[35.20806137988009,54.46290594180209],[35.19021542233655,54.43435240973125],[35.14262620221976,54.428403757217026],[35.114072670150065,54.40698860816517],[35.03317099595192,54.420075643697594],[34.99747908086411,54.423644835205806],[34.97844339281765,54.411747530176385],[34.952269321753874,54.423644835205806],[34.89873144912251,54.41650645218849],[34.8273476189476,54.410557799673384],[34.76072271078435,54.40698860816517],[34.750015136258206,54.39628103363796],[34.773809746316246,54.38914265062064],[34.792845434362704,54.37486588458611],[34.79165570385979,54.35464046603735],[34.75834324977852,54.35820965754556],[34.69528753312393,54.32370747296049],[34.71789241267905,54.29872313240051],[34.77975839883073,54.28920528837719],[34.7702405548075,54.25113391228293],[34.79165570385979,54.24280579876172],[34.81782977492437,54.19997550065732],[34.821398966433115,54.16785277707825],[34.89754171861959,54.17261169909124],[34.92133632867763,54.165473316074014],[34.97606393181191,54.15238628054071],[35.01413530790555,54.12383274847163],[35.072432102547765,54.12383274847163],[35.09027806009203,54.109555982435225],[35.08551913808046,54.09289975539468],[35.079570485565085,54.06672568433082],[35.14024674121393,54.05839757081139],[35.15571323775245,54.026274847231434],[35.187835961330805,54.01080835069478],[35.213712599768854,54.00902375494023],[35.24345586234209,54.035197826004186],[35.29223481296134,54.05899243606294],[35.30770130949951,54.055423244553836],[35.31959861452893,54.06851028008528],[35.31840888402574,54.080407585113804],[35.339824033078216,54.08992542913802],[35.3790851396745,54.110150847686775],[35.42072570727627,54.13632491875251],[35.44214085632874,54.156550337300374],[35.46593546638687,54.180344947359124],[35.47188411890188,54.198190904903655],[35.490919806948085,54.201760096412755],[35.50043765097194,54.216036862446316],[35.50876576449181,54.21841632345241],[35.52661172203554,54.21841632345241],[35.54921660159128,54.20294982691487],[35.56468309812945,54.204139557417875],[35.57658040315806,54.21484713194331],[35.57658040315806,54.22912389797962],[35.58847770818748,54.242210933510265],[35.634877197801174,54.24934931652936],[35.67651776540303,54.251728777533586],[35.72462106660134,54.25228692270865],[35.72462106660134,54.264184227737175],[35.69249834302298,54.295117220814035],[35.71629295308102,54.31058371735158],[35.74722594615646,54.3224810223801],[35.753174598670945,54.35222428495396],[35.7436567546478,54.39029566104636],[35.73889783263614,54.431936228648745],[35.73889783263614,54.47952544876624],[35.70558537855487,54.47952544876624],[35.71034430056653,54.511648172344415],[35.72105187509259,54.53663251290528],[35.75436432917386,54.55566820095192],[35.774589747724036,54.57232442799247],[35.79719462727907,54.60682661257763],[35.829904872094005,54.60605304295132],[35.812058914550505,54.62746819200311],[35.772797807953964,54.64412441904369],[35.73829562336903,54.620329808985844],[35.71093182180226,54.641744958037634],[35.72877777934576,54.661970376586396],[35.70260370828271,54.684575256142125],[35.678809098223894,54.684575256142125],[35.65501448816508,54.705990405194825],[35.58244092748731,54.70361094418877],[35.593148502013435,54.68100606463304],[35.56221550893798,54.67624714262274],[35.524144132845095,54.67981633413092],[35.51621195548521,54.688171783049256]]]]}},{"type":"Feature","properties":{"kind":"district","id":"uyezd-1897-282","name":"Мосальский","provinceId":"kaluga"},"geometry":{"type":"MultiPolygon","coordinates":[[[[34.18847271423181,54.70244854908468],[34.184903522723154,54.69174097455746],[34.21226732428985,54.684602591540155],[34.22535435982253,54.6631874424875],[34.23487220384577,54.64534148494386],[34.25271816138932,54.63701337142443],[34.27651277144736,54.63582364092054],[34.284840884968474,54.62630579689722],[34.27532304094444,54.61797768337779],[34.22892355133128,54.62273660538901],[34.21821597680513,54.61321876136569],[34.16586783467669,54.606080378348466],[34.144452685624486,54.598941995331145],[34.13017591958888,54.60489064784635],[34.10757104003376,54.58704469030093],[34.092104543496035,54.58347549879272],[34.05641262840814,54.56562954125006],[34.03380774885302,54.576337115775495],[33.9481471526433,54.588234420803936],[33.91840389006998,54.57752684627761],[33.92197308157873,54.55016304471154],[33.86843520894808,54.50019436358981],[33.81727679732255,54.447846221460125],[33.762549194188274,54.42167215039626],[33.73518539262149,54.438328377436804],[33.69711401652794,54.42643107240836],[33.678078328481476,54.3978775403384],[33.6864064420018,54.365754816759335],[33.695924286025026,54.362185625251215],[33.688785903007535,54.340770476197584],[33.69235509451628,54.3026991001043],[33.631678838867515,54.293181256081866],[33.631678838867515,54.277714759544324],[33.601935576294906,54.26938664602312],[33.61145342031823,54.25273041898257],[33.5805204272419,54.25867907149679],[33.557915547686775,54.267007185018],[33.54958743416646,54.24916122747347],[33.49248037002636,54.24083311395404],[33.47701387348864,54.19681308534565],[33.46392683795675,54.18967470232833],[33.47225495147707,54.17777739729901],[33.49010090902061,54.16350063126447],[33.53531066813166,54.15636224824725],[33.57814096623607,54.124239524668184],[33.629299377861685,54.115911411146975],[33.674498761622374,54.13335059249495],[33.70424202419569,54.14286843651827],[33.76372854934154,54.14881708903161],[33.78752315939958,54.15952466355882],[33.81250749996053,54.165473316074014],[33.825594535493224,54.17737062110157],[33.84819941504843,54.178560351604574],[33.85295833706,54.186888465125776],[33.91601405371459,54.194026848143004],[33.95170596880169,54.1987857701552],[34.02784872098809,54.194026848143004],[34.04450494802952,54.185698734621795],[34.07305848009922,54.189267926131876],[34.09447362915142,54.21068307518364],[34.13016554423932,54.201165231161205],[34.15871907630893,54.201165231161205],[34.176565033853194,54.201165231161205],[34.176565033853194,54.21425226669176],[34.15039096278861,54.21901118870484],[34.15039096278861,54.22733930222418],[34.18251368636768,54.22852903272816],[34.214636409946124,54.2392366072536],[34.2479488640281,54.255892834294144],[34.287209970623856,54.24518525976871],[34.32409161621458,54.24280579876172],[34.370491105827824,54.263031217311465],[34.40975221242438,54.263031217311465],[34.432357091979505,54.266600408821446],[34.44187493600273,54.268979869826566],[34.43830574449399,54.25232364278504],[34.45734143254117,54.22495984121906],[34.48232577310212,54.21901118870484],[34.4954128086341,54.22377011071508],[34.52515607120742,54.20473442266844],[34.55489933377994,54.1987857701552],[34.57036583031766,54.185698734621795],[34.59297070987358,54.179750082108555],[34.652457235018716,54.17737062110157],[34.688149150106526,54.15476574154671],[34.711943760164566,54.1535760110446],[34.76429190229301,54.15714520255281],[34.821398966433115,54.16785277707825],[34.81782977492437,54.19997550065732],[34.79165570385979,54.24280579876172],[34.7702405548075,54.25113391228293],[34.77975839883073,54.28920528837719],[34.71789241267905,54.29872313240051],[34.69528753312393,54.32370747296049],[34.75834324977852,54.35820965754556],[34.79165570385979,54.35464046603735],[34.792845434362704,54.37486588458611],[34.773809746316246,54.38914265062064],[34.750015136258206,54.39628103363796],[34.76072271078435,54.40698860816517],[34.8273476189476,54.410557799673384],[34.89873144912251,54.41650645218849],[34.952269321753874,54.423644835205806],[34.97844339281765,54.411747530176385],[34.99747908086411,54.423644835205806],[35.03317099595192,54.420075643697594],[35.114072670150065,54.40698860816517],[35.14262620221976,54.428403757217026],[35.19021542233655,54.43435240973125],[35.20806137988009,54.46290594180209],[35.21282030189175,54.48789028236385],[35.222338145914904,54.50692597041049],[35.24851221697956,54.50692597041049],[35.28182467106083,54.52834111946136],[35.262788983014374,54.54737680750898],[35.27111709653469,54.575930339578946],[35.267547905026035,54.59258656661949],[35.28063494055792,54.59615575812771],[35.30205008961093,54.59020710561349],[35.30323982011375,54.61519144617523],[35.299681003954746,54.63939283242964],[35.2746966633937,54.664377172991394],[35.24138420931172,54.68698205254625],[35.16286199611941,54.68222313053414],[35.137877655558455,54.678653939026816],[35.121221428517025,54.68222313053414],[35.102185740470645,54.676274478020815],[35.08671924393293,54.67270528651082],[35.07839113041261,54.66080798148229],[35.06530409488063,54.654859328967184],[35.064114364377716,54.63225444941233],[35.04745813733638,54.64534148494386],[35.02842244929,54.65247986796295],[34.99629972571155,54.688171783049256],[34.96893592414406,54.7155355846171],[34.94157212257737,54.73576100316586],[34.92491589553664,54.73338154215976],[34.92372616503373,54.7179150456232],[34.9011212854779,54.711966393108],[34.89398290246049,54.72386369813644],[34.89279317195758,54.73695073366984],[34.8654293703908,54.73933019467496],[34.833306646811735,54.73933019467496],[34.82497853329133,54.71315612361012],[34.80594284524496,54.710776662604104],[34.80356338423921,54.720294506627425],[34.77619958267243,54.72267396763432],[34.757163894625165,54.72148423713132],[34.703626021993806,54.72743288964652],[34.70005683048506,54.70244854908468],[34.688159525456086,54.68936151355324],[34.66555464590097,54.679843669529916],[34.61082704276669,54.670325825505614],[34.58465297170282,54.69412043556348],[34.55966863114107,54.685792322044136],[34.52754590756281,54.683412861038036],[34.50732048901342,54.688171783049256],[34.48947453146908,54.68222313053414],[34.46924911291978,54.68222313053414],[34.462110729902385,54.69649989656957],[34.471628573925614,54.72267396763432],[34.43950585034726,54.71434585411312],[34.403813935259365,54.70006908807867],[34.369311750675266,54.688171783049256],[34.34075821860486,54.68698205254625],[34.278892232453096,54.69412043556348],[34.21821597680513,54.70601774059378],[34.18847271423181,54.70244854908468]]]]}},{"type":"Feature","properties":{"kind":"district","id":"uyezd-1897-283","name":"Жиздринский","provinceId":"kaluga"},"geometry":{"type":"MultiPolygon","coordinates":[[[[34.821398966433115,54.16785277707825],[34.76429190229301,54.15714520255281],[34.711943760164566,54.1535760110446],[34.688149150106526,54.15476574154671],[34.652457235018716,54.17737062110157],[34.59297070987358,54.179750082108555],[34.57036583031766,54.185698734621795],[34.55489933377994,54.1987857701552],[34.52515607120742,54.20473442266844],[34.4954128086341,54.22377011071508],[34.48232577310212,54.21901118870484],[34.45734143254117,54.22495984121906],[34.43830574449399,54.25232364278504],[34.44187493600273,54.268979869826566],[34.432357091979505,54.266600408821446],[34.40975221242438,54.263031217311465],[34.370491105827824,54.263031217311465],[34.32409161621458,54.24280579876172],[34.287209970623856,54.24518525976871],[34.2479488640281,54.255892834294144],[34.214636409946124,54.2392366072536],[34.18251368636768,54.22852903272816],[34.15039096278861,54.22733930222418],[34.15039096278861,54.21901118870484],[34.176565033853194,54.21425226669176],[34.176565033853194,54.201165231161205],[34.15871907630893,54.201165231161205],[34.13016554423932,54.201165231161205],[34.09447362915142,54.21068307518364],[34.07305848009922,54.189267926131876],[34.04450494802952,54.185698734621795],[34.02784872098809,54.194026848143004],[33.95170596880169,54.1987857701552],[33.91601405371459,54.194026848143004],[33.85295833706,54.186888465125776],[33.84819941504843,54.178560351604574],[33.825594535493224,54.17737062110157],[33.81250749996053,54.165473316074014],[33.78752315939958,54.15952466355882],[33.76372854934154,54.14881708903161],[33.70424202419569,54.14286843651827],[33.674498761622374,54.13335059249495],[33.629299377861685,54.115911411146975],[33.637627491382005,54.10163464511244],[33.631678838867515,54.08140922656368],[33.61903707134787,54.07091649118409],[33.640452220400874,54.047121881124454],[33.66543656096182,54.02927592358171],[33.67634945351651,54.0349995375873],[33.765579241234875,54.033809807084296],[33.75963058872039,54.00525627501433],[33.74178463117684,54.00406654451035],[33.740594900673926,53.99216923948191],[33.729887326147065,53.97789247344649],[33.73107705664998,53.964805437914066],[33.74416409218267,53.950528671879525],[33.814358191854666,53.957667054896746],[33.83339387990104,53.954097863388625],[33.829824688392385,53.9362519058441],[33.83577334090687,53.91245729578624],[33.85956795096491,53.91840594830135],[33.88693175253249,53.91007783478014],[33.90001878806438,53.87438591969384],[33.94522854717462,53.870816728183854],[33.96783342673054,53.887472955224396],[34.00590480282338,53.895801068745605],[34.05587348394609,53.88866268572838],[34.127257314120996,53.89104214673448],[34.142723810658715,53.91007783478014],[34.158190307196435,53.91007783478014],[34.183174647758186,53.943390288863185],[34.24147144240112,53.84940157913209],[34.28668120151136,53.85059130963421],[34.29262985402593,53.83393508259455],[34.28430174050562,53.791104784490045],[34.29738877603751,53.77444855744852],[34.360444492692096,53.70782364928439],[34.37829045023645,53.69116742224375],[34.39375694677417,53.68759823073563],[34.42231047884378,53.70425445777617],[34.431828322867005,53.69592634425683],[34.40208506029448,53.66618308168289],[34.38542883325376,53.634060358103824],[34.38423910275085,53.59479925150754],[34.39494667727699,53.5840916769821],[34.38899802476251,53.562676527930336],[34.396136407779906,53.51151811630463],[34.435397514375666,53.479395392725564],[34.48655592600129,53.47106727920436],[34.52581703259775,53.44608293864439],[34.584113827239975,53.417529406574424],[34.63765169987133,53.404442371042],[34.65430792691197,53.405632101544114],[34.667394962444654,53.39373479651479],[34.73639933161373,53.39373479651479],[34.74115825362539,53.35209422891418],[34.78398855172989,53.34614557639907],[34.8125420838003,53.35090449841029],[34.86251076492212,53.35447368991841],[34.90296160202159,53.38897587450357],[34.961258396664604,53.38897587450357],[34.973155701693585,53.38183749148723],[35.013606538793056,53.37826829997813],[35.023124382816285,53.337817462877865],[35.080231446956304,53.325920157848444],[35.080231446956304,53.33424827136965],[35.10997470952891,53.34971476790817],[35.11116444003174,53.36518126444483],[35.13614878059269,53.39492452701868],[35.14685635511964,53.400873179533875],[35.14804608562255,53.41396021506532],[35.16351258216027,53.415149945568416],[35.18254827020665,53.406821832047214],[35.193255844732796,53.405632101544114],[35.212291532779176,53.39016560500657],[35.21824018529455,53.38064776098325],[35.23013749032352,53.371129916960825],[35.22775802931769,53.38183749148723],[35.26701913591344,53.37945803048025],[35.27462415494432,53.382072255772044],[35.305090512007176,53.39254506601267],[35.34078242709418,53.410391023557196],[35.38599218620523,53.412770484561435],[35.469273321409204,53.42942671160384],[35.50020631448544,53.427047250597745],[35.53113930756079,53.44608293864439],[35.54779553460142,53.43775482512318],[35.55255445661308,53.46511862669014],[35.55493391761891,53.484154314736784],[35.561113906620704,53.491490986170895],[35.55992417611752,53.503388291201205],[35.57658040315806,53.51290613522363],[35.57777013366125,53.52480344025385],[35.595616091204974,53.53551101477929],[35.609892857239956,53.55692616383203],[35.62179016226938,53.591428348416215],[35.609892857239956,53.61998188048618],[35.58371878617555,53.63187918551648],[35.58609824718192,53.68065813613431],[35.57658040315806,53.69374517166763],[35.55873444561425,53.703263015690055],[35.556354984608774,53.721108973234585],[35.543267949076885,53.740144661280254],[35.5289911830419,53.75799061882478],[35.536129566059394,53.790113342402954],[35.54921660159128,53.811528491455604],[35.5349398355563,53.81747714396991],[35.509955494995,53.816287413466824],[35.483781423930594,53.82223606598202],[35.45284843085498,53.82223606598202],[35.40406948023572,53.802010647433264],[35.36123918213069,53.83770256252045],[35.392172175206305,53.85673825056709],[35.39098244470384,53.886481513140055],[35.37313648716011,53.89005070464738],[35.345772685592614,53.89005070464738],[35.33149591955754,53.87101501660163],[35.32197807553449,53.881722591127065],[35.335065111066285,53.90432747068281],[35.34339322458696,53.92098369772433],[35.31840888402574,53.93288100275277],[35.29937319597883,53.94477830778308],[35.27795804692627,53.968572917839964],[35.24345586234209,53.974521570356046],[35.213712599768854,54.00902375494023],[35.187835961330805,54.01080835069478],[35.15571323775245,54.026274847231434],[35.14024674121393,54.05839757081139],[35.079570485565085,54.06672568433082],[35.08551913808046,54.09289975539468],[35.09027806009203,54.109555982435225],[35.072432102547765,54.12383274847163],[35.01413530790555,54.12383274847163],[34.97606393181191,54.15238628054071],[34.92133632867763,54.165473316074014],[34.89754171861959,54.17261169909124],[34.821398966433115,54.16785277707825]]]]}},{"type":"Feature","properties":{"kind":"district","id":"uyezd-1897-747","name":"Малоярославский","provinceId":"kaluga"},"geometry":{"type":"MultiPolygon","coordinates":[[[[36.11068127078198,54.92728027873727],[36.10354288776455,54.88563971113672],[36.10473261826667,54.848758065544644],[36.1392348028524,54.82972237749982],[36.166598604419164,54.80830722844621],[36.16540887391545,54.760718008329604],[36.17730617894529,54.75833854732268],[36.19039321447718,54.74644124229326],[36.20704944151781,54.751200164306255],[36.24869000912011,54.73811312877383],[36.28438192420721,54.741682320282045],[36.30222788175076,54.73811312877383],[36.323643030803765,54.74287205078505],[36.36409386790244,54.767856391346],[36.3890782084641,54.7702358523529],[36.41763174053379,54.77856396587232],[36.434287967574434,54.77380504386111],[36.428339315059944,54.752389894808374],[36.44499554210129,54.751200164306255],[36.46165176914192,54.769046121849],[36.46046203863901,54.79403046241076],[36.49972314523477,54.79878938442286],[36.53779452132849,54.79640992341685],[36.56396859239236,54.82853264699592],[36.628214039549775,54.82139426397683],[36.62464484804103,54.805927767440174],[36.656767571620186,54.80473803693619],[36.674613529163736,54.8094969589483],[36.69483894771302,54.80354830643408],[36.735289784812494,54.80473803693619],[36.754325472858966,54.83329156900616],[36.748376820344475,54.867793753591314],[36.75551520336179,54.888019172140964],[36.823329842028045,54.91895216521605],[36.859021757115144,54.954644080303325],[36.89352394170004,54.958213271813314],[36.88638555868263,54.97486949885386],[36.87210879264783,54.984387342877184],[36.84474499108033,54.993905186900506],[36.84593472158316,55.041494407016216],[36.82214011152513,55.061719825565866],[36.79834550146709,55.07123766958919],[36.699597869724684,55.08194524411649],[36.69126975620437,55.09741174065314],[36.64487026659042,55.10455012367223],[36.632972961561435,55.09384254914582],[36.58895293295402,55.0843247051225],[36.54017398233424,55.0867041661277],[36.49734368422902,55.075996591601296],[36.46165176914192,55.0831349746186],[36.439046889586095,55.07242740009317],[36.37242198142356,55.08194524411649],[36.343868449353145,55.065289017075855],[36.329591683318256,55.04863279003531],[36.31412518678053,55.00580249192903],[36.29271003772753,55.00104356991781],[36.2558283921376,54.984387342877184],[36.23322351258239,54.94155704477268],[36.19277267548301,54.93798785326269],[36.17373698743654,54.92133162622214],[36.136855341845816,54.93798785326269],[36.11068127078198,54.92728027873727]]]]}},{"type":"Feature","properties":{"kind":"district","id":"uyezd-1897-749","name":"Лихвинский","provinceId":"kaluga"},"geometry":{"type":"MultiPolygon","coordinates":[[[[36.356367963649284,53.908454807366965],[36.40871610577773,53.93343914792694],[36.457495056396716,53.959613218990896],[36.51460212053682,53.95604402748357],[36.538396730595565,53.9584234884878],[36.54196592210431,53.975079715529326],[36.56576053216235,53.98340782904964],[36.580037298197155,53.972700254524206],[36.597883255740705,53.971510524020225],[36.61334975227922,53.981028368043546],[36.64071355384591,54.03218677966925],[36.659749241892385,54.07858626928285],[36.693061695974365,54.08572465230008],[36.73589199407886,54.08810411330617],[36.77872229218407,54.10000141833551],[36.82512178179812,54.123796028393365],[36.85010612235898,54.152349560464216],[36.84296773934158,54.17852363152817],[36.83107043431261,54.17257497901298],[36.817983398780626,54.176144170521184],[36.80608609375086,54.16424686549364],[36.75849687363478,54.15591875197243],[36.71209738402082,54.14997009945732],[36.67759519943664,54.152349560464216],[36.71328711452374,54.17852363152817],[36.78467094469865,54.18328255354028],[36.79299905821897,54.1904209365575],[36.8096552852596,54.22611285164478],[36.8441574698445,54.22611285164478],[36.87390073241702,54.22968204315388],[36.90007480348169,54.24276907868533],[36.91078237800784,54.27489180226439],[36.939335910077446,54.28440964628771],[36.95480240661596,54.30225560383046],[36.977407286171086,54.29273775980714],[36.98930459120005,54.304635064837356],[36.9928737827088,54.3224810223801],[36.9857353996914,54.33913724942065],[36.96669971164502,54.34032697992463],[36.958371598124614,54.35698320696518],[36.977407286171086,54.3724497035037],[36.99049432170297,54.40100323557366],[36.98811486069714,54.41884919311632],[36.946474293094845,54.39505458305757],[36.913161839013576,54.40219296607577],[36.897695342475856,54.379588086520926],[36.8727110019142,54.38434700853303],[36.84296773934158,54.37839835601703],[36.803706632745026,54.3724497035037],[36.71804603653531,54.37720862551394],[36.69425142647728,54.37839835601703],[36.683543851951214,54.39386485255546],[36.671646546921444,54.39386485255546],[36.674026007927985,54.37720862551394],[36.63714436233726,54.365311320486384],[36.62762651831403,54.37363943400581],[36.61334975227922,54.3724497035037],[36.600262716746535,54.365311320486384],[36.59669352523779,54.35222428495396],[36.57884756769424,54.33794751891854],[36.55981187964787,54.33318859690732],[36.52293023405705,54.30344533433346],[36.48842804947296,54.30939398684768],[36.44678748187066,54.3153426393628],[36.418233949800964,54.31177344785467],[36.394439339742924,54.28440964628771],[36.3504193111348,54.27251234125829],[36.32424524007093,54.26061503622896],[36.31710685705273,54.24157934818321],[36.29807116900626,54.23682042617111],[36.27427655894823,54.23682042617111],[36.26832790643374,54.25228692270865],[36.25048194888948,54.24157934818321],[36.237394913357505,54.24633827019443],[36.215979764305295,54.23444096516412],[36.192185154247255,54.22730258214689],[36.16958027469134,54.2284923126499],[36.16601108318268,54.21778473812357],[36.173149466199995,54.20469770259204],[36.15530350865653,54.197559319574815],[36.13626782061007,54.18090309253418],[36.118421863066516,54.15710848247454],[36.12199105457526,54.13688306392579],[36.13031916809558,54.11070899286183],[36.12912943759267,54.09286303531828],[36.11009374954549,54.07501707777375],[36.09700671401352,54.06906842525953],[36.05536614641201,54.07620680827676],[36.01610503981546,54.071447886265545],[36.006587195792136,54.03218677966925],[36.006587195792136,54.0095819001144],[35.995879621266084,53.97745917653533],[35.995879621266084,53.9584234884878],[36.0113461178038,53.95723375798569],[36.0113461178038,53.941767261447254],[35.98517204674002,53.92035211239452],[35.96613635869276,53.917972651390286],[35.96137743668119,53.904885615857864],[35.93877255712597,53.89179858032544],[35.92330606058826,53.871573161774904],[35.94948013165212,53.84777855171705],[35.951859592657954,53.81446609763587],[35.93996228762889,53.79424067908711],[35.954239053663784,53.76092822500415],[35.9697055502015,53.75854876399806],[35.97327474171096,53.72404657941387],[36.02086396182703,53.727615770922974],[36.031571536353184,53.749030919975624],[36.03199000666749,53.75530797469039],[36.032761266856006,53.76687687751837],[36.0541764159091,53.76925633852536],[36.06845318194391,53.77639472154259],[36.06131479892642,53.8311223246765],[36.108904019042576,53.84182989920283],[36.10771428853966,53.86324504825548],[36.14816512563904,53.86562450926158],[36.17195973569717,53.87038343127279],[36.17077000519426,53.88228073630212],[36.1386472816159,53.89060884982155],[36.106524558036746,53.89536777183454],[36.149354856141954,53.93462887843092],[36.16720081368551,53.95366456647756],[36.14340620362747,53.98459755955265],[36.189805693241425,53.98340782904964],[36.201702998270406,53.97032079351811],[36.21716949480812,53.961992679996904],[36.22668733883144,53.93462887843092],[36.23263599134593,53.907265076863965],[36.28379440297146,53.907265076863965],[36.3290041620825,53.901316424347876],[36.356367963649284,53.908454807366965]]]]}}]}
