{"type":"FeatureCollection","features":[{"type":"Feature","properties":{"kind":"province","id":"nizhny-novgorod","name":"Нижегородская губерния"},"geometry":{"type":"MultiPolygon","coordinates":[[[[43.933307083343806,54.83973456083],[43.968998998430905,54.80404264574281],[43.92259950881695,54.749315042608984],[43.966619537425075,54.742176659589894],[43.9963627999976,54.73027935456136],[44.020157410056434,54.72789989355536],[44.02134714055935,54.74098692908778],[44.035623906594154,54.748125312105],[44.07012609117905,54.749315042608984],[44.08916177922551,54.77073019165986],[44.11176665878064,54.769540461157746],[44.12961261632419,54.73741773757868],[44.11057692827781,54.71719231902992],[44.1022488147574,54.693397708970195],[44.09273097073426,54.66365444639811],[44.14032019085104,54.64223929734635],[44.16768399241783,54.64699821935668],[44.19980671599618,54.64104956684237],[44.20575536851076,54.611306304269405],[44.24501647510722,54.611306304269405],[44.29498515622993,54.607737112761285],[44.248585666615966,54.58394250270342],[44.21289375152887,54.58513223320554],[44.20456563800784,54.57680411968611],[44.20694509901358,54.532784091077716],[44.2009964464991,54.522076516551394],[44.246206205610136,54.49828190649255],[44.29498515622993,54.46496945241147],[44.308072191761816,54.449502955872944],[44.308072191761816,54.4352261898384],[44.29022623421835,54.40786238827056],[44.31877976628796,54.388826700223916],[44.342574376346,54.369791012178254],[44.36347931500853,54.38031922303435],[44.32540793891552,54.40530356359521],[44.34801281847037,54.429098173653955],[44.370617698026024,54.44932359220458],[44.41106853512541,54.44932359220458],[44.4431912587042,54.4552722447188],[44.47293452127655,54.47668739377154],[44.508626436364096,54.4933436208112],[44.53836969893724,54.501671734331424],[44.57168215301833,54.502861464835405],[44.59785622408273,54.47668739377154],[44.66210167124024,54.4921538903081],[44.73229577091205,54.506430656344506],[44.79297202656082,54.52189715288117],[44.82390501963634,54.49810254282419],[44.84413043818643,54.48620523779388],[44.85920035788994,54.492550467143744],[44.88180523744497,54.49492992814975],[44.90559984750389,54.48065316211344],[44.92225607454444,54.47113531809012],[44.93653284057933,54.47470450959922],[44.95556852862571,54.496119658651864],[45.00315774874258,54.49136073663976],[45.06740319590009,54.49017100613764],[45.094766997466785,54.47113531809012],[45.11261295501113,54.48898127563464],[45.142356217583654,54.49136073663976],[45.131648643057595,54.51872453820761],[45.16734055814461,54.54489860927148],[45.21017085624991,54.55084726178667],[45.262518998378354,54.5579856448039],[45.31010821849443,54.569882949833314],[45.34817959458807,54.581780254861755],[45.412425041745486,54.60676459542262],[45.3993380062136,54.61985163095504],[45.40171746721943,54.63769758849957],[45.39814827571068,54.653164085036224],[45.408855850236826,54.662681929059545],[45.41022345903948,54.68711879711104],[45.42093103356562,54.70585705253328],[45.4432384804952,54.716564627058716],[45.47268431044306,54.733518286724546],[45.465545927425566,54.76117952091768],[45.45573065077607,54.77545628695222],[45.45305375714478,54.798656031759506],[45.47803809770564,54.80936360628672],[45.48963797010915,54.81828658505859],[45.50213014039003,54.8379171383558],[45.52443758731969,54.84416322349717],[45.52800677882834,54.86200918103983],[45.5529911193893,54.86022458528626],[45.57172937481012,54.86468607467121],[45.58689843872238,54.86379377679438],[45.61902116230153,54.87450135131982],[45.624374949564206,54.893239606742064],[45.61783143179861,54.909152252218554],[45.57857032520206,54.95079281982085],[45.55279283097205,54.986484734907236],[45.5551722919778,55.01027934496599],[45.54565444795456,55.016227997481096],[45.54922363946331,55.03407395502384],[45.57539771052789,55.047160990556264],[45.58848474605986,55.069765870111034],[45.58610528505403,55.088801558158565],[45.57777717153372,55.11497562922252],[45.561120944493084,55.13044212576095],[45.53732633443425,55.13401131726916],[45.54684417845748,55.147098352801585],[45.54684417845748,55.17208269336156],[45.5765874410308,55.18992865090608],[45.5980025900831,55.18397999839089],[45.60752043410624,55.18992865090608],[45.62179720014113,55.22086164398206],[45.63369450517091,55.24941517605113],[45.62536639164979,55.26964059460167],[45.62417666114696,55.28510709113832],[45.62536639164979,55.311281162204054],[45.65273019321737,55.3291271197468],[45.66581722874926,55.35530119081067],[45.68604264729855,55.37552660936032],[45.712216718363216,55.40170068042427],[45.733631867415426,55.41478771595669],[45.75980593847929,55.44453097853055],[45.787169740046785,55.48022289361783],[45.800256775578674,55.49212019864627],[45.799067045075844,55.4992585816635],[45.818102733122224,55.513535347699005],[45.818102733122224,55.52186346122012],[45.80144650608159,55.530191574739554],[45.802636236584505,55.55755537630651],[45.822861655133885,55.55398618479741],[45.845466534689805,55.551606723791316],[45.84665626519272,55.57302187284405],[45.832247306879104,55.595494560122496],[45.828678115370444,55.60977132615606],[45.81559107983847,55.63356593621578],[45.82272946285596,55.66330919878875],[45.816780810341385,55.70376003588716],[45.78703754776886,55.70970868840138],[45.760863476704195,55.70494976638927],[45.73706886664625,55.71803680192258],[45.71327425658741,55.72517518493989],[45.7406380581549,55.752538986505876],[45.7549148241898,55.75848763902107],[45.788227278271776,55.78228224907893],[45.803693774809496,55.760867100027966],[45.81559107983847,55.75848763902107],[45.84414461190816,55.78347197958283],[45.869128952469914,55.78704117109193],[45.90482086755693,55.801317937125575],[45.908390059065674,55.82749200819033],[45.93218466912451,55.841768774225756],[45.95122035717088,55.85842500126639],[45.96311766219995,55.87151203679881],[45.98453281125215,55.87389149780482],[46.00594796030516,55.87151203679881],[46.02498364835162,55.882219611324246],[46.039260414386426,55.87032230629483],[46.04758852790675,55.87746068931303],[46.04520906690092,55.890547724845455],[46.044019336398,55.90125529937089],[46.06900367695975,55.91791152641144],[46.10112640053811,55.92386017892663],[46.08209071249164,55.954793172001715],[46.11302370556708,55.97620832105437],[46.14276696814049,56.00595158362742],[46.185597266244905,56.01427969714863],[46.239135138876264,56.01665915815464],[46.26055028792856,56.02617700217796],[46.26768867094596,56.039264037708605],[46.23794540837335,56.039264037708605],[46.2141507983154,56.038074307206486],[46.187976727250735,56.039264037708605],[46.157043734175296,56.051161342737934],[46.13919777663175,56.04164349871461],[46.1296799326078,56.045212690223714],[46.14038750713466,56.060679186761256],[46.13443885462017,56.065438108774245],[46.11778262757874,56.065438108774245],[46.09755720902936,56.069007300282465],[46.10588532254977,56.10231975436364],[46.172510230713016,56.10826840687875],[46.19630484077105,56.14752951347513],[46.24984271340241,56.14396032196603],[46.27601678446699,56.15466789649146],[46.330744387600554,56.18322142856232],[46.36524657218545,56.21177496063228],[46.38190279922608,56.232000379181926],[46.38428226023191,56.25579498923979],[46.371195224700024,56.272451216280416],[46.41045633129578,56.285538251811865],[46.43900986336619,56.29624582633917],[46.43544067185744,56.31409178388183],[46.42711255833712,56.32598908891214],[46.41521525330815,56.32004043639702],[46.41402552280444,56.30814313136761],[46.4045076787812,56.303384209356395],[46.39261037375214,56.306953400865495],[46.39261037375214,56.32836854991823],[46.37000549419711,56.333127471929444],[46.3616773806767,56.343835046454885],[46.37238495520285,56.3545426209821],[46.3616773806767,56.375957770033864],[46.32598546558889,56.36643992601054],[46.28672435899313,56.42711618165957],[46.26887840144887,56.429495642665664],[46.27482705396416,56.455669713730416],[46.26174001843138,56.47708486278138],[46.256716711863966,56.493212320709965],[46.250768059349475,56.52890423579724],[46.25552698136105,56.56816534239353],[46.28883943544232,56.60861617949283],[46.31144431499824,56.63003132854645],[46.344259791904804,56.65413719242862],[46.34544952240799,56.704105873548485],[46.341880330898796,56.72671075310521],[46.30856787681735,56.75407455467207],[46.283583536255954,56.78500754774814],[46.289532188770885,56.81832000182834],[46.30380895480578,56.843304342391065],[46.31213706832654,56.87304760496315],[46.30499868530905,56.89208329300979],[46.29667057178829,56.89446275401589],[46.265737578712674,56.89089356250767],[46.231235394127864,56.88970383200467],[46.213389436583874,56.87899625747737],[46.19554347904059,56.88018598798135],[46.16936940797663,56.90636005904433],[46.13724668439766,56.90279086753611],[46.078949889754725,56.89089356250767],[46.068242315228936,56.905170328541324],[46.030170939135026,56.90873952005131],[45.98258171901869,56.944431435137616],[45.9718741444921,56.96346712318426],[45.97782279700703,56.98607200274],[45.99209956304192,56.994400116260316],[46.00518659857434,57.009866612798746],[46.00399686807107,57.02890230084539],[46.02660174762673,57.03604068386359],[46.04563743567328,57.03366122285661],[46.058486081988406,57.06735602719341],[46.03469147193019,57.084012254234935],[46.00613793986041,57.086391715241035],[46.000189287346274,57.097099289766476],[45.92404653515926,57.097099289766476],[45.88954435057454,57.08520198473794],[45.85385243548727,57.082822523731046],[45.83957566945229,57.06140737467831],[45.75986372575697,57.020956537579906],[45.66587501602676,56.98169543098352],[45.63137283144195,56.9662289344451],[45.58021441981731,56.9662289344451],[45.52191762517438,56.96265974293688],[45.501692206624554,56.95314189891356],[45.4481543339932,56.94957270740544],[45.41127268840265,56.94957270740544],[45.394616461361835,56.93648567187213],[45.399375383373496,56.92339863634059],[45.37439104281282,56.90793213980216],[45.385098617338606,56.90436294829395],[45.41246241890592,56.91150133131215],[45.41484187991175,56.90198348728794],[45.41246241890592,56.89365537376763],[45.43863648996988,56.87818887722911],[45.40651376639099,56.87224022471587],[45.33869912772553,56.866291572200666],[45.239951495982865,56.84011750113582],[45.18403416234648,56.84011750113582],[45.16618820480248,56.852014806166125],[45.116219523680314,56.8424969621428],[45.10670167965699,56.83178938761648],[45.061491920545684,56.82465100459828],[45.015092430931816,56.81394343007284],[44.97702105483871,56.80918450806163],[44.94608806176309,56.769923401465334],[44.924672912710705,56.74731852190871],[44.81283824543651,56.74018013889148],[44.778336060852496,56.7520774439217],[44.78071552185824,56.77111313196834],[44.79975120990488,56.77825151498477],[44.779525791355056,56.7949077420262],[44.779525791355056,56.81513316057496],[44.82235608945974,56.81989208258804],[44.83544312499216,56.853204536669224],[44.85685827404454,56.88175806873919],[44.860427465553556,56.90912187030605],[44.850909621529524,56.91031160080915],[44.85685827404454,56.937675402375135],[44.885411806114334,56.94838297690244],[44.902068033155054,56.95433162941568],[44.903257763658324,56.96503920394209],[44.88184261460603,56.9769365089724],[44.893739919635095,57.003110580035376],[44.906826955166714,57.04356141713467],[44.915155068687476,57.10899659479492],[44.706952230677146,57.15777554541452],[44.703383039168756,57.170862580946945],[44.68315762061893,57.19822638251391],[44.65460408854906,57.19941611301691],[44.67180377273324,57.161315360862304],[44.67061404222997,57.13871048130754],[44.65395781518916,57.1125364102427],[44.62540428311938,57.088741800184835],[44.62540428311938,57.07327530364641],[44.59923021205542,57.07327530364641],[44.6075583255753,57.05423961559977],[44.60398913406708,57.03639365805524],[44.60041994255789,57.01973743101549],[44.583763715517165,57.01973743101549],[44.570676679985546,57.029255275037926],[44.540933417412404,57.014978509003384],[44.5195182683601,57.00070174296885],[44.48977500578696,56.99594282095674],[44.47192904824288,56.98523524643042],[44.420770636618236,56.98642497693342],[44.40054521806832,56.98642497693342],[44.37794033851267,56.9769071329101],[44.33273057940207,56.97333794140198],[44.24231106118096,56.96500982788078],[44.1744964225148,56.953112522852244],[44.14713262094749,56.96144063637256],[44.16854776999987,57.00308120397494],[44.204239685087146,57.00902985648828],[44.21613699011621,57.03163473604491],[44.22089591212787,57.0708958426412],[44.250639174701014,57.1113466797397],[44.21613699011621,57.14703859482777],[44.20661914609289,57.16488455237052],[44.18044507502893,57.16369482186742],[44.15665046497081,57.14941805583298],[44.14237369893583,57.14108994231266],[44.113820166866034,57.12681317627812],[44.11976881938017,57.11015694923758],[44.11976881938017,57.08993153068784],[44.05433364171975,57.07803422565851],[43.97105250651613,57.06137799861788],[43.937740052434684,57.074465034148524],[43.89015083231746,57.08279314766973],[43.83780269018955,57.08279314766973],[43.834233498680355,57.06732665113121],[43.83066430717206,57.05067042409155],[43.83780269018955,57.03877311906125],[43.82709511566296,57.012599047998265],[43.815197810633805,57.00189147347194],[43.812818349627975,56.98642497693342],[43.822336193651296,56.97928659391531],[43.80330050560474,56.962630366875565],[43.79259293107894,56.948353600840136],[43.80924915811967,56.944784409332016],[43.816387541137075,56.938835756816815],[43.83542322918372,56.936456295810814],[43.83780269018955,56.91385141625595],[43.79021347007311,56.89243626720233],[43.7140707178861,56.953112522852244],[43.702173412857036,56.99713255145886],[43.665291767266496,56.99713255145886],[43.63911769620245,56.97928659391531],[43.62008200815589,56.97928659391531],[43.57606197954786,56.937646026313814],[43.553457099993,56.938835756816815],[43.521334376414025,56.90909249424385],[43.497539766355814,56.90790276374085],[43.48802192233258,56.89243626720233],[43.503488418870035,56.88529788418599],[43.46779650378275,56.871021118151454],[43.43567378020458,56.87221084865455],[43.42615593618055,56.860313543624244],[43.364289950029224,56.84960596909782],[43.33335695695361,56.83651893356638],[43.31908019091871,56.81153459300454],[43.29409585035714,56.7984475574731],[43.26673204878983,56.81034486250154],[43.24769636074328,56.856744352116024],[43.221331345277875,56.86812757606366],[43.16422428113821,56.86693784555976],[43.15351670661162,56.84552269650889],[43.12972209655349,56.824107547455256],[43.03097446481162,56.81577943393583],[42.98100578368866,56.82172808644916],[42.956021443127966,56.80507185940861],[42.91913979753733,56.80269239840252],[42.900823251683505,56.81015469486256],[42.89376296015032,56.7967185518355],[42.86401969757718,56.78244178580007],[42.84498400953062,56.75864717574221],[42.831896973998994,56.73961148769557],[42.829517512993164,56.71343741663081],[42.816430477460834,56.696781189591064],[42.82832778248989,56.65989954400087],[42.854501853553856,56.64800223897146],[42.927075414231766,56.621828167906614],[42.925885683729206,56.58970544432852],[42.93421379724917,56.56234164276157],[42.91398837870014,56.54211622421192],[42.90566026517938,56.47906050755777],[42.86996835009211,56.45407616699593],[42.84736347053645,56.427902095931174],[42.89733215165942,56.42433290442296],[42.91160891769431,56.43028155693718],[42.9330240667467,56.42552263492597],[42.929454875237596,56.41362532989753],[42.958008407308185,56.41362532989753],[42.972285173343074,56.41838425190785],[42.98537220887469,56.43028155693718],[43.02701277647691,56.43028155693718],[43.03534088999767,56.45169670599081],[43.05675603905005,56.471922124540455],[43.08055064910826,56.460024819511126],[43.106724720172224,56.42076371291475],[43.17215989783264,56.42076371291475],[43.161452323306136,56.366036109780026],[43.154313940288645,56.347000421733384],[43.130519330230435,56.32915446418975],[43.09720687614899,56.31130850664522],[43.113863103189715,56.28751389658825],[43.11624256419545,56.26371928652861],[43.0757917270966,56.26371928652861],[43.03653062050014,56.26133982552349],[43.00797708843035,56.26371928652861],[42.986561939378056,56.25182198150017],[43.01154627993874,56.245873328985866],[43.01392574094449,56.22683764093922],[43.00797708843035,56.19947383937235],[43.02820250697947,56.18281761233083],[43.02463331547108,56.164971654787195],[43.00083870541286,56.166161385291176],[42.973474903845634,56.156643541267854],[42.965146790325676,56.136418122718204],[42.924695953225935,56.123331087184894],[42.90566026517938,56.08644944159461],[42.85212239254811,56.07931105857828],[42.839035357016485,56.05908564002854],[42.836655896010654,56.0352910299689],[42.85569158405721,56.019824533432256],[42.88662457713283,56.00792722840195],[42.90803972618519,55.978183965829004],[42.92228747658727,55.97183162864714],[42.9139593630666,55.956365132108616],[42.92823612910149,55.950416479595376],[42.94608208664549,55.955175401605615],[42.98653292374443,55.9575548626126],[42.99724049827102,55.939708905068954],[43.01032753380344,55.93376025255385],[43.00080968977941,55.92186294752443],[43.00556861179098,55.89568887645967],[42.96630750519532,55.859996961373284],[42.936564242622254,55.84809965634307],[42.89373394451749,55.84215100382974],[42.8865955615,55.829063968296424],[42.905631249546644,55.79099259220314],[42.89611340552332,55.786233670191926],[42.873508525967665,55.780285017678594],[42.874698256470936,55.789802861701915],[42.84852418540698,55.792182322707035],[42.84019607188622,55.77552609566649],[42.824729575347966,55.77076717365527],[42.81878092283384,55.73269579756199],[42.82948849735963,55.723177953538666],[42.8235398448455,55.70771145699926],[42.79141712126652,55.70295253498902],[42.73668951813269,55.6874860384505],[42.70099760304541,55.6862963079475],[42.680772184495495,55.68867576895262],[42.681961914998055,55.701762804485924],[42.67125434047227,55.718419031525585],[42.62723431186423,55.711280648508364],[42.58797320526785,55.69700388247382],[42.60343970180601,55.68153738593539],[42.62247538985265,55.66726061990086],[42.62128565935009,55.65417358436932],[42.59154239677695,55.66488115889574],[42.54633263766644,55.66845035040386],[42.523727758110695,55.67201954191207],[42.50231260905841,55.67558873342117],[42.47613853799436,55.67320927241596],[42.46543096346777,55.68153738593539],[42.45115419743287,55.68153738593539],[42.44163635340955,55.67201954191207],[42.45234392793614,55.66250169788875],[42.45115419743287,55.651794123362336],[42.46543096346777,55.627999513304566],[42.48089746000602,55.59825625073151],[42.496363956543476,55.57803083218275],[42.50231260905841,55.554236222123116],[42.51896883609913,55.532821073071354],[42.52015856660169,55.51259565452162],[42.522538027607425,55.48761131395987],[42.54276344615734,55.485231852955636],[42.552281290180574,55.480472930943534],[42.510640722578366,55.46500643440501],[42.471379615982784,55.43288371082595],[42.44758500592457,55.398381526242744],[42.44163635340955,55.3722074551779],[42.43449797039215,55.35436149763426],[42.4118930908365,55.35079230612614],[42.38690875027581,55.35793068914247],[42.346457913176074,55.35912041964636],[42.31552492010046,55.37101772467578],[42.29410977104807,55.38410476020634],[42.29173031004224,55.39719179573876],[42.26079731696663,55.406709639762084],[42.25127947294331,55.413848022779305],[42.22153621037058,55.4126582922772],[42.22351909454204,55.402082910029094],[42.193775831969276,55.390185604998806],[42.19139637096367,55.37233964745701],[42.21638071152432,55.358062881421574],[42.1997244844834,55.34973476790219],[42.21043205901026,55.33069907985555],[42.20686286750106,55.29976608677771],[42.21876017252998,55.27240228521259],[42.2044834064954,55.22124387358508],[42.16998122191063,55.217674682076904],[42.139048228834326,55.19625953302602],[42.09978712223909,55.14391139089639],[42.059336285139466,55.14272166039336],[42.04386978860208,55.13796273838216],[42.034351944578816,55.117737319832486],[42.03673140558442,55.09037351826464],[42.00698814301171,55.0879940572604],[42.0041766405295,55.06530673117143],[42.00060744902102,55.051029965136],[42.02083286757049,55.03794292960545],[42.01964313706766,55.01652778055182],[42.02202259807323,55.0010612840133],[42.03273017259937,54.993922900996964],[42.08388858422508,54.989163978985744],[42.126718882329584,54.99035370948786],[42.17549783294973,54.97369748244732],[42.257589237650166,54.943954219873376],[42.28376330871447,54.95942071641189],[42.30279899676103,54.964179638423104],[42.326593606819685,54.984405056972754],[42.34919848637472,54.989163978985744],[42.380131479451045,55.01652778055182],[42.43247962157878,55.009389397534505],[42.46103315364874,55.03318400759237],[42.508622373765974,55.04389158211967],[42.57643701243195,55.06054780916021],[42.69778952372921,55.081962958212955],[42.68946141020881,55.09267053273839],[42.67637437467701,55.09148080223538],[42.65614895612683,55.116465142796244],[42.632354346068965,55.140259752854995],[42.67637437467701,55.146208405369215],[42.708497098255364,55.1009986462596],[42.76798362340085,55.10813702927593],[42.82628041804423,55.07125538368565],[42.87981829067479,55.04627104312479],[42.923838319282915,55.02723535507815],[42.90242317023062,55.014148319545725],[42.88219775168115,55.009389397534505],[42.87505936866357,54.99630236200217],[42.87624909916631,54.977266673955526],[42.896474517715774,54.96180017741888],[42.93216643280332,54.95228233339458],[42.95834050386763,54.95228233339458],[42.9738070004058,54.94633368087947],[43.00473999348132,54.938005567359156],[42.99998107146931,54.918969879313394],[42.97499673090853,54.89398553875253],[42.97261726990217,54.8701909286929],[42.960719964873284,54.858293623663485],[42.95953023437046,54.826170900085394],[42.95953023437046,54.81427359505598],[42.98213511392629,54.80237629002754],[42.995222149458,54.78690979349],[43.022585951025135,54.783340601980896],[43.03567298655685,54.79285844600332],[43.061847057621165,54.79166871550121],[43.04519083058017,54.780961140975776],[43.05589840510632,54.770253566448474],[43.09515951170305,54.776202218962695],[43.12371304377292,54.811894134049965],[43.14036927081392,54.82260170857718],[43.133230887796245,54.83449901360571],[43.13798980980755,54.84401685762903],[43.15702549785411,54.860673084670466],[43.15702549785411,54.88089850322011],[43.179630377409936,54.89993419126675],[43.205804448474254,54.89517526925465],[43.2331682500413,54.91183149629617],[43.234357980544125,54.92610826232982],[43.24744501607593,54.92729799283283],[43.26410124311691,54.924918531826734],[43.28194720066064,54.929677453839815],[43.29384450568961,54.95228233339458],[43.33072615127998,54.95585152490368],[43.37355644938528,54.9701282909391],[43.39378186793466,54.94752341138248],[43.46278623710339,54.938005567359156],[43.48182192515003,54.935626106354036],[43.50204734369941,54.92610826232982],[43.515134379231924,54.91421095730129],[43.604364166950916,54.918969879313394],[43.624589585500296,54.882088233722314],[43.64005608203766,54.882088233722314],[43.62148245236409,54.859645097866604],[43.65728960666749,54.85995997937974],[43.697740443766165,54.838544830326114],[43.74413993338012,54.82664752529669],[43.82623133808109,54.83378590831578],[43.8619232531689,54.82902698630279],[43.933307083343806,54.83973456083]]]]}},{"type":"Feature","properties":{"kind":"district","id":"uyezd-1897-448","name":"Горбатовский","provinceId":"nizhny-novgorod"},"geometry":{"type":"MultiPolygon","coordinates":[[[[42.90803972618521,55.978183965828975],[42.92228747658727,55.97183162864714],[42.9139593630666,55.956365132108616],[42.92823612910149,55.950416479595376],[42.94608208664549,55.955175401605615],[42.98653292374443,55.9575548626126],[42.99724049827102,55.939708905068954],[43.01032753380344,55.93376025255385],[43.00080968977941,55.92186294752443],[43.00556861179098,55.89568887645967],[42.96630750519532,55.859996961373284],[42.936564242622254,55.84809965634307],[42.89373394451749,55.84215100382974],[42.8865955615,55.829063968296424],[42.905631249546644,55.79099259220314],[42.89611340552332,55.786233670191926],[42.873508525967665,55.780285017678594],[42.874698256470936,55.789802861701915],[42.84852418540698,55.792182322707035],[42.84019607188622,55.77552609566649],[42.824729575347966,55.77076717365527],[42.81878092283384,55.73269579756199],[42.82948849735963,55.723177953538666],[42.8235398448455,55.70771145699926],[42.79141712126652,55.70295253498902],[42.73668951813269,55.6874860384505],[42.70099760304541,55.6862963079475],[42.680772184495495,55.68867576895262],[42.681961914998055,55.701762804485924],[42.67125434047227,55.718419031525585],[42.62723431186423,55.711280648508364],[42.58797320526785,55.69700388247382],[42.60343970180601,55.68153738593539],[42.62247538985265,55.66726061990086],[42.62128565935009,55.65417358436932],[42.59154239677695,55.66488115889574],[42.54633263766644,55.66845035040386],[42.523727758110695,55.67201954191207],[42.50231260905841,55.67558873342117],[42.47613853799436,55.67320927241596],[42.46543096346777,55.68153738593539],[42.45115419743287,55.68153738593539],[42.44163635340955,55.67201954191207],[42.45234392793614,55.66250169788875],[42.45115419743287,55.651794123362336],[42.46543096346777,55.627999513304566],[42.48089746000602,55.59825625073151],[42.496363956543476,55.57803083218275],[42.50231260905841,55.554236222123116],[42.51896883609913,55.532821073071354],[42.52015856660169,55.51259565452162],[42.522538027607425,55.48761131395987],[42.54276344615734,55.485231852955636],[42.552281290180574,55.480472930943534],[42.58798441770767,55.456428283558104],[42.61415848877233,55.44453097853055],[42.65222986486518,55.44096178702056],[42.68554231894716,55.42787475148814],[42.7307520780574,55.42192609897481],[42.790238603203335,55.463566666576305],[42.841397014828864,55.50163804266959],[42.8723300079043,55.523053191722326],[42.93300626355315,55.52900184423744],[43.00914901573964,55.53614022725466],[43.12931179653433,55.5468478017801],[43.207834009726554,55.57183214234194],[43.253043768837685,55.5896780998846],[43.2756486483928,55.5932472913937],[43.32680706001833,55.59681648290369],[43.40057035119907,55.603954865921004],[43.40770873421648,55.625370014972766],[43.42555469176003,55.633698128493975],[43.443400649303484,55.6467851640255],[43.450539032321686,55.65749273855094],[43.4517287628246,55.66939004358116],[43.474333642379726,55.67176950458726],[43.487420677911615,55.66582085207117],[43.52311259299951,55.66344139106605],[43.529061245514,55.6836668096157],[43.550476394566296,55.70746141967356],[43.56951208261267,55.72887656872629],[43.57784019613299,55.74077387375651],[43.5861683096533,55.75029171777983],[43.608773189209224,55.73958414325351],[43.63613699077601,55.74077387375651],[43.65517267882238,55.74553279576684],[43.66706998385216,55.788363093873116],[43.65279321781655,55.80501932091376],[43.6635007923427,55.8252447394634],[43.675398097372565,55.81810635644431],[43.68610567189862,55.820485817450404],[43.68253648038988,55.838331774994934],[43.709900281956656,55.85260854102947],[43.72655650899729,55.86688530706401],[43.71109001245957,55.87283395958001],[43.690864593910284,55.87640315108733],[43.6777775583783,55.88354153410633],[43.65160348731373,55.88354153410633],[43.614721841723714,55.894249108631854],[43.58497857915039,55.88592099511065],[43.581409387641735,55.894249108631854],[43.55761477758361,55.91566425768451],[43.53500989802858,55.920423179695725],[43.521922862496595,55.93351021522726],[43.53857908953723,55.937079406736274],[43.545717472554635,55.945407520257476],[43.57189154361841,55.950166442268696],[43.58735804015622,55.96206374729811],[43.579029926635904,55.96920213031534],[43.5861683096533,55.976340513332644],[43.6135321112208,55.976340513332644],[43.6135321112208,56.003704314900496],[43.63137806876435,56.01322215892382],[43.64803429580498,56.03582703847947],[43.66231106183979,56.03701676898167],[43.66944944485799,56.04534488250279],[43.69562351592185,56.065570301051636],[43.70514135994509,56.08936491110941],[43.68134674988696,56.094123833120626],[43.6635007923427,56.100072485636716],[43.6980029769276,56.11791844317938],[43.709900281956656,56.13576440072301],[43.69205432441311,56.146471975250314],[43.67658782787539,56.16074874128485],[43.70038243793343,56.192210503473675],[43.64565483479915,56.194589964477906],[43.57546073512716,56.186261850958566],[43.527871515011086,56.18388238995247],[43.52311259299951,56.21719484403365],[43.487420677911615,56.21719484403365],[43.46957472036815,56.18983104246669],[43.40889846471939,56.18388238995247],[43.33632490404157,56.17198508492403],[43.28516649241604,56.168415893414036],[43.253043768837685,56.18745158146068],[43.20188535721206,56.20410780850123],[43.18522913017152,56.196969425484],[43.20902374022947,56.17912346794125],[43.22330050626427,56.17436454592915],[43.22924915877885,56.157708318887714],[43.17809074715403,56.14938020536739],[43.149537215083626,56.13629316983675],[43.135260449048815,56.126775325813426],[43.10670691697912,56.12796505631563],[43.07101500189131,56.13748290033895],[43.03413335630138,56.15532885788339],[43.02463331547108,56.164971654787195],[43.00083870541286,56.166161385291176],[42.973474903845634,56.156643541267854],[42.965146790325676,56.136418122718204],[42.924695953225935,56.123331087184894],[42.90566026517938,56.08644944159461],[42.85212239254811,56.07931105857828],[42.839035357016485,56.05908564002854],[42.836655896010654,56.0352910299689],[42.85569158405721,56.019824533432256],[42.88662457713283,56.00792722840195],[42.90803972618521,55.978183965828975]]]]}},{"type":"Feature","properties":{"kind":"district","id":"uyezd-1897-449","name":"Ардатовский","provinceId":"nizhny-novgorod"},"geometry":{"type":"MultiPolygon","coordinates":[[[[42.126718882329584,54.990353709487835],[42.17549783294973,54.973697482447285],[42.257589237650166,54.94395421987334],[42.28376330871447,54.959420716411856],[42.30279899676103,54.964179638423076],[42.326593606819685,54.98440505697272],[42.34919848637472,54.989163978985715],[42.380131479451045,55.01652778055178],[42.43247962157878,55.00938939753448],[42.46103315364874,55.03318400759233],[42.508622373765974,55.043891582119635],[42.57643701243195,55.060547809160184],[42.69778952372921,55.08196295821292],[42.68946141020881,55.09267053273835],[42.67637437467701,55.09148080223535],[42.65614895612683,55.116465142796216],[42.632354346068965,55.14025975285496],[42.67637437467701,55.14620840536918],[42.708497098255364,55.10099864625956],[42.76798362340085,55.108137029275895],[42.82628041804423,55.07125538368562],[42.87981829067479,55.046271043124754],[42.923838319282915,55.02723535507811],[42.90242317023062,55.01414831954569],[42.88219775168115,55.00938939753448],[42.87505936866357,54.99630236200214],[42.87624909916631,54.9772666739555],[42.896474517715774,54.961800177418844],[42.93216643280332,54.95228233339455],[42.95834050386763,54.95228233339455],[42.9738070004058,54.946333680879434],[43.00473999348132,54.93800556735912],[42.99998107146931,54.918969879313366],[42.97499673090853,54.8939855387525],[42.97261726990217,54.870190928692864],[42.960719964873284,54.85829362366345],[42.95953023437046,54.82617090008536],[42.95953023437046,54.814273595055944],[42.98213511392629,54.8023762900275],[42.995222149458,54.78690979348996],[43.022585951025135,54.78334060198086],[43.03567298655685,54.792858446003294],[43.061847057621165,54.791668715501174],[43.04519083058017,54.78096114097574],[43.05589840510632,54.77025356644844],[43.09515951170305,54.77620221896266],[43.12371304377292,54.811894134049936],[43.14036927081392,54.82260170857715],[43.133230887796245,54.83449901360568],[43.13798980980755,54.844016857629],[43.15702549785411,54.86067308467044],[43.15702549785411,54.88089850322008],[43.179630377409936,54.89993419126672],[43.205804448474254,54.89517526925462],[43.2331682500413,54.911831496296145],[43.234357980544125,54.92610826232979],[43.24744501607593,54.92729799283279],[43.26410124311691,54.9249185318267],[43.28194720066064,54.92967745383978],[43.29384450568961,54.95228233339455],[43.33072615127998,54.95585152490365],[43.37355644938528,54.97012829093907],[43.39378186793466,54.94752341138244],[43.46278623710339,54.93800556735912],[43.48182192515003,54.935626106354],[43.50204734369941,54.92610826232979],[43.515134379231924,54.914210957301265],[43.604364166950916,54.918969879313366],[43.624589585500296,54.882088233722286],[43.64005608203766,54.882088233722286],[43.62148245236409,54.859645097866604],[43.65728960666749,54.85995997937974],[43.697740443766165,54.838544830326114],[43.74413993338012,54.82664752529669],[43.82623133808109,54.83378590831578],[43.8619232531689,54.82902698630279],[43.933307083343806,54.83973456083],[43.94348403736233,54.854424649084635],[43.95181215088265,54.87702952863949],[43.96727864742037,54.88654737266192],[43.97441703043857,54.911531713223674],[43.97322729993566,54.935326323282425],[43.923258618813044,54.94246470629973],[43.897084547749174,54.95793120283817],[43.88161805121066,54.999571770438685],[43.87328993769034,55.03526368552774],[43.86853101567877,55.07095560061404],[43.8566337106497,55.09237074966678],[43.813803412544495,55.12211401223975],[43.82451098707135,55.13282158676518],[43.823321256568434,55.145908622297604],[43.79952664650969,55.16018538833303],[43.76621419242842,55.1911183814082],[43.734091468849265,55.20063622543152],[43.7436093128725,55.21610272196995],[43.76740392293134,55.21848218297605],[43.75550661790227,55.23037948800449],[43.71267631979706,55.26012275057835],[43.67936386571499,55.27320978611077],[43.63891302861632,55.28391736063621],[43.60084165252268,55.28272763013409],[43.55801135441827,55.26488167258957],[43.52231943933037,55.25893302007445],[43.535406474862256,55.298194126670744],[43.52112970882745,55.31009143170016],[43.487817254746275,55.32317846723258],[43.431899921109085,55.34102442477702],[43.42595126859451,55.35411146030856],[43.44617668714389,55.34935253829645],[43.4545048006642,55.35768065181766],[43.47354048871138,55.373147148354306],[43.477109680220124,55.41002879394548],[43.46640210569318,55.433823404003334],[43.46164318368161,55.469515319090526],[43.42595126859451,55.50044831216748],[43.38550043149504,55.52067373071623],[43.358136629928346,55.53495049675077],[43.33910094188188,55.549227262787085],[43.36408528244292,55.5527964542953],[43.38550043149504,55.559934837312525],[43.40691558054813,55.56231429831862],[43.40691558054813,55.57064241183796],[43.39977719752993,55.58016025586128],[43.40057035119907,55.603954865921004],[43.32680706001833,55.59681648290369],[43.2756486483928,55.5932472913937],[43.253043768837685,55.5896780998846],[43.207834009726554,55.57183214234194],[43.12931179653433,55.5468478017801],[43.00914901573964,55.53614022725466],[42.93300626355315,55.52900184423744],[42.8723300079043,55.523053191722326],[42.841397014828864,55.50163804266959],[42.790238603203335,55.463566666576305],[42.7307520780574,55.42192609897481],[42.68554231894716,55.42787475148814],[42.65222986486518,55.44096178702056],[42.61415848877233,55.44453097853055],[42.58798441770767,55.456428283558104],[42.552281290180574,55.480472930943534],[42.510640722578366,55.46500643440501],[42.471379615982784,55.43288371082595],[42.44758500592457,55.398381526242744],[42.44163635340955,55.3722074551779],[42.43449797039215,55.35436149763426],[42.4118930908365,55.35079230612614],[42.38690875027581,55.35793068914247],[42.346457913176074,55.35912041964636],[42.31552492010046,55.37101772467578],[42.29410977104807,55.38410476020634],[42.29173031004224,55.39719179573876],[42.26079731696663,55.406709639762084],[42.25127947294331,55.413848022779305],[42.221536210370246,55.412658292277186],[42.22351909454204,55.402082910029094],[42.193775831969276,55.390185604998806],[42.19139637096367,55.37233964745701],[42.21638071152432,55.358062881421574],[42.1997244844834,55.34973476790219],[42.21043205901026,55.33069907985555],[42.20686286750106,55.29976608677771],[42.21876017252998,55.27240228521259],[42.2044834064954,55.22124387358508],[42.16998122191063,55.217674682076904],[42.139048228834326,55.19625953302602],[42.09978712223909,55.14391139089639],[42.059336285139466,55.14272166039336],[42.04386978860208,55.13796273838216],[42.034351944578816,55.117737319832486],[42.03673140558442,55.09037351826464],[42.00698814301171,55.0879940572604],[42.0041766405295,55.0653067311714],[42.00060744902102,55.05102996513597],[42.02083286757049,55.037942929605414],[42.01964313706766,55.01652778055178],[42.02202259807323,55.00106128401327],[42.03273017259937,54.993922900996935],[42.08388858422508,54.989163978985715],[42.126718882329584,54.990353709487835]]]]}},{"type":"Feature","properties":{"kind":"district","id":"uyezd-1897-451","name":"Лукояновский","provinceId":"nizhny-novgorod"},"geometry":{"type":"MultiPolygon","coordinates":[[[[43.933307083343806,54.83973456083],[43.968998998430905,54.80404264574281],[43.92259950881695,54.749315042608984],[43.966619537425075,54.742176659589894],[43.9963627999976,54.73027935456136],[44.020157410056434,54.72789989355536],[44.02134714055935,54.74098692908778],[44.035623906594154,54.748125312105],[44.07012609117905,54.749315042608984],[44.08916177922551,54.77073019165986],[44.11176665878064,54.769540461157746],[44.12961261632419,54.73741773757868],[44.11057692827781,54.71719231902992],[44.1022488147574,54.693397708970195],[44.09273097073426,54.66365444639811],[44.14032019085104,54.64223929734635],[44.16768399241783,54.64699821935668],[44.19980671599618,54.64104956684237],[44.20575536851076,54.611306304269405],[44.24501647510722,54.611306304269405],[44.29498515622993,54.607737112761285],[44.248585666615966,54.58394250270342],[44.21289375152887,54.58513223320554],[44.20456563800784,54.57680411968611],[44.20694509901358,54.532784091077716],[44.2009964464991,54.522076516551394],[44.246206205610136,54.49828190649255],[44.29498515622993,54.46496945241147],[44.308072191761816,54.449502955872944],[44.308072191761816,54.4352261898384],[44.29022623421835,54.40786238827056],[44.31877976628796,54.388826700223916],[44.342574376346,54.369791012178254],[44.36347931500853,54.38031922303435],[44.32540793891552,54.40530356359521],[44.34801281847037,54.429098173653955],[44.370617698026024,54.44932359220458],[44.41106853512541,54.44932359220458],[44.4431912587042,54.4552722447188],[44.47293452127655,54.47668739377154],[44.508626436364096,54.4933436208112],[44.53836969893724,54.501671734331424],[44.57168215301833,54.502861464835405],[44.59785622408273,54.47668739377154],[44.66210167124024,54.4921538903081],[44.73229577091205,54.506430656344506],[44.79297202656082,54.52189715288117],[44.82390501963634,54.49810254282419],[44.84413043818643,54.48620523779388],[44.85920035788994,54.492550467143744],[44.88180523744497,54.49492992814975],[44.90559984750389,54.48065316211344],[44.92225607454444,54.47113531809012],[44.93653284057933,54.47470450959922],[44.95556852862571,54.496119658651864],[45.00315774874258,54.49136073663976],[45.06740319590009,54.49017100613764],[45.094766997466785,54.47113531809012],[45.11261295501113,54.48898127563464],[45.142356217583654,54.49136073663976],[45.131648643057595,54.51872453820761],[45.16734055814461,54.54489860927148],[45.21017085624991,54.55084726178667],[45.262518998378354,54.5579856448039],[45.31010821849443,54.569882949833314],[45.34817959458807,54.581780254861755],[45.412425041745486,54.60676459542262],[45.3993380062136,54.61985163095504],[45.40171746721943,54.63769758849957],[45.39814827571068,54.653164085036224],[45.408855850236826,54.662681929059545],[45.41022345903948,54.68711879711104],[45.42093103356562,54.70585705253328],[45.4432384804952,54.716564627058716],[45.47268431044306,54.733518286724546],[45.465545927425566,54.76117952091768],[45.45573065077607,54.77545628695222],[45.45305375714478,54.798656031759506],[45.47803809770564,54.80936360628672],[45.48963797010915,54.81828658505859],[45.50213014039003,54.8379171383558],[45.52443758731969,54.84416322349717],[45.52800677882834,54.86200918103983],[45.5529911193893,54.86022458528626],[45.57172937481012,54.86468607467121],[45.58689843872238,54.86379377679438],[45.61902116230153,54.87450135131982],[45.624374949564206,54.893239606742064],[45.61783143179861,54.909152252218554],[45.57857032520206,54.95079281982085],[45.55279283097205,54.986484734907236],[45.52304956839944,54.999571770438685],[45.51472145487912,55.016227997481096],[45.4992549583414,55.0150382669772],[45.494496036329835,55.00552042295388],[45.474270617779744,54.99600257893056],[45.458804121242025,55.00195123144478],[45.438578702692645,55.00433069245177],[45.41835328414335,55.0114690754681],[45.400507326599005,55.020986919492316],[45.37552298603805,55.003140961947786],[45.39098948257577,54.97934635188993],[45.39455867408443,54.95079281982085],[45.37314352503231,54.94008524529364],[45.341020801453155,54.931757131774205],[45.3445899929619,54.91272144372756],[45.32555430491535,54.904393330206446],[45.30651861686897,54.917480365737894],[45.272016432284076,54.91391117422977],[45.25298074423761,54.93056740127032],[45.23632451719698,54.96506958585539],[45.25654993574627,54.98529500440415],[45.289862389828336,55.01027934496599],[45.26844724077533,55.016227997481096],[45.23632451719698,55.009089614462006],[45.217288829150604,55.016227997481096],[45.16850987853081,55.01860745848533],[45.14471526847278,55.03288422452173],[45.120920658413944,55.04954045156228],[45.08641847382976,55.047160990556264],[45.05667521125643,55.04002260753896],[45.034070331701315,55.03526368552774],[45.029311409689655,55.047160990556264],[45.04596763673029,55.06024802608771],[45.03763952321006,55.067386409105026],[45.01503464365485,55.063817217596814],[44.995998955607675,55.07452479212402],[44.96149677102349,55.07214533111802],[44.94603027448577,55.07809398363224],[44.94603027448577,55.100698863187986],[44.93770216096554,55.11973455123463],[44.903199976380556,55.11497562922252],[44.86274913928189,55.11259616821643],[44.83419560721139,55.11378589871854],[44.797313961621555,55.11854482073065],[44.76876042955106,55.11378589871854],[44.723550670440815,55.11973455123463],[44.69737659937615,55.11854482073065],[44.67358198931811,55.11854482073065],[44.650580532928416,55.12806266475397],[44.600611851805716,55.13401131726916],[44.53398694364247,55.147098352801585],[44.486397723526395,55.1423394307885],[44.45665446095307,55.15066754430971],[44.435239311900865,55.173272423865455],[44.394788474801395,55.17565188487155],[44.3531479071999,55.16256484933913],[44.328163566638146,55.168513501854235],[44.299610034568445,55.1911183814082],[44.2746256940075,55.1923081119121],[44.249641353445746,55.169703232356355],[44.22941593489645,55.147098352801585],[44.20800078584425,55.125683203747954],[44.18420617578541,55.09593994117499],[44.14732453019548,55.07571452262623],[44.11401207611342,55.073335061620135],[44.10925315410176,55.05191991256837],[44.09319179231302,55.03511496921416],[44.08248421778617,55.02173050105557],[44.04946919633036,55.00031535200469],[44.01645417487473,54.98514628809155],[43.991469834313776,54.970869522057015],[43.97540847252416,54.95213126663654],[43.97322729993566,54.935326323282425],[43.97441703043857,54.911531713223674],[43.96727864742037,54.88654737266192],[43.95181215088265,54.87702952863949],[43.94348403736233,54.854424649084635],[43.933307083343806,54.83973456083]]]]}},{"type":"Feature","properties":{"kind":"district","id":"uyezd-1897-452","name":"Сергачский","provinceId":"nizhny-novgorod"},"geometry":{"type":"MultiPolygon","coordinates":[[[[44.67358198931811,55.11854482073065],[44.69737659937615,55.11854482073065],[44.723550670440815,55.11973455123463],[44.76876042955106,55.11378589871854],[44.797313961621555,55.11854482073065],[44.83419560721139,55.11378589871854],[44.86274913928189,55.11259616821643],[44.903199976380556,55.11497562922252],[44.93770216096554,55.11973455123463],[44.94603027448577,55.100698863187986],[44.94603027448577,55.07809398363224],[44.96149677102349,55.07214533111802],[44.995998955607675,55.07452479212402],[45.01503464365485,55.063817217596814],[45.03763952321006,55.067386409105026],[45.04596763673029,55.06024802608771],[45.029311409689655,55.047160990556264],[45.034070331701315,55.03526368552774],[45.05667521125643,55.04002260753896],[45.08641847382976,55.047160990556264],[45.120920658413944,55.04954045156228],[45.14471526847278,55.03288422452173],[45.16850987853081,55.01860745848533],[45.217288829150604,55.016227997481096],[45.23632451719698,55.009089614462006],[45.26844724077533,55.016227997481096],[45.289862389828336,55.01027934496599],[45.25654993574627,54.98529500440415],[45.23632451719698,54.96506958585539],[45.25298074423761,54.93056740127032],[45.272016432284076,54.91391117422977],[45.30651861686897,54.917480365737894],[45.32555430491535,54.904393330206446],[45.3445899929619,54.91272144372756],[45.341020801453155,54.931757131774205],[45.37314352503231,54.94008524529364],[45.39455867408443,54.95079281982085],[45.39098948257577,54.97934635188993],[45.37552298603805,55.003140961947786],[45.400507326599005,55.020986919492316],[45.41835328414335,55.0114690754681],[45.438578702692645,55.00433069245177],[45.458804121242025,55.00195123144478],[45.474270617779744,54.99600257893056],[45.494496036329835,55.00552042295388],[45.4992549583414,55.0150382669772],[45.51472145487912,55.016227997481096],[45.52304956839944,54.999571770438685],[45.55279283097205,54.986484734907236],[45.5551722919778,55.01027934496599],[45.54565444795456,55.016227997481096],[45.54922363946331,55.03407395502384],[45.57539771052789,55.047160990556264],[45.58848474605986,55.069765870111034],[45.58610528505403,55.088801558158565],[45.57777717153372,55.11497562922252],[45.561120944493084,55.13044212576095],[45.53732633443425,55.13401131726916],[45.54684417845748,55.147098352801585],[45.54684417845748,55.17208269336156],[45.5765874410308,55.18992865090608],[45.5980025900831,55.18397999839089],[45.60752043410624,55.18992865090608],[45.62179720014113,55.22086164398206],[45.63369450517091,55.24941517605113],[45.62536639164979,55.26964059460167],[45.62417666114696,55.28510709113832],[45.62536639164979,55.311281162204054],[45.65273019321737,55.3291271197468],[45.66581722874926,55.35530119081067],[45.68604264729855,55.37552660936032],[45.712216718363216,55.40170068042427],[45.733631867415426,55.41478771595669],[45.75980593847929,55.44453097853055],[45.787169740046785,55.48022289361783],[45.800256775578674,55.49212019864627],[45.799067045075844,55.4992585816635],[45.818102733122224,55.513535347699005],[45.818102733122224,55.52186346122012],[45.80144650608159,55.530191574739554],[45.802636236584505,55.55755537630651],[45.822861655133885,55.55398618479741],[45.845466534689805,55.551606723791316],[45.84665626519272,55.57302187284405],[45.832247306879104,55.595494560122496],[45.79655539179209,55.61096105665915],[45.757294285195535,55.62642755319758],[45.73587913614333,55.62166863118637],[45.691859107535116,55.60620213464793],[45.65973638395685,55.61690970917515],[45.651408270436534,55.62999674470579],[45.63118285188635,55.64546324124422],[45.60262931981674,55.647842702250315],[45.57883470975871,55.62999674470579],[45.544332525173814,55.62999674470579],[45.513399532098376,55.62404809219246],[45.488415191536625,55.63356593621578],[45.457482198461186,55.64070431923301],[45.434877318905976,55.63475566671879],[45.406323786835564,55.64308378023813],[45.38847782929211,55.66806812079908],[45.35397564470712,55.67639623432028],[45.3170939991172,55.681155156331414],[45.2874829288226,55.67295923508937],[45.27320616278699,55.6467851640255],[45.24584236122021,55.63131866748699],[45.22085802065926,55.605144596423116],[45.27082670178116,55.58491917787436],[45.307708347371886,55.5099661561908],[45.27796508479936,55.5075866951847],[45.24822182222604,55.4992585816635],[45.20063260210917,55.49449965965236],[45.18635583607428,55.48855100713717],[45.17564826154822,55.46713585808452],[45.145904998975695,55.456428283558104],[45.11497200589937,55.42430555998001],[45.076900629806616,55.404080141430285],[45.06738278578338,55.38028553137251],[45.051916289244865,55.371957417851306],[45.038829253712976,55.36719849584098],[45.00194760812296,55.366008765337],[44.98886057259027,55.370767687349186],[44.954358388006085,55.35411146030856],[44.916287011912445,55.366008765337],[44.89725132386607,55.387423914389736],[44.88654374933992,55.387423914389736],[44.87821563581961,55.39694175841306],[44.85917994777314,55.39932121941818],[44.84609291224045,55.394562297406964],[44.83181614620565,55.370767687349186],[44.81634964966793,55.36957795684698],[44.80802153614761,55.34935253829645],[44.78898584810115,55.34935253829645],[44.78184746508303,55.3315065807537],[44.78184746508303,55.31960927572348],[44.7794680040772,55.291055743653516],[44.74258635848728,55.27320978611077],[44.7294993229553,55.26012275057835],[44.76162204653365,55.245845984542925],[44.76519123804231,55.233948679514484],[44.794934500615724,55.21491299146784],[44.794934500615724,55.20301568643753],[44.752104202510424,55.18160053738488],[44.70570471289646,55.16018538833303],[44.674771719821024,55.145908622297604],[44.67358198931811,55.11854482073065]]]]}},{"type":"Feature","properties":{"kind":"district","id":"uyezd-1897-453","name":"Арзамасский","provinceId":"nizhny-novgorod"},"geometry":{"type":"MultiPolygon","coordinates":[[[[44.78184746508303,55.3315065807537],[44.761357661977804,55.33383096164289],[44.74589116543929,55.31598500409836],[44.729234938398655,55.31598500409836],[44.71733763336968,55.31241581259023],[44.7042505978377,55.31955419560746],[44.716147902866766,55.33502069214589],[44.69473275381447,55.33740015315199],[44.672127874258635,55.340969344660195],[44.64714353369769,55.340969344660195],[44.61502081011933,55.357625571700744],[44.58170835603726,55.357625571700744],[44.55196509346474,55.36238449371196],[44.50913479535944,55.369522876731054],[44.472253149769514,55.382609912262495],[44.428233121161384,55.36833314622707],[44.436561234681704,55.39093802578192],[44.412766624623664,55.39926613930313],[44.39373093657649,55.382609912262495],[44.38540282305608,55.39450721729102],[44.39373093657649,55.40640452232036],[44.38897201456483,55.439716976401535],[44.38897201456483,55.459942394951184],[44.38183363154743,55.467080777969386],[44.372315787524194,55.48135754400392],[44.37112605702128,55.50158296255357],[44.34852117746616,55.5182391895942],[44.3437622554545,55.531326225127515],[44.306880609863775,55.55036191317416],[44.273568155782506,55.55512083518537],[44.235496779688866,55.56820787071682],[44.20099459510477,55.57653598423802],[44.16173348850821,55.56820787071682],[44.14031833945601,55.5670181402147],[44.103436693865284,55.575346253734125],[44.09272911933913,55.59081275027256],[44.087970197327564,55.61103816882132],[44.03681178570194,55.60746897731319],[44.011827445140995,55.61103816882132],[43.98684310458013,55.608658707817085],[43.93568469295451,55.608658707817085],[43.87738789831158,55.60746897731319],[43.85597274925929,55.61698682133651],[43.809573259645326,55.605089516307096],[43.8143321816569,55.62888412636495],[43.82622948668596,55.63721223988616],[43.8500240967448,55.657437658434915],[43.83455760020628,55.66933496346425],[43.77150188355249,55.67171442447123],[43.74413808198491,55.67171442447123],[43.7298613159501,55.65862738893881],[43.72391266343561,55.68956038201398],[43.70844616689789,55.68718092100789],[43.69535913136521,55.67409388547733],[43.67156452130717,55.695509034529096],[43.650149372254965,55.71454472257574],[43.626354762196925,55.72049337509084],[43.62040610968164,55.6990782260373],[43.61445745716706,55.694319304026976],[43.591852577611945,55.72049337509084],[43.56951208261267,55.72887656872629],[43.550476394566296,55.70746141967356],[43.529061245514,55.6836668096157],[43.52311259299951,55.66344139106605],[43.487420677911615,55.66582085207117],[43.474333642379726,55.67176950458726],[43.4517287628246,55.66939004358116],[43.450539032321686,55.65749273855094],[43.443400649303484,55.6467851640255],[43.42555469176003,55.633698128493975],[43.40770873421648,55.625370014972766],[43.40057035119907,55.603954865921004],[43.39977719752993,55.58016025586128],[43.40691558054813,55.57064241183796],[43.40691558054813,55.56231429831862],[43.38550043149504,55.559934837312525],[43.36408528244292,55.5527964542953],[43.33910094188188,55.549227262787085],[43.358136629928346,55.53495049675077],[43.38550043149504,55.52067373071623],[43.42595126859451,55.50044831216748],[43.46164318368161,55.469515319090526],[43.46640210569318,55.433823404003334],[43.477109680220124,55.41002879394548],[43.47354048871138,55.373147148354306],[43.4545048006642,55.35768065181766],[43.44617668714389,55.34935253829645],[43.42595126859451,55.35411146030856],[43.431899921109085,55.34102442477702],[43.487817254746275,55.32317846723258],[43.52112970882745,55.31009143170016],[43.535406474862256,55.298194126670744],[43.52231943933037,55.25893302007445],[43.55801135441827,55.26488167258957],[43.60084165252268,55.28272763013409],[43.63891302861632,55.28391736063621],[43.67936386571499,55.27320978611077],[43.71267631979706,55.26012275057835],[43.75550661790227,55.23037948800449],[43.76740392293134,55.21848218297605],[43.7436093128725,55.21610272196995],[43.734091468849265,55.20063622543152],[43.76621419242842,55.1911183814082],[43.79952664650969,55.16018538833303],[43.823321256568434,55.145908622297604],[43.82451098707135,55.13282158676518],[43.813803412544495,55.12211401223975],[43.8566337106497,55.09237074966678],[43.86853101567877,55.07095560061404],[43.87328993769034,55.03526368552774],[43.88161805121066,54.999571770438685],[43.897084547749174,54.95793120283817],[43.923258618813044,54.94246470629973],[43.97322729993566,54.935326323282425],[43.97540847252416,54.95213126663654],[43.991469834313776,54.970869522057015],[44.01645417487473,54.98514628809155],[44.04946919633036,55.00031535200469],[44.08248421778617,55.02173050105557],[44.09319179231302,55.03511496921416],[44.10925315410176,55.05191991256837],[44.11401207611342,55.073335061620135],[44.14732453019548,55.07571452262623],[44.18420617578541,55.09593994117499],[44.20800078584425,55.125683203747954],[44.22941593489645,55.147098352801585],[44.249641353445746,55.169703232356355],[44.2746256940075,55.1923081119121],[44.299610034568445,55.1911183814082],[44.328163566638146,55.168513501854235],[44.3531479071999,55.16256484933913],[44.394788474801395,55.17565188487155],[44.435239311900865,55.173272423865455],[44.45665446095307,55.15066754430971],[44.486397723526395,55.1423394307885],[44.53398694364247,55.147098352801585],[44.600611851805716,55.13401131726916],[44.650580532928416,55.12806266475397],[44.67358198931811,55.11854482073065],[44.674771719821024,55.145908622297604],[44.70570471289646,55.16018538833303],[44.752104202510424,55.18160053738488],[44.794934500615724,55.20301568643753],[44.794934500615724,55.21491299146784],[44.76519123804231,55.233948679514484],[44.76162204653365,55.245845984542925],[44.7294993229553,55.26012275057835],[44.74258635848728,55.27320978611077],[44.7794680040772,55.291055743653516],[44.78184746508303,55.31960927572348],[44.78184746508303,55.3315065807537]]]]}},{"type":"Feature","properties":{"kind":"district","id":"uyezd-1897-454","name":"Макарьевский","provinceId":"nizhny-novgorod"},"geometry":{"type":"MultiPolygon","coordinates":[[[[44.48163880151402,55.92214167931069],[44.506623142075775,55.92809033182491],[44.53279721313955,55.92809033182491],[44.58038643325642,55.930469792831005],[44.64582161091685,55.93641844534612],[44.692221100530006,55.93165952333401],[44.72910274612073,55.92571087082068],[44.761225469699085,55.930469792831005],[44.79572765428398,55.94593628936944],[44.82309145585076,55.95307467238675],[44.85164498792117,55.960213055403976],[44.85640390993283,55.93760817584823],[44.88733690300827,55.92809033182491],[44.92302881809608,55.920951948807684],[44.94920288915994,55.930469792831005],[44.965859116200576,55.942367097861315],[44.98608453475067,55.92333140981467],[44.99679210927682,55.91857248780159],[45.019396988831936,55.941177367357334],[45.06222728693715,55.950695211380655],[45.08959108850393,55.96140278590796],[45.09791920202425,55.98400766546361],[45.11576515956851,55.98757685697183],[45.13123165610623,55.98400766546361],[45.134800847614976,55.9733000909364],[45.160974918678754,55.96616170791917],[45.18952845074925,55.94950548087854],[45.19904629477248,55.95783359439797],[45.219271713321774,55.96378224691308],[45.239497131871154,55.9733000909364],[45.277568507964794,55.99352550948693],[45.295414465508344,55.99114604848093],[45.30731177053732,55.99590497049125],[45.30850150104023,56.00899200602359],[45.33229611109907,56.01137146702968],[45.35371126015127,56.020889311053004],[45.37869560071223,56.01256119753357],[45.406059402279716,56.016130389040896],[45.41319778529712,56.00780227552147],[45.44413077837256,56.01137146702968],[45.457217813904535,56.01850985004691],[45.48815080698078,56.014940658537896],[45.50480703402141,56.01137146702968],[45.52265299156487,56.014940658537896],[45.567862750675914,56.00899200602359],[45.604744396266724,56.00899200602359],[45.6095033182783,56.023268772058124],[45.62734927582185,56.033976346585426],[45.630918467330595,56.050632573625975],[45.646384963868314,56.06966826167262],[45.65828226889729,56.07085799217473],[45.66423092141177,56.07918610569594],[45.65471307738854,56.11963694279443],[45.70706121951699,56.130344517321646],[45.75940936164552,56.13629316983675],[45.7927218157267,56.1541391273795],[45.847449418860975,56.175554276431264],[45.88908998646336,56.18745158146068],[45.92240244054463,56.194589964477906],[45.92240244054463,56.22314349654787],[45.91407432702431,56.27192244716757],[45.897418099983675,56.30404517074655],[45.879572142439415,56.3278397808044],[45.85339807137555,56.354013851870135],[45.81651642578554,56.37542900092101],[45.78439370220647,56.399223610980734],[45.78439370220647,56.411120916009175],[45.82722400031168,56.40874145500308],[45.87600295093067,56.41469010751739],[45.9628532776441,56.437294987073045],[46.028288455304434,56.44443337009035],[46.05922144837987,56.45395121411367],[46.07468794491759,56.4717971716582],[46.10086201598226,56.49202259020696],[46.14012312257801,56.5098685477506],[46.156779349618645,56.52533504428903],[46.20436856973552,56.51224800875661],[46.256716711863966,56.493212320709965],[46.250768059349475,56.52890423579724],[46.25552698136105,56.56816534239353],[46.28883943544232,56.60861617949283],[46.31144431499824,56.63003132854645],[46.34425979190459,56.65413719242767],[46.34544952240795,56.7041058735485],[46.34188033089876,56.72671075310522],[46.30856787681731,56.754074554672094],[46.28358353625592,56.78500754774815],[46.28953218877085,56.818320001828354],[46.30380895480574,56.843304342391086],[46.3121370683265,56.87304760496316],[46.30499868530901,56.892083293009804],[46.29667057178825,56.894462754015905],[46.26573757871263,56.89089356250769],[46.23123539412782,56.889703832004685],[46.21338943658383,56.87899625747738],[46.19554347904055,56.88018598798136],[46.16936940797659,56.906360059044346],[46.13724668439762,56.90279086753613],[46.07894988975468,56.89089356250769],[46.06824231522889,56.905170328541345],[46.03017093913499,56.90873952005133],[45.98258171901865,56.94443143513763],[45.971874144492055,56.96346712318427],[45.977822797006986,56.986072002740016],[45.992099563041876,56.99440011626034],[46.0051865985743,57.00986661279876],[46.00399686807103,57.0289023008454],[46.026601747626685,57.036040683863604],[46.04563743567324,57.03366122285662],[46.058486081988406,57.06735602719341],[46.03469147193019,57.084012254234935],[46.00613793986041,57.086391715241035],[46.000189287346274,57.097099289766476],[45.92404653515926,57.097099289766476],[45.88954435057454,57.08520198473794],[45.85385243548727,57.082822523731046],[45.83957566945229,57.06140737467831],[45.75986372575697,57.020956537579906],[45.66587501602676,56.98169543098352],[45.63137283144195,56.9662289344451],[45.58021441981731,56.9662289344451],[45.52191762517438,56.96265974293688],[45.501692206624554,56.95314189891356],[45.4481543339932,56.94957270740544],[45.41127268840265,56.94957270740544],[45.394616461361835,56.93648567187213],[45.399375383373496,56.92339863634059],[45.37439104281282,56.90793213980216],[45.385098617338606,56.90436294829395],[45.41246241890592,56.91150133131215],[45.41484187991175,56.90198348728794],[45.41246241890592,56.89365537376763],[45.43863648996988,56.87818887722911],[45.40651376639099,56.87224022471587],[45.33869912772553,56.866291572200666],[45.239951495982865,56.84011750113582],[45.18403416234648,56.84011750113582],[45.16618820480248,56.852014806166125],[45.116219523680314,56.8424969621428],[45.10670167965699,56.83178938761648],[45.061491920545684,56.82465100459828],[45.015092430931816,56.81394343007284],[44.97702105483871,56.80918450806163],[44.94608806176309,56.769923401465334],[44.96466938569766,56.76288456803829],[45.00393049229422,56.74146941898475],[45.05270944291401,56.7271926529511],[45.05389917341692,56.70696723440145],[45.032484024363825,56.661757475290855],[45.08364243598945,56.62249636869457],[45.10505758504165,56.61535798567725],[45.144318691638205,56.5856147231034],[45.237117670865324,56.516610353934055],[45.27875823846771,56.494005474379286],[45.275189046958964,56.43213948822725],[45.24425605388272,56.423811374707824],[45.190718181252166,56.42262164420393],[45.188338720246335,56.4142935306845],[45.111006237556225,56.408344878169395],[45.096729471521336,56.40120649515119],[45.070555400457465,56.40120649515119],[45.03010456335809,56.39287838163185],[44.99798183977973,56.39287838163185],[44.97775642123035,56.384550268110644],[44.93611585362797,56.384550268110644],[44.91945962658742,56.37860161559545],[44.88614717250535,56.38098107660154],[44.850455257418254,56.37265296308212],[44.852834718424084,56.346478892018254],[44.859973101441575,56.33458158698883],[44.85878337093866,56.31792535994829],[44.8266606473595,56.30721778542196],[44.77907142724343,56.278664253352],[44.72910274612073,56.24059287725774],[44.708877327571436,56.20014204015844],[44.724343824109155,56.172778238591484],[44.775502235734685,56.1454144370255],[44.79572765428398,56.12280955746976],[44.80524549830721,56.08235872037038],[44.788589271266666,56.06570249332983],[44.72910274612073,56.06332303232462],[44.63749349739653,56.06689222383194],[44.62202700085801,56.0883073728846],[44.60537077381738,56.11686090495554],[44.58038643325642,56.133517131996086],[44.557781553701304,56.13946578451031],[44.49472583704671,56.14065551501242],[44.53755613515121,56.115671174451556],[44.55540209269547,56.10496359992523],[44.562540475712964,56.0883073728846],[44.560161014707134,56.06570249332983],[44.52089990811058,56.06134014815141],[44.498295028555454,56.06609907016449],[44.46260311346756,56.08989368022137],[44.43880850340961,56.091083410724465],[44.415013893351485,56.08751421921714],[44.415013893351485,56.07918610569594],[44.40311658832171,56.07204772267871],[44.38051170876659,56.07204772267871],[44.3674246732347,56.0684785311705],[44.38765009178399,56.05420176513418],[44.40073712731588,56.05182230412809],[44.417393354357316,56.04468392111086],[44.424531737374714,56.03516607708754],[44.41144470184203,56.02207904155601],[44.40073712731588,56.00899200602359],[44.40192685781879,55.98757685697183],[44.42334200687189,55.968541168925185],[44.450705808438585,55.94474655886732],[44.47212095749079,55.938797906352214],[44.48163880151402,55.92214167931069]]]]}},{"type":"Feature","properties":{"kind":"district","id":"uyezd-1897-455","name":"Нижегородский","provinceId":"nizhny-novgorod"},"geometry":{"type":"MultiPolygon","coordinates":[[[[44.560161014707134,56.06570249332983],[44.52089990811058,56.09306629489581],[44.468551765982134,56.10615333042912],[44.44356742542118,56.113291713446436],[44.41858308486023,56.1311376709891],[44.390029552789734,56.14660416752761],[44.34719925468532,56.15374255054484],[44.30436895658002,56.15493228104882],[44.266297580486466,56.15255282004273],[44.22941593489645,56.16207066406605],[44.20800078584425,56.17753716060447],[44.21989809087322,56.20965988418176],[44.20562132483842,56.24059287725774],[44.17468833176218,56.271525870334685],[44.12709911164539,56.29888967190075],[44.075940700020574,56.322684281958615],[44.030730940909535,56.328632934473724],[44.00019452466787,56.32665005030229],[43.968071801089515,56.30642463175264],[43.970451262095345,56.260025142139924],[43.952605304551795,56.23504080157818],[43.90263662342909,56.20648726950732],[43.83125279325427,56.18388238995247],[43.799130069675115,56.176744006935245],[43.75273058006187,56.18269265945035],[43.70038243793343,56.192210503473675],[43.67658782787539,56.16074874128485],[43.69205432441311,56.146471975250314],[43.709900281956656,56.13576440072301],[43.6980029769276,56.11791844317938],[43.6635007923427,56.100072485636716],[43.68134674988696,56.094123833120626],[43.70514135994509,56.08936491110941],[43.69562351592185,56.065570301051636],[43.66944944485799,56.04534488250279],[43.66231106183979,56.03701676898167],[43.64803429580498,56.03582703847947],[43.63137806876435,56.01322215892382],[43.6135321112208,56.003704314900496],[43.6135321112208,55.976340513332644],[43.5861683096533,55.976340513332644],[43.579029926635904,55.96920213031534],[43.58735804015622,55.96206374729811],[43.57189154361841,55.950166442268696],[43.545717472554635,55.945407520257476],[43.53857908953723,55.937079406736274],[43.521922862496595,55.93351021522726],[43.53500989802858,55.920423179695725],[43.55761477758361,55.91566425768451],[43.581409387641735,55.894249108631854],[43.58497857915039,55.88592099511065],[43.614721841723714,55.894249108631854],[43.65160348731373,55.88354153410633],[43.6777775583783,55.88354153410633],[43.690864593910284,55.87640315108733],[43.71109001245957,55.87283395958001],[43.72655650899729,55.86688530706401],[43.709900281956656,55.85260854102947],[43.68253648038988,55.838331774994934],[43.68610567189862,55.820485817450404],[43.675398097372565,55.81810635644431],[43.6635007923427,55.8252447394634],[43.65279321781655,55.80501932091376],[43.66706998385216,55.788363093873116],[43.65517267882238,55.74553279576684],[43.63613699077601,55.74077387375651],[43.608773189209224,55.73958414325351],[43.5861683096533,55.75029171777983],[43.57784019613299,55.74077387375651],[43.56951208261267,55.72887656872629],[43.591852577611945,55.72049337509084],[43.61445745716706,55.694319304026976],[43.62040610968164,55.6990782260373],[43.626354762196925,55.72049337509084],[43.650149372254965,55.71454472257574],[43.67156452130717,55.695509034529096],[43.69535913136521,55.67409388547733],[43.70844616689789,55.68718092100789],[43.72391266343561,55.68956038201398],[43.7298613159501,55.65862738893881],[43.74413808198491,55.67171442447123],[43.77150188355249,55.67171442447123],[43.83455760020628,55.66933496346425],[43.8500240967448,55.657437658434915],[43.82622948668596,55.63721223988616],[43.8143321816569,55.62888412636495],[43.809573259645326,55.605089516307096],[43.85597274925929,55.61698682133651],[43.87738789831158,55.60746897731319],[43.93568469295451,55.608658707817085],[43.98684310458013,55.608658707817085],[44.011827445140995,55.61103816882132],[44.03681178570194,55.60746897731319],[44.087970197327564,55.61103816882132],[44.09272911933913,55.59081275027256],[44.103436693865284,55.575346253734125],[44.14031833945601,55.5670181402147],[44.16173348850821,55.56820787071682],[44.20099459510477,55.57653598423802],[44.235496779688866,55.56820787071682],[44.273568155782506,55.55512083518537],[44.306880609863775,55.55036191317416],[44.3437622554545,55.531326225127515],[44.34852117746616,55.53727487764084],[44.37469524852994,55.54203379965295],[44.37707470953577,55.55274137417838],[44.39492066707932,55.56820787071682],[44.429422851664214,55.56820787071682],[44.44132015669327,55.56344894870471],[44.46273530574557,55.56820787071682],[44.474632610775345,55.5622592182026],[44.474632610775345,55.57296679272803],[44.48296072429566,55.58010517574712],[44.45440719222516,55.593192211278655],[44.41752554663524,55.61936628234163],[44.398489858588775,55.63840197038827],[44.41157689412075,55.64910954491549],[44.43061258216713,55.64673008390948],[44.46273530574557,55.64910954491549],[44.477012071781175,55.66219658044791],[44.477012071781175,55.7002679565412],[44.50437587334787,55.70621660905453],[44.54244724944151,55.71930364458695],[44.5912262000605,55.74547771565082],[44.5912262000605,55.7859285527502],[44.61383107961642,55.80496424079773],[44.63524622866862,55.80853343230594],[44.59955431358081,55.81686154582715],[44.582898086540176,55.83470750336981],[44.603123505089556,55.846604808400116],[44.620969462633816,55.838276694878914],[44.63762568967445,55.838276694878914],[44.6340564981658,55.85017399990833],[44.60193377458664,55.87515834047008],[44.582898086540176,55.87158914896009],[44.56743159000246,55.88586591499552],[44.53887805793276,55.88824537600064],[44.51032452586235,55.893004298012826],[44.48163880151402,55.92214167931069],[44.47212095749079,55.938797906352214],[44.450705808438585,55.94474655886732],[44.42334200687189,55.968541168925185],[44.40192685781879,55.98757685697183],[44.40073712731588,56.00899200602359],[44.41144470184203,56.02207904155601],[44.424531737374714,56.03516607708754],[44.417393354357316,56.04468392111086],[44.40073712731588,56.05182230412809],[44.38765009178399,56.05420176513418],[44.3674246732347,56.0684785311705],[44.38051170876659,56.07204772267871],[44.40311658832171,56.07204772267871],[44.415013893351485,56.07918610569594],[44.415013893351485,56.08751421921714],[44.43880850340961,56.091083410724465],[44.46260311346756,56.08989368022137],[44.498295028555454,56.06609907016449],[44.52089990811058,56.06134014815141],[44.560161014707134,56.06570249332983]]]]}},{"type":"Feature","properties":{"kind":"district","id":"uyezd-1897-682","name":"Семеновский","provinceId":"nizhny-novgorod"},"geometry":{"type":"MultiPolygon","coordinates":[[[[44.65460408854906,57.19941611301691],[44.67180377273324,57.161315360862304],[44.67061404222997,57.13871048130754],[44.65395781518916,57.1125364102427],[44.62540428311938,57.088741800184835],[44.62540428311938,57.07327530364641],[44.59923021205542,57.07327530364641],[44.6075583255753,57.05423961559977],[44.60398913406708,57.03639365805524],[44.60041994255789,57.01973743101549],[44.583763715517165,57.01973743101549],[44.570676679985546,57.029255275037926],[44.540933417412404,57.014978509003384],[44.5195182683601,57.00070174296885],[44.48977500578696,56.99594282095674],[44.47192904824288,56.98523524643042],[44.420770636618236,56.98642497693342],[44.40054521806832,56.98642497693342],[44.37794033851267,56.9769071329101],[44.33273057940207,56.97333794140198],[44.24231106118096,56.96500982788078],[44.1744964225148,56.953112522852244],[44.14713262094749,56.96144063637256],[44.16854776999987,57.00308120397494],[44.204239685087146,57.00902985648828],[44.21613699011621,57.03163473604491],[44.22089591212787,57.0708958426412],[44.250639174701014,57.1113466797397],[44.21613699011621,57.14703859482777],[44.20661914609289,57.16488455237052],[44.18044507502893,57.16369482186742],[44.15665046497081,57.14941805583298],[44.14237369893583,57.14108994231266],[44.113820166866034,57.12681317627812],[44.11976881938017,57.11015694923758],[44.11976881938017,57.08993153068784],[44.05433364171975,57.07803422565851],[43.97105250651613,57.06137799861788],[43.937740052434684,57.074465034148524],[43.89015083231746,57.08279314766973],[43.83780269018955,57.08279314766973],[43.834233498680355,57.06732665113121],[43.83066430717206,57.05067042409155],[43.83780269018955,57.03877311906125],[43.82709511566296,57.012599047998265],[43.815197810633805,57.00189147347194],[43.812818349627975,56.98642497693342],[43.822336193651296,56.97928659391531],[43.80330050560474,56.962630366875565],[43.79259293107894,56.948353600840136],[43.80924915811967,56.944784409332016],[43.816387541137075,56.938835756816815],[43.83542322918372,56.936456295810814],[43.83780269018955,56.91385141625595],[43.79021347007311,56.89243626720233],[43.77652519012,56.881064464661016],[43.77057653760542,56.867977429128594],[43.73726408352415,56.8655979681225],[43.75748950207353,56.85013147158584],[43.787232764646056,56.84656228007586],[43.80983764420198,56.825147131024096],[43.84433982878616,56.82038820901199],[43.85980632532388,56.802542251469234],[43.85147821180356,56.77279898889627],[43.865754977838364,56.72402003827666],[43.890739318400115,56.72045084676667],[43.909775006446495,56.70260488922392],[43.894308509908775,56.69427677570272],[43.891929048902945,56.68118974017038],[43.876462552365226,56.66810270463885],[43.85147821180356,56.67762054866217],[43.847909020294814,56.70379461972604],[43.83363225426001,56.70141515872092],[43.80031980017803,56.68356920117639],[43.79556087816637,56.66096432162162],[43.765817615593846,56.641928633574004],[43.76105869358228,56.60980590999591],[43.74202300553581,56.60266752697861],[43.7336948920147,56.578872916920744],[43.71703866497406,56.572924264405636],[43.68967486340737,56.57054480339954],[43.68729540240154,56.53961181032446],[43.765817615593846,56.53247342730723],[43.782473842634396,56.54080154082657],[43.838391176271585,56.52652477479292],[43.91334419795524,56.511058278254495],[44.00257398567361,56.50391989523727],[44.00495344667944,56.47417663266421],[43.94903611304305,56.47060744115422],[43.95141557404888,56.44086417858303],[43.93594907751036,56.436105256570926],[43.88360093538272,56.431346334559706],[43.8824112048798,56.44562310059425],[43.84433982878616,56.4717971716582],[43.83601171526584,56.493212320709965],[43.794371147663455,56.493212320709965],[43.74440246654164,56.49202259020696],[43.74321273603873,56.463469058136994],[43.80626845269323,56.42301822103859],[43.8395809067745,56.40993118550706],[43.87289336085577,56.390895497459525],[43.888359857394285,56.36591115689769],[43.909775006446495,56.36948034840679],[43.978779375615574,56.33616789432561],[44.00019452466787,56.32665005030229],[44.030730940909535,56.328632934473724],[44.075940700020574,56.322684281958615],[44.12709911164539,56.29888967190075],[44.17468833176218,56.271525870334685],[44.20562132483842,56.24059287725774],[44.21989809087322,56.20965988418176],[44.20800078584425,56.17753716060447],[44.22941593489645,56.16207066406605],[44.266297580486466,56.15255282004273],[44.30436895658002,56.15493228104882],[44.34719925468532,56.15374255054484],[44.390029552789734,56.14660416752761],[44.41858308486023,56.1311376709891],[44.44356742542118,56.113291713446436],[44.468551765982134,56.10615333042912],[44.52089990811058,56.09306629489581],[44.560161014707134,56.06570249332983],[44.562540475712964,56.0883073728846],[44.55540209269547,56.10496359992523],[44.53755613515121,56.115671174451556],[44.49472583704671,56.14065551501242],[44.557781553701304,56.13946578451031],[44.58038643325642,56.133517131996086],[44.60537077381738,56.11686090495554],[44.62202700085801,56.0883073728846],[44.63749349739653,56.06689222383194],[44.72910274612073,56.06332303232462],[44.788589271266666,56.06570249332983],[44.80524549830721,56.08235872037038],[44.79572765428398,56.12280955746976],[44.775502235734685,56.1454144370255],[44.724343824109155,56.172778238591484],[44.708877327571436,56.20014204015844],[44.72910274612073,56.24059287725774],[44.77907142724343,56.278664253352],[44.8266606473595,56.30721778542196],[44.85878337093866,56.31792535994829],[44.859973101441575,56.33458158698883],[44.852834718424084,56.346478892018254],[44.850455257418254,56.37265296308212],[44.88614717250535,56.38098107660154],[44.91945962658742,56.37860161559545],[44.93611585362797,56.384550268110644],[44.97775642123035,56.384550268110644],[44.99798183977973,56.39287838163185],[45.03010456335809,56.39287838163185],[45.070555400457465,56.40120649515119],[45.096729471521336,56.40120649515119],[45.111006237556225,56.408344878169395],[45.188338720246335,56.4142935306845],[45.190718181252166,56.42262164420393],[45.24425605388272,56.423811374707824],[45.275189046958964,56.43213948822725],[45.27875823846771,56.494005474379286],[45.237117670865324,56.516610353934055],[45.144318691638205,56.5856147231034],[45.10505758504165,56.61535798567725],[45.08364243598945,56.62249636869457],[45.032484024363825,56.661757475290855],[45.05389917341692,56.70696723440145],[45.05270944291401,56.7271926529511],[45.00393049229422,56.74146941898475],[44.96466938569766,56.76288456803829],[44.94608806176309,56.769923401465334],[44.924672912710705,56.74731852190871],[44.81283824543651,56.74018013889148],[44.778336060852496,56.7520774439217],[44.78071552185824,56.77111313196834],[44.79975120990488,56.77825151498477],[44.779525791355056,56.7949077420262],[44.779525791355056,56.81513316057496],[44.82235608945974,56.81989208258804],[44.83544312499216,56.853204536669224],[44.85685827404454,56.88175806873919],[44.860427465553556,56.90912187030605],[44.850909621529524,56.91031160080915],[44.85685827404454,56.937675402375135],[44.885411806114334,56.94838297690244],[44.902068033155054,56.95433162941568],[44.903257763658324,56.96503920394209],[44.88184261460603,56.9769365089724],[44.893739919635095,57.003110580035376],[44.906826955166714,57.04356141713467],[44.915155068687476,57.10899659479492],[44.706952230677146,57.15777554541452],[44.703383039168756,57.170862580946945],[44.68315762061893,57.19822638251391],[44.65460408854906,57.19941611301691]]]]}},{"type":"Feature","properties":{"kind":"district","id":"uyezd-1897-788","name":"Балахнинский","provinceId":"nizhny-novgorod"},"geometry":{"type":"MultiPolygon","coordinates":[[[[43.24769636074328,56.856744352116024],[43.221331345277875,56.86812757606366],[43.16422428113821,56.86693784555976],[43.15351670661162,56.84552269650889],[43.12972209655349,56.824107547455256],[43.03097446481162,56.81577943393583],[42.98100578368866,56.82172808644916],[42.956021443127966,56.80507185940861],[42.91913979753733,56.80269239840252],[42.900823251683505,56.81015469486256],[42.89376296015032,56.7967185518355],[42.86401969757718,56.78244178580007],[42.84498400953062,56.75864717574221],[42.831896973998994,56.73961148769557],[42.829517512993164,56.71343741663081],[42.816430477460834,56.696781189591064],[42.82832778248989,56.65989954400087],[42.854501853553856,56.64800223897146],[42.927075414231766,56.621828167906614],[42.925885683729206,56.58970544432852],[42.93421379724917,56.56234164276157],[42.91398837870014,56.54211622421192],[42.90566026517938,56.47906050755777],[42.86996835009211,56.45407616699593],[42.84736347053645,56.427902095931174],[42.89733215165942,56.42433290442296],[42.91160891769431,56.43028155693718],[42.9330240667467,56.42552263492597],[42.929454875237596,56.41362532989753],[42.958008407308185,56.41362532989753],[42.972285173343074,56.41838425190785],[42.98537220887469,56.43028155693718],[43.02701277647691,56.43028155693718],[43.03534088999767,56.45169670599081],[43.05675603905005,56.471922124540455],[43.08055064910826,56.460024819511126],[43.106724720172224,56.42076371291475],[43.17215989783264,56.42076371291475],[43.161452323306136,56.366036109780026],[43.154313940288645,56.347000421733384],[43.130519330230435,56.32915446418975],[43.09720687614899,56.31130850664522],[43.113863103189715,56.28751389658825],[43.11624256419545,56.26371928652861],[43.0757917270966,56.26371928652861],[43.03653062050014,56.26133982552349],[43.00797708843035,56.26371928652861],[42.986561939378056,56.25182198150017],[43.01154627993874,56.245873328985866],[43.01392574094449,56.22683764093922],[43.00797708843035,56.19947383937235],[43.02820250697947,56.18281761233083],[43.02463331547108,56.164971654787195],[43.03413335630138,56.15532885788339],[43.07101500189131,56.13748290033895],[43.10670691697912,56.12796505631563],[43.135260449048815,56.126775325813426],[43.149537215083626,56.13629316983675],[43.17809074715403,56.14938020536739],[43.22924915877885,56.157708318887714],[43.22330050626427,56.17436454592915],[43.20902374022947,56.17912346794125],[43.18522913017152,56.196969425484],[43.20188535721206,56.20410780850123],[43.253043768837685,56.18745158146068],[43.28516649241604,56.168415893414036],[43.33632490404157,56.17198508492403],[43.40889846471939,56.18388238995247],[43.46957472036815,56.18983104246669],[43.487420677911615,56.21719484403365],[43.52311259299951,56.21719484403365],[43.527871515011086,56.18388238995247],[43.57546073512716,56.186261850958566],[43.64565483479915,56.194589964477906],[43.70038243793343,56.192210503473675],[43.75273058006187,56.18269265945035],[43.799130069675115,56.176744006935245],[43.83125279325427,56.18388238995247],[43.90263662342909,56.20648726950732],[43.952605304551795,56.23504080157818],[43.970451262095345,56.260025142139924],[43.968071801089515,56.30642463175264],[44.00019452466787,56.32665005030229],[43.978779375615574,56.33616789432561],[43.909775006446495,56.36948034840679],[43.888359857394285,56.36591115689769],[43.87289336085577,56.390895497459525],[43.8395809067745,56.40993118550706],[43.80626845269323,56.42301822103859],[43.74321273603873,56.463469058136994],[43.74440246654164,56.49202259020696],[43.794371147663455,56.493212320709965],[43.83601171526584,56.493212320709965],[43.84433982878616,56.4717971716582],[43.8824112048798,56.44562310059425],[43.88360093538272,56.431346334559706],[43.93594907751036,56.436105256570926],[43.95141557404888,56.44086417858303],[43.94903611304305,56.47060744115422],[44.00495344667944,56.47417663266421],[44.00257398567361,56.50391989523727],[43.91334419795524,56.511058278254495],[43.838391176271585,56.52652477479292],[43.782473842634396,56.54080154082657],[43.765817615593846,56.53247342730723],[43.68729540240154,56.53961181032446],[43.68967486340737,56.57054480339954],[43.71703866497406,56.572924264405636],[43.7336948920147,56.578872916920744],[43.74202300553581,56.60266752697861],[43.76105869358228,56.60980590999591],[43.765817615593846,56.641928633574004],[43.79556087816637,56.66096432162162],[43.80031980017803,56.68356920117639],[43.83363225426001,56.70141515872092],[43.847909020294814,56.70379461972604],[43.85147821180356,56.67762054866217],[43.876462552365226,56.66810270463885],[43.891929048902945,56.68118974017038],[43.894308509908775,56.69427677570272],[43.909775006446495,56.70260488922392],[43.890739318400115,56.72045084676667],[43.865754977838364,56.72402003827666],[43.85147821180356,56.77279898889627],[43.85980632532388,56.802542251469234],[43.84433982878616,56.82038820901199],[43.80983764420198,56.825147131024096],[43.787232764646056,56.84656228007586],[43.75748950207353,56.85013147158584],[43.73726408352415,56.8655979681225],[43.77057653760542,56.867977429128594],[43.77652519012,56.881064464661016],[43.79021347007311,56.89243626720233],[43.7140707178861,56.953112522852244],[43.702173412857036,56.99713255145886],[43.665291767266496,56.99713255145886],[43.63911769620245,56.97928659391531],[43.62008200815589,56.97928659391531],[43.57606197954786,56.937646026313814],[43.553457099993,56.938835756816815],[43.521334376414025,56.90909249424385],[43.497539766355814,56.90790276374085],[43.48802192233258,56.89243626720233],[43.503488418870035,56.88529788418599],[43.46779650378275,56.871021118151454],[43.43567378020458,56.87221084865455],[43.42615593618055,56.860313543624244],[43.364289950029224,56.84960596909782],[43.33335695695361,56.83651893356638],[43.31908019091871,56.81153459300454],[43.29409585035714,56.7984475574731],[43.26673204878983,56.81034486250154],[43.24769636074328,56.856744352116024]]]]}},{"type":"Feature","properties":{"kind":"district","id":"uyezd-1897-789","name":"Васильсурский","provinceId":"nizhny-novgorod"},"geometry":{"type":"MultiPolygon","coordinates":[[[[45.18952845074925,55.94950548087854],[45.1969312183225,55.93456775345207],[45.21358744536313,55.91434233490331],[45.233812863913315,55.88816826383936],[45.24571016894229,55.87746068931303],[45.27783289252064,55.87984015031815],[45.27307397050898,55.8643736537815],[45.24452043843937,55.8596147317685],[45.21477717586605,55.85366607925428],[45.20287987083699,55.84414823523096],[45.20050040983116,55.81797416416789],[45.20882852335156,55.78704117109193],[45.21834636737479,55.76205683053017],[45.23500259441614,55.75372871700897],[45.226674480895824,55.73588275946622],[45.19217229631093,55.70732922739536],[45.18741337429927,55.69781138337204],[45.20882852335156,55.69781138337204],[45.23500259441614,55.70138057488114],[45.26236639598292,55.71922653242567],[45.30400696358531,55.69543192236595],[45.3170939991172,55.681155156331414],[45.35397564470712,55.67639623432028],[45.38847782929211,55.66806812079908],[45.406323786835564,55.64308378023813],[45.434877318905976,55.63475566671879],[45.457482198461186,55.64070431923301],[45.488415191536625,55.63356593621578],[45.513399532098376,55.62404809219246],[45.544332525173814,55.62999674470579],[45.57883470975871,55.62999674470579],[45.60262931981674,55.647842702250315],[45.63118285188635,55.64546324124422],[45.651408270436534,55.62999674470579],[45.65973638395685,55.61690970917515],[45.691859107535116,55.60620213464793],[45.73587913614333,55.62166863118637],[45.757294285195535,55.62642755319758],[45.79655539179209,55.61096105665915],[45.832247306879104,55.595494560122496],[45.828678115370444,55.60977132615606],[45.81559107983847,55.63356593621578],[45.82272946285596,55.66330919878875],[45.816780810341385,55.70376003588716],[45.78703754776886,55.70970868840138],[45.760863476704195,55.70494976638927],[45.73706886664625,55.71803680192258],[45.71327425658741,55.72517518493989],[45.7406380581549,55.752538986505876],[45.7549148241898,55.75848763902107],[45.788227278271776,55.78228224907893],[45.803693774809496,55.760867100027966],[45.81559107983847,55.75848763902107],[45.84414461190816,55.78347197958283],[45.869128952469914,55.78704117109193],[45.90482086755693,55.801317937125575],[45.908390059065674,55.82749200819033],[45.93218466912451,55.841768774225756],[45.95122035717088,55.85842500126639],[45.96311766219995,55.87151203679881],[45.98453281125215,55.87389149780482],[46.00594796030516,55.87151203679881],[46.02498364835162,55.882219611324246],[46.039260414386426,55.87032230629483],[46.04758852790675,55.87746068931303],[46.04520906690092,55.890547724845455],[46.044019336398,55.90125529937089],[46.06900367695975,55.91791152641144],[46.10112640053811,55.92386017892663],[46.08209071249164,55.954793172001715],[46.11302370556708,55.97620832105437],[46.14276696814049,56.00595158362742],[46.185597266244905,56.01427969714863],[46.239135138876264,56.01665915815464],[46.26055028792856,56.02617700217796],[46.26768867094596,56.039264037708605],[46.23794540837335,56.039264037708605],[46.2141507983154,56.038074307206486],[46.187976727250735,56.039264037708605],[46.157043734175296,56.051161342737934],[46.13919777663175,56.04164349871461],[46.1296799326078,56.045212690223714],[46.14038750713466,56.060679186761256],[46.13443885462017,56.065438108774245],[46.11778262757874,56.065438108774245],[46.09755720902936,56.069007300282465],[46.10588532254977,56.10231975436364],[46.172510230713016,56.10826840687875],[46.19630484077105,56.14752951347513],[46.24984271340241,56.14396032196603],[46.27601678446699,56.15466789649146],[46.330744387600554,56.18322142856232],[46.36524657218545,56.21177496063228],[46.38190279922608,56.232000379181926],[46.38428226023191,56.25579498923979],[46.371195224700024,56.272451216280416],[46.41045633129578,56.285538251811865],[46.43900986336619,56.29624582633917],[46.43544067185744,56.31409178388183],[46.42711255833712,56.32598908891214],[46.41521525330815,56.32004043639702],[46.41402552280444,56.30814313136761],[46.4045076787812,56.303384209356395],[46.39261037375214,56.306953400865495],[46.39261037375214,56.32836854991823],[46.37000549419711,56.333127471929444],[46.3616773806767,56.343835046454885],[46.37238495520285,56.3545426209821],[46.3616773806767,56.375957770033864],[46.32598546558889,56.36643992601054],[46.28672435899313,56.42711618165957],[46.26887840144887,56.429495642665664],[46.27482705396416,56.455669713730416],[46.26174001843138,56.47708486278138],[46.256716711863966,56.493212320709965],[46.20436856973552,56.51224800875661],[46.156779349618645,56.52533504428903],[46.14012312257801,56.5098685477506],[46.10086201598226,56.49202259020696],[46.07468794491759,56.4717971716582],[46.05922144837987,56.45395121411367],[46.028288455304434,56.44443337009035],[45.9628532776441,56.437294987073045],[45.87600295093067,56.41469010751739],[45.82722400031168,56.40874145500308],[45.78439370220647,56.411120916009175],[45.78439370220647,56.399223610980734],[45.81651642578554,56.37542900092101],[45.85339807137555,56.354013851870135],[45.879572142439415,56.3278397808044],[45.897418099983675,56.30404517074655],[45.91407432702431,56.27192244716757],[45.92240244054463,56.22314349654787],[45.92240244054463,56.194589964477906],[45.88908998646336,56.18745158146068],[45.847449418860975,56.175554276431264],[45.7927218157267,56.1541391273795],[45.75940936164552,56.13629316983675],[45.70706121951699,56.130344517321646],[45.65471307738854,56.11963694279443],[45.66423092141177,56.07918610569594],[45.65828226889729,56.07085799217473],[45.646384963868314,56.06966826167262],[45.630918467330595,56.050632573625975],[45.62734927582185,56.033976346585426],[45.6095033182783,56.023268772058124],[45.604744396266724,56.00899200602359],[45.567862750675914,56.00899200602359],[45.52265299156487,56.014940658537896],[45.50480703402141,56.01137146702968],[45.48815080698078,56.014940658537896],[45.457217813904535,56.01850985004691],[45.44413077837256,56.01137146702968],[45.41319778529712,56.00780227552147],[45.406059402279716,56.016130389040896],[45.37869560071223,56.01256119753357],[45.35371126015127,56.020889311053004],[45.33229611109907,56.01137146702968],[45.30850150104023,56.00899200602359],[45.30731177053732,55.99590497049125],[45.295414465508344,55.99114604848093],[45.277568507964794,55.99352550948693],[45.239497131871154,55.9733000909364],[45.219271713321774,55.96378224691308],[45.19904629477248,55.95783359439797],[45.18952845074925,55.94950548087854]]]]}},{"type":"Feature","properties":{"kind":"district","id":"uyezd-1897-790","name":"Княгининский","provinceId":"nizhny-novgorod"},"geometry":{"type":"MultiPolygon","coordinates":[[[[45.18952845074925,55.94950548087854],[45.160974918678754,55.96616170791917],[45.134800847614976,55.9733000909364],[45.13123165610623,55.98400766546361],[45.11576515956851,55.98757685697183],[45.09791920202425,55.98400766546361],[45.08959108850393,55.96140278590796],[45.06222728693715,55.950695211380655],[45.019396988831936,55.941177367357334],[44.99679210927682,55.91857248780159],[44.98608453475067,55.92333140981467],[44.965859116200576,55.942367097861315],[44.94920288915994,55.930469792831005],[44.92302881809608,55.920951948807684],[44.88733690300827,55.92809033182491],[44.85640390993283,55.93760817584823],[44.85164498792117,55.960213055403976],[44.82309145585076,55.95307467238675],[44.79572765428398,55.94593628936944],[44.761225469699085,55.930469792831005],[44.72910274612073,55.92571087082068],[44.692221100530006,55.93165952333401],[44.64582161091685,55.93641844534612],[44.58038643325642,55.930469792831005],[44.53279721313955,55.92809033182491],[44.506623142075775,55.92809033182491],[44.48163880151402,55.92214167931069],[44.51032452586235,55.893004298012826],[44.53887805793276,55.88824537600064],[44.56743159000246,55.88586591499552],[44.582898086540176,55.87158914896009],[44.60193377458664,55.87515834047008],[44.6340564981658,55.85017399990833],[44.63762568967445,55.838276694878914],[44.620969462633816,55.838276694878914],[44.603123505089556,55.846604808400116],[44.582898086540176,55.83470750336981],[44.59955431358081,55.81686154582715],[44.63524622866862,55.80853343230594],[44.61383107961642,55.80496424079773],[44.5912262000605,55.7859285527502],[44.5912262000605,55.74547771565082],[44.54244724944151,55.71930364458695],[44.50437587334787,55.70621660905453],[44.477012071781175,55.7002679565412],[44.477012071781175,55.66219658044791],[44.46273530574557,55.64910954491549],[44.43061258216713,55.64673008390948],[44.41157689412075,55.64910954491549],[44.398489858588775,55.63840197038827],[44.41752554663524,55.61936628234163],[44.45440719222516,55.593192211278655],[44.48296072429566,55.58010517574712],[44.474632610775345,55.57296679272803],[44.474632610775345,55.5622592182026],[44.46273530574557,55.56820787071682],[44.44132015669327,55.56344894870471],[44.429422851664214,55.56820787071682],[44.39492066707932,55.56820787071682],[44.37707470953577,55.55274137417838],[44.37469524852994,55.54203379965295],[44.34852117746616,55.53727487764084],[44.3437622554545,55.531326225127515],[44.34852117746616,55.5182391895942],[44.37112605702128,55.50158296255357],[44.372315787524194,55.48135754400392],[44.38183363154743,55.467080777969386],[44.38897201456483,55.459942394951184],[44.38897201456483,55.439716976401535],[44.39373093657649,55.40640452232036],[44.38540282305608,55.39450721729102],[44.39373093657649,55.382609912262495],[44.412766624623664,55.39926613930313],[44.436561234681704,55.39093802578192],[44.428233121161384,55.36833314622707],[44.472253149769514,55.382609912262495],[44.50913479535944,55.369522876731054],[44.55196509346474,55.36238449371196],[44.58170835603726,55.357625571700744],[44.61502081011933,55.357625571700744],[44.64714353369769,55.340969344660195],[44.672127874258635,55.340969344660195],[44.69473275381447,55.33740015315199],[44.716147902866766,55.33502069214589],[44.7042505978377,55.31955419560746],[44.71733763336968,55.31241581259023],[44.729234938398655,55.31598500409836],[44.74589116543929,55.31598500409836],[44.761357661977804,55.33383096164289],[44.78184746508303,55.3315065807537],[44.78898584810115,55.34935253829645],[44.80802153614761,55.34935253829645],[44.81634964966793,55.36957795684698],[44.83181614620565,55.370767687349186],[44.84609291224045,55.394562297406964],[44.85917994777314,55.39932121941818],[44.87821563581961,55.39694175841306],[44.88654374933992,55.387423914389736],[44.89725132386607,55.387423914389736],[44.916287011912445,55.366008765337],[44.954358388006085,55.35411146030856],[44.98886057259027,55.370767687349186],[45.00194760812296,55.366008765337],[45.038829253712976,55.36719849584098],[45.051916289244865,55.371957417851306],[45.06738278578338,55.38028553137251],[45.076900629806616,55.404080141430285],[45.11497200589937,55.42430555998001],[45.145904998975695,55.456428283558104],[45.17564826154822,55.46713585808452],[45.18635583607428,55.48855100713717],[45.20063260210917,55.49449965965236],[45.24822182222604,55.4992585816635],[45.27796508479936,55.5075866951847],[45.307708347371886,55.5099661561908],[45.27082670178116,55.58491917787436],[45.22085802065926,55.605144596423116],[45.24584236122021,55.63131866748699],[45.27320616278699,55.6467851640255],[45.2874829288226,55.67295923508937],[45.3170939991172,55.681155156331414],[45.30400696358531,55.69543192236595],[45.26236639598292,55.71922653242567],[45.23500259441614,55.70138057488114],[45.20882852335156,55.69781138337204],[45.18741337429927,55.69781138337204],[45.19217229631093,55.70732922739536],[45.226674480895824,55.73588275946622],[45.23500259441614,55.75372871700897],[45.21834636737479,55.76205683053017],[45.20882852335156,55.78704117109193],[45.20050040983116,55.81797416416789],[45.20287987083699,55.84414823523096],[45.21477717586605,55.85366607925428],[45.24452043843937,55.8596147317685],[45.27307397050898,55.8643736537815],[45.27783289252064,55.87984015031815],[45.24571016894229,55.87746068931303],[45.233812863913315,55.88816826383936],[45.21358744536313,55.91434233490331],[45.1969312183225,55.93456775345207],[45.18952845074925,55.94950548087854]]]]}}]}
