{"type":"FeatureCollection","features":[{"type":"Feature","properties":{"kind":"province","id":"ryazan","name":"Рязанская губерния"},"geometry":{"type":"MultiPolygon","coordinates":[[[[38.593787559724014,54.83426297371714],[38.59043604926596,54.82130833194422],[38.557123595184606,54.822498062448204],[38.54522629015483,54.80822129641278],[38.582107935745555,54.78561641685704],[38.61304092882099,54.78204722534794],[38.60709227630651,54.770149920320385],[38.584487396751385,54.770149920320385],[38.5642619782021,54.761821806799176],[38.592815510271706,54.74873477126765],[38.62374850334794,54.73802719674132],[38.653491765920464,54.72969908322011],[38.697511794528594,54.73683746623734],[38.73082424860995,54.7320785442271],[38.771275085709334,54.70114555115015],[38.78555185174414,54.688058515617726],[38.78674158224705,54.674971480086285],[38.78674158224705,54.65236660053054],[38.7974491567732,54.61548495494115],[38.80542475755239,54.57389497944589],[38.849444786159715,54.5715155184389],[38.83159882861625,54.559618213409486],[38.83159882861625,54.54534144737504],[38.8482550556568,54.54296198636894],[38.85420370817128,54.54772090838016],[38.86610101320035,54.54534144737504],[38.86610101320035,54.529874950836515],[38.836357750627826,54.526305759328395],[38.823270715095845,54.51797764580719],[38.82208098459293,54.51083926278987],[38.80304529654656,54.49775222725843],[38.795906913528356,54.47276788669659],[38.780440416990636,54.47990626971479],[38.76854311196158,54.47038842569147],[38.756645806932596,54.44540408512963],[38.75783553743551,54.42636839708299],[38.73523065788039,54.415660822557555],[38.70905658681573,54.371640793949155],[38.72809227486219,54.32762076534165],[38.72571281385636,54.295498041762585],[38.74474850190363,54.303826155283794],[38.75307661542385,54.29668777226559],[38.751886884920935,54.28716992824227],[38.72809227486219,54.26932397069872],[38.68407224625477,54.26813424019652],[38.67812359374029,54.2598061266754],[38.69121062927226,54.2514780131542],[38.71262577832438,54.2538574741602],[38.73404092737748,54.249098552149874],[38.72928200536511,54.23125259460544],[38.724523083353446,54.218165559073014],[38.720953891844786,54.20864771504969],[38.70905658681573,54.20388879303847],[38.69834901228958,54.19318121851304],[38.73404092737748,54.18723256599695],[38.76616365095583,54.19437094901515],[38.78638906950512,54.145591998396434],[38.7423690408978,54.11108981381038],[38.6995387427925,54.08253628174042],[38.69715928178667,54.073018437717096],[38.71883881539561,54.07513351416762],[38.731925850927496,54.06680540064641],[38.752151269476784,54.059667017630076],[38.767617766014595,54.03230321606311],[38.77832534054146,54.04539025159376],[38.7818945320502,54.029923755057105],[38.794981567582084,54.033492946566206],[38.80568914210815,54.029923755057105],[38.80449941160532,54.014457258518675],[38.79141237607334,54.00255995348925],[38.77951507104437,53.99185237896382],[38.77713561003854,53.97757561292751],[38.78665345406177,53.96924749940808],[38.78665345406177,53.96091938588687],[38.81044806411981,53.941883697840225],[38.839001596189505,53.944263158846326],[38.85803728423668,53.95259127236753],[38.8877805468092,53.94545288935022],[38.965113029498596,53.92284800979448],[39.079327157778806,53.92284800979448],[39.145952065942055,53.92284800979448],[39.09598338481945,53.8835869031973],[39.04839416470257,53.87882798118608],[39.0150817106213,53.88001771168997],[38.97938979553349,53.868120406660644],[38.96154383798985,53.85741283213334],[38.9508362634638,53.83837714408767],[38.952025993966714,53.80149549849651],[38.93061084491441,53.77294196642743],[38.94012868893773,53.75390627838079],[38.96035410748703,53.720593824297836],[38.97938979553349,53.706317058263295],[38.990097370060354,53.68728137021665],[38.962733568492766,53.67419433468512],[38.916334078879615,53.67300460418211],[38.95559518547546,53.6182770010482],[38.95559518547546,53.599241313001556],[38.954405454972544,53.584964546967015],[38.91990327038836,53.5742569724398],[38.88421135530055,53.569498050428585],[38.890160007815034,53.558790475901375],[38.883021624797635,53.55046236238194],[38.82591456065752,53.549272631878054],[38.77951507104437,53.53380613534139],[38.75809992199136,53.5314266743353],[38.7390642339449,53.517149908300766],[38.73668477293907,53.50882179477956],[38.721218276401345,53.483837454217806],[38.73549504243624,53.43386877309608],[38.769997227020426,53.3981768580088],[38.77237668802697,53.36843359543583],[38.70099285785206,53.36724386493372],[38.690285283325196,53.35891575141251],[38.691475013828025,53.338690332863756],[38.73549504243624,53.31489572280403],[38.75809992199136,53.28753192123716],[38.749771808471046,53.27206542469962],[38.76047938299719,53.264927041682306],[38.785463723558856,53.26611677218442],[38.809258333616896,53.21852755206871],[38.794981567582084,53.2101994385475],[38.77356641852988,53.20425078603328],[38.78070480154729,53.19711240301605],[38.797361028587915,53.174507523460306],[38.803309681102405,53.159041026921884],[38.81996590814304,53.159041026921884],[38.836622135183674,53.14952318289856],[38.843760518201876,53.13881560837312],[38.86430713219572,53.135507886008824],[38.89048120325932,53.12480031148152],[38.89048120325932,53.104574892933655],[38.92141419633565,53.09624677941156],[38.94401907589112,53.08672893538824],[39.00112614003105,53.08078028287402],[39.04276670763246,53.078400821867916],[39.080838083725745,53.07602136086369],[39.09987377177239,53.071262438850695],[39.1153402683109,53.10695435393788],[39.16292948842707,53.13788734701483],[39.22836466608776,53.148594921540266],[39.25334900664844,53.15573330455847],[39.3128355317942,53.156923035060586],[39.31878418430913,53.14264626902694],[39.31521499280021,53.12836950299062],[39.40563451102338,53.12717977248848],[39.43843985081842,53.12811212776704],[39.48483934043211,53.12811212776704],[39.530049099543064,53.11502509223462],[39.55622317060728,53.12097374474884],[39.580017780665145,53.11978401424584],[39.578828050162315,53.080522907649545],[39.55146424859518,53.08171263815255],[39.541946404571945,53.06386668060891],[39.559792362115765,53.0614872196029],[39.54789505708679,53.04245153155715],[39.59429454670048,53.04007207055114],[39.613330234747124,53.05791802809469],[39.67519622089898,53.03650287904293],[39.766805469623534,53.01270826898329],[39.82629199476894,53.00319042496086],[39.86317364035931,52.99724177244664],[39.88339905890878,53.007949346972076],[39.888157980920795,53.022226113007505],[39.90838339947017,53.015087729990185],[39.925039626511165,53.016277460493285],[39.950023967071935,52.99843150294964],[39.98095696014818,52.979395814903],[39.97619803813616,53.01270826898329],[39.977387768638984,53.05910775859778],[40.005941300708855,53.0614872196029],[40.03211537177317,53.071005063626224],[40.060668903843045,53.091230482176755],[40.07970459188969,53.091230482176755],[40.07970459188969,53.06862560262013],[40.127293812006116,53.065056411112],[40.12610408150338,53.050779645076574],[40.09160189691937,53.05553856708957],[40.076135400381204,53.04364126205927],[40.076135400381204,53.010328807977196],[40.12610408150338,53.00438015546386],[40.14632950005276,53.0210363825045],[40.16417545759657,53.04245153155715],[40.16655491860294,53.05791802809469],[40.151088422064774,53.08766129066677],[40.148708961059214,53.1043175177074],[40.17369330161981,53.11502509223462],[40.195108450672905,53.1114559007265],[40.21771333022794,53.100748326199195],[40.23912847928014,53.1078867092165],[40.240318209783766,53.13168131927525],[40.2331798267661,53.156665659836115],[40.2248517132456,53.21734191548603],[40.223661982742776,53.28158736264318],[40.22009279123358,53.319658738736464],[40.23436955726892,53.338694426782226],[40.240318209783766,53.370817150360395],[40.267682011350104,53.38628364689971],[40.28314850788818,53.38628364689971],[40.29028689090593,53.37438634187039],[40.29385608241432,53.36010957583496],[40.324789075490656,53.34821227080555],[40.34025557202801,53.34583280979953],[40.37118856510435,53.336314965777106],[40.386655061641704,53.338694426782226],[40.40569074968835,53.36962741985917],[40.404501019185524,53.385093916395824],[40.419967515723684,53.385093916395824],[40.42353670723217,53.398180951928246],[40.430675090249835,53.43268313651243],[40.43543401226185,53.46361612958938],[40.43226139758741,53.490583354320705],[40.473901965189086,53.46916820526805],[40.50364522776179,53.46321955275472],[40.64165396610004,53.485824432309485],[40.66901776766717,53.50723958136133],[40.67020749816991,53.52865473041399],[40.690432916719374,53.538172574438285],[40.72374537080135,53.54531095745462],[40.77847297393545,53.54293149644941],[40.837959499080945,53.53341365242707],[40.854615726121935,53.50367038985313],[40.87960006668342,53.500101198345],[40.936707130823166,53.50129092884801],[41.00452176948907,53.490583354320705],[41.05330072010841,53.48820389331469],[41.06281856413173,53.46678874426284],[41.0616288336289,53.44418386470808],[41.056869911617596,53.42871736816956],[41.10564886223703,53.42752763766656],[41.165135387382435,53.42514817666144],[41.17822242291494,53.43466602068386],[41.20677595498482,53.440614673198084],[41.20915541599047,53.4572709002405],[41.20320676347643,53.475116857784045],[41.218673260013794,53.476306588287144],[41.24722679208376,53.47154766627406],[41.271021402142324,53.47273739677715],[41.271021402142324,53.49296281532769],[41.265072749627485,53.50961904236735],[41.30314412572068,53.51913688639164],[41.365010111872536,53.52865473041399],[41.36738957287819,53.561967184496055],[41.37333822539303,53.58219260304668],[41.3750902755038,53.609349379762506],[41.37571768639869,53.61907424863598],[41.3804766084107,53.69045807881045],[41.37690741690151,53.70949376685709],[41.37690741690151,53.75589325647069],[41.38404579991918,53.793964632564865],[41.3804766084107,53.80943112910339],[41.34954361533437,53.802292746085186],[41.272211132645154,53.82608735614304],[41.25912409711336,53.81537978161761],[41.20915541599047,53.82251816463394],[41.22224245152299,53.85583061871601],[41.22462191252863,53.880814959276876],[41.235329487054784,53.89271226430629],[41.2400884090668,53.90698903034172],[41.25198571409568,53.96290636397864],[41.307903047732694,53.96409609448165],[41.338836040808225,53.98551124353438],[41.355492267849215,54.02477235012978],[41.36738957287819,54.03666965516],[41.366199842375366,54.06046426521786],[41.388804721931194,54.062843726223065],[41.42211717601238,54.068792378737285],[41.437583672550446,54.0783102227615],[41.44353232506458,54.090207527790916],[41.42092744550955,54.11876105985991],[41.41259933198906,54.14374540042263],[41.399512296457345,54.159211896959285],[41.4102198709834,54.166350279977486],[41.46256801311122,54.168729740983494],[41.47089612663163,54.18538596802413],[41.4233069065152,54.20085246456256],[41.42449663701794,54.2091805780819],[41.46256801311122,54.22345734411741],[41.510157233228455,54.21631896109921],[41.518485346748946,54.255580067696386],[41.51729561624532,54.27937467775425],[41.5125366942341,54.29960009630398],[41.48398316216423,54.318635784350626],[41.48398316216423,54.347189316419616],[41.47089612663163,54.36860446547324],[41.45028392326865,54.39201229071661],[41.45623257578349,54.413427439769265],[41.44433527075381,54.44555016334833],[41.44195580974815,54.46696531240018],[41.47169907232086,54.45030908535954],[41.48359637735054,54.449119354856535],[41.4853912931262,54.44971766011512],[41.50501152640284,54.45625773787465],[41.51096017891768,54.472913964916174],[41.50620125690566,54.51574426302068],[41.48716556885902,54.559764291629065],[41.45385311477704,54.570471866154506],[41.45385311477704,54.58831782369815],[41.48954502986467,54.59307674570936],[41.50501152640284,54.60854324224779],[41.52285748394665,54.635907043815635],[41.520478022941,54.6585119233705],[41.51096017891768,54.671598958902024],[41.54070344149038,54.68230653342835],[41.56806724305751,54.70015249097199],[41.58948239210972,54.73346494505317],[41.590672122612546,54.763208207626136],[41.578774817583664,54.81198715824664],[41.591861853115375,54.82507419377906],[41.57282616506873,54.84648934283082],[41.578774817583664,54.859576378362355],[41.60732834965354,54.87742233590599],[41.602569427641434,54.89883748495962],[41.614466732671204,54.91073478998806],[41.616846193676864,54.944047244070134],[41.58948239210972,54.954754818596456],[41.591861853115375,54.965462393121896],[41.55616993802774,54.97735969815131],[41.544272632998855,54.96784185412799],[41.525236944952304,54.97022131513498],[41.545462363501684,54.99520565569584],[41.544272632998855,55.021379726758816],[41.577585087080834,55.017810535250604],[41.582344009092054,55.022569457261824],[41.623984576694525,55.027328379274906],[41.61089754116202,55.04279487581155],[41.635881881723414,55.04636406732155],[41.623984576694525,55.06539975536819],[41.6311229597122,55.091573826431166],[41.627553768202915,55.11655816699203],[41.697943906464985,55.142411182253156],[41.68219171571508,55.14391139089639],[41.634602495598585,55.15461896542274],[41.585823544979235,55.172464922965446],[41.550131629891666,55.183172497491796],[41.52276782832456,55.17960330598362],[41.49897321826592,55.17127519246242],[41.48112726072293,55.162947078943034],[41.452573728652226,55.151049773914565],[41.415692083062595,55.16532653995],[41.377620706969424,55.18555195849967],[41.333600678361336,55.183172497491796],[41.32289310383521,55.15937788743395],[41.3371698698698,55.152239504415775],[41.326462295343674,55.12011678083854],[41.28006280572998,55.108219475810074],[41.23723250762549,55.1355832773761],[41.20035086203512,55.10346055379887],[41.23366331611629,55.09513244027585],[41.22176601108737,55.086804326756464],[41.199161131531525,55.0796659437392],[41.1872638265026,55.054681603177414],[41.20035086203512,55.02612807110836],[41.17060759946162,55.02969726261654],[41.15038218091297,55.03921510664077],[41.125397840351525,55.063009716698616],[41.10279296079568,55.09870163178584],[41.09922376928722,55.141531929890334],[41.06591131520531,55.139152468885186],[41.06234212369685,55.17008546196121],[41.04449616615227,55.21410549056873],[40.998096676539376,55.24146929213475],[40.992148024024516,55.25098713615898],[41.00047613754498,55.27478174621683],[40.96954314446867,55.29500716476741],[40.92314365485578,55.34378611538614],[40.9326614988791,55.36401153393581],[40.91719500234092,55.37352937796004],[40.79227329953517,55.36996018645095],[40.810119257078156,55.3854266829876],[40.77918626400265,55.41873913706968],[40.75182246243634,55.4151699455615],[40.7280278523769,55.421118598075736],[40.729217582880494,55.43658509461329],[40.723268930365634,55.455620782659935],[40.729217582880494,55.46870781819143],[40.70661270332465,55.49131269774807],[40.68638728477606,55.518676499315916],[40.669731057734936,55.53890191786465],[40.632849412144395,55.545247147212635],[40.61500345460031,55.559523913247176],[40.58882938353635,55.558334182744176],[40.53648124140827,55.5761801402887],[40.535291510905,55.58926717582014],[40.48294336877699,55.59283636732924],[40.45438983670712,55.60830286386678],[40.4234568436315,55.60711313336378],[40.438923340168955,55.58450825380893],[40.43297468765482,55.553575260733844],[40.42226711312823,55.52264226765787],[40.39133412005262,55.51788334564568],[40.36872924049696,55.52264226765787],[40.33660651691869,55.490519544079696],[40.29853514082488,55.476242778043385],[40.30210433233398,55.49408873558791],[40.24023834618195,55.51312442363455],[40.215254005621176,55.50360657961123],[40.172423707516494,55.48695035256971],[40.198597778580535,55.50955523212634],[40.19502858707135,55.52621145916599],[40.16290586349246,55.53097038117721],[40.093901494323646,55.53929849469753],[40.04869173521314,55.535729303189314],[40.001102515096,55.54405741671052],[39.97968736604362,55.547626608218735],[39.97492844403196,55.56190337425416],[39.97849763554106,55.58569798431202],[39.9558927559854,55.6154412468841],[39.92206622082216,55.6205233055762],[39.8613899651734,55.61219519205677],[39.845923468635945,55.6193335750731],[39.77334990795812,55.587210851495016],[39.7531244894083,55.594349234511355],[39.73051960985336,55.60505680903866],[39.73051960985336,55.63361034110862],[39.71743257432102,55.64193845462982],[39.681740659233654,55.64550764613794],[39.619874673081625,55.666922795189706],[39.60559790704673,55.69071740524757],[39.57347518346856,55.68119956122425],[39.529455154860514,55.70142497977398],[39.530644885363074,55.71808120681453],[39.511609197316524,55.72640932033573],[39.505660544802396,55.71808120681453],[39.48305566524674,55.72521958983273],[39.372410728475714,55.71451201530631],[39.35813396244073,55.69785578826577],[39.32363177785611,55.70142497977398],[39.302216628803635,55.68595848323635],[39.26890417472219,55.68119956122425],[39.24748902566981,55.67406117820791],[39.20856318009268,55.66490215571933],[39.20768849922841,55.645659176705536],[39.23267283978936,55.61948510564159],[39.21720634325165,55.59450076507895],[39.23624203129802,55.565947233008984],[39.21601661274873,55.54929100596834],[39.16128900961445,55.50289151635572],[39.13749439955642,55.480286636799974],[39.09228464044537,55.46244067925545],[39.06016191686702,55.44578445221491],[39.0304186542937,55.44578445221491],[38.99115754769794,55.44935364372489],[38.97450132065731,55.44935364372489],[38.98401916468045,55.433887147186375],[38.98520889518336,55.38034927455466],[38.99353700870368,55.36488277801801],[38.98520889518336,55.363693047514026],[38.962604015628244,55.36488277801801],[38.94144511622252,55.357597966631175],[38.94951698009555,55.35298547298862],[38.91501479551141,55.338708706952275],[38.89478937696208,55.336329245948036],[38.88051261092647,55.31848328840351],[38.855528270365525,55.27446325979601],[38.886461263440964,55.270894068286026],[38.870994766903245,55.23282269219362],[38.899548298973656,55.192371855094244],[38.942378597078154,55.19475131610034],[38.95546563261004,55.186423202579135],[39.03160838479661,55.189992394089124],[39.02922892379078,55.17452589755158],[38.98877808669211,55.16619778402949],[38.98401916468045,55.15430047900193],[38.95903482411879,55.13645452145741],[38.95308617160421,55.118608563912886],[38.978070512165964,55.109090719889565],[39.02328027127621,55.109090719889565],[39.04350568982639,55.101952336872245],[39.02684946278495,55.093624223352904],[38.99710620021243,55.0852961098317],[38.962604015628244,55.08410637932958],[38.90073802947657,55.0817269183226],[38.849579617851035,55.07696799631228],[38.797231475722505,55.07101934379716],[38.75559090812101,55.057932308265634],[38.74488333359406,55.036517159212096],[38.74964225560572,55.00915335764602],[38.786523901196446,54.99368686110759],[38.79485201471677,54.977030634066956],[38.79604174521968,54.963943598534534],[38.775816326670295,54.92468249193914],[38.75440117761809,54.9115954564068],[38.72346818454186,54.91278518690892],[38.66993031191049,54.91635437841793],[38.65922273738435,54.90445707338949],[38.66755085090466,54.868765158302296],[38.64613570185246,54.84616027874655],[38.593787559724014,54.83426297371714]]]]}},{"type":"Feature","properties":{"kind":"district","id":"uyezd-1897-352","name":"Данковский","provinceId":"ryazan"},"geometry":{"type":"MultiPolygon","coordinates":[[[[38.73668477293907,53.50882179477956],[38.721218276401345,53.483837454217806],[38.73549504243624,53.43386877309608],[38.769997227020426,53.3981768580088],[38.77237668802697,53.36843359543583],[38.70099285785206,53.36724386493372],[38.690285283325196,53.35891575141251],[38.691475013828025,53.338690332863756],[38.73549504243624,53.31489572280403],[38.75809992199136,53.28753192123716],[38.749771808471046,53.27206542469962],[38.76047938299719,53.264927041682306],[38.785463723558856,53.26611677218442],[38.809258333616896,53.21852755206871],[38.794981567582084,53.2101994385475],[38.77356641852988,53.20425078603328],[38.78070480154729,53.19711240301605],[38.797361028587915,53.174507523460306],[38.803309681102405,53.159041026921884],[38.81996590814304,53.159041026921884],[38.836622135183674,53.14952318289856],[38.843760518201876,53.13881560837312],[38.86430713219572,53.135507886008824],[38.89048120325932,53.12480031148152],[38.89048120325932,53.104574892933655],[38.92141419633565,53.09624677941156],[38.94401907589112,53.08672893538824],[39.00112614003105,53.08078028287402],[39.04276670763246,53.078400821867916],[39.080838083725745,53.07602136086369],[39.09987377177239,53.071262438850695],[39.1153402683109,53.10695435393788],[39.16292948842707,53.13788734701483],[39.22836466608776,53.148594921540266],[39.25334900664844,53.15573330455847],[39.3128355317942,53.156923035060586],[39.31878418430913,53.14264626902694],[39.31521499280021,53.12836950299062],[39.40563451102229,53.12717977248762],[39.43894696510374,53.153353843552374],[39.48415672421398,53.19975333316597],[39.5127102562843,53.21878902121351],[39.55435082388651,53.20094306366809],[39.54602271036575,53.24377336177437],[39.47939780220294,53.24139390076748],[39.46512103616734,53.25210147529469],[39.46750049717326,53.26161931931801],[39.487725915722905,53.27232689384434],[39.480587532705854,53.291362581890084],[39.472259419185185,53.300880425913405],[39.4853464547169,53.34846964603091],[39.51033079527847,53.35798749005423],[39.519848639302054,53.387730752626304],[39.54483297986283,53.41271509318726],[39.55197136288059,53.454355660790526],[39.55316109338359,53.50908326392347],[39.52579729181619,53.51265245543346],[39.494864298740666,53.520980568953775],[39.44489561761778,53.526929221467114],[39.411583163536335,53.528118951971],[39.424670199068935,53.51146272492948],[39.40920370253042,53.51146272492948],[39.38897828398077,53.520980568953775],[39.37351178744305,53.5245497604619],[39.38183990096381,53.536447065491316],[39.35209663839049,53.54834437052065],[39.3009382267654,53.54477517901066],[39.26286685067212,53.550723831526746],[39.22360574407592,53.56619032806429],[39.20219059502335,53.58165682460094],[39.15103218339827,53.5745184415846],[39.117719729316825,53.5745184415846],[39.07369970070879,53.58760547711605],[39.0356283246155,53.611400087173905],[39.004695331539175,53.6542303852793],[38.990097370060354,53.68728137021665],[38.962733568492766,53.67419433468512],[38.916334078879615,53.67300460418211],[38.95559518547546,53.6182770010482],[38.95559518547546,53.599241313001556],[38.954405454972544,53.584964546967015],[38.91990327038836,53.5742569724398],[38.88421135530055,53.569498050428585],[38.890160007815034,53.558790475901375],[38.883021624797635,53.55046236238194],[38.82591456065752,53.549272631878054],[38.77951507104437,53.53380613534139],[38.75809992199136,53.5314266743353],[38.7390642339449,53.517149908300766],[38.73668477293907,53.50882179477956]]]]}},{"type":"Feature","properties":{"kind":"district","id":"uyezd-1897-353","name":"Скопинский","provinceId":"ryazan"},"geometry":{"type":"MultiPolygon","coordinates":[[[[39.145952065942055,53.92284800979448],[39.09598338481945,53.8835869031973],[39.04839416470257,53.87882798118608],[39.0150817106213,53.88001771168997],[38.97938979553349,53.868120406660644],[38.96154383798985,53.85741283213334],[38.9508362634638,53.83837714408767],[38.952025993966714,53.80149549849651],[38.93061084491441,53.77294196642743],[38.94012868893773,53.75390627838079],[38.96035410748703,53.720593824297836],[38.97938979553349,53.706317058263295],[38.990097370060354,53.68728137021665],[39.004695331539175,53.6542303852793],[39.0356283246155,53.611400087173905],[39.07369970070879,53.58760547711605],[39.117719729316825,53.5745184415846],[39.15103218339827,53.5745184415846],[39.20219059502335,53.58165682460094],[39.22360574407592,53.56619032806429],[39.26286685067212,53.550723831526746],[39.3009382267654,53.54477517901066],[39.35209663839049,53.54834437052065],[39.38183990096381,53.536447065491316],[39.37351178744305,53.5245497604619],[39.38897828398077,53.520980568953775],[39.40920370253042,53.51146272492948],[39.424670199068935,53.51146272492948],[39.411583163536335,53.528118951971],[39.44489561761778,53.526929221467114],[39.494864298740666,53.520980568953775],[39.52579729181619,53.51265245543346],[39.55316109338359,53.50908326392347],[39.601940044002674,53.529308682473115],[39.72210282479737,53.56262113655519],[39.789917463463176,53.59474386013425],[39.83631695307722,53.613779548180005],[39.85654237162678,53.606641165163666],[39.86606021565046,53.58165682460094],[39.88033698168526,53.58284655510394],[39.8731985986675,53.65898930729051],[39.89223428671406,53.6649379598066],[39.89580347822298,53.688732569864456],[39.90413159174374,53.701819605395904],[39.88985482570823,53.701819605395904],[39.88033698168526,53.763685591547045],[39.870819137661584,53.805326159150326],[39.870819137661584,53.82674130820217],[39.89223428671406,53.86600241479846],[39.83988614458606,53.89336621636631],[39.84821425810602,53.917160826424166],[39.842265605591976,53.940955436482916],[39.8327477615683,53.951663011009245],[39.88390617319409,53.9790268125762],[39.89580347822298,53.94928355000323],[39.91602889677263,53.951663011009245],[39.92792620180151,53.94809381949925],[39.93030566280734,53.961180855032566],[39.944582428842146,53.96475004654077],[39.97313596091256,53.94690408899714],[39.994551109965116,53.94809381949925],[39.99574084046803,53.998062500621955],[39.97194623040955,54.006390614142184],[39.954100272865915,53.994493309112855],[39.93506458481927,53.994493309112855],[39.92078781878446,54.00520088364007],[39.88985482570823,54.00282142263406],[39.870819137661584,54.0147187276625],[39.81966072603641,54.03256468520614],[39.801814768492775,54.037323607219136],[39.77564069742837,54.037323607219136],[39.757794739884645,54.05041064274978],[39.73281039932325,54.04208252922946],[39.69354929272776,54.0254263021898],[39.65190872512564,54.0182879191716],[39.65309845562855,53.99925223112585],[39.616216810038274,53.99687277011886],[39.58052489495011,54.001631692130076],[39.53650486634287,54.00282142263406],[39.50557187326655,53.988544656598634],[39.466310766670254,53.986165195592534],[39.42229073806301,53.97664735156921],[39.39968585850754,53.97664735156921],[39.37470151794605,53.982596004084414],[39.35804529090533,54.00520088364007],[39.34257879436761,54.01114953615438],[39.33425068084685,54.03494414621215],[39.31045607078837,54.03851333772125],[39.27476415570101,54.037323607219136],[39.259297659163195,54.0182879191716],[39.243831162625476,54.009959805650396],[39.22598520508184,53.9790268125762],[39.20219059502335,53.9754576210671],[39.17244733245083,53.97188842955711],[39.16173975792415,53.957611663523465],[39.16173975792415,53.93619651446993],[39.145952065942055,53.92284800979448]]]]}},{"type":"Feature","properties":{"kind":"district","id":"uyezd-1897-354","name":"Михайловский","provinceId":"ryazan"},"geometry":{"type":"MultiPolygon","coordinates":[[[[39.27476415570101,54.037323607219136],[39.284445638850755,54.05875555762218],[39.29753267438273,54.067083671143294],[39.31656836242928,54.069463132149394],[39.3391732419845,54.067083671143294],[39.34155270299059,54.09801666421846],[39.35345000801992,54.10277558623146],[39.37010623506046,54.09682693371546],[39.38319327059236,54.09801666421846],[39.38557273159845,54.10991396924877],[39.35820893003114,54.11467289126088],[39.36653704355181,54.127759926791434],[39.38914192310702,54.13965723182085],[39.399849497633696,54.15036480634718],[39.37724461807769,54.1670210333887],[39.38319327059236,54.17772860791413],[39.42007491618299,54.192005373948675],[39.399849497633696,54.203902678978004],[39.3641575825458,54.21342052300221],[39.3391732419845,54.22650755853375],[39.34274243349395,54.2491124380886],[39.37486515707248,54.2503021685925],[39.38676246210101,54.263389204124024],[39.371295965563824,54.27409677865124],[39.368916504557816,54.28718381418189],[39.37248569606648,54.31811680725875],[39.41412626366832,54.314547615749646],[39.48194090233484,54.295511927703004],[39.50930470390127,54.293132466697884],[39.50811497339871,54.34786006983083],[39.50719636845904,54.37909263780146],[39.50692524289606,54.388310906931096],[39.49978685987795,54.40972605598286],[39.43435168221833,54.41210551698806],[39.46647440579686,54.45374608459045],[39.44862844825286,54.51323260973727],[39.48788955484942,54.523940184263694],[39.403418689142356,54.56201156035698],[39.380813809587146,54.56201156035698],[39.35463973852248,54.542975872310336],[39.33560405047584,54.54059641130335],[39.31299917092063,54.52037099275459],[39.27016887281542,54.523940184263694],[39.25827156778679,54.533458028286034],[39.26659968130676,54.55249371633268],[39.27968671683865,54.57271913488241],[39.291584021867976,54.586995900916946],[39.30705051840596,54.597703475443275],[39.31061970991462,54.609600780472604],[39.284445638850755,54.63339539053144],[39.25470237627823,54.62982619902145],[39.215441269681584,54.62268781600414],[39.180939085097044,54.61554943298691],[39.159523936044394,54.61316997198082],[39.136919056489184,54.619118624496906],[39.079811992349434,54.594134283934174],[39.06077630430279,54.591754822929055],[39.04887899927346,54.603652127958384],[39.01675627569493,54.603652127958384],[39.0048589706656,54.59056509242596],[38.97987463010438,54.6048418584605],[38.93823406250253,54.59056509242596],[38.90492160842055,54.58342670940874],[38.88231672886534,54.55725263834487],[38.86610101320035,54.54534144737504],[38.86610101320035,54.529874950836515],[38.836357750627826,54.526305759328395],[38.823270715095845,54.51797764580719],[38.82208098459293,54.51083926278987],[38.80304529654656,54.49775222725843],[38.795906913528356,54.47276788669659],[38.780440416990636,54.47990626971479],[38.76854311196158,54.47038842569147],[38.756645806932596,54.44540408512963],[38.75783553743551,54.42636839708299],[38.73523065788039,54.415660822557555],[38.70905658681573,54.371640793949155],[38.72809227486219,54.32762076534165],[38.72571281385636,54.295498041762585],[38.74474850190363,54.303826155283794],[38.75307661542385,54.29668777226559],[38.751886884920935,54.28716992824227],[38.72809227486219,54.26932397069872],[38.68407224625477,54.26813424019652],[38.67812359374029,54.2598061266754],[38.69121062927226,54.2514780131542],[38.71262577832438,54.2538574741602],[38.73404092737748,54.249098552149874],[38.72928200536511,54.23125259460544],[38.724523083353446,54.218165559073014],[38.720953891844786,54.20864771504969],[38.70905658681573,54.20388879303847],[38.69834901228958,54.19318121851304],[38.73404092737748,54.18723256599695],[38.76616365095583,54.19437094901515],[38.78638906950512,54.145591998396434],[38.7423690408978,54.11108981381038],[38.6995387427925,54.08253628174042],[38.69715928178667,54.073018437717096],[38.71883881539561,54.07513351416762],[38.731925850927496,54.06680540064641],[38.752151269476784,54.059667017630076],[38.767617766014595,54.03230321606311],[38.77832534054146,54.04539025159376],[38.7818945320502,54.029923755057105],[38.794981567582084,54.033492946566206],[38.80568914210815,54.029923755057105],[38.80449941160532,54.014457258518675],[38.79141237607334,54.00255995348925],[38.77951507104437,53.99185237896382],[38.77713561003854,53.97757561292751],[38.78665345406177,53.96924749940808],[38.78665345406177,53.96091938588687],[38.81044806411981,53.941883697840225],[38.839001596189505,53.944263158846326],[38.85803728423668,53.95259127236753],[38.8877805468092,53.94545288935022],[38.965113029498596,53.92284800979448],[39.079327157778806,53.92284800979448],[39.145952065942055,53.92284800979448],[39.16173975792415,53.93619651446993],[39.16173975792415,53.957611663523465],[39.17244733245083,53.97188842955711],[39.20219059502335,53.9754576210671],[39.22598520508184,53.9790268125762],[39.243831162625476,54.009959805650396],[39.259297659163195,54.0182879191716],[39.27476415570101,54.037323607219136]]]]}},{"type":"Feature","properties":{"kind":"district","id":"uyezd-1897-356","name":"Зарайский","provinceId":"ryazan"},"geometry":{"type":"MultiPolygon","coordinates":[[[[38.86610101320035,54.54534144737504],[38.88231672886534,54.55725263834487],[38.90492160842055,54.58342670940874],[38.93823406250253,54.59056509242596],[38.97987463010438,54.6048418584605],[39.0048589706656,54.59056509242596],[39.01675627569493,54.603652127958384],[39.04887899927346,54.603652127958384],[39.06077630430279,54.591754822929055],[39.079811992349434,54.594134283934174],[39.136919056489184,54.619118624496906],[39.159523936044394,54.61316997198082],[39.180939085097044,54.61554943298691],[39.215441269681584,54.62268781600414],[39.25470237627823,54.62982619902145],[39.284445638850755,54.63339539053144],[39.31061970991506,54.644102965056874],[39.32846566745879,54.64767215656589],[39.36177812154015,54.66313865310441],[39.36772677405499,54.68217434115016],[39.358208930031225,54.7047792207068],[39.3153786319261,54.71310733422702],[39.31656836242911,54.72619436975856],[39.35701919952831,54.73095329177066],[39.38914192310755,54.73333275277676],[39.393900845118594,54.74523005780431],[39.442679795738556,54.749988979816415],[39.46528467529403,54.757127362834616],[39.46885386680216,54.774973320378166],[39.49621766836956,54.78092197289337],[39.50454578189032,54.79281927792181],[39.510494434404364,54.811854965967555],[39.53071985295392,54.8297009235112],[39.55332473250949,54.835649576026306],[39.53785823597177,54.845167420050515],[39.503356051387314,54.85706472507994],[39.471233327808164,54.87134149111447],[39.474802519316995,54.88918744865802],[39.47599224982,54.90465394519556],[39.48669982434669,54.92963828575651],[39.51406362591329,54.95462262631827],[39.56760149854429,54.97008912285581],[39.6092420661465,54.98674534989644],[39.61757017966717,54.997452924423655],[39.59615503061461,55.008160498949096],[39.555704193515496,55.03552430051694],[39.53309931395993,55.06645729359202],[39.5021663208844,55.084303251135665],[39.500976590381484,55.11404651370961],[39.46528467529403,55.140220584772585],[39.255892106781054,55.149738428796795],[39.219010461189974,55.136651393263485],[39.17736989358856,55.11880543571985],[39.12264229045465,55.12237462722895],[39.088140105869485,55.11880543571985],[39.072673609331765,55.09501082566199],[39.04350568982639,55.101952336872245],[39.02684946278495,55.093624223352904],[38.99710620021243,55.0852961098317],[38.962604015628244,55.08410637932958],[38.90073802947657,55.0817269183226],[38.849579617851035,55.07696799631228],[38.797231475722505,55.07101934379716],[38.75559090812101,55.057932308265634],[38.74488333359406,55.036517159212096],[38.74964225560572,55.00915335764602],[38.786523901196446,54.99368686110759],[38.79485201471677,54.977030634066956],[38.79604174521968,54.963943598534534],[38.775816326670295,54.92468249193914],[38.75440117761809,54.9115954564068],[38.72346818454186,54.91278518690892],[38.66993031191049,54.91635437841793],[38.65922273738435,54.90445707338949],[38.66755085090466,54.868765158302296],[38.64613570185246,54.84616027874655],[38.593787559724014,54.83426297371714],[38.59043604926596,54.82130833194422],[38.557123595184606,54.822498062448204],[38.54522629015483,54.80822129641278],[38.582107935745555,54.78561641685704],[38.61304092882099,54.78204722534794],[38.60709227630651,54.770149920320385],[38.584487396751385,54.770149920320385],[38.5642619782021,54.761821806799176],[38.592815510271706,54.74873477126765],[38.62374850334794,54.73802719674132],[38.653491765920464,54.72969908322011],[38.697511794528594,54.73683746623734],[38.73082424860995,54.7320785442271],[38.771275085709334,54.70114555115015],[38.78555185174414,54.688058515617726],[38.78674158224705,54.674971480086285],[38.78674158224705,54.65236660053054],[38.7974491567732,54.61548495494115],[38.80542475755239,54.57389497944589],[38.849444786159715,54.5715155184389],[38.83159882861625,54.559618213409486],[38.83159882861625,54.54534144737504],[38.8482550556568,54.54296198636894],[38.85420370817128,54.54772090838016],[38.86610101320035,54.54534144737504]]]]}},{"type":"Feature","properties":{"kind":"district","id":"uyezd-1897-357","name":"Егорьевский","provinceId":"ryazan"},"geometry":{"type":"MultiPolygon","coordinates":[[[[39.9558927559854,55.6154412468841],[39.92206622082216,55.6205233055762],[39.8613899651734,55.61219519205677],[39.845923468635945,55.6193335750731],[39.77334990795812,55.587210851495016],[39.7531244894083,55.594349234511355],[39.73051960985336,55.60505680903866],[39.73051960985336,55.63361034110862],[39.71743257432102,55.64193845462982],[39.681740659233654,55.64550764613794],[39.619874673081625,55.666922795189706],[39.60559790704673,55.69071740524757],[39.57347518346856,55.68119956122425],[39.529455154860514,55.70142497977398],[39.530644885363074,55.71808120681453],[39.511609197316524,55.72640932033573],[39.505660544802396,55.71808120681453],[39.48305566524674,55.72521958983273],[39.372410728475714,55.71451201530631],[39.35813396244073,55.69785578826577],[39.32363177785611,55.70142497977398],[39.302216628803635,55.68595848323635],[39.26890417472219,55.68119956122425],[39.24748902566981,55.67406117820791],[39.20856318009268,55.66490215571933],[39.20768849922841,55.645659176705536],[39.23267283978936,55.61948510564159],[39.21720634325165,55.59450076507895],[39.23624203129802,55.565947233008984],[39.21601661274873,55.54929100596834],[39.16128900961445,55.50289151635572],[39.13749439955642,55.480286636799974],[39.09228464044537,55.46244067925545],[39.06016191686702,55.44578445221491],[39.0304186542937,55.44578445221491],[38.99115754769794,55.44935364372489],[38.97450132065731,55.44935364372489],[38.98401916468045,55.433887147186375],[38.98520889518336,55.38034927455466],[38.99353700870368,55.36488277801801],[38.98520889518336,55.363693047514026],[38.962604015628244,55.36488277801801],[38.94144511622252,55.357597966631175],[38.94951698009555,55.35298547298862],[38.91501479551141,55.338708706952275],[38.89478937696208,55.336329245948036],[38.88051261092647,55.31848328840351],[38.855528270365525,55.27446325979601],[38.886461263440964,55.270894068286026],[38.870994766903245,55.23282269219362],[38.899548298973656,55.192371855094244],[38.942378597078154,55.19475131610034],[38.95546563261004,55.186423202579135],[39.03160838479661,55.189992394089124],[39.02922892379078,55.17452589755158],[38.98877808669211,55.16619778402949],[38.98401916468045,55.15430047900193],[38.95903482411879,55.13645452145741],[38.95308617160421,55.118608563912886],[38.978070512165964,55.109090719889565],[39.02328027127621,55.109090719889565],[39.04350568982639,55.101952336872245],[39.072673609331765,55.09501082566199],[39.088140105869485,55.11880543571985],[39.12264229045465,55.12237462722895],[39.17736989358856,55.11880543571985],[39.219010461189974,55.136651393263485],[39.255892106781054,55.149738428796795],[39.46528467529403,55.140220584772585],[39.500976590381484,55.11404651370961],[39.5021663208844,55.084303251135665],[39.53309931395993,55.06645729359202],[39.555704193515496,55.03552430051694],[39.59615503061461,55.008160498949096],[39.61757017966717,54.997452924423655],[39.62351883218122,55.02243726498363],[39.661590208274504,55.068836754598124],[39.69371293185374,55.06764702409423],[39.69609239285966,55.09382109515987],[39.710369158894466,55.12832327974317],[39.736543229958066,55.150928159298914],[39.765096762028385,55.16282546432833],[39.81982436516239,55.165204925334336],[39.89834657835488,55.17710223036376],[39.99828394059993,55.18780980489008],[40.02921693367537,55.17710223036376],[40.061339657254706,55.16401519483044],[40.06847804027166,55.18780980489008],[40.08870345882131,55.20089684042161],[40.10654941636494,55.216363336959155],[40.12320564340567,55.222311989473376],[40.11011860787378,55.26395255707665],[40.10179049435302,55.298454741659945],[40.11249806887979,55.318680160209595],[40.12796456541751,55.32224935171958],[40.14462079245823,55.33652611775323],[40.17079486352263,55.34366450077143],[40.185071629557434,55.35080288378866],[40.185071629557434,55.3662693803262],[40.21005597011883,55.36388991932108],[40.207676509113,55.37697695485261],[40.18745109056336,55.388874259881945],[40.15770782799083,55.39839210390615],[40.14462079245823,55.40790994792947],[40.17198459402563,55.43408401899343],[40.19815866508924,55.43646347999943],[40.173174324528546,55.451929976537066],[40.16603594151079,55.466206742572496],[40.16603594151079,55.47691431709704],[40.172423707516494,55.48695035256971],[40.198597778580535,55.50955523212634],[40.19502858707135,55.52621145916599],[40.16290586349246,55.53097038117721],[40.093901494323646,55.53929849469753],[40.04869173521314,55.535729303189314],[40.001102515096,55.54405741671052],[39.97968736604362,55.547626608218735],[39.97492844403196,55.56190337425416],[39.97849763554106,55.58569798431202],[39.9558927559854,55.6154412468841]]]]}},{"type":"Feature","properties":{"kind":"district","id":"uyezd-1897-359","name":"Рязанский","provinceId":"ryazan"},"geometry":{"type":"MultiPolygon","coordinates":[[[[39.50719636845904,54.37909263780146],[39.53693289002479,54.37667798645815],[39.56667615259758,54.37191906444515],[39.599988606679474,54.38024717796636],[39.62616267774378,54.404041788024216],[39.66661351484263,54.40523151852722],[39.71063354345067,54.408800710035436],[39.76060222457275,54.408800710035436],[39.77487899060817,54.412369901545425],[39.81414009720411,54.41474936255143],[39.85816012581223,54.425456937077755],[39.89385204089978,54.438543972609295],[39.96047694906294,54.45163100814172],[40.06636296382203,54.46947696568535],[40.09015757388069,54.45401046914684],[40.13655706349438,54.467097504678364],[40.16630032606717,54.45638993015293],[40.19009493612494,54.47066669618836],[40.20318197165754,54.47066669618836],[40.20913062417239,54.496840767251335],[40.18176682260525,54.517066185800985],[40.179387361598884,54.5325326823395],[40.2008025106518,54.55156837038614],[40.232925234230244,54.57417324994091],[40.26742741881496,54.6122446260342],[40.27456580183263,54.63247004458482],[40.2864631068616,54.653885193637464],[40.279324723843935,54.68481818671175],[40.27813499334111,54.72051010179983],[40.254340383282454,54.73002794582315],[40.22697658171531,54.74311498135468],[40.20437170216028,54.73716632884046],[40.15559275154102,54.7562020168871],[40.14369544651125,54.77166851342554],[40.13298787198519,54.8049809675076],[40.13298787198519,54.82758584706246],[40.14964409902618,54.84424207410301],[40.217458737692084,54.84900099611422],[40.2353046952359,54.85851884013843],[40.254340383282454,54.85019072661723],[40.263858227305775,54.851380457120314],[40.263858227305775,54.870416145166956],[40.27575553233545,54.88350318069929],[40.28765283736443,54.895400485728715],[40.25671984428881,54.92038482628958],[40.28408364585595,54.934661592325],[40.319775560942695,54.907297790757156],[40.3245344829548,54.8894518332136],[40.34357017100135,54.878744258688165],[40.37450316407697,54.86446749265265],[40.416143731679355,54.85851884013843],[40.45897402978377,54.85970857064152],[40.48395837034534,54.87636479768118],[40.50061459738633,54.87993398919117],[40.52858357092689,54.87636213528093],[40.49849952093688,54.89169910194142],[40.513966017474246,54.91073478998806],[40.537760627532904,54.946426705075254],[40.51277628697151,54.97735969815131],[40.510396825965856,55.01186188273638],[40.48184329389589,55.041605145308466],[40.478274102386706,55.077297060395736],[40.4866022159072,55.111799244980816],[40.48779194641003,55.12964520252445],[40.465187066854995,55.147491160068085],[40.44615137880835,55.17128577012595],[40.45923841434015,55.1998393021968],[40.477084371883876,55.21054687672223],[40.48065356339306,55.21768525974035],[40.472325449872656,55.22720310376465],[40.45923841434015,55.229582564768876],[40.44615137880835,55.22125445124945],[40.425925960258965,55.21054687672223],[40.392613506176986,55.21292633772922],[40.37119835712478,55.237910678290085],[40.34145509455199,55.253377174828515],[40.30457344896162,55.24861825281552],[40.27245072538247,55.246238791811294],[40.237948540798556,55.265274479857936],[40.21534366124272,55.26646421035916],[40.18560039867002,55.24742852231252],[40.15347767509087,55.23315175627887],[40.12320564340567,55.222311989473376],[40.10654941636494,55.216363336959155],[40.08870345882131,55.20089684042161],[40.06847804027166,55.18780980489008],[40.061339657254706,55.16401519483044],[40.02921693367537,55.17710223036376],[39.99828394059993,55.18780980489008],[39.89834657835488,55.17710223036376],[39.81982436516239,55.165204925334336],[39.765096762028385,55.16282546432833],[39.736543229958066,55.150928159298914],[39.710369158894466,55.12832327974317],[39.69609239285966,55.09382109515987],[39.69371293185374,55.06764702409423],[39.661590208274504,55.068836754598124],[39.62351883218122,55.02243726498363],[39.61757017966717,54.997452924423655],[39.6092420661465,54.98674534989644],[39.56760149854429,54.97008912285581],[39.51406362591329,54.95462262631827],[39.48669982434669,54.92963828575651],[39.47599224982,54.90465394519556],[39.474802519316995,54.88918744865802],[39.471233327808164,54.87134149111447],[39.503356051387314,54.85706472507994],[39.53785823597177,54.845167420050515],[39.55332473250949,54.835649576026306],[39.53071985295392,54.8297009235112],[39.510494434404364,54.811854965967555],[39.50454578189032,54.79281927792181],[39.49621766836956,54.78092197289337],[39.46885386680216,54.774973320378166],[39.46528467529403,54.757127362834616],[39.442679795738556,54.749988979816415],[39.393900845118594,54.74523005780431],[39.38914192310755,54.73333275277676],[39.35701919952831,54.73095329177066],[39.31656836242911,54.72619436975856],[39.3153786319261,54.71310733422702],[39.358208930031225,54.7047792207068],[39.36772677405499,54.68217434115016],[39.36177812154015,54.66313865310441],[39.32846566745879,54.64767215656589],[39.31061970991506,54.644102965056874],[39.284445638850755,54.63339539053144],[39.31061970991462,54.609600780472604],[39.30705051840596,54.597703475443275],[39.291584021867976,54.586995900916946],[39.27968671683865,54.57271913488241],[39.26659968130676,54.55249371633268],[39.25827156778679,54.533458028286034],[39.27016887281542,54.523940184263694],[39.31299917092063,54.52037099275459],[39.33560405047584,54.54059641130335],[39.35463973852248,54.542975872310336],[39.380813809587146,54.56201156035698],[39.403418689142356,54.56201156035698],[39.48788955484942,54.523940184263694],[39.44862844825286,54.51323260973727],[39.46647440579686,54.45374608459045],[39.43435168221833,54.41210551698806],[39.49978685987795,54.40972605598286],[39.50692524289606,54.388310906931096],[39.50719636845904,54.37909263780146]]]]}},{"type":"Feature","properties":{"kind":"district","id":"uyezd-1897-360","name":"Ряжский","provinceId":"ryazan"},"geometry":{"type":"MultiPolygon","coordinates":[[[[39.88033698168526,53.58284655510394],[39.9254362033452,53.610746135115754],[39.98611245899352,53.602418021594545],[40.02894275709873,53.60003856058934],[40.02656329609307,53.5798131420397],[40.0658244026891,53.58576179455392],[40.112223892302794,53.56910556751426],[40.166951495436976,53.567915837011256],[40.24547370862902,53.566726106507275],[40.30614996427805,53.560777453993055],[40.33470349634801,53.552449340473714],[40.36206729791506,53.53698284393519],[40.40489759602028,53.51318823387733],[40.43226139758741,53.490583354320705],[40.473901965189086,53.46916820526805],[40.50364522776179,53.46321955275472],[40.64165396610004,53.485824432309485],[40.66901776766717,53.50723958136133],[40.67020749816991,53.52865473041399],[40.690432916719374,53.538172574438285],[40.72374537080135,53.54531095745462],[40.77847297393545,53.54293149644941],[40.837959499080945,53.53341365242707],[40.86056437863678,53.57029529801726],[40.890307641209475,53.64048939768783],[40.88792818020383,53.65714562473025],[40.87603087517414,53.672612121266894],[40.85937464813395,53.67023266026169],[40.81297515852026,53.65833535523325],[40.78680108745595,53.65595589422627],[40.72017617929288,53.65952508573447],[40.67496642018202,53.652386702717166],[40.64522315760851,53.652386702717166],[40.655930732135374,53.6738018517699],[40.690432916719374,53.69045807881045],[40.69757129973705,53.74994460395647],[40.70708914376037,53.77730840552432],[40.67258695917556,53.78682624954675],[40.63570531358519,53.789205710553645],[40.601203129001185,53.78563651904366],[40.57027013592486,53.77730840552432],[40.557183100393146,53.776118675021316],[40.52387064631117,53.791585171559746],[40.52387064631117,53.82727708664693],[40.55361390888467,53.87962522877387],[40.52030145480278,53.89866091682051],[40.45605600764527,53.928404179394455],[40.440589511107106,53.942680945429885],[40.439399780604276,53.96409609448165],[40.45843546865092,53.98313178252829],[40.477471156697476,53.99740854856371],[40.47985061770393,54.00811612308915],[40.50483495826461,54.015254506107354],[40.517128840128336,54.022789465959235],[40.48738557755554,54.03468677098866],[40.45883204548567,54.056101920039524],[40.41124282536916,54.10250140965402],[40.37793037128726,54.13105494172487],[40.34699737821174,54.1334344027291],[40.324392498655904,54.1405727857473],[40.307736271614914,54.12986521122187],[40.26014705149839,54.11082952317523],[40.23873190244619,54.109639792671246],[40.20541944836421,54.11558844518644],[40.14593292321881,54.103691140157025],[40.14831238422437,54.08465545211038],[40.15783022824769,54.06561976406374],[40.1411740012075,54.03706623199288],[40.11381019964037,54.027548387970455],[40.08525666757049,54.03230730998167],[40.0686004405295,54.020410004952254],[40.043616099968105,54.015651082941034],[40.02220095091581,53.99661539489439],[39.99574084046803,53.998062500621955],[39.994551109965116,53.94809381949925],[39.97313596091256,53.94690408899714],[39.944582428842146,53.96475004654077],[39.93030566280734,53.961180855032566],[39.92792620180151,53.94809381949925],[39.91602889677263,53.951663011009245],[39.89580347822298,53.94928355000323],[39.88390617319409,53.9790268125762],[39.8327477615683,53.951663011009245],[39.842265605591976,53.940955436482916],[39.84821425810602,53.917160826424166],[39.83988614458606,53.89336621636631],[39.89223428671406,53.86600241479846],[39.870819137661584,53.82674130820217],[39.870819137661584,53.805326159150326],[39.88033698168526,53.763685591547045],[39.88985482570823,53.701819605395904],[39.90413159174374,53.701819605395904],[39.89580347822298,53.688732569864456],[39.89223428671406,53.6649379598066],[39.8731985986675,53.65898930729051],[39.88033698168526,53.58284655510394]]]]}},{"type":"Feature","properties":{"kind":"district","id":"uyezd-1897-761","name":"Касимовский","provinceId":"ryazan"},"geometry":{"type":"MultiPolygon","coordinates":[[[[40.172423707516494,55.48695035256971],[40.16603594151079,55.47691431709704],[40.16603594151079,55.466206742572496],[40.173174324528546,55.451929976537066],[40.19815866508924,55.43646347999943],[40.17198459402563,55.43408401899343],[40.14462079245823,55.40790994792947],[40.15770782799083,55.39839210390615],[40.18745109056336,55.388874259881945],[40.207676509113,55.37697695485261],[40.21005597011883,55.36388991932108],[40.185071629557434,55.3662693803262],[40.185071629557434,55.35080288378866],[40.17079486352263,55.34366450077143],[40.14462079245823,55.33652611775323],[40.12796456541751,55.32224935171958],[40.11249806887979,55.318680160209595],[40.10179049435302,55.298454741659945],[40.11011860787378,55.26395255707665],[40.12320564340567,55.222311989473376],[40.15347767509087,55.23315175627887],[40.18560039867002,55.24742852231252],[40.21534366124272,55.26646421035916],[40.237948540798556,55.265274479857936],[40.27245072538247,55.246238791811294],[40.30457344896162,55.24861825281552],[40.34145509455199,55.253377174828515],[40.37119835712478,55.237910678290085],[40.392613506176986,55.21292633772922],[40.425925960258965,55.21054687672223],[40.44615137880835,55.22125445124945],[40.45923841434015,55.229582564768876],[40.472325449872656,55.22720310376465],[40.48065356339306,55.21768525974035],[40.477084371883876,55.21054687672223],[40.45923841434015,55.1998393021968],[40.44615137880835,55.17128577012595],[40.465187066854995,55.147491160068085],[40.48779194641003,55.12964520252445],[40.4866022159072,55.111799244980816],[40.478274102386706,55.077297060395736],[40.48184329389589,55.041605145308466],[40.510396825965856,55.01186188273638],[40.51277628697151,54.97735969815131],[40.537760627532904,54.946426705075254],[40.513966017474246,54.91073478998806],[40.49849952093688,54.89169910194142],[40.52858357092689,54.87636213528093],[40.5591757765852,54.860766108866336],[40.58772930865507,54.85243799534513],[40.618662301731405,54.83459203780149],[40.630559606760286,54.82269473277305],[40.61271364921656,54.81793581076184],[40.60557526619889,54.80722823623542],[40.64483637279491,54.804848775229416],[40.66863098285357,54.804848775229416],[40.68766667090013,54.79652066170821],[40.71265101146152,54.80008985321642],[40.72097912498211,54.76439793812914],[40.75310184856046,54.75369036360371],[40.80307052968254,54.7453622500825],[40.84233163627936,54.75012117209549],[40.891110586898705,54.74655198058551],[40.957735495061776,54.75844928561492],[40.99818633216063,54.74417251957949],[41.01603228970444,54.73822386706527],[41.04101663026593,54.73822386706527],[41.03387824724817,54.72989575354585],[41.0184117507109,54.71918817901863],[41.00532471517829,54.713239526505305],[41.00294525417273,54.703721682481],[41.01484255920161,54.70015249097199],[41.03387824724817,54.704911412984096],[41.02911932523695,54.68825518594257],[41.02198094221929,54.67516815041202],[41.045775552277945,54.66089138437659],[41.03030905573978,54.651373540352296],[40.99342741014941,54.651373540352296],[40.99223767964658,54.643045426832956],[41.008893906687575,54.63352758280874],[41.02436040322493,54.62638919979143],[41.03149878624261,54.6144918947621],[41.03030905573978,54.60259458973357],[41.01484255920161,54.60378432023666],[41.0017555236699,54.59664593721846],[41.01722202020727,54.58950755420115],[41.01246309819605,54.57404105766272],[41.00532471517829,54.553815639113964],[41.01960148121363,54.539538873078534],[41.0184117507109,54.51455453251767],[41.0695701623358,54.499088035979156],[41.11359019094384,54.483621539441614],[41.11359019094384,54.47410369541829],[41.135005339996134,54.47172423441317],[41.16117941106036,54.47172423441317],[41.22661458872069,54.46101665988587],[41.2611167733054,54.443170702342314],[41.286101113866096,54.4384117803311],[41.309895723924754,54.44673989385231],[41.320765300614404,54.43315292298933],[41.32417248996009,54.42889393630689],[41.344397908509464,54.42056582278747],[41.384848745608316,54.415806900776246],[41.42054066069595,54.407478787255044],[41.45028392326865,54.39201229071661],[41.45623257578349,54.413427439769265],[41.44433527075381,54.44555016334833],[41.44195580974815,54.46696531240018],[41.47169907232086,54.45030908535954],[41.48359637735054,54.449119354856535],[41.4853912931262,54.44971766011512],[41.50501152640284,54.45625773787465],[41.51096017891768,54.472913964916174],[41.50620125690566,54.51574426302068],[41.48716556885902,54.559764291629065],[41.45385311477704,54.570471866154506],[41.45385311477704,54.58831782369815],[41.48954502986467,54.59307674570936],[41.50501152640284,54.60854324224779],[41.52285748394665,54.635907043815635],[41.520478022941,54.6585119233705],[41.51096017891768,54.671598958902024],[41.54070344149038,54.68230653342835],[41.56806724305751,54.70015249097199],[41.58948239210972,54.73346494505317],[41.590672122612546,54.763208207626136],[41.578774817583664,54.81198715824664],[41.591861853115375,54.82507419377906],[41.57282616506873,54.84648934283082],[41.578774817583664,54.859576378362355],[41.60732834965354,54.87742233590599],[41.602569427641434,54.89883748495962],[41.614466732671204,54.91073478998806],[41.616846193676864,54.944047244070134],[41.58948239210972,54.954754818596456],[41.591861853115375,54.965462393121896],[41.55616993802774,54.97735969815131],[41.544272632998855,54.96784185412799],[41.525236944952304,54.97022131513498],[41.545462363501684,54.99520565569584],[41.544272632998855,55.021379726758816],[41.577585087080834,55.017810535250604],[41.582344009092054,55.022569457261824],[41.623984576694525,55.027328379274906],[41.61089754116202,55.04279487581155],[41.635881881723414,55.04636406732155],[41.623984576694525,55.06539975536819],[41.6311229597122,55.091573826431166],[41.627553768202915,55.11655816699203],[41.697943906464985,55.142411182253156],[41.68219171571508,55.14391139089639],[41.634602495598585,55.15461896542274],[41.585823544979235,55.172464922965446],[41.550131629891666,55.183172497491796],[41.52276782832456,55.17960330598362],[41.49897321826592,55.17127519246242],[41.48112726072293,55.162947078943034],[41.452573728652226,55.151049773914565],[41.415692083062595,55.16532653995],[41.377620706969424,55.18555195849967],[41.333600678361336,55.183172497491796],[41.32289310383521,55.15937788743395],[41.3371698698698,55.152239504415775],[41.326462295343674,55.12011678083854],[41.28006280572998,55.108219475810074],[41.23723250762549,55.1355832773761],[41.20035086203512,55.10346055379887],[41.23366331611629,55.09513244027585],[41.22176601108737,55.086804326756464],[41.199161131531525,55.0796659437392],[41.1872638265026,55.054681603177414],[41.20035086203512,55.02612807110836],[41.17060759946162,55.02969726261654],[41.15038218091297,55.03921510664077],[41.125397840351525,55.063009716698616],[41.10279296079568,55.09870163178584],[41.09922376928722,55.141531929890334],[41.06591131520531,55.139152468885186],[41.06234212369685,55.17008546196121],[41.04449616615227,55.21410549056873],[40.998096676539376,55.24146929213475],[40.992148024024516,55.25098713615898],[41.00047613754498,55.27478174621683],[40.96954314446867,55.29500716476741],[40.92314365485578,55.34378611538614],[40.9326614988791,55.36401153393581],[40.91719500234092,55.37352937796004],[40.79227329953517,55.36996018645095],[40.810119257078156,55.3854266829876],[40.77918626400265,55.41873913706968],[40.75182246243634,55.4151699455615],[40.7280278523769,55.421118598075736],[40.729217582880494,55.43658509461329],[40.723268930365634,55.455620782659935],[40.729217582880494,55.46870781819143],[40.70661270332465,55.49131269774807],[40.68638728477606,55.518676499315916],[40.66973105773508,55.53890191786468],[40.632849412144395,55.545247147212635],[40.61500345460031,55.559523913247176],[40.58882938353635,55.558334182744176],[40.53648124140827,55.5761801402887],[40.535291510905,55.58926717582014],[40.48294336877699,55.59283636732924],[40.45438983670712,55.60830286386678],[40.4234568436315,55.60711313336378],[40.438923340168955,55.58450825380893],[40.43297468765482,55.553575260733844],[40.42226711312823,55.52264226765787],[40.39133412005262,55.51788334564568],[40.36872924049696,55.52264226765787],[40.33660651691869,55.490519544079696],[40.29853514082488,55.476242778043385],[40.30210433233398,55.49408873558791],[40.24023834618195,55.51312442363455],[40.215254005621176,55.50360657961123],[40.172423707516494,55.48695035256971]]]]}},{"type":"Feature","properties":{"kind":"district","id":"uyezd-1897-762","name":"Пронский","provinceId":"ryazan"},"geometry":{"type":"MultiPolygon","coordinates":[[[[39.50719636845904,54.37909263780146],[39.50811497339871,54.34786006983083],[39.50930470390127,54.293132466697884],[39.48194090233484,54.295511927703004],[39.41412626366832,54.314547615749646],[39.37248569606648,54.31811680725875],[39.368916504557816,54.28718381418189],[39.371295965563824,54.27409677865124],[39.38676246210101,54.263389204124024],[39.37486515707248,54.2503021685925],[39.34274243349395,54.2491124380886],[39.3391732419845,54.22650755853375],[39.3641575825458,54.21342052300221],[39.399849497633696,54.203902678978004],[39.42007491618299,54.192005373948675],[39.38319327059236,54.17772860791413],[39.37724461807769,54.1670210333887],[39.399849497633696,54.15036480634718],[39.38914192310702,54.13965723182085],[39.36653704355181,54.127759926791434],[39.35820893003114,54.11467289126088],[39.38557273159845,54.10991396924877],[39.38319327059236,54.09801666421846],[39.37010623506046,54.09682693371546],[39.35345000801992,54.10277558623146],[39.34155270299059,54.09801666421846],[39.3391732419845,54.067083671143294],[39.31656836242928,54.069463132149394],[39.29753267438273,54.067083671143294],[39.284445638850755,54.05875555762218],[39.27476415570101,54.037323607219136],[39.31045607078837,54.03851333772125],[39.33425068084685,54.03494414621215],[39.34257879436761,54.01114953615438],[39.35804529090533,54.00520088364007],[39.37470151794605,53.982596004084414],[39.39968585850754,53.97664735156921],[39.42229073806301,53.97664735156921],[39.466310766670254,53.986165195592534],[39.50557187326655,53.988544656598634],[39.53650486634287,54.00282142263406],[39.58052489495011,54.001631692130076],[39.616216810038274,53.99687277011886],[39.65309845562855,53.99925223112585],[39.65190872512564,54.0182879191716],[39.69354929272776,54.0254263021898],[39.73281039932325,54.04208252922946],[39.757794739884645,54.05041064274978],[39.77564069742837,54.037323607219136],[39.801814768492775,54.037323607219136],[39.81966072603641,54.03256468520614],[39.870819137661584,54.0147187276625],[39.88985482570823,54.00282142263406],[39.92078781878446,54.00520088364007],[39.93506458481927,53.994493309112855],[39.954100272865915,53.994493309112855],[39.97194623040955,54.006390614142184],[39.99574084046803,53.998062500621955],[40.02220095091581,53.99661539489439],[40.043616099968105,54.015651082941034],[40.0686004405295,54.020410004952254],[40.08525666757049,54.03230730998167],[40.11381019964037,54.027548387970455],[40.1411740012075,54.03706623199288],[40.15783022824769,54.06561976406374],[40.14831238422437,54.08465545211038],[40.14593292321881,54.103691140157025],[40.20541944836421,54.11558844518644],[40.23873190244619,54.109639792671246],[40.26014705149839,54.11082952317523],[40.307736271614914,54.12986521122187],[40.29821842759159,54.14295224675242],[40.29940815809513,54.161987934799065],[40.29702869708876,54.17269550932637],[40.281562200551406,54.171505778823274],[40.24943947697225,54.18459281435481],[40.25895732099557,54.19649011938414],[40.23159351942852,54.21076688541965],[40.24111136345184,54.244079339501724],[40.233972980434885,54.25597664452927],[40.233972980434885,54.26906368006259],[40.25062920747507,54.29880694263555],[40.16972753327738,54.307135056154976],[40.154261036739214,54.321411822190406],[40.11262046913683,54.328550205207634],[40.09715397259937,54.334498857721854],[40.10548208611996,54.342826971243056],[40.14355346221306,54.34520643224826],[40.15664049774487,54.35591400677548],[40.14355346221306,54.3606729287867],[40.11381019964037,54.35829346778158],[40.10191289461068,54.37138050331213],[40.12094858265732,54.37732915582724],[40.126897235172166,54.383277808341546],[40.10429235561713,54.40826214890241],[40.117379391148845,54.415400531920525],[40.15545076724213,54.413021070915406],[40.18995295182685,54.413021070915406],[40.18519402981483,54.43443621996717],[40.16630032606717,54.45638993015293],[40.13655706349438,54.467097504678364],[40.09015757388069,54.45401046914684],[40.06636296382203,54.46947696568535],[39.96047694906294,54.45163100814172],[39.89385204089978,54.438543972609295],[39.85816012581223,54.425456937077755],[39.81414009720411,54.41474936255143],[39.77487899060817,54.412369901545425],[39.76060222457275,54.408800710035436],[39.71063354345067,54.408800710035436],[39.66661351484263,54.40523151852722],[39.62616267774378,54.404041788024216],[39.599988606679474,54.38024717796636],[39.56667615259758,54.37191906444515],[39.53693289002479,54.37667798645815],[39.50719636845904,54.37909263780146]]]]}},{"type":"Feature","properties":{"kind":"district","id":"uyezd-1897-763","name":"Спасский","provinceId":"ryazan"},"geometry":{"type":"MultiPolygon","coordinates":[[[[40.16630032606717,54.45638993015293],[40.18519402981483,54.43443621996717],[40.18995295182685,54.413021070915406],[40.15545076724213,54.413021070915406],[40.117379391148845,54.415400531920525],[40.10429235561713,54.40826214890241],[40.126897235172166,54.383277808341546],[40.12094858265732,54.37732915582724],[40.10191289461068,54.37138050331213],[40.11381019964037,54.35829346778158],[40.14355346221306,54.3606729287867],[40.15664049774487,54.35591400677548],[40.14355346221306,54.34520643224826],[40.10548208611996,54.342826971243056],[40.09715397259937,54.334498857721854],[40.11262046913683,54.328550205207634],[40.154261036739214,54.321411822190406],[40.16972753327738,54.307135056154976],[40.25062920747507,54.29880694263555],[40.233972980434885,54.26906368006259],[40.233972980434885,54.25597664452927],[40.24111136345184,54.244079339501724],[40.23159351942852,54.21076688541965],[40.25895732099557,54.19649011938414],[40.24943947697225,54.18459281435481],[40.281562200551406,54.171505778823274],[40.29702869708876,54.17269550932637],[40.29940815809513,54.161987934799065],[40.29821842759159,54.14295224675242],[40.307736271614914,54.12986521122187],[40.324392498655904,54.1405727857473],[40.34699737821174,54.1334344027291],[40.37793037128726,54.13105494172487],[40.41124282536916,54.10250140965402],[40.45883204548567,54.056101920039524],[40.48738557755554,54.03468677098866],[40.517128840128336,54.022789465959235],[40.533785067169234,54.03825596249589],[40.5623385992392,54.0537224590353],[40.589702400806246,54.0549121895383],[40.60992781935572,54.077517069093155],[40.65037865645456,54.069188955571946],[40.67536299701605,54.07394787758494],[40.708675451097946,54.06680949456674],[40.71224464260642,54.075137608086166],[40.68726030204493,54.106070601162145],[40.69439868506261,54.11796790619245],[40.70629599009149,54.12510628920879],[40.7241419476353,54.12867548071877],[40.71819329512127,54.15247009077574],[40.72652140864176,54.173885239829374],[40.744367366184775,54.1857825448587],[40.782438742278686,54.19411065837902],[40.89427340955271,54.20243877189844],[40.922826941622674,54.20957715491656],[40.98469292777372,54.21314634642477],[41.018005381855616,54.22623338195808],[41.04893837493123,54.227423112459306],[41.09176867303644,54.265494488553486],[41.11437355259147,54.28096098509191],[41.13340924063803,54.28928909861134],[41.13102977963247,54.308324786657984],[41.11318382208865,54.31784263068219],[41.09295840353927,54.32260155269341],[41.06559460197222,54.32260155269341],[41.051317835937596,54.33211939671584],[41.05012810543397,54.37851888633033],[41.03823080040509,54.38565726934756],[41.03823080040509,54.39636484387388],[41.07154325448707,54.40112376588608],[41.10723516957461,54.397554574376976],[41.158393581199604,54.40112376588608],[41.22025956735137,54.414210801418406],[41.288074206017356,54.40945187940542],[41.320765300614404,54.43315292298933],[41.309895723924754,54.44673989385231],[41.286101113866096,54.4384117803311],[41.2611167733054,54.443170702342314],[41.22661458872069,54.46101665988587],[41.16117941106036,54.47172423441317],[41.135005339996134,54.47172423441317],[41.11359019094384,54.47410369541829],[41.11359019094384,54.483621539441614],[41.0695701623358,54.499088035979156],[41.0184117507109,54.51455453251767],[41.01960148121363,54.539538873078534],[41.00532471517829,54.553815639113964],[41.01246309819605,54.57404105766272],[41.01722202020727,54.58950755420115],[41.0017555236699,54.59664593721846],[41.01484255920161,54.60378432023666],[41.03030905573978,54.60259458973357],[41.03149878624261,54.6144918947621],[41.02436040322493,54.62638919979143],[41.008893906687575,54.63352758280874],[40.99223767964658,54.643045426832956],[40.99342741014941,54.651373540352296],[41.03030905573978,54.651373540352296],[41.045775552277945,54.66089138437659],[41.02198094221929,54.67516815041202],[41.02911932523695,54.68825518594257],[41.03387824724817,54.704911412984096],[41.01484255920161,54.70015249097199],[41.00294525417273,54.703721682481],[41.00532471517829,54.713239526505305],[41.0184117507109,54.71918817901863],[41.03387824724817,54.72989575354585],[41.04101663026593,54.73822386706527],[41.01603228970444,54.73822386706527],[40.99818633216063,54.74417251957949],[40.957735495061776,54.75844928561492],[40.891110586898705,54.74655198058551],[40.84233163627936,54.75012117209549],[40.80307052968254,54.7453622500825],[40.75310184856046,54.75369036360371],[40.72097912498211,54.76439793812914],[40.71265101146152,54.80008985321642],[40.68766667090013,54.79652066170821],[40.66863098285357,54.804848775229416],[40.64483637279491,54.804848775229416],[40.60557526619889,54.80722823623542],[40.61271364921656,54.81793581076184],[40.630559606760286,54.82269473277305],[40.618662301731405,54.83459203780149],[40.58772930865507,54.85243799534513],[40.5591757765852,54.860766108866336],[40.52858357092689,54.87636213528093],[40.50061459738633,54.87993398919117],[40.48395837034534,54.87636479768118],[40.45897402978377,54.85970857064152],[40.416143731679355,54.85851884013843],[40.37450316407697,54.86446749265265],[40.34357017100135,54.878744258688165],[40.3245344829548,54.8894518332136],[40.319775560942695,54.907297790757156],[40.28408364585595,54.934661592325],[40.25671984428881,54.92038482628958],[40.28765283736443,54.895400485728715],[40.27575553233545,54.88350318069929],[40.263858227305775,54.870416145166956],[40.263858227305775,54.851380457120314],[40.254340383282454,54.85019072661723],[40.2353046952359,54.85851884013843],[40.217458737692084,54.84900099611422],[40.14964409902618,54.84424207410301],[40.13298787198519,54.82758584706246],[40.13298787198519,54.8049809675076],[40.14369544651125,54.77166851342554],[40.15559275154102,54.7562020168871],[40.20437170216028,54.73716632884046],[40.22697658171531,54.74311498135468],[40.254340383282454,54.73002794582315],[40.27813499334111,54.72051010179983],[40.279324723843935,54.68481818671175],[40.2864631068616,54.653885193637464],[40.27456580183263,54.63247004458482],[40.26742741881496,54.6122446260342],[40.232925234230244,54.57417324994091],[40.2008025106518,54.55156837038614],[40.179387361598884,54.5325326823395],[40.18176682260525,54.517066185800985],[40.20913062417239,54.496840767251335],[40.20318197165754,54.47066669618836],[40.19009493612494,54.47066669618836],[40.16630032606717,54.45638993015293]]]]}},{"type":"Feature","properties":{"kind":"district","id":"uyezd-1897-764","name":"Сапожковский","provinceId":"ryazan"},"geometry":{"type":"MultiPolygon","coordinates":[[[[41.320765300614404,54.43315292298933],[41.288074206017356,54.40945187940542],[41.22025956735137,54.414210801418406],[41.158393581199604,54.40112376588608],[41.10723516957461,54.397554574376976],[41.07154325448707,54.40112376588608],[41.03823080040509,54.39636484387388],[41.03823080040509,54.38565726934756],[41.05012810543397,54.37851888633033],[41.051317835937596,54.33211939671584],[41.06559460197222,54.32260155269341],[41.09295840353927,54.32260155269341],[41.11318382208865,54.31784263068219],[41.13102977963247,54.308324786657984],[41.13340924063803,54.28928909861134],[41.11437355259147,54.28096098509191],[41.09176867303644,54.265494488553486],[41.04893837493123,54.227423112459306],[41.018005381855616,54.22623338195808],[40.98469292777372,54.21314634642477],[40.922826941622674,54.20957715491656],[40.89427340955271,54.20243877189844],[40.782438742278686,54.19411065837902],[40.744367366184775,54.1857825448587],[40.72652140864176,54.173885239829374],[40.71819329512127,54.15247009077574],[40.7241419476353,54.12867548071877],[40.70629599009149,54.12510628920879],[40.69439868506261,54.11796790619245],[40.68726030204493,54.106070601162145],[40.71224464260642,54.075137608086166],[40.708675451097946,54.06680949456674],[40.67536299701605,54.07394787758494],[40.65037865645456,54.069188955571946],[40.60992781935572,54.077517069093155],[40.589702400806246,54.0549121895383],[40.5623385992392,54.0537224590353],[40.533785067169234,54.03825596249589],[40.517128840128336,54.022789465959235],[40.50483495826461,54.015254506107354],[40.47985061770393,54.00811612308915],[40.477471156697476,53.99740854856371],[40.45843546865092,53.98313178252829],[40.439399780604276,53.96409609448165],[40.440589511107106,53.942680945429885],[40.45605600764527,53.928404179394455],[40.52030145480278,53.89866091682051],[40.55361390888467,53.87962522877387],[40.52387064631117,53.82727708664693],[40.52387064631117,53.791585171559746],[40.557183100393146,53.776118675021316],[40.57027013592486,53.77730840552432],[40.601203129001185,53.78563651904366],[40.63570531358519,53.789205710553645],[40.67258695917556,53.78682624954675],[40.70708914376037,53.77730840552432],[40.69757129973705,53.74994460395647],[40.690432916719374,53.69045807881045],[40.655930732135374,53.6738018517699],[40.64522315760851,53.652386702717166],[40.67496642018202,53.652386702717166],[40.72017617929288,53.65952508573447],[40.78680108745595,53.65595589422627],[40.81297515852026,53.65833535523325],[40.85937464813395,53.67023266026169],[40.87603087517414,53.672612121266894],[40.88792818020383,53.65714562473025],[40.890307641209475,53.64048939768783],[40.86056437863678,53.57029529801726],[40.837959499080945,53.53341365242707],[40.854615726121935,53.50367038985313],[40.87960006668342,53.500101198345],[40.936707130823166,53.50129092884801],[41.00452176948907,53.490583354320705],[41.05330072010841,53.48820389331469],[41.06281856413173,53.46678874426284],[41.0616288336289,53.44418386470808],[41.056869911617596,53.42871736816956],[41.10564886223703,53.42752763766656],[41.165135387382435,53.42514817666144],[41.17822242291494,53.43466602068386],[41.20677595498482,53.440614673198084],[41.20915541599047,53.4572709002405],[41.20320676347643,53.475116857784045],[41.218673260013794,53.476306588287144],[41.24722679208376,53.47154766627406],[41.271021402142324,53.47273739677715],[41.271021402142324,53.49296281532769],[41.265072749627485,53.50961904236735],[41.30314412572068,53.51913688639164],[41.365010111872536,53.52865473041399],[41.36738957287819,53.561967184496055],[41.37333822539303,53.58219260304668],[41.375090275504064,53.609349379762506],[41.37571768639869,53.61907424863598],[41.3804766084107,53.69045807881045],[41.37690741690151,53.70949376685709],[41.37690741690151,53.75589325647069],[41.38404579991918,53.793964632564865],[41.3804766084107,53.80943112910339],[41.34954361533437,53.802292746085186],[41.272211132645154,53.82608735614304],[41.25912409711336,53.81537978161761],[41.20915541599047,53.82251816463394],[41.22224245152299,53.85583061871601],[41.22462191252863,53.880814959276876],[41.235329487054784,53.89271226430629],[41.2400884090668,53.90698903034172],[41.25198571409568,53.96290636397864],[41.307903047732694,53.96409609448165],[41.338836040808225,53.98551124353438],[41.355492267849215,54.02477235012978],[41.36738957287819,54.03666965516],[41.366199842375366,54.06046426521786],[41.388804721931194,54.062843726223065],[41.42211717601238,54.068792378737285],[41.437583672550446,54.0783102227615],[41.44353232506458,54.090207527790916],[41.42092744550955,54.11876105985991],[41.41259933198906,54.14374540042263],[41.399512296457345,54.159211896959285],[41.4102198709834,54.166350279977486],[41.46256801311122,54.168729740983494],[41.47089612663163,54.18538596802413],[41.4233069065152,54.20085246456256],[41.42449663701794,54.2091805780819],[41.46256801311122,54.22345734411741],[41.510157233228455,54.21631896109921],[41.518485346748946,54.255580067696386],[41.51729561624532,54.27937467775425],[41.5125366942341,54.29960009630398],[41.48398316216423,54.318635784350626],[41.48398316216423,54.347189316419616],[41.47089612663163,54.36860446547324],[41.45028392326865,54.39201229071661],[41.42054066069595,54.407478787255044],[41.384848745608316,54.415806900776246],[41.344397908509464,54.42056582278747],[41.32417248996009,54.42889393630689],[41.320765300614404,54.43315292298933]]]]}},{"type":"Feature","properties":{"kind":"district","id":"uyezd-1897-765","name":"Раненбургский","provinceId":"ryazan"},"geometry":{"type":"MultiPolygon","coordinates":[[[[39.55316109338359,53.50908326392347],[39.55197136288059,53.454355660790526],[39.54483297986283,53.41271509318726],[39.519848639302054,53.387730752626304],[39.51033079527847,53.35798749005423],[39.4853464547169,53.34846964603091],[39.472259419185185,53.300880425913405],[39.480587532705854,53.291362581890084],[39.487725915722905,53.27232689384434],[39.46750049717326,53.26161931931801],[39.46512103616734,53.25210147529469],[39.47939780220294,53.24139390076748],[39.54602271036575,53.24377336177437],[39.55435082388651,53.20094306366809],[39.5127102562843,53.21878902121351],[39.48415672421398,53.19975333316597],[39.43894696510374,53.153353843552374],[39.40563451102229,53.12717977248762],[39.43843985081842,53.12811212776704],[39.48483934043211,53.12811212776704],[39.530049099543064,53.11502509223462],[39.55622317060728,53.12097374474884],[39.580017780665145,53.11978401424584],[39.578828050162315,53.080522907649545],[39.55146424859518,53.08171263815255],[39.541946404571945,53.06386668060891],[39.559792362115765,53.0614872196029],[39.54789505708679,53.04245153155715],[39.59429454670048,53.04007207055114],[39.613330234747124,53.05791802809469],[39.67519622089898,53.03650287904293],[39.766805469623534,53.01270826898329],[39.82629199476894,53.00319042496086],[39.86317364035931,52.99724177244664],[39.88339905890878,53.007949346972076],[39.888157980920795,53.022226113007505],[39.90838339947017,53.015087729990185],[39.925039626511165,53.016277460493285],[39.950023967071935,52.99843150294964],[39.98095696014818,52.979395814903],[39.97619803813616,53.01270826898329],[39.977387768638984,53.05910775859778],[40.005941300708855,53.0614872196029],[40.03211537177317,53.071005063626224],[40.060668903843045,53.091230482176755],[40.07970459188969,53.091230482176755],[40.07970459188969,53.06862560262013],[40.127293812006116,53.065056411112],[40.12610408150338,53.050779645076574],[40.09160189691937,53.05553856708957],[40.076135400381204,53.04364126205927],[40.076135400381204,53.010328807977196],[40.12610408150338,53.00438015546386],[40.14632950005276,53.0210363825045],[40.16417545759657,53.04245153155715],[40.16655491860294,53.05791802809469],[40.151088422064774,53.08766129066677],[40.148708961059214,53.1043175177074],[40.17369330161981,53.11502509223462],[40.195108450672905,53.1114559007265],[40.21771333022794,53.100748326199195],[40.23912847928014,53.1078867092165],[40.240318209783766,53.13168131927525],[40.2331798267661,53.156665659836115],[40.2248517132456,53.21734191548603],[40.223661982742776,53.28158736264318],[40.22009279123358,53.319658738736464],[40.23436955726892,53.338694426782226],[40.240318209783766,53.370817150360395],[40.267682011350104,53.38628364689971],[40.28314850788818,53.38628364689971],[40.29028689090593,53.37438634187039],[40.29385608241432,53.36010957583496],[40.324789075490656,53.34821227080555],[40.34025557202801,53.34583280979953],[40.37118856510435,53.336314965777106],[40.386655061641704,53.338694426782226],[40.40569074968835,53.36962741985917],[40.404501019185524,53.385093916395824],[40.419967515723684,53.385093916395824],[40.42353670723217,53.398180951928246],[40.430675090249835,53.43268313651243],[40.43543401226185,53.46361612958938],[40.43226139758741,53.490583354320705],[40.40489759602028,53.51318823387733],[40.36206729791506,53.53698284393519],[40.33470349634801,53.552449340473714],[40.30614996427805,53.560777453993055],[40.24547370862902,53.566726106507275],[40.166951495436976,53.567915837011256],[40.112223892302794,53.56910556751426],[40.0658244026891,53.58576179455392],[40.02656329609307,53.5798131420397],[40.02894275709873,53.60003856058934],[39.98611245899352,53.602418021594545],[39.9254362033452,53.610746135115754],[39.88033698168526,53.58284655510394],[39.86606021565046,53.58165682460094],[39.85654237162678,53.606641165163666],[39.83631695307722,53.613779548180005],[39.789917463463176,53.59474386013425],[39.72210282479737,53.56262113655519],[39.601940044002674,53.529308682473115],[39.55316109338359,53.50908326392347]]]]}}]}
