{"type":"FeatureCollection","features":[{"type":"Feature","properties":{"kind":"province","id":"simbirsk","name":"Симбирская губерния"},"geometry":{"type":"MultiPolygon","coordinates":[[[[46.83795447129436,55.281203076286836],[46.81483378158359,55.28421881842311],[46.77795213599366,55.304444236972856],[46.73869102939746,55.32823884702974],[46.69942992280126,55.366310223123904],[46.65778935519861,55.380586989158445],[46.64589205016999,55.4103302517315],[46.63637420614693,55.446022166819574],[46.66730719922255,55.469816776878325],[46.694671000789334,55.48528327341498],[46.70656830581875,55.51145734447982],[46.71370668883624,55.55428764258521],[46.694671000789334,55.58760009666639],[46.71846561084737,55.613774167729375],[46.724414263362476,55.63280985577602],[46.71965534135055,55.66612230985808],[46.69824019229808,55.6780196148875],[46.67444558224004,55.688727189413825],[46.6649277382161,55.69586557243203],[46.630425553631824,55.69586557243203],[46.58759525552688,55.71014233846657],[46.562610914965575,55.70181422494625],[46.52216007786699,55.720849912992],[46.491227084790665,55.73512667902743],[46.49598600680259,55.757731558583174],[46.42936109863952,55.73750614003343],[46.39723837506081,55.749403445061965],[46.37463349550516,55.743454792547745],[46.33418265840648,55.761300750092275],[46.3068188568389,55.74702398405587],[46.302059934827774,55.758921289086175],[46.29730101281585,55.79223374316736],[46.25922963672274,55.805320778698885],[46.20807122509712,55.805320778698885],[46.17832796252398,55.82792565825454],[46.164051196488906,55.852909998816386],[46.15215389146029,55.8540997293185],[46.147394969448364,55.87908406988025],[46.169999849004014,55.88622245289756],[46.189035537050216,55.89455056641877],[46.177138232021505,55.90763760195021],[46.15215389146029,55.91953490697874],[46.13668739492213,55.921914367984755],[46.117651706875215,55.929052751002956],[46.10112640053811,55.92386017892663],[46.06900367695975,55.91791152641144],[46.044019336398,55.90125529937089],[46.04520906690092,55.890547724845455],[46.04758852790675,55.87746068931303],[46.039260414386426,55.87032230629483],[46.02498364835162,55.882219611324246],[46.00594796030516,55.87151203679881],[45.98453281125215,55.87389149780482],[45.96311766219995,55.87151203679881],[45.95122035717088,55.85842500126639],[45.93218466912451,55.841768774225756],[45.908390059065674,55.82749200819033],[45.90482086755693,55.801317937125575],[45.869128952469914,55.78704117109193],[45.84414461190816,55.78347197958283],[45.81559107983847,55.75848763902107],[45.803693774809496,55.760867100027966],[45.788227278271776,55.78228224907893],[45.7549148241898,55.75848763902107],[45.7406380581549,55.752538986505876],[45.71327425658741,55.72517518493989],[45.73706886664625,55.71803680192258],[45.760863476704195,55.70494976638927],[45.78703754776886,55.70970868840138],[45.816780810341385,55.70376003588716],[45.82272946285596,55.66330919878875],[45.81559107983847,55.63356593621578],[45.828678115370444,55.60977132615606],[45.832247306879104,55.595494560122496],[45.84665626519272,55.57302187284405],[45.845466534689805,55.551606723791316],[45.822861655133885,55.55398618479741],[45.802636236584505,55.55755537630651],[45.80144650608159,55.530191574739554],[45.818102733122224,55.52186346122012],[45.818102733122224,55.513535347699005],[45.799067045075844,55.4992585816635],[45.800256775578674,55.49212019864627],[45.787169740046785,55.48022289361783],[45.75980593847929,55.44453097853055],[45.733631867415426,55.41478771595669],[45.712216718363216,55.40170068042427],[45.68604264729855,55.37552660936032],[45.66581722874926,55.35530119081067],[45.65273019321737,55.3291271197468],[45.62536639164979,55.311281162204054],[45.62417666114696,55.28510709113832],[45.62536639164979,55.26964059460167],[45.63369450517091,55.24941517605113],[45.62179720014113,55.22086164398206],[45.60752043410624,55.18992865090608],[45.5980025900831,55.18397999839089],[45.5765874410308,55.18992865090608],[45.54684417845748,55.17208269336156],[45.54684417845748,55.147098352801585],[45.53732633443425,55.13401131726916],[45.561120944493084,55.13044212576095],[45.57777717153372,55.11497562922252],[45.58610528505403,55.088801558158565],[45.58848474605986,55.069765870111034],[45.57539771052789,55.047160990556264],[45.54922363946331,55.03407395502384],[45.54565444795456,55.016227997481096],[45.5551722919778,55.01027934496599],[45.55279283097205,54.986484734907236],[45.57857032520206,54.95079281982085],[45.61783143179861,54.909152252218554],[45.624374949564206,54.893239606742064],[45.61902116230153,54.87450135131982],[45.58689843872238,54.86379377679438],[45.57172937481012,54.86468607467121],[45.5529911193893,54.86022458528626],[45.52800677882834,54.86200918103983],[45.52443758731969,54.84416322349717],[45.50213014039003,54.8379171383558],[45.48963797010915,54.81828658505859],[45.47803809770564,54.80936360628672],[45.45305375714478,54.798656031759506],[45.45573065077607,54.77545628695222],[45.465545927425566,54.76117952091768],[45.47268431044306,54.733518286724546],[45.4432384804952,54.716564627058716],[45.42093103356562,54.70585705253328],[45.41022345903948,54.68711879711104],[45.408855850236826,54.662681929059545],[45.42313261627163,54.62699001397236],[45.45882453135873,54.61390297843994],[45.490947254937886,54.60676459542262],[45.51593159549875,54.60676459542262],[45.52663917002489,54.581780254861755],[45.51355213449292,54.55560618379691],[45.53020836153364,54.52110399921371],[45.495706176949454,54.511586155190386],[45.46596291437693,54.499688850160965],[45.493326715943624,54.47708397060522],[45.521880248013325,54.46637639607979],[45.549244049580814,54.46280720457069],[45.56590027662145,54.45209963004348],[45.567090007124364,54.44615097753014],[45.55400297159239,54.44496124702616],[45.51831105650458,54.40332067942377],[45.552813241089474,54.381905530372904],[45.5766078511476,54.41045906244287],[45.613489496738325,54.40213094892166],[45.60992030522958,54.38547472188111],[45.6253868017673,54.360490381319366],[45.628955993276044,54.3366957712615],[45.67178629138125,54.3283676577403],[45.71223712847993,54.345023884780844],[45.74435985205908,54.33788550176362],[45.78719015016358,54.3319368492494],[45.801466916198386,54.30457304768244],[45.79194907217515,54.28910655114392],[45.76101607909971,54.293865473157],[45.73603173853796,54.27839897661848],[45.73603173853796,54.25936328857184],[45.71580631998867,54.22486110398677],[45.719375511497326,54.193928110911685],[45.71223712847993,54.17846161437316],[45.67654521339291,54.16656430934384],[45.7098576674741,54.15823619582441],[45.73008308602348,54.1606156568305],[45.73841119954379,54.14039023827988],[45.71104739797701,54.13682104677078],[45.70747820646835,54.114216167216014],[45.75863661809388,54.10588805369659],[45.80503610770704,54.09399074866637],[45.80503610770704,54.07614479112362],[45.78719015016358,54.06186802508731],[45.75506742658523,54.057109103076975],[45.725324164011816,54.07257559961363],[45.69439117093638,54.07376533011761],[45.687252787919064,54.06543721659641],[45.69320144043346,54.040452876034564],[45.69439117093638,54.0166582659767],[45.67654521339291,54.01784799648068],[45.6396635678021,54.040452876034564],[45.56946946813011,54.08566263514694],[45.511172673487174,54.06781667760241],[45.53496728354601,54.042832337040664],[45.58136677315917,54.00833015245736],[45.65275060333408,53.961930662842875],[45.67892467439866,53.966689584854976],[45.71342685898284,53.973827967872204],[45.74673931306491,53.973827967872204],[45.78481068915633,53.967879315357315],[45.7930661684517,53.98393849778407],[45.79901482096601,53.99702553331649],[45.82042997001848,53.99702553331649],[45.83708619705903,53.97323092325863],[45.83589646655665,53.95300550470801],[45.87277811214657,53.957764426721],[45.90252137471972,53.951815774205],[45.92512625427537,53.95419523521102],[45.93702355930399,53.91017520660439],[45.967956552379604,53.87924221352843],[45.99769981495275,53.89113951855687],[46.0012690064615,53.916123859118706],[46.004838197970244,53.92088278112992],[45.99294089294082,53.93515954716535],[46.01554577249648,53.951815774205],[46.02387388601715,53.96966173174953],[46.046478765572004,53.977989845269846],[46.05837607060151,53.96728227074432],[46.078601489150714,53.968472001246525],[46.09644744669453,53.94348766068558],[46.09763717719771,53.903036823585396],[46.13689828379391,53.9018470930823],[46.165451815863875,53.903036823585396],[46.20471292246017,53.894708710065075],[46.25111241207386,53.894708710065075],[46.28680432716131,53.90898547610139],[46.323685972751235,53.898277901574176],[46.312978398225,53.87210383051023],[46.31178866772262,53.8613962559839],[46.31535785923136,53.853068142464465],[46.31059893721944,53.83998110693116],[46.31178866772262,53.82094541888452],[46.32487570325442,53.80904811385608],[46.348670313312454,53.817376227375505],[46.387931419908746,53.82094541888452],[46.39150061141749,53.806668652850064],[46.40458764695009,53.80309946134186],[46.420054143487455,53.80190973083885],[46.427192526504946,53.7781151207801],[46.440279562037546,53.79001242580854],[46.46407417209567,53.78525350379733],[46.48905851265689,53.782874042791235],[46.50452500919425,53.77335619876889],[46.54854503780238,53.77335619876889],[46.57590883936925,53.76383835474459],[46.5854266833931,53.750751319213144],[46.584236952889924,53.73885401418461],[46.55568342081987,53.7281464396574],[46.527129888749904,53.72695670915439],[46.502145548188686,53.73052590066252],[46.48905851265689,53.72695670915439],[46.50690447020062,53.71267994311897],[46.53545800227058,53.694833985576224],[46.56758072584929,53.688885333062004],[46.640154286526666,53.687695602558996],[46.659189974573664,53.70197236859256],[46.68060512362614,53.69840317708443],[46.69131269815237,53.67936748903779],[46.7091586556961,53.66509072300325],[46.69488188966112,53.64367557395052],[46.67941539312296,53.63058853841907],[46.63539536451554,53.628209077412976],[46.599703449428084,53.628209077412976],[46.599703449428084,53.59727608433602],[46.61041102395432,53.57110201327215],[46.62230832898294,53.55920470824371],[46.61754940697181,53.540169020196096],[46.64253374753303,53.528271715167655],[46.6698975490999,53.52113333215043],[46.732953265754226,53.52946144567066],[46.757937606315444,53.516374410139214],[46.79125006039734,53.49971818309769],[46.78411167737985,53.472354381530735],[46.755558145309884,53.47592357303894],[46.73652245726297,53.47592357303894],[46.72700461323983,53.4556981544893],[46.732953265754226,53.428334352922334],[46.756747875812174,53.41881650889901],[46.7805424858711,53.41286785638479],[46.76150679782419,53.39145270733206],[46.75317868430343,53.379555402303616],[46.74723003178921,53.361709444759086],[46.72462515223427,53.355760792244865],[46.72224569122799,53.34862240922844],[46.731763535250955,53.33672510419822],[46.71510730821041,53.32125860765971],[46.681616865132355,53.329825930308],[46.66944356322976,53.31079291857803],[46.65992571920653,53.2869983085184],[46.68134086825882,53.269152350975645],[46.68134086825882,53.23821935790056],[46.713463591837886,53.216804208847826],[46.75272469843373,53.194199329292175],[46.79793445754478,53.190630137783074],[46.841954486152105,53.197768520800295],[46.86217990470228,53.182302024261865],[46.90619993330961,53.176353371747645],[46.953789153426484,53.17873283275365],[47.00256810404627,53.19181986828519],[47.04063948013911,53.17754310225153],[47.09060816126173,53.172784180238544],[47.11083357981111,53.14423064816858],[47.11440277131985,53.13233334314005],[47.16080226093372,53.131143612637935],[47.214340133565166,53.14185118716435],[47.2797753112255,53.14779983967857],[47.34164129737718,53.14898957018069],[47.392799709002,53.1537484921919],[47.39160997849908,53.14185118716435],[47.376143481961364,53.12638469062583],[47.37257429045262,53.116866846602505],[47.40231755302514,53.08593385352742],[47.39160997849908,53.0764160095041],[47.37495375145845,53.05500086045048],[47.38685105648742,53.027637058884494],[47.46299380867399,53.00384244882477],[47.4986857237618,52.99908352681453],[47.59505389449766,52.964581342228485],[47.64145338411153,52.951494306696944],[47.67833502970154,52.952684037200925],[47.709268022777785,52.938407271164614],[47.73901128535031,52.94078673217151],[47.75566751239094,52.93364834915428],[47.78897996647301,52.93364834915428],[47.83299999508114,52.91699212211188],[47.84846649161886,52.92175104412398],[47.891296789723356,52.92175104412398],[47.922229782799505,52.89795643406612],[47.97933684693961,52.88724885953891],[48.04834121610869,52.87059263249827],[48.17088345790842,52.84322883093229],[48.239887827077496,52.813485568359326],[48.312461387755235,52.801588263329904],[48.3243586927851,52.77541419226604],[48.344584111334385,52.75399904321241],[48.36956845189534,52.729014702652435],[48.393363061954176,52.77065527025482],[48.42786524653836,52.796829341318684],[48.46950581414065,52.82895206489775],[48.49686961570744,52.83609044791498],[48.54802802733297,52.85512613596162],[48.58134048141424,52.89081805104801],[48.59204805594038,52.92175104412398],[48.57658155940266,52.953873767703044],[48.531371800292334,52.98599649128211],[48.498059346210354,53.0300165198905],[48.498059346210354,53.070467356989],[48.52661287827996,53.113297655093405],[48.55635614085328,53.14779983967857],[48.58966859493455,53.16802525822821],[48.65153458108623,53.15969714470701],[48.71221083673508,53.17159444973643],[48.808579007470854,53.187060946274855],[48.89304987317845,53.201337712309396],[48.96681316435919,53.21918366985392],[49.00012561844037,53.23346043588757],[49.04533537755141,53.2524961239351],[49.108391094206006,53.25368585443722],[49.21665656997093,53.25011666292812],[49.251158754555824,53.23821935790056],[49.26186632908197,53.2060966343215],[49.286850669642924,53.190630137783074],[49.3273015067423,53.182302024261865],[49.359424230320656,53.15612795319791],[49.39273668440273,53.14779983967857],[49.44508482653117,53.14304091766647],[49.46531024508046,53.14898957018069],[49.50695081268205,53.14779983967857],[49.57595518185113,53.15850741420489],[49.64852874252895,53.182302024261865],[49.73062014723072,53.203717173315496],[49.787727211370026,53.21442474784093],[49.837695892492725,53.2096658258306],[49.90313107015315,53.190630137783074],[49.95904840379025,53.185871215770966],[50.05541657452611,53.19181986828519],[50.094677681122576,53.21085555633272],[50.13393878771842,53.2405988189048],[50.14702582325031,53.270342081477764],[50.15654366727434,53.31793130159535],[50.145836092747395,53.356002677688636],[50.117282560677786,53.401212436798254],[50.06493441854926,53.425007046857004],[50.01734519843327,53.44047354339543],[49.9697559783164,53.45118111792087],[49.875767268586365,53.45712977043607],[49.83412670098407,53.45475030942997],[49.76274287080916,53.45475030942997],[49.68303092711393,53.45475030942997],[49.622354671465175,53.45712977043607],[49.540263266764114,53.45237084842396],[49.4831562026241,53.44999138741875],[49.38559830138532,53.44523246540665],[49.34276800328011,53.435714621383326],[49.30945554919875,53.435714621383326],[49.26543552059063,53.44642219591063],[49.22022576147958,53.45118111792087],[49.151221392310504,53.45712977043607],[49.09649378917703,53.47616545848359],[49.07150944861528,53.491631955021134],[49.052135840943734,53.51150165746097],[49.02596176987915,53.53053734550761],[48.9771828192599,53.55076276405815],[48.93911144316688,53.57098818260779],[48.90460925858172,53.597162253671755],[48.88557357053561,53.63404389926203],[48.877245457014936,53.66735635334321],[48.88081464852368,53.682822849881646],[48.91293737210239,53.69234069390497],[48.95814713121299,53.69828934641919],[48.97123416674559,53.70899692094649],[48.96528551423048,53.725653147986144],[48.98313147177421,53.78157048162306],[49.01882338686166,53.79584724765849],[49.0164439258561,53.829159701740565],[48.99740823780919,53.839867276266],[48.97599308875672,53.86961053883897],[48.94387036517801,53.89459487939983],[48.92959359914294,53.92909706398402],[48.8927119535531,53.96954790108428],[48.85301798994725,54.00473546219028],[48.845879606930154,54.03804791627043],[48.83993095441558,54.082067944878915],[48.78282389027547,54.10229336342856],[48.77568550725816,54.13084689549852],[48.75308062770215,54.135605817508846],[48.751890897199324,54.15107231404728],[48.73999359217026,54.158210697064504],[48.69121464155056,54.155831236058496],[48.657902187469205,54.1534517750524],[48.60317458433493,54.15107231404728],[48.54011886768043,54.15107231404728],[48.50085776108467,54.158210697064504],[48.48539126454695,54.17605665460903],[48.48301180354032,54.21769722220964],[48.494909108570184,54.26409671182502],[48.5103756051079,54.28432213037378],[48.535359945668766,54.28432213037378],[48.56629293874509,54.29265024389498],[48.613882158861074,54.278373477858665],[48.647194612943146,54.27004536433835],[48.673368684006924,54.26052752031592],[48.72452709563254,54.242681562771395],[48.74713197518766,54.242681562771395],[48.75546008870798,54.25695832880593],[48.736424400661605,54.27480428635046],[48.71976817362097,54.29621943540222],[48.7280962871412,54.33429081149551],[48.68407625853307,54.350947038536134],[48.665040570486696,54.36284434356635],[48.61745135036982,54.35213676904003],[48.57937997427698,54.34618811652581],[48.54844698120074,54.35808542155523],[48.544877789691995,54.37355191809188],[48.529411293154276,54.37712110960187],[48.50442695259333,54.37474164859577],[48.48658099504978,54.380690301109105],[48.48420153404324,54.39972598915575],[48.46516584599677,54.405674641670856],[48.47944261203166,54.41995140770628],[48.50561668309624,54.4306589822327],[48.5020474915875,54.44850493977536],[48.45088907996197,54.4699200888281],[48.43542258342425,54.47467901083931],[48.44018150543591,54.542493649505566],[48.45207881046488,54.588893139119165],[48.48896045605561,54.6114980186758],[48.57700051327115,54.64600020325909],[48.647194612943146,54.65075912527209],[48.71500925160931,54.64005155074487],[48.774495776755245,54.62696451521245],[48.82208499687132,54.63529262873366],[48.86372556447361,54.66741535231263],[48.866707634247575,54.69177709206357],[48.82387733614236,54.68582843954846],[48.792944343066125,54.7084333191042],[48.75487296697328,54.72389981564263],[48.74535512295005,54.74412523419139],[48.74297566194422,54.77743768827443],[48.70490428585058,54.800042567828314],[48.66326371824899,54.81788852537284],[48.67040210126648,54.83573448291737],[48.68705832830703,54.869046936998544],[48.73940647043556,54.87023666750066],[48.784616229545804,54.87023666750066],[48.788185421054465,54.86190855398124],[48.817928683627784,54.85952909297522],[48.795323804071955,54.8404934049277],[48.79413407356904,54.82859609989828],[48.80841083960464,54.82859609989828],[48.833395180165596,54.834544752413386],[48.86075898173229,54.85477017096401],[48.86075898173229,54.86071882347734],[48.841723293685824,54.879754511523984],[48.81673895312487,54.87618532001577],[48.795323804071955,54.883323703033085],[48.69300698082161,54.88570316403909],[48.64541776070473,54.883323703033085],[48.60615665410889,54.826216638894046],[48.58236204405014,54.82740636939616],[48.58474150505597,54.86071882347734],[48.56570581700951,54.86190855398124],[48.549049589968874,54.84763178794492],[48.53477282393407,54.869046936998544],[48.497891178343345,54.85120097945402],[48.45506088023884,54.83930367442558],[48.44316357520907,54.85714963196824],[48.46100953275333,54.89165181655429],[48.441973844706155,54.91306696560517],[48.449112227724356,54.92734373164148],[48.42769707867135,54.94281022817813],[48.39200516358425,54.95827672471656],[48.36345163151384,54.96541510773476],[48.328949446929656,54.977312412763204],[48.35988244000519,54.98920971779262],[48.35631324849644,55.0201427108677],[48.32775971642674,55.035609207406225],[48.27660130480121,55.03798866841223],[48.25280669474318,55.02728109388502],[48.22425316267277,55.029660554891024],[48.18499205607692,55.00586594483317],[48.164766637527634,55.04393732092743],[48.13026445294274,55.045127051429546],[48.107659573387615,55.0237119023777],[48.088623885340354,55.03798866841223],[48.08386496332878,55.049885973440766],[48.05888062276783,55.05821408696099],[48.02794762969239,55.06892166148741],[47.96370218253488,55.040368129418326],[47.93633838096739,55.02133244137168],[47.90064646588029,55.05821408696099],[47.8946978133658,55.08557788852795],[47.87209293380988,55.08319842752372],[47.86495455079248,55.129597917136344],[47.812606408664834,55.116510881604015],[47.73646365647747,55.1105622290897],[47.70553066340203,55.123649264621235],[47.68173605334399,55.123649264621235],[47.660320904290984,55.14149522216576],[47.627008450209715,55.14149522216576],[47.60559330115751,55.1533925271942],[47.581798691098676,55.16053091021152],[47.5709589242946,55.17480767624694],[47.54716431423586,55.189084442281484],[47.52336970417782,55.18432552027115],[47.51028266864584,55.197412555802686],[47.47340102305512,55.208120130328126],[47.441278299476764,55.23429420139288],[47.41153503690424,55.23072500988387],[47.40915557589841,55.24024285390719],[47.3591868947757,55.24500177592018],[47.350858781255475,55.22953527938175],[47.33301282371113,55.22953527938175],[47.328253901699554,55.24857096742839],[47.325874440693724,55.26046827245683],[47.32468471019081,55.275934768994375],[47.334202554214045,55.30805749257344],[47.323494979687986,55.31162668408254],[47.30921821365318,55.31995479760374],[47.292561986612455,55.30924722307644],[47.285423603595056,55.277124499497376],[47.25092141901016,55.26165800296073],[47.20690139040274,55.24738123692441],[47.191434893864226,55.25689908094773],[47.17715812782942,55.26046827245683],[47.18072731933817,55.30805749257344],[47.17358893632076,55.31519587559066],[47.19381435487006,55.337800755146404],[47.15693270928013,55.33066237212918],[47.12124079419223,55.3354212941404],[47.08673860960813,55.349698060175825],[47.06229772619038,55.357982109603235],[47.043262038143475,55.353223187591574],[47.043262038143475,55.33775669105394],[47.03969284663473,55.3199107335104],[47.019467428085434,55.3163415420013],[47.013518775570326,55.292546931942546],[47.00043174003853,55.27589070490289],[46.939755484389856,55.272321513392896],[46.907632760811055,55.25447555585015],[46.87907922874109,55.26399339987258],[46.85041794777075,55.27693720418212],[46.84219758315117,55.28064962691401],[46.83795447129436,55.281203076286836]]]]}},{"type":"Feature","properties":{"kind":"district","id":"uyezd-1897-464","name":"Ардатовский","provinceId":"simbirsk"},"geometry":{"type":"MultiPolygon","coordinates":[[[[45.55279283097205,54.986484734907236],[45.57857032520206,54.95079281982085],[45.61783143179861,54.909152252218554],[45.624374949564206,54.893239606742064],[45.61902116230153,54.87450135131982],[45.58689843872238,54.86379377679438],[45.57172937481012,54.86468607467121],[45.5529911193893,54.86022458528626],[45.52800677882834,54.86200918103983],[45.52443758731969,54.84416322349717],[45.50213014039003,54.8379171383558],[45.48963797010915,54.81828658505859],[45.47803809770564,54.80936360628672],[45.45305375714478,54.798656031759506],[45.45573065077607,54.77545628695222],[45.465545927425566,54.76117952091768],[45.47268431044306,54.733518286724546],[45.4432384804952,54.716564627058716],[45.42093103356562,54.70585705253328],[45.41022345903948,54.68711879711104],[45.408855850236826,54.662681929059545],[45.42313261627163,54.62699001397236],[45.45882453135873,54.61390297843994],[45.490947254937886,54.60676459542262],[45.51593159549875,54.60676459542262],[45.52663917002489,54.581780254861755],[45.51355213449292,54.55560618379691],[45.53020836153364,54.52110399921371],[45.495706176949454,54.511586155190386],[45.46596291437693,54.499688850160965],[45.493326715943624,54.47708397060522],[45.521880248013325,54.46637639607979],[45.549244049580814,54.46280720457069],[45.56590027662145,54.45209963004348],[45.567090007124364,54.44615097753014],[45.55400297159239,54.44496124702616],[45.51831105650458,54.40332067942377],[45.552813241089474,54.381905530372904],[45.5766078511476,54.41045906244287],[45.613489496738325,54.40213094892166],[45.60992030522958,54.38547472188111],[45.6253868017673,54.360490381319366],[45.628955993276044,54.3366957712615],[45.67178629138125,54.3283676577403],[45.71223712847993,54.345023884780844],[45.74435985205908,54.33788550176362],[45.78719015016358,54.3319368492494],[45.801466916198386,54.30457304768244],[45.79194907217515,54.28910655114392],[45.76101607909971,54.293865473157],[45.73603173853796,54.27839897661848],[45.73603173853796,54.25936328857184],[45.71580631998867,54.22486110398677],[45.719375511497326,54.193928110911685],[45.71223712847993,54.17846161437316],[45.73739327490055,54.200096889683664],[45.7623776154615,54.210804464209986],[45.78141330350868,54.22746069125062],[45.824243601613176,54.24173745728605],[45.85755605569525,54.256014223320584],[45.87302255223297,54.273860180863245],[45.890868509776425,54.27861910287633],[45.90990419782289,54.25958341482871],[45.91228365882872,54.23935799627995],[45.94083719089913,54.22270176923941],[45.96939072296874,54.24887584030327],[45.97177018397457,54.277429372372346],[45.97771883648905,54.29765479092297],[45.99913398554206,54.29884452142508],[46.01222102107404,54.28337802488657],[46.02530805660593,54.275049911367226],[46.05386158867562,54.273860180863245],[46.07527673772863,54.269101258853006],[46.09669188678084,54.24173745728605],[46.131194071365734,54.22032230823331],[46.14785029840645,54.200096889683664],[46.13952218488605,54.18463039314523],[46.14666056790354,54.178681740631006],[46.16093733393834,54.17392281861979],[46.18235248299055,54.179871471133126],[46.21328547606679,54.185820123648234],[46.19781897952907,54.195337967671556],[46.2144752065697,54.201286620185776],[46.234700625119,54.191768776162455],[46.26920280970389,54.196527698175444],[46.2989460722765,54.203666081192765],[46.28585903674461,54.21913257772941],[46.31917149082588,54.22746069125062],[46.36557098043975,54.24173745728605],[46.375088824462985,54.247686109799375],[46.386986129492044,54.24887584030327],[46.39174505150362,54.24649637929726],[46.41910885307111,54.25244503181237],[46.448852115643724,54.2607731453318],[46.45004184614655,54.28694721639567],[46.478595378217044,54.29884452142508],[46.50120025777217,54.30003425192898],[46.486923491737365,54.31312128745962],[46.44528292413498,54.31312128745962],[46.433385619106005,54.321449400980825],[46.410780739550795,54.32501859248895],[46.40126289552685,54.34167481952959],[46.36319151943401,54.353572124559804],[46.317981760322965,54.373797543108566],[46.29299741976202,54.37141808210255],[46.284669306241696,54.37617700411466],[46.26444388769152,54.39045377014919],[46.23826981662774,54.38688457864099],[46.20614709304939,54.40235107517853],[46.18949086600795,54.44518137328303],[46.19781897952907,54.4784938273651],[46.228751972604506,54.515375472956265],[46.246597930148056,54.5213241254696],[46.234700625119,54.54273927452233],[46.20614709304939,54.55701604055865],[46.20614709304939,54.5689133455862],[46.22994170310742,54.55820577106077],[46.257305504674115,54.555826310054755],[46.279910384230035,54.555826310054755],[46.279910384230035,54.565344154078076],[46.2561157741712,54.5689133455862],[46.2561157741712,54.58437984212472],[46.248977391153886,54.60222579966925],[46.234700625119,54.6117436436916],[46.246597930148056,54.626020409727104],[46.27277200121264,54.6248306792249],[46.29418715026484,54.626020409727104],[46.27039254020681,54.64981501978488],[46.308463916299736,54.65100475028886],[46.331068795854854,54.6593328638082],[46.351294214404945,54.69145558738727],[46.37270936345724,54.70692208392578],[46.39174505150362,54.70335289241668],[46.410780739550795,54.708111814427895],[46.40840127854505,54.72357831096633],[46.38222720748038,54.737855077000866],[46.344155831387546,54.7509421125324],[46.346535292393376,54.77235726158594],[46.37032990245141,54.79734160214591],[46.39174505150362,54.82708486471986],[46.3762785549659,54.84255136125829],[46.3762785549659,54.85801785779494],[46.384606668486214,54.87110489332736],[46.410780739550795,54.87229462383125],[46.440524002123404,54.86277677980705],[46.4750261867075,54.85920758829892],[46.46312888167853,54.880622737350684],[46.41910885307111,54.8925200423801],[46.386986129492044,54.900848155901215],[46.337017448369345,54.92464276595908],[46.28110011473295,54.92940168797118],[46.241839008136395,54.952006567525146],[46.19662924902536,54.96747306406358],[46.17759356097898,54.979370369093],[46.13000434086282,54.99602659613355],[46.14904002890928,55.01863147568929],[46.1288146103599,55.02814931971261],[46.11810703583304,55.042426085747145],[46.07527673772863,55.043615816251034],[46.06932808521405,55.062651504297676],[46.059810241190824,55.08049746184043],[46.038311859962796,55.07626078092838],[46.00737886688736,55.07864024193261],[45.94908207224434,55.0774505114305],[45.90149285212747,55.09886566048226],[45.85866255402296,55.09886566048226],[45.83486794396422,55.0810197029396],[45.784899262842316,55.09648619947802],[45.744448425742846,55.10362458249436],[45.69566947512315,55.10957323500956],[45.64689052450416,55.110762965511675],[45.64451106349833,55.09291700796892],[45.65521863802447,55.0715018589153],[45.67068513456219,55.06912239790929],[45.67187486506511,55.06079428438986],[45.65640836852739,55.053655901372636],[45.64332133299541,55.05484563187564],[45.63023429746272,55.047707248858416],[45.60881914841052,55.041758596343215],[45.593352651872706,55.03343048282201],[45.56598885030522,55.02986129131389],[45.5551722919778,55.01027934496599],[45.55279283097205,54.986484734907236]]]]}},{"type":"Feature","properties":{"kind":"district","id":"uyezd-1897-466","name":"Алатырский","provinceId":"simbirsk"},"geometry":{"type":"MultiPolygon","coordinates":[[[[46.83795447129436,55.281203076286836],[46.80330857333733,55.25828954787448],[46.77356531076472,55.277325235921126],[46.77356531076472,55.285653349440466],[46.74739123970014,55.292791732457786],[46.72835555165368,55.279704696925364],[46.69385336706958,55.277325235921126],[46.64626414695262,55.26066900887872],[46.58796735230969,55.26661766139382],[46.50349648660289,55.26661766139382],[46.43925103944538,55.267807391897804],[46.398800202346,55.26066900887872],[46.37262613128213,55.283273888434465],[46.32741637217109,55.293981462961675],[46.2714990385347,55.30944795949833],[46.214391974394594,55.30111984597899],[46.22747900992648,55.288032810446566],[46.25960173350493,55.283273888434465],[46.28220661306076,55.267807391897804],[46.311949875633374,55.268997122399924],[46.31908825865077,55.2618587393827],[46.30243203161014,55.25234089535938],[46.29291418758691,55.24639224284418],[46.30838068412463,55.24282305133606],[46.31908825865077,55.23568466831874],[46.29291418758691,55.22378736328942],[46.28934499607825,55.203561944739675],[46.27744769104919,55.201182483733675],[46.26674011652224,55.194044100716354],[46.2643606555165,55.17143922116061],[46.26198119451067,55.132178114565214],[46.242945506464295,55.110762965511675],[46.21558170489751,55.110762965511675],[46.160854101763235,55.111952696015564],[46.09303946309707,55.121470540038004],[46.03236320744831,55.130988384061325],[46.04782970398603,55.10481431299736],[46.038311859962796,55.07626078092838],[46.059810241190824,55.08049746184043],[46.06932808521405,55.062651504297676],[46.07527673772863,55.043615816251034],[46.11810703583304,55.042426085747145],[46.1288146103599,55.02814931971261],[46.14904002890928,55.01863147568929],[46.13000434086282,54.99602659613355],[46.17759356097898,54.979370369093],[46.19662924902536,54.96747306406358],[46.241839008136395,54.952006567525146],[46.28110011473295,54.92940168797118],[46.337017448369345,54.92464276595908],[46.386986129492044,54.900848155901215],[46.41910885307111,54.8925200423801],[46.46312888167853,54.880622737350684],[46.4750261867075,54.85920758829892],[46.440524002123404,54.86277677980705],[46.410780739550795,54.87229462383125],[46.384606668486214,54.87110489332736],[46.3762785549659,54.85801785779494],[46.3762785549659,54.84255136125829],[46.39174505150362,54.82708486471986],[46.37032990245141,54.79734160214591],[46.346535292393376,54.77235726158594],[46.344155831387546,54.7509421125324],[46.38222720748038,54.737855077000866],[46.40840127854505,54.72357831096633],[46.410780739550795,54.708111814427895],[46.39174505150362,54.70335289241668],[46.37270936345724,54.70692208392578],[46.351294214404945,54.69145558738727],[46.331068795854854,54.6593328638082],[46.308463916299736,54.65100475028886],[46.27039254020681,54.64981501978488],[46.29418715026484,54.626020409727104],[46.27277200121264,54.6248306792249],[46.246597930148056,54.626020409727104],[46.234700625119,54.6117436436916],[46.248977391153886,54.60222579966925],[46.2561157741712,54.58437984212472],[46.2561157741712,54.5689133455862],[46.279910384230035,54.565344154078076],[46.279910384230035,54.555826310054755],[46.257305504674115,54.555826310054755],[46.22994170310742,54.55820577106077],[46.20614709304939,54.5689133455862],[46.20614709304939,54.55701604055865],[46.234700625119,54.54273927452233],[46.246597930148056,54.5213241254696],[46.228751972604506,54.515375472956265],[46.19781897952907,54.4784938273651],[46.18949086600795,54.44518137328303],[46.20614709304939,54.40235107517853],[46.23826981662774,54.38688457864099],[46.26444388769152,54.39045377014919],[46.284669306241696,54.37617700411466],[46.29299741976202,54.37141808210255],[46.317981760322965,54.373797543108566],[46.36319151943401,54.353572124559804],[46.40126289552685,54.34167481952959],[46.410780739550795,54.32501859248895],[46.433385619106005,54.321449400980825],[46.44528292413498,54.31312128745962],[46.486923491737365,54.31312128745962],[46.50120025777217,54.30003425192898],[46.51947108020956,54.296407396297596],[46.55278353429154,54.301166318309704],[46.58728571887581,54.307114970823925],[46.60989059843147,54.29283820478939],[46.62654682547201,54.28094089976095],[46.65034143553014,54.29045874378427],[46.6788949676001,54.294027935292476],[46.700310116652574,54.2975971268006],[46.67651550659454,54.30949443183091],[46.691982003131905,54.32615065887057],[46.70268957765814,54.34875553842631],[46.720535535201954,54.361842573957844],[46.74789933676945,54.383257723010495],[46.74195068425443,54.3939652975378],[46.74551987576317,54.402293411058025],[46.77050421632439,54.39158583653081],[46.8157139754357,54.377309070496274],[46.837129124488264,54.396344758543805],[46.86568265655823,54.40943179407534],[46.85378535152872,54.439175056647414],[46.87282103957572,54.448692900670736],[46.89780538013694,54.44155451765343],[46.90732322415999,54.451072361677724],[46.906133493656895,54.462969666706165],[46.890666997119446,54.47129778022648],[46.91446160717748,54.50342050380457],[46.93944594773879,54.50104104279945],[46.93349729522439,54.50936915632066],[46.97275840181988,54.51055888682366],[46.97275840181988,54.49628212078734],[46.97989678483737,54.49628212078734],[46.99298382036997,54.49985131229644],[46.99655301187872,54.518887000343085],[47.00845031690742,54.528404844366406],[47.03819357948057,54.53792268839062],[47.05247034551555,54.549819993419064],[47.06317792004179,54.545061071407844],[47.073885494568025,54.54625080190996],[47.114336331667495,54.55100972392215],[47.1345617502167,54.55219945442427],[47.12504390619373,54.566476220460586],[47.122664445187276,54.585511908506334],[47.160735821281186,54.604547596552976],[47.16668447379549,54.617634632084425],[47.16192555178357,54.63667032013107],[47.18928935335115,54.64261897264626],[47.192858544859895,54.6592751996877],[47.155976899269255,54.66522385220103],[47.120284984181716,54.68188007924344],[47.096490374123675,54.697346575780095],[47.069126572556094,54.69258765376888],[47.05247034551555,54.68306980974556],[47.00607085590177,54.69020819276287],[46.99893247288428,54.709243880810405],[46.98703516785486,54.72590010785006],[46.970378940814314,54.74374606539459],[46.95967136628808,54.75802283143001],[46.96799947980875,54.784196902492994],[46.98703516785486,54.80561205154573],[46.99536328137553,54.82345800909026],[46.99298382036997,54.84130396663292],[46.95372271377377,54.860339654679564],[46.965620018803186,54.89008291725261],[46.97394813232306,54.926964562843786],[46.97394813232306,54.97455378295942],[47.014398969422444,55.00310731502938],[46.98584543735248,55.02452246408212],[46.96443028830001,55.04831707414087],[46.96324055779682,55.06854249269051],[46.97632759332863,55.08995764174236],[46.99655301187872,55.1125625212981],[47.01796816093119,55.137546861858965],[47.009640047410514,55.155392819403495],[47.00012220338746,55.17323877694616],[46.93944594773879,55.177997698959146],[46.89185672762183,55.21963826656065],[46.86687238706061,55.24700206812761],[46.85041794777075,55.27693720418212],[46.84219758315117,55.28064962691401],[46.83795447129436,55.281203076286836]]]]}},{"type":"Feature","properties":{"kind":"district","id":"uyezd-1897-468","name":"Симбирский","provinceId":"simbirsk"},"geometry":{"type":"MultiPolygon","coordinates":[[[[48.66326371824899,54.81788852537284],[48.6200951959323,54.811108358609076],[48.562988131792196,54.80040078408186],[48.52610648620218,54.805159706094855],[48.522537294692725,54.8218159331354],[48.50826052865792,54.82538512464362],[48.49398376262312,54.798021323077634],[48.44163562049458,54.78731374855033],[48.40713343591049,54.789693209556425],[48.390477208869854,54.77779590452789],[48.38333882585165,54.76827806050457],[48.35954421579361,54.76113967748646],[48.34407771925589,54.74805264195404],[48.32742149221526,54.74329371994283],[48.309575534671,54.74329371994283],[48.298867960144854,54.73972452843461],[48.26436577556067,54.745673180947946],[48.242950626507664,54.75162183346217],[48.212017633432225,54.74686291145193],[48.18108464035679,54.74210398944071],[48.15491056929212,54.74329371994283],[48.12754676772543,54.75519102497127],[48.10018296615793,54.76113967748646],[48.12635703722251,54.77422671301791],[48.13706461174857,54.80872889760307],[48.098993235655016,54.81824674162639],[48.03474778849822,54.814677550118176],[48.01095317843939,54.815867280620296],[47.98358937687269,54.811108358609076],[47.9562255753052,54.82062620263151],[47.93837961776165,54.80872889760307],[47.93718988725873,54.77303698251579],[47.94551800077905,54.75519102497127],[47.95979476681394,54.74448345044494],[47.965743419329144,54.736155336925506],[47.93600015675582,54.72782722340439],[47.91577473820653,54.715929918374975],[47.891980128147694,54.715929918374975],[47.85390875205485,54.75281156396615],[47.83963198601996,54.75162183346217],[47.82654495048807,54.732586145415524],[47.807509262440895,54.74805264195404],[47.75040219830079,54.736155336925506],[47.7444535457863,54.71236072686676],[47.71708974421952,54.69570449982622],[47.68139782913171,54.6826174642938],[47.69329513416157,54.66834069825926],[47.71708974421952,54.66239204574504],[47.66355187158816,54.62907959166208],[47.62548049549532,54.61599255613143],[47.64094699203304,54.60409525110211],[47.65760321907367,54.60171579009512],[47.64689564454753,54.57554171903125],[47.600496154933566,54.546988186961286],[47.61834211247792,54.52914222941854],[47.581460466887194,54.51605519388612],[47.57908100588136,54.506537349862796],[47.55885558733198,54.5053476193589],[47.545768551800094,54.51962438539522],[47.466056608104154,54.492260583828255],[47.397052238935075,54.47798381779283],[47.36849870686538,54.489881122822254],[47.33875544429286,54.48869139231827],[47.320909486748505,54.46965570427163],[47.29473541568464,54.47798381779283],[47.27688945814118,54.47679408728983],[47.24595646506494,54.46489678226041],[47.21621320249242,54.46013786024831],[47.18620555536316,54.42827952122571],[47.185015824860244,54.381880031612994],[47.17787744184293,54.36760326557855],[47.19572339938639,54.35570596054913],[47.210000165421285,54.35927515205734],[47.21713854843868,54.35689569105125],[47.205241243409624,54.34618811652581],[47.21475908743285,54.3366702725016],[47.230225583971375,54.34142919451281],[47.25758938553807,54.35213676904003],[47.27662507358453,54.3366702725016],[47.263538038052644,54.320014045460965],[47.263538038052644,54.2997886269122],[47.227846122965545,54.2867015913789],[47.19572339938639,54.28075293886556],[47.15527256228772,54.25933778981202],[47.13028822172597,54.245061023778376],[47.13742660474346,54.23673291025628],[47.16360067580813,54.246250754280496],[47.205241243409624,54.26171725081804],[47.261158577046814,54.28194266936768],[47.26829696006421,54.268855633835344],[47.258779116040984,54.25338913729772],[47.230225583971375,54.226025335730846],[47.19572339938639,54.20579991718209],[47.2242769314568,54.18914369013967],[47.240933158497434,54.16891827159092],[47.28614291760776,54.1534517750524],[47.31588618018109,54.14869285304118],[47.32064510219266,54.18081557662025],[47.33016294621589,54.18795395963756],[47.33492186822755,54.20461018667811],[47.34206025124487,54.23078425774206],[47.36704459180662,54.22364587472475],[47.38251108834434,54.22364587472475],[47.40392623739663,54.234353449252055],[47.420582464437175,54.234353449252055],[47.40630569840237,54.19628207315877],[47.42653111695175,54.17605665460903],[47.39321866287048,54.18200530712237],[47.37656243582985,54.159400427568485],[47.40273650689372,54.14869285304118],[47.43366949996995,54.142744200526074],[47.4443770744961,54.15107231404728],[47.48363818109177,54.142744200526074],[47.530037670705724,54.13798527851574],[47.55264255026085,54.13917500901786],[47.578816621325515,54.155831236058496],[47.60023177037772,54.171297732596926],[47.62164691942993,54.162969619075724],[47.652579912506255,54.164159349579705],[47.64187233797931,54.14512366153306],[47.60023177037772,54.14393393102996],[47.570488507804484,54.1177598599661],[47.54193497573479,54.116570129462204],[47.525278748694156,54.09515498040947],[47.496725216623744,54.08444740588314],[47.494345755617914,54.07730902286583],[47.51814036567675,54.072550100855594],[47.54550416724344,54.060652795825284],[47.583575543337176,54.08801659739224],[47.614508536412615,54.10467282443279],[47.64187233797931,54.089206327896136],[47.66328748703231,54.080878214374934],[47.67280533105554,54.1094317464449],[47.69422048010775,54.11181120745188],[47.7120664376513,54.09872417191946],[47.72991239519565,54.09991390242158],[47.72991239519565,54.11894959046822],[47.74537889173337,54.11894959046822],[47.75965565776817,54.10586255493668],[47.78345026782621,54.10110363292556],[47.80248595587339,54.06303225683227],[47.81676272190819,54.05470414331106],[47.831039487942995,54.04042737727653],[47.85721355900766,54.04161710777864],[47.86911086403672,54.03328899425921],[47.886956821580185,54.03566845526442],[47.916700084152794,54.03566845526442],[47.95120226873769,54.05708360431707],[47.96785849577832,54.064221987334385],[47.99046337533353,54.064221987334385],[48.016637446398114,54.05470414331106],[48.05589855299387,54.060652795825284],[48.06422666651498,54.072550100855594],[48.10348777311074,54.076119292363714],[48.13085157467752,54.082067944878915],[48.12609265266586,54.06779117884251],[48.11657480864263,54.05470414331106],[48.11181588663097,54.04042737727653],[48.09634939009325,54.03328899425921],[48.08207262405845,54.011873845206566],[48.06422666651498,53.995217618165924],[48.03805259545032,53.9845100436396],[48.034483403941664,53.97261273861018],[48.0225860989126,53.96309489458686],[48.014257985392284,53.94762839804844],[47.998791488854565,53.94405920654022],[47.99284283633928,53.9357310930191],[47.998791488854565,53.929782440505775],[48.00474014136914,53.91074675245913],[47.99046337533353,53.89765971692671],[47.97975580080739,53.88100348988607],[48.034483403941664,53.852449957816106],[48.06422666651498,53.86077807133554],[48.10467750361366,53.86196780183943],[48.18319971680588,53.86196780183943],[48.224840284408266,53.867916454352766],[48.20461486585897,53.853639688318225],[48.21532244038512,53.83579373077556],[48.22840947591701,53.82984507826036],[48.27242950452434,53.82746561725436],[48.300983036594836,53.83460400027158],[48.32834683816153,53.83579373077556],[48.37117713626683,53.83460400027158],[48.35809010073485,53.848880766307005],[48.3759360582784,53.85720887982644],[48.38902309381029,53.848880766307005],[48.4175766258807,53.853639688318225],[48.438991774932994,53.846501305301004],[48.458027462979366,53.848880766307005],[48.45564800197363,53.867916454352766],[48.46992476800843,53.87743429837609],[48.48896045605561,53.87743429837609],[48.54606752019491,53.87505483737097],[48.56629293874509,53.87981375938218],[48.58770808779721,53.89646998642273],[48.60317458433493,53.8929007949146],[48.600795123329185,53.87862402888007],[48.6019848538321,53.87148564586275],[48.63291784690834,53.87743429837609],[48.63648703841709,53.90598783044605],[48.64005622992574,53.92264405748668],[48.66623030098961,53.94167974553332],[48.675748145012754,53.95357705056354],[48.64005622992574,53.964284625089064],[48.675748145012754,53.9797511216275],[48.70192221607742,53.9880792351487],[48.73999359217026,54.00949438419958],[48.75902928021672,54.0190122282229],[48.8066185003336,54.01663276721867],[48.85301798994747,54.004735462189245],[48.845879606930154,54.03804791627043],[48.83993095441558,54.082067944878915],[48.78282389027547,54.10229336342856],[48.77568550725816,54.13084689549852],[48.75308062770215,54.135605817508846],[48.751890897199324,54.15107231404728],[48.73999359217026,54.158210697064504],[48.69121464155056,54.155831236058496],[48.657902187469205,54.1534517750524],[48.60317458433493,54.15107231404728],[48.54011886768043,54.15107231404728],[48.50085776108467,54.158210697064504],[48.48539126454695,54.17605665460903],[48.48301180354032,54.21769722220964],[48.494909108570184,54.26409671182502],[48.5103756051079,54.28432213037378],[48.535359945668766,54.28432213037378],[48.56629293874509,54.29265024389498],[48.613882158861074,54.278373477858665],[48.647194612943146,54.27004536433835],[48.673368684006924,54.26052752031592],[48.72452709563254,54.242681562771395],[48.74713197518766,54.242681562771395],[48.75546008870798,54.25695832880593],[48.736424400661605,54.27480428635046],[48.71976817362097,54.29621943540222],[48.7280962871412,54.33429081149551],[48.68407625853307,54.350947038536134],[48.665040570486696,54.36284434356635],[48.61745135036982,54.35213676904003],[48.57937997427698,54.34618811652581],[48.54844698120074,54.35808542155523],[48.544877789691995,54.37355191809188],[48.529411293154276,54.37712110960187],[48.50442695259333,54.37474164859577],[48.48658099504978,54.380690301109105],[48.48420153404324,54.39972598915575],[48.46516584599677,54.405674641670856],[48.47944261203166,54.41995140770628],[48.50561668309624,54.4306589822327],[48.5020474915875,54.44850493977536],[48.45088907996197,54.4699200888281],[48.43542258342425,54.47467901083931],[48.44018150543591,54.542493649505566],[48.45207881046488,54.588893139119165],[48.48896045605561,54.6114980186758],[48.57700051327115,54.64600020325909],[48.647194612943146,54.65075912527209],[48.71500925160931,54.64005155074487],[48.774495776755245,54.62696451521245],[48.82208499687132,54.63529262873366],[48.86372556447361,54.66741535231263],[48.866707634247575,54.69177709206357],[48.82387733614236,54.68582843954846],[48.792944343066125,54.7084333191042],[48.75487296697328,54.72389981564263],[48.74535512295005,54.74412523419139],[48.74297566194422,54.77743768827443],[48.70490428585058,54.800042567828314],[48.66326371824899,54.81788852537284]]]]}},{"type":"Feature","properties":{"kind":"district","id":"uyezd-1897-470","name":"Сызранский","provinceId":"simbirsk"},"geometry":{"type":"MultiPolygon","coordinates":[[[[46.681616865132355,53.329825930308],[46.66944356322976,53.31079291857803],[46.65992571920653,53.2869983085184],[46.68134086825882,53.269152350975645],[46.68134086825882,53.23821935790056],[46.713463591837886,53.216804208847826],[46.75272469843373,53.194199329292175],[46.79793445754478,53.190630137783074],[46.841954486152105,53.197768520800295],[46.86217990470228,53.182302024261865],[46.90619993330961,53.176353371747645],[46.953789153426484,53.17873283275365],[47.00256810404627,53.19181986828519],[47.04063948013911,53.17754310225153],[47.09060816126173,53.172784180238544],[47.11083357981111,53.14423064816858],[47.11440277131985,53.13233334314005],[47.16080226093372,53.131143612637935],[47.214340133565166,53.14185118716435],[47.2797753112255,53.14779983967857],[47.34164129737718,53.14898957018069],[47.392799709002,53.1537484921919],[47.39160997849908,53.14185118716435],[47.376143481961364,53.12638469062583],[47.37257429045262,53.116866846602505],[47.40231755302514,53.08593385352742],[47.39160997849908,53.0764160095041],[47.37495375145845,53.05500086045048],[47.38685105648742,53.027637058884494],[47.46299380867399,53.00384244882477],[47.4986857237618,52.99908352681453],[47.59505389449766,52.964581342228485],[47.64145338411153,52.951494306696944],[47.67833502970154,52.952684037200925],[47.709268022777785,52.938407271164614],[47.73901128535031,52.94078673217151],[47.75566751239094,52.93364834915428],[47.78897996647301,52.93364834915428],[47.83299999508114,52.91699212211188],[47.84846649161886,52.92175104412398],[47.891296789723356,52.92175104412398],[47.922229782799505,52.89795643406612],[47.97933684693961,52.88724885953891],[48.04834121610869,52.87059263249827],[48.17088345790842,52.84322883093229],[48.239887827077496,52.813485568359326],[48.312461387755235,52.801588263329904],[48.3243586927851,52.77541419226604],[48.344584111334385,52.75399904321241],[48.36956845189534,52.729014702652435],[48.393363061954176,52.77065527025482],[48.42786524653836,52.796829341318684],[48.46950581414065,52.82895206489775],[48.49686961570744,52.83609044791498],[48.54802802733297,52.85512613596162],[48.58134048141424,52.89081805104801],[48.59204805594038,52.92175104412398],[48.57658155940266,52.953873767703044],[48.531371800292334,52.98599649128211],[48.498059346210354,53.0300165198905],[48.498059346210354,53.070467356989],[48.52661287827996,53.113297655093405],[48.55635614085328,53.14779983967857],[48.58966859493455,53.16802525822821],[48.65153458108623,53.15969714470701],[48.71221083673508,53.17159444973643],[48.808579007470854,53.187060946274855],[48.89304987317845,53.201337712309396],[48.96681316435919,53.21918366985392],[49.00012561844037,53.23346043588757],[49.04533537755141,53.2524961239351],[49.108391094206006,53.25368585443722],[49.21665656997093,53.25011666292812],[49.251158754555824,53.23821935790056],[49.26186632908197,53.2060966343215],[49.286850669642924,53.190630137783074],[49.3273015067423,53.182302024261865],[49.359424230320656,53.15612795319791],[49.39273668440273,53.14779983967857],[49.44508482653117,53.14304091766647],[49.46531024508046,53.14898957018069],[49.50695081268205,53.14779983967857],[49.57595518185113,53.15850741420489],[49.64852874252895,53.182302024261865],[49.73062014723072,53.203717173315496],[49.787727211370026,53.21442474784093],[49.837695892492725,53.2096658258306],[49.90313107015315,53.190630137783074],[49.95904840379025,53.185871215770966],[50.05541657452611,53.19181986828519],[50.094677681122576,53.21085555633272],[50.13393878771842,53.2405988189048],[50.14702582325031,53.270342081477764],[50.15654366727434,53.31793130159535],[50.145836092747395,53.356002677688636],[50.117282560677786,53.401212436798254],[50.06493441854926,53.425007046857004],[50.01734519843327,53.44047354339543],[49.9697559783164,53.45118111792087],[49.875767268586365,53.45712977043607],[49.83412670098407,53.45475030942997],[49.76274287080916,53.45475030942997],[49.68303092711393,53.45475030942997],[49.622354671465175,53.45712977043607],[49.540263266764114,53.45237084842396],[49.4831562026241,53.44999138741875],[49.38559830138532,53.44523246540665],[49.34276800328011,53.435714621383326],[49.30945554919875,53.435714621383326],[49.26543552059063,53.44642219591063],[49.22022576147958,53.45118111792087],[49.151221392310504,53.45712977043607],[49.09649378917703,53.47616545848359],[49.07150944861528,53.491631955021134],[49.05213584094364,53.51150165746097],[49.02001311736485,53.50436327444366],[48.97837254976308,53.49246596941522],[48.949819017693116,53.46867135935647],[48.93078332964612,53.45796378483104],[48.89628114506185,53.45558432382494],[48.867727612991885,53.4389280967835],[48.86534815198543,53.40799510370833],[48.868917343494175,53.3889594156608],[48.86534815198543,53.356836692082624],[48.893901684055486,53.32947289051575],[48.9057989890849,53.31519612448122],[48.874865996009376,53.32352423800144],[48.84393300293296,53.30091935844579],[48.81894866237174,53.31162693297122],[48.81300000985743,53.32352423800144],[48.79158486080496,53.32947289051575],[48.7820670167819,53.34493938705418],[48.728529144150635,53.348508578562395],[48.70830372560134,53.37468264962715],[48.632160973414415,53.40561564270232],[48.609556093858764,53.44487674929772],[48.58695121430391,53.46986108985948],[48.585761483800724,53.486517316901],[48.58100256178871,53.503173543940655],[48.5619668737426,53.50674273545064],[48.55601822122829,53.49841462192944],[48.52151603664322,53.46748162885346],[48.49534196557962,53.44844594080682],[48.48225493004693,53.42941025276107],[48.44418355395391,53.441307557789514],[48.40492244735771,53.45439459332104],[48.362092149252675,53.46034324583704],[48.36566134076142,53.49603516092343],[48.3216413121533,53.4722405508646],[48.25977532600215,53.50674273545064],[48.23241152443537,53.52458869299339],[48.20742718387415,53.52458869299339],[48.13604335369915,53.51150165746097],[48.059900601512226,53.49603516092343],[48.006362728881044,53.491276238912214],[47.958773508764885,53.46391243734526],[47.92308159367743,53.44487674929772],[47.87668210406365,53.44487674929772],[47.84574911098732,53.443687018794634],[47.823144231432465,53.434169174772286],[47.79340096885923,53.40085672069111],[47.782693394332995,53.410374564713536],[47.76484743678927,53.41513348672467],[47.75176040125747,53.41513348672467],[47.743432287736795,53.40323618169711],[47.7565193232686,53.39371833767379],[47.7565193232686,53.3889594156608],[47.74224255723362,53.38301076314658],[47.73748363522249,53.367544266608064],[47.710119833654815,53.356836692082624],[47.691084145608706,53.37706211063236],[47.70179172013494,53.38420049364959],[47.67085872705942,53.40918483421133],[47.649443578006945,53.40799510370833],[47.6458743864982,53.38776968515779],[47.6006646273868,53.38063130214137],[47.564972712299344,53.40085672069111],[47.512624570171255,53.39847725968412],[47.497158073633095,53.40323618169711],[47.48169157709573,53.40323618169711],[47.46027642804326,53.416323217227756],[47.45432777552815,53.40204645119411],[47.43529208748195,53.41394375622255],[47.41506666893266,53.41989240873686],[47.40078990289768,53.42584106125108],[47.37699529283884,53.42703079175497],[47.36033906579829,53.421082139239864],[47.3532006827808,53.421082139239864],[47.35201095227753,53.42822052225797],[47.36271852680386,53.4389280967835],[47.352929394110966,53.457635687218485],[47.331514245058756,53.458825417720604],[47.311288826509376,53.458825417720604],[47.295822329970946,53.464774070235805],[47.273217450415736,53.468343261743925],[47.25537149287228,53.465963800739694],[47.23395634381998,53.44335892118395],[47.21254119476698,53.43384107716063],[47.1720903576683,53.43265134665674],[47.14234709509498,53.43384107716063],[47.11617302403111,53.43741026866884],[47.073342725925905,53.44335892118395],[47.04597892435912,53.43622053816672],[47.017425392288715,53.44692811269216],[46.982923207704616,53.445738382190044],[46.96150805865232,53.465963800739694],[46.95674913664075,53.477861105767246],[46.922246952055765,53.48143029727635],[46.91272910803262,53.49451733280966],[46.8817961149571,53.50522490733509],[46.86157069640701,53.50522490733509],[46.84372473886354,53.50165571582697],[46.82468905081708,53.50760436834021],[46.8056533627699,53.50165571582697],[46.79125006039734,53.49971818309769],[46.78411167737985,53.472354381530735],[46.755558145309884,53.47592357303894],[46.73652245726297,53.47592357303894],[46.72700461323983,53.4556981544893],[46.732953265754226,53.428334352922334],[46.756747875812174,53.41881650889901],[46.7805424858711,53.41286785638479],[46.76150679782419,53.39145270733206],[46.75317868430343,53.379555402303616],[46.74723003178921,53.361709444759086],[46.72462515223427,53.355760792244865],[46.72224569122799,53.34862240922844],[46.731763535250955,53.33672510419822],[46.71510730821041,53.32125860765971],[46.681616865132355,53.329825930308]]]]}},{"type":"Feature","properties":{"kind":"district","id":"uyezd-1897-471","name":"Корсунский","provinceId":"simbirsk"},"geometry":{"type":"MultiPolygon","coordinates":[[[[47.352929394110966,53.457635687218485],[47.3695856211516,53.475481644763015],[47.37434454316397,53.49332760230577],[47.382672656684285,53.50165571582697],[47.368395890648685,53.51831194286751],[47.346980741596475,53.536157900410174],[47.32318613153844,53.540916822423256],[47.299391521479606,53.55876277996592],[47.311288826509376,53.567090893487126],[47.291063407959285,53.58255739002378],[47.28749421645054,53.5944546950532],[47.277976372427396,53.6004033475683],[47.30534017399489,53.613490383099844],[47.31604774852104,53.613490383099844],[47.33865262807616,53.619439035614946],[47.34817047209939,53.609921191591624],[47.40646726674241,53.621818496621046],[47.437400259817764,53.623008227123165],[47.446918103841796,53.65037202869003],[47.48855867144338,53.65751041170823],[47.513543012005044,53.65394122020011],[47.54090681357182,53.65632068120612],[47.53495816105734,53.66464879472555],[47.51949166451962,53.66345906422343],[47.53257870005151,53.697961248806635],[47.49450732395787,53.719376397860266],[47.45643594786494,53.707479092829956],[47.393380231210436,53.688443404783314],[47.34579101109356,53.684874213275194],[47.326755323047095,53.694392057298515],[47.30771963500072,53.684874213275194],[47.28749421645054,53.680115291263974],[47.25061257086062,53.71223801484304],[47.24704337935187,53.7360326249009],[47.25537149287228,53.74792992993023],[47.28392502494189,53.75387858244356],[47.3196169400297,53.758637504456644],[47.33865262807616,53.772914270490205],[47.326755323047095,53.79789861105205],[47.30534017399489,53.83240079563711],[47.2851147554448,53.850246753179775],[47.28273529443897,53.87285163273552],[47.27440718091865,53.87999001575284],[47.297012060473776,53.90259489530858],[47.331514245058756,53.89664624279338],[47.368395890648685,53.89545651229126],[47.368395890648685,53.89307705128526],[47.35173966360805,53.88593866826794],[47.35649858561971,53.87880028525072],[47.382672656684285,53.8692824412274],[47.391000770204606,53.84310837016344],[47.42788241579453,53.847867292173774],[47.45881540887077,53.840728909156454],[47.4826100189288,53.85500567519286],[47.474281905408574,53.87523109374251],[47.462384600379515,53.90735381732068],[47.477851096917234,53.933527888384546],[47.49450732395787,53.96089168995151],[47.48617921043755,53.98230683900416],[47.50759435948976,53.98230683900416],[47.51711220351379,53.996583605038694],[47.48855867144338,53.99420414403269],[47.49807651546652,54.014429562583224],[47.518301934016705,54.02513713710866],[47.55875277111537,54.02989605911988],[47.56232196262403,54.04060363364718],[47.549234927092144,54.0477420166644],[47.54550416724344,54.060652795825284],[47.51814036567675,54.072550100855594],[47.494345755617914,54.07730902286583],[47.496725216623744,54.08444740588314],[47.525278748694156,54.09515498040947],[47.54193497573479,54.116570129462204],[47.570488507804484,54.1177598599661],[47.60023177037772,54.14393393102996],[47.64187233797931,54.14512366153306],[47.652579912506255,54.164159349579705],[47.62164691942993,54.162969619075724],[47.60023177037772,54.171297732596926],[47.578816621325515,54.155831236058496],[47.55264255026085,54.13917500901786],[47.530037670705724,54.13798527851574],[47.48363818109177,54.142744200526074],[47.4443770744961,54.15107231404728],[47.43366949996995,54.142744200526074],[47.40273650689372,54.14869285304118],[47.37656243582985,54.159400427568485],[47.39321866287048,54.18200530712237],[47.42653111695175,54.17605665460903],[47.40630569840237,54.19628207315877],[47.420582464437175,54.234353449252055],[47.40392623739663,54.234353449252055],[47.38251108834434,54.22364587472475],[47.36704459180662,54.22364587472475],[47.34206025124487,54.23078425774206],[47.33492186822755,54.20461018667811],[47.33016294621589,54.18795395963756],[47.32064510219266,54.18081557662025],[47.31588618018109,54.14869285304118],[47.28614291760776,54.1534517750524],[47.240933158497434,54.16891827159092],[47.2242769314568,54.18914369013967],[47.19572339938639,54.20579991718209],[47.230225583971375,54.226025335730846],[47.258779116040984,54.25338913729772],[47.26829696006421,54.268855633835344],[47.261158577046814,54.28194266936768],[47.205241243409624,54.26171725081804],[47.16360067580813,54.246250754280496],[47.13742660474346,54.23673291025628],[47.13028822172597,54.245061023778376],[47.15527256228772,54.25933778981202],[47.19572339938639,54.28075293886556],[47.227846122965545,54.2867015913789],[47.263538038052644,54.2997886269122],[47.263538038052644,54.320014045460965],[47.27662507358453,54.3366702725016],[47.25758938553807,54.35213676904003],[47.230225583971375,54.34142919451281],[47.21475908743285,54.3366702725016],[47.205241243409624,54.34618811652581],[47.21713854843868,54.35689569105125],[47.210000165421285,54.35927515205734],[47.19572339938639,54.35570596054913],[47.17787744184293,54.36760326557855],[47.185015824860244,54.381880031612994],[47.18620555536316,54.42827952122571],[47.21621320249242,54.46013786024831],[47.19836724494887,54.47798381779283],[47.22097212450399,54.481553009301045],[47.24119754305328,54.487501661816154],[47.24476673456203,54.50058869734769],[47.21026454997784,54.506537349862796],[47.16981371287837,54.51367573288011],[47.14244991131168,54.502968158354676],[47.107947726726785,54.501778427850695],[47.08415311666866,54.49582977533558],[47.06511742862228,54.5053476193589],[47.074635272645516,54.52914222941854],[47.05322012359322,54.53152169042464],[47.03819357948057,54.53792268839062],[47.00845031690742,54.528404844366406],[46.99655301187872,54.518887000343085],[46.99298382036997,54.49985131229644],[46.97989678483737,54.49628212078734],[46.97275840181988,54.49628212078734],[46.97275840181988,54.51055888682366],[46.93349729522439,54.50936915632066],[46.93944594773879,54.50104104279945],[46.91446160717748,54.50342050380457],[46.890666997119446,54.47129778022648],[46.906133493656895,54.462969666706165],[46.90732322415999,54.451072361677724],[46.89780538013694,54.44155451765343],[46.87282103957572,54.448692900670736],[46.85378535152872,54.439175056647414],[46.86568265655823,54.40943179407534],[46.837129124488264,54.396344758543805],[46.8157139754357,54.377309070496274],[46.77050421632439,54.39158583653081],[46.74551987576317,54.402293411058025],[46.74195068425443,54.3939652975378],[46.74789933676945,54.383257723010495],[46.720535535201954,54.361842573957844],[46.70268957765814,54.34875553842631],[46.691982003131905,54.32615065887057],[46.67651550659454,54.30949443183091],[46.700310116652574,54.2975971268006],[46.6788949676001,54.294027935292476],[46.65034143553014,54.29045874378427],[46.62654682547201,54.28094089976095],[46.60989059843147,54.29283820478939],[46.58728571887581,54.307114970823925],[46.55278353429154,54.301166318309704],[46.51947108020956,54.296407396297596],[46.50120025777217,54.30003425192898],[46.478595378217044,54.29884452142508],[46.45004184614655,54.28694721639567],[46.448852115643724,54.2607731453318],[46.41910885307111,54.25244503181237],[46.39174505150362,54.24649637929726],[46.386986129492044,54.24887584030327],[46.375088824462985,54.247686109799375],[46.36557098043975,54.24173745728605],[46.31917149082588,54.22746069125062],[46.28585903674461,54.21913257772941],[46.2989460722765,54.203666081192765],[46.26920280970389,54.196527698175444],[46.234700625119,54.191768776162455],[46.2144752065697,54.201286620185776],[46.19781897952907,54.195337967671556],[46.21328547606679,54.185820123648234],[46.18235248299055,54.179871471133126],[46.16093733393834,54.17392281861979],[46.14666056790354,54.178681740631006],[46.13952218488605,54.18463039314523],[46.14785029840645,54.200096889683664],[46.131194071365734,54.22032230823331],[46.09669188678084,54.24173745728605],[46.07527673772863,54.269101258853006],[46.05386158867562,54.273860180863245],[46.02530805660593,54.275049911367226],[46.01222102107404,54.28337802488657],[45.99913398554206,54.29884452142508],[45.97771883648905,54.29765479092297],[45.97177018397457,54.277429372372346],[45.96939072296874,54.24887584030327],[45.94083719089913,54.22270176923941],[45.91228365882872,54.23935799627995],[45.90990419782289,54.25958341482871],[45.890868509776425,54.27861910287633],[45.87302255223297,54.273860180863245],[45.85755605569525,54.256014223320584],[45.824243601613176,54.24173745728605],[45.78141330350868,54.22746069125062],[45.7623776154615,54.210804464209986],[45.73739327490055,54.200096889683664],[45.71223712847993,54.17846161437316],[45.67654521339291,54.16656430934384],[45.7098576674741,54.15823619582441],[45.73008308602348,54.1606156568305],[45.73841119954379,54.14039023827988],[45.71104739797701,54.13682104677078],[45.70747820646835,54.114216167216014],[45.75863661809388,54.10588805369659],[45.80503610770704,54.09399074866637],[45.80503610770704,54.07614479112362],[45.78719015016358,54.06186802508731],[45.75506742658523,54.057109103076975],[45.725324164011816,54.07257559961363],[45.69439117093638,54.07376533011761],[45.687252787919064,54.06543721659641],[45.69320144043346,54.040452876034564],[45.69439117093638,54.0166582659767],[45.67654521339291,54.01784799648068],[45.6396635678021,54.040452876034564],[45.56946946813011,54.08566263514694],[45.511172673487174,54.06781667760241],[45.53496728354601,54.042832337040664],[45.58136677315917,54.00833015245736],[45.65275060333408,53.961930662842875],[45.67892467439866,53.966689584854976],[45.71342685898284,53.973827967872204],[45.74673931306491,53.973827967872204],[45.78481068915775,53.967879315357095],[45.7930661684517,53.98393849778407],[45.79901482096601,53.99702553331649],[45.82042997001848,53.99702553331649],[45.83708619705903,53.97323092325863],[45.83589646655665,53.95300550470801],[45.87277811214657,53.957764426721],[45.90252137471972,53.951815774205],[45.92512625427537,53.95419523521102],[45.93702355930399,53.91017520660439],[45.967956552379604,53.87924221352843],[45.99769981495275,53.89113951855687],[46.0012690064615,53.916123859118706],[46.004838197970244,53.92088278112992],[45.99294089294082,53.93515954716535],[46.01554577249648,53.951815774205],[46.02387388601715,53.96966173174953],[46.046478765572004,53.977989845269846],[46.05837607060151,53.96728227074432],[46.078601489150714,53.968472001246525],[46.09644744669453,53.94348766068558],[46.09763717719771,53.903036823585396],[46.13689828379391,53.9018470930823],[46.165451815863875,53.903036823585396],[46.20471292246017,53.894708710065075],[46.25111241207386,53.894708710065075],[46.28680432716131,53.90898547610139],[46.323685972751235,53.898277901574176],[46.312978398225,53.87210383051023],[46.31178866772262,53.8613962559839],[46.31535785923136,53.853068142464465],[46.31059893721944,53.83998110693116],[46.31178866772262,53.82094541888452],[46.32487570325442,53.80904811385608],[46.348670313312454,53.817376227375505],[46.387931419908746,53.82094541888452],[46.39150061141749,53.806668652850064],[46.40458764695009,53.80309946134186],[46.420054143487455,53.80190973083885],[46.427192526504946,53.7781151207801],[46.440279562037546,53.79001242580854],[46.46407417209567,53.78525350379733],[46.48905851265689,53.782874042791235],[46.50452500919425,53.77335619876889],[46.54854503780238,53.77335619876889],[46.57590883936925,53.76383835474459],[46.5854266833931,53.750751319213144],[46.584236952889924,53.73885401418461],[46.55568342081987,53.7281464396574],[46.527129888749904,53.72695670915439],[46.502145548188686,53.73052590066252],[46.48905851265689,53.72695670915439],[46.50690447020062,53.71267994311897],[46.53545800227058,53.694833985576224],[46.56758072584929,53.688885333062004],[46.640154286526666,53.687695602558996],[46.659189974573664,53.70197236859256],[46.68060512362614,53.69840317708443],[46.69131269815237,53.67936748903779],[46.7091586556961,53.66509072300325],[46.69488188966112,53.64367557395052],[46.67941539312296,53.63058853841907],[46.63539536451554,53.628209077412976],[46.599703449428084,53.628209077412976],[46.599703449428084,53.59727608433602],[46.61041102395432,53.57110201327215],[46.62230832898294,53.55920470824371],[46.61754940697181,53.540169020196096],[46.64253374753303,53.528271715167655],[46.6698975490999,53.52113333215043],[46.732953265754226,53.52946144567066],[46.757937606315444,53.516374410139214],[46.79125006039734,53.49971818309769],[46.8056533627699,53.50165571582697],[46.82468905081708,53.50760436834021],[46.84372473886354,53.50165571582697],[46.86157069640701,53.50522490733509],[46.8817961149571,53.50522490733509],[46.91272910803262,53.49451733280966],[46.922246952055765,53.48143029727635],[46.95674913664075,53.477861105767246],[46.96150805865232,53.465963800739694],[46.982923207704616,53.445738382190044],[47.017425392288715,53.44692811269216],[47.04597892435912,53.43622053816672],[47.073342725925905,53.44335892118395],[47.11617302403111,53.43741026866884],[47.14234709509498,53.43384107716063],[47.1720903576683,53.43265134665674],[47.21254119476698,53.43384107716063],[47.23395634381998,53.44335892118395],[47.25537149287228,53.465963800739694],[47.273217450415736,53.468343261743925],[47.295822329970946,53.464774070235805],[47.311288826509376,53.458825417720604],[47.331514245058756,53.458825417720604],[47.352929394110966,53.457635687218485]]]]}},{"type":"Feature","properties":{"kind":"district","id":"uyezd-1897-794","name":"Курмыжский","provinceId":"simbirsk"},"geometry":{"type":"MultiPolygon","coordinates":[[[[46.10112640053811,55.92386017892663],[46.06900367695975,55.91791152641144],[46.044019336398,55.90125529937089],[46.04520906690092,55.890547724845455],[46.04758852790675,55.87746068931303],[46.039260414386426,55.87032230629483],[46.02498364835162,55.882219611324246],[46.00594796030516,55.87151203679881],[45.98453281125215,55.87389149780482],[45.96311766219995,55.87151203679881],[45.95122035717088,55.85842500126639],[45.93218466912451,55.841768774225756],[45.908390059065674,55.82749200819033],[45.90482086755693,55.801317937125575],[45.869128952469914,55.78704117109193],[45.84414461190816,55.78347197958283],[45.81559107983847,55.75848763902107],[45.803693774809496,55.760867100027966],[45.788227278271776,55.78228224907893],[45.7549148241898,55.75848763902107],[45.7406380581549,55.752538986505876],[45.71327425658741,55.72517518493989],[45.73706886664625,55.71803680192258],[45.760863476704195,55.70494976638927],[45.78703754776886,55.70970868840138],[45.816780810341385,55.70376003588716],[45.82272946285596,55.66330919878875],[45.81559107983847,55.63356593621578],[45.828678115370444,55.60977132615606],[45.832247306879104,55.595494560122496],[45.84665626519272,55.57302187284405],[45.845466534689805,55.551606723791316],[45.822861655133885,55.55398618479741],[45.802636236584505,55.55755537630651],[45.80144650608159,55.530191574739554],[45.818102733122224,55.52186346122012],[45.818102733122224,55.513535347699005],[45.799067045075844,55.4992585816635],[45.800256775578674,55.49212019864627],[45.787169740046785,55.48022289361783],[45.75980593847929,55.44453097853055],[45.733631867415426,55.41478771595669],[45.712216718363216,55.40170068042427],[45.68604264729855,55.37552660936032],[45.66581722874926,55.35530119081067],[45.65273019321737,55.3291271197468],[45.62536639164979,55.311281162204054],[45.62417666114696,55.28510709113832],[45.62536639164979,55.26964059460167],[45.63369450517091,55.24941517605113],[45.62179720014113,55.22086164398206],[45.60752043410624,55.18992865090608],[45.5980025900831,55.18397999839089],[45.5765874410308,55.18992865090608],[45.54684417845748,55.17208269336156],[45.54684417845748,55.147098352801585],[45.53732633443425,55.13401131726916],[45.561120944493084,55.13044212576095],[45.57777717153372,55.11497562922252],[45.58610528505403,55.088801558158565],[45.58848474605986,55.069765870111034],[45.57539771052789,55.047160990556264],[45.54922363946331,55.03407395502384],[45.54565444795456,55.016227997481096],[45.5551722919778,55.01027934496599],[45.56598885030522,55.02986129131389],[45.593352651872706,55.03343048282201],[45.60881914841052,55.041758596343215],[45.63023429746272,55.047707248858416],[45.64332133299541,55.05484563187564],[45.65640836852739,55.053655901372636],[45.67187486506511,55.06079428438986],[45.67068513456219,55.06912239790929],[45.65521863802447,55.0715018589153],[45.64451106349833,55.09291700796892],[45.64689052450416,55.110762965511675],[45.69566947512315,55.10957323500956],[45.744448425742846,55.10362458249436],[45.784899262842316,55.09648619947802],[45.83486794396422,55.0810197029396],[45.85866255402296,55.09886566048226],[45.90149285212747,55.09886566048226],[45.94908207224434,55.0774505114305],[46.00737886688736,55.07864024193261],[46.038311859962796,55.07626078092838],[46.04782970398603,55.10481431299736],[46.03236320744831,55.130988384061325],[46.09303946309707,55.121470540038004],[46.160854101763235,55.111952696015564],[46.21558170489751,55.110762965511675],[46.242945506464295,55.110762965511675],[46.26198119451067,55.132178114565214],[46.2643606555165,55.17143922116061],[46.26674011652224,55.194044100716354],[46.27744769104919,55.201182483733675],[46.28934499607825,55.203561944739675],[46.29291418758691,55.22378736328942],[46.31908825865077,55.23568466831874],[46.30838068412463,55.24282305133606],[46.29291418758691,55.24639224284418],[46.30243203161014,55.25234089535938],[46.31908825865077,55.2618587393827],[46.311949875633374,55.268997122399924],[46.28220661306076,55.267807391897804],[46.25960173350493,55.283273888434465],[46.22747900992648,55.288032810446566],[46.214391974394594,55.30111984597899],[46.2714990385347,55.30944795949833],[46.32741637217109,55.293981462961675],[46.37262613128213,55.283273888434465],[46.398800202346,55.26066900887872],[46.43925103944538,55.267807391897804],[46.50349648660289,55.26661766139382],[46.58796735230969,55.26661766139382],[46.64626414695262,55.26066900887872],[46.69385336706958,55.277325235921126],[46.72835555165368,55.279704696925364],[46.74739123970014,55.292791732457786],[46.77356531076472,55.285653349440466],[46.77356531076472,55.277325235921126],[46.80330857333733,55.25828954787448],[46.83795447129436,55.281203076286836],[46.81483378158359,55.28421881842311],[46.77795213599366,55.304444236972856],[46.73869102939746,55.32823884702974],[46.69942992280126,55.366310223123904],[46.65778935519861,55.380586989158445],[46.64589205016999,55.4103302517315],[46.63637420614693,55.446022166819574],[46.66730719922255,55.469816776878325],[46.694671000789334,55.48528327341498],[46.70656830581875,55.51145734447982],[46.71370668883624,55.55428764258521],[46.694671000789334,55.58760009666639],[46.71846561084737,55.613774167729375],[46.724414263362476,55.63280985577602],[46.71965534135055,55.66612230985808],[46.69824019229808,55.6780196148875],[46.67444558224004,55.688727189413825],[46.6649277382161,55.69586557243203],[46.630425553631824,55.69586557243203],[46.58759525552688,55.71014233846657],[46.562610914965575,55.70181422494625],[46.52216007786699,55.720849912992],[46.491227084790665,55.73512667902743],[46.49598600680259,55.757731558583174],[46.42936109863952,55.73750614003343],[46.39723837506081,55.749403445061965],[46.37463349550516,55.743454792547745],[46.33418265840648,55.761300750092275],[46.3068188568389,55.74702398405587],[46.302059934827774,55.758921289086175],[46.29730101281585,55.79223374316736],[46.25922963672274,55.805320778698885],[46.20807122509712,55.805320778698885],[46.17832796252398,55.82792565825454],[46.164051196488906,55.852909998816386],[46.15215389146029,55.8540997293185],[46.147394969448364,55.87908406988025],[46.169999849004014,55.88622245289756],[46.189035537050216,55.89455056641877],[46.177138232021505,55.90763760195021],[46.15215389146029,55.91953490697874],[46.13668739492213,55.921914367984755],[46.117651706875215,55.929052751002956],[46.10112640053811,55.92386017892663]]]]}},{"type":"Feature","properties":{"kind":"district","id":"uyezd-1897-795","name":"Буинский","provinceId":"simbirsk"},"geometry":{"type":"MultiPolygon","coordinates":[[[[47.06229772619038,55.35798210960279],[47.043262038143475,55.353223187591574],[47.043262038143475,55.33775669105394],[47.03969284663473,55.3199107335104],[47.019467428085434,55.3163415420013],[47.013518775570326,55.292546931942546],[47.00043174003853,55.27589070490289],[46.939755484389856,55.272321513392896],[46.907632760811055,55.25447555585015],[46.87907922874109,55.26399339987258],[46.85041794777075,55.27693720418212],[46.86687238706061,55.24700206812761],[46.89185672762183,55.21963826656065],[46.93944594773879,55.177997698959146],[47.00012220338746,55.17323877694616],[47.009640047410514,55.155392819403495],[47.01796816093119,55.137546861858965],[46.99655301187872,55.1125625212981],[46.97632759332863,55.08995764174236],[46.96324055779682,55.06854249269051],[46.96443028830001,55.04831707414087],[46.98584543735248,55.02452246408212],[47.014398969422444,55.00310731502938],[46.97394813232306,54.97455378295942],[46.97394813232306,54.926964562843786],[46.965620018803186,54.89008291725261],[46.95372271377377,54.860339654679564],[46.99298382036997,54.84130396663292],[46.99536328137553,54.82345800909026],[46.98703516785486,54.80561205154573],[46.96799947980875,54.784196902492994],[46.95967136628808,54.75802283143001],[46.970378940814314,54.74374606539459],[46.98703516785486,54.72590010785006],[46.99893247288428,54.709243880810405],[47.00607085590177,54.69020819276287],[47.05247034551555,54.68306980974556],[47.069126572556094,54.69258765376888],[47.096490374123675,54.697346575780095],[47.120284984181716,54.68188007924344],[47.155976899269255,54.66522385220103],[47.192858544859895,54.6592751996877],[47.18928935335115,54.64261897264626],[47.16192555178357,54.63667032013107],[47.16668447379549,54.617634632084425],[47.160735821281186,54.604547596552976],[47.122664445187276,54.585511908506334],[47.12504390619373,54.566476220460586],[47.1345617502167,54.55219945442427],[47.114336331667495,54.55100972392215],[47.073885494568025,54.54625080190996],[47.06317792004179,54.545061071407844],[47.05247034551555,54.549819993419064],[47.03819357948057,54.53792268839062],[47.05322012359322,54.53152169042464],[47.074635272645516,54.52914222941854],[47.06511742862228,54.5053476193589],[47.08415311666866,54.49582977533558],[47.107947726726785,54.501778427850695],[47.14244991131168,54.502968158354676],[47.16981371287837,54.51367573288011],[47.21026454997784,54.506537349862796],[47.24476673456203,54.50058869734769],[47.24119754305328,54.487501661816154],[47.22097212450399,54.481553009301045],[47.19836724494887,54.47798381779283],[47.21621320249242,54.46013786024831],[47.24595646506494,54.46489678226041],[47.27688945814118,54.47679408728983],[47.29473541568464,54.47798381779283],[47.320909486748505,54.46965570427163],[47.33875544429286,54.48869139231827],[47.36849870686538,54.489881122822254],[47.397052238935075,54.47798381779283],[47.466056608104154,54.492260583828255],[47.545768551800094,54.51962438539522],[47.55885558733198,54.5053476193589],[47.57908100588136,54.506537349862796],[47.581460466887194,54.51605519388612],[47.61834211247792,54.52914222941854],[47.600496154933566,54.546988186961286],[47.64689564454753,54.57554171903125],[47.65760321907367,54.60171579009512],[47.64094699203304,54.60409525110211],[47.62548049549532,54.61599255613143],[47.66355187158816,54.62907959166208],[47.71708974421952,54.66239204574504],[47.69329513416157,54.66834069825926],[47.68139782913171,54.6826174642938],[47.71708974421952,54.69570449982622],[47.7444535457863,54.71236072686676],[47.75040219830079,54.736155336925506],[47.807509262440895,54.74805264195404],[47.82654495048807,54.732586145415524],[47.83963198601996,54.75162183346217],[47.85390875205485,54.75281156396615],[47.891980128147694,54.715929918374975],[47.91577473820653,54.715929918374975],[47.93600015675582,54.72782722340439],[47.965743419329144,54.736155336925506],[47.95979476681394,54.74448345044494],[47.94551800077905,54.75519102497127],[47.93718988725873,54.77303698251579],[47.93837961776165,54.80872889760307],[47.9562255753052,54.82062620263151],[47.98358937687269,54.811108358609076],[48.01095317843939,54.815867280620296],[48.03474778849822,54.814677550118176],[48.098993235655016,54.81824674162639],[48.13706461174857,54.80872889760307],[48.12635703722251,54.77422671301791],[48.10018296615793,54.76113967748646],[48.12754676772543,54.75519102497127],[48.15491056929212,54.74329371994283],[48.18108464035679,54.74210398944071],[48.212017633432225,54.74686291145193],[48.242950626507664,54.75162183346217],[48.26436577556067,54.745673180947946],[48.298867960144854,54.73972452843461],[48.309575534671,54.74329371994283],[48.32742149221526,54.74329371994283],[48.34407771925589,54.74805264195404],[48.35954421579361,54.76113967748646],[48.38333882585165,54.76827806050457],[48.390477208869854,54.77779590452789],[48.40713343591049,54.789693209556425],[48.44163562049458,54.78731374855033],[48.49398376262312,54.798021323077634],[48.50826052865792,54.82538512464362],[48.522537294692725,54.8218159331354],[48.52610648620218,54.805159706094855],[48.562988131792196,54.80040078408186],[48.6200951959323,54.811108358609076],[48.66326371824899,54.81788852537284],[48.67040210126648,54.83573448291737],[48.68705832830703,54.869046936998544],[48.73940647043556,54.87023666750066],[48.784616229545804,54.87023666750066],[48.788185421054465,54.86190855398124],[48.817928683627784,54.85952909297522],[48.795323804071955,54.8404934049277],[48.79413407356904,54.82859609989828],[48.80841083960464,54.82859609989828],[48.833395180165596,54.834544752413386],[48.86075898173229,54.85477017096401],[48.86075898173229,54.86071882347734],[48.841723293685824,54.879754511523984],[48.81673895312487,54.87618532001577],[48.795323804071955,54.883323703033085],[48.69300698082161,54.88570316403909],[48.64541776070473,54.883323703033085],[48.60615665410889,54.826216638894046],[48.58236204405014,54.82740636939616],[48.58474150505597,54.86071882347734],[48.56570581700951,54.86190855398124],[48.549049589968874,54.84763178794492],[48.53477282393407,54.869046936998544],[48.497891178343345,54.85120097945402],[48.45506088023884,54.83930367442558],[48.44316357520907,54.85714963196824],[48.46100953275333,54.89165181655429],[48.441973844706155,54.91306696560517],[48.449112227724356,54.92734373164148],[48.42769707867135,54.94281022817813],[48.39200516358425,54.95827672471656],[48.36345163151384,54.96541510773476],[48.328949446929656,54.977312412763204],[48.35988244000519,54.98920971779262],[48.35631324849644,55.0201427108677],[48.32775971642674,55.035609207406225],[48.27660130480121,55.03798866841223],[48.25280669474318,55.02728109388502],[48.22425316267277,55.029660554891024],[48.18499205607692,55.00586594483317],[48.164766637527634,55.04393732092743],[48.13026445294274,55.045127051429546],[48.107659573387615,55.0237119023777],[48.088623885340354,55.03798866841223],[48.08386496332878,55.049885973440766],[48.05888062276783,55.05821408696099],[48.02794762969239,55.06892166148741],[47.96370218253488,55.040368129418326],[47.93633838096739,55.02133244137168],[47.90064646588029,55.05821408696099],[47.8946978133658,55.08557788852795],[47.87209293380988,55.08319842752372],[47.86495455079248,55.129597917136344],[47.812606408664834,55.116510881604015],[47.73646365647747,55.1105622290897],[47.70553066340203,55.123649264621235],[47.68173605334399,55.123649264621235],[47.660320904290984,55.14149522216576],[47.627008450209715,55.14149522216576],[47.60559330115751,55.1533925271942],[47.581798691098676,55.16053091021152],[47.5709589242946,55.17480767624694],[47.54716431423586,55.189084442281484],[47.52336970417782,55.18432552027115],[47.51028266864584,55.197412555802686],[47.47340102305512,55.208120130328126],[47.441278299476764,55.23429420139288],[47.41153503690424,55.23072500988387],[47.40915557589841,55.24024285390719],[47.3591868947757,55.24500177592018],[47.350858781255475,55.22953527938175],[47.33301282371113,55.22953527938175],[47.328253901699554,55.24857096742839],[47.325874440693724,55.26046827245683],[47.32468471019081,55.275934768994375],[47.334202554214045,55.30805749257344],[47.323494979687986,55.31162668408254],[47.30921821365318,55.31995479760374],[47.292561986612455,55.30924722307644],[47.285423603595056,55.277124499497376],[47.25092141901016,55.26165800296073],[47.20690139040274,55.24738123692441],[47.191434893864226,55.25689908094773],[47.17715812782942,55.26046827245683],[47.18072731933817,55.30805749257344],[47.17358893632076,55.31519587559066],[47.19381435487006,55.337800755146404],[47.15693270928013,55.33066237212918],[47.12124079419223,55.3354212941404],[47.08673860960813,55.349698060175825],[47.06229772619038,55.35798210960279]]]]}},{"type":"Feature","properties":{"kind":"district","id":"uyezd-1897-796","name":"Сенгилеевский","provinceId":"simbirsk"},"geometry":{"type":"MultiPolygon","coordinates":[[[[47.54550416724344,54.060652795825284],[47.549234927092144,54.0477420166644],[47.56232196262403,54.04060363364718],[47.55875277111537,54.02989605911988],[47.518301934016705,54.02513713710866],[47.49807651546652,54.014429562583224],[47.48855867144338,53.99420414403269],[47.51711220351379,53.996583605038694],[47.50759435948976,53.98230683900416],[47.48617921043755,53.98230683900416],[47.49450732395787,53.96089168995151],[47.477851096917234,53.933527888384546],[47.462384600379515,53.90735381732068],[47.474281905408574,53.87523109374251],[47.4826100189288,53.85500567519286],[47.45881540887077,53.840728909156454],[47.42788241579453,53.847867292173774],[47.391000770204606,53.84310837016344],[47.382672656684285,53.8692824412274],[47.35649858561971,53.87880028525072],[47.35173966360805,53.88593866826794],[47.368395890648685,53.89307705128526],[47.368395890648685,53.89545651229126],[47.331514245058756,53.89664624279338],[47.297012060473776,53.90259489530858],[47.27440718091865,53.87999001575284],[47.28273529443897,53.87285163273552],[47.2851147554448,53.850246753179775],[47.30534017399489,53.83240079563711],[47.326755323047095,53.79789861105205],[47.33865262807616,53.772914270490205],[47.3196169400297,53.758637504456644],[47.28392502494189,53.75387858244356],[47.25537149287228,53.74792992993023],[47.24704337935187,53.7360326249009],[47.25061257086062,53.71223801484304],[47.28749421645054,53.680115291263974],[47.30771963500072,53.684874213275194],[47.326755323047095,53.694392057298515],[47.34579101109356,53.684874213275194],[47.393380231210436,53.688443404783314],[47.45643594786494,53.707479092829956],[47.49450732395787,53.719376397860266],[47.53257870005151,53.697961248806635],[47.51949166451962,53.66345906422343],[47.53495816105734,53.66464879472555],[47.54090681357182,53.65632068120612],[47.513543012005044,53.65394122020011],[47.48855867144338,53.65751041170823],[47.446918103841796,53.65037202869003],[47.437400259817764,53.623008227123165],[47.40646726674241,53.621818496621046],[47.34817047209939,53.609921191591624],[47.33865262807616,53.619439035614946],[47.31604774852104,53.613490383099844],[47.30534017399489,53.613490383099844],[47.277976372427396,53.6004033475683],[47.28749421645054,53.5944546950532],[47.291063407959285,53.58255739002378],[47.311288826509376,53.567090893487126],[47.299391521479606,53.55876277996592],[47.32318613153844,53.540916822423256],[47.346980741596475,53.536157900410174],[47.368395890648685,53.51831194286751],[47.382672656684285,53.50165571582697],[47.37434454316397,53.49332760230577],[47.3695856211516,53.475481644763015],[47.352929394110966,53.457635687218485],[47.36271852680386,53.4389280967835],[47.35201095227753,53.42822052225797],[47.3532006827808,53.421082139239864],[47.36033906579829,53.421082139239864],[47.37699529283884,53.42703079175497],[47.40078990289768,53.42584106125108],[47.41506666893266,53.41989240873686],[47.43529208748195,53.41394375622255],[47.45432777552815,53.40204645119411],[47.46027642804326,53.416323217227756],[47.48169157709573,53.40323618169711],[47.497158073633095,53.40323618169711],[47.512624570171255,53.39847725968412],[47.564972712299344,53.40085672069111],[47.6006646273868,53.38063130214137],[47.6458743864982,53.38776968515779],[47.649443578006945,53.40799510370833],[47.67085872705942,53.40918483421133],[47.70179172013494,53.38420049364959],[47.691084145608706,53.37706211063236],[47.710119833654815,53.356836692082624],[47.73748363522249,53.367544266608064],[47.74224255723362,53.38301076314658],[47.7565193232686,53.3889594156608],[47.7565193232686,53.39371833767379],[47.743432287736795,53.40323618169711],[47.75176040125747,53.41513348672467],[47.76484743678927,53.41513348672467],[47.782693394332995,53.410374564713536],[47.79340096885923,53.40085672069111],[47.823144231432465,53.434169174772286],[47.84574911098732,53.443687018794634],[47.87668210406365,53.44487674929772],[47.92308159367743,53.44487674929772],[47.958773508764885,53.46391243734526],[48.006362728881044,53.491276238912214],[48.059900601512226,53.49603516092343],[48.13604335369915,53.51150165746097],[48.20742718387415,53.52458869299339],[48.23241152443537,53.52458869299339],[48.25977532600215,53.50674273545064],[48.3216413121533,53.4722405508646],[48.36566134076142,53.49603516092343],[48.362092149252675,53.46034324583704],[48.40492244735771,53.45439459332104],[48.44418355395391,53.441307557789514],[48.48225493004693,53.42941025276107],[48.49534196557962,53.44844594080682],[48.52151603664322,53.46748162885346],[48.55601822122829,53.49841462192944],[48.5619668737426,53.50674273545064],[48.58100256178871,53.503173543940655],[48.585761483800724,53.486517316901],[48.58695121430391,53.46986108985948],[48.609556093858764,53.44487674929772],[48.632160973414415,53.40561564270232],[48.70830372560134,53.37468264962715],[48.728529144150635,53.348508578562395],[48.7820670167819,53.34493938705418],[48.79158486080496,53.32947289051575],[48.81300000985743,53.32352423800144],[48.81894866237174,53.31162693297122],[48.84393300293296,53.30091935844579],[48.874865996009376,53.32352423800144],[48.9057989890849,53.31519612448122],[48.893901684055486,53.32947289051575],[48.86534815198543,53.356836692082624],[48.868917343494175,53.3889594156608],[48.86534815198543,53.40799510370833],[48.867727612991885,53.4389280967835],[48.89628114506185,53.45558432382494],[48.93078332964612,53.45796378483104],[48.949819017693116,53.46867135935647],[48.97837254976308,53.49246596941522],[49.02001311736485,53.50436327444366],[49.05213584094364,53.51150165746097],[49.02596176987915,53.53053734550761],[48.9771828192599,53.55076276405815],[48.93911144316688,53.57098818260779],[48.90460925858172,53.597162253671755],[48.88557357053561,53.63404389926203],[48.877245457014936,53.66735635334321],[48.88081464852368,53.682822849881646],[48.91293737210239,53.69234069390497],[48.95814713121299,53.69828934641919],[48.97123416674559,53.70899692094649],[48.96528551423048,53.725653147986144],[48.98313147177421,53.78157048162306],[49.01882338686166,53.79584724765849],[49.0164439258561,53.829159701740565],[48.99740823780919,53.839867276266],[48.97599308875672,53.86961053883897],[48.94387036517801,53.89459487939983],[48.92959359914294,53.92909706398402],[48.8927119535531,53.96954790108428],[48.85301798994747,54.004735462189245],[48.8066185003336,54.01663276721867],[48.75902928021672,54.0190122282229],[48.73999359217026,54.00949438419958],[48.70192221607742,53.9880792351487],[48.675748145012754,53.9797511216275],[48.64005622992574,53.964284625089064],[48.675748145012754,53.95357705056354],[48.66623030098961,53.94167974553332],[48.64005622992574,53.92264405748668],[48.63648703841709,53.90598783044605],[48.63291784690834,53.87743429837609],[48.6019848538321,53.87148564586275],[48.600795123329185,53.87862402888007],[48.60317458433493,53.8929007949146],[48.58770808779721,53.89646998642273],[48.56629293874509,53.87981375938218],[48.54606752019491,53.87505483737097],[48.48896045605561,53.87743429837609],[48.46992476800843,53.87743429837609],[48.45564800197363,53.867916454352766],[48.458027462979366,53.848880766307005],[48.438991774932994,53.846501305301004],[48.4175766258807,53.853639688318225],[48.38902309381029,53.848880766307005],[48.3759360582784,53.85720887982644],[48.35809010073485,53.848880766307005],[48.37117713626683,53.83460400027158],[48.32834683816153,53.83579373077556],[48.300983036594836,53.83460400027158],[48.27242950452434,53.82746561725436],[48.22840947591701,53.82984507826036],[48.21532244038512,53.83579373077556],[48.20461486585897,53.853639688318225],[48.224840284408266,53.867916454352766],[48.18319971680588,53.86196780183943],[48.10467750361366,53.86196780183943],[48.06422666651498,53.86077807133554],[48.034483403941664,53.852449957816106],[47.97975580080739,53.88100348988607],[47.99046337533353,53.89765971692671],[48.00474014136914,53.91074675245913],[47.998791488854565,53.929782440505775],[47.99284283633928,53.9357310930191],[47.998791488854565,53.94405920654022],[48.014257985392284,53.94762839804844],[48.0225860989126,53.96309489458686],[48.034483403941664,53.97261273861018],[48.03805259545032,53.9845100436396],[48.06422666651498,53.995217618165924],[48.08207262405845,54.011873845206566],[48.09634939009325,54.03328899425921],[48.11181588663097,54.04042737727653],[48.11657480864263,54.05470414331106],[48.12609265266586,54.06779117884251],[48.13085157467752,54.082067944878915],[48.10348777311074,54.076119292363714],[48.06422666651498,54.072550100855594],[48.05589855299387,54.060652795825284],[48.016637446398114,54.05470414331106],[47.99046337533353,54.064221987334385],[47.96785849577832,54.064221987334385],[47.95120226873769,54.05708360431707],[47.916700084152794,54.03566845526442],[47.886956821580185,54.03566845526442],[47.86911086403672,54.03328899425921],[47.85721355900766,54.04161710777864],[47.831039487942995,54.04042737727653],[47.81676272190819,54.05470414331106],[47.80248595587339,54.06303225683227],[47.78345026782621,54.10110363292556],[47.75965565776817,54.10586255493668],[47.74537889173337,54.11894959046822],[47.72991239519565,54.11894959046822],[47.72991239519565,54.09991390242158],[47.7120664376513,54.09872417191946],[47.69422048010775,54.11181120745188],[47.67280533105554,54.1094317464449],[47.66328748703231,54.080878214374934],[47.64187233797931,54.089206327896136],[47.614508536412615,54.10467282443279],[47.583575543337176,54.08801659739224],[47.54550416724344,54.060652795825284]]]]}}]}
