{"type":"FeatureCollection","features":[{"type":"Feature","properties":{"kind":"province","id":"tula","name":"Тульская губерния"},"geometry":{"type":"MultiPolygon","coordinates":[[[[36.34433534728555,53.47604446481415],[36.35206826826261,53.47422495399587],[36.37467314781854,53.47303522349375],[36.399657488379404,53.45399953544711],[36.430590481455724,53.44210223041681],[36.44843643899919,53.425446003376265],[36.4567645525195,53.426635733880154],[36.4567645525195,53.43615357790259],[36.46747212704565,53.43734330840657],[36.48293862358337,53.43020492538748],[36.46628239654274,53.40002754990294],[36.47342077956014,53.39407889738774],[36.493646198109516,53.403596741411064],[36.50316404213346,53.398837819398956],[36.49840512012109,53.383371322860526],[36.51030242515087,53.371474017832085],[36.53052784370024,53.369094556825985],[36.55670191476402,53.36433563481477],[36.6542598160036,53.41549404644048],[36.708987419137074,53.39288916688385],[36.69471065310218,53.34648967727024],[36.755386908751035,53.34411021626602],[36.77085340528875,53.3334026417388],[36.75419717824812,53.30841830117696],[36.747058795230714,53.27510584709578],[36.77204313579166,53.260829081061246],[36.77323286629458,53.2441728540207],[36.7458690647278,53.246552315026705],[36.73873068171039,53.22870635748227],[36.7042284971255,53.209670669435624],[36.72564364617851,53.19539390340108],[36.716125802155275,53.178737676360456],[36.72564364617851,53.15970198831381],[36.70779768863416,53.152563605296585],[36.693520922599355,53.15018414429049],[36.684003078576126,53.144235491775376],[36.684003078576126,53.131148456242954],[36.669726312541314,53.131148456242954],[36.661398199021,53.11925115121354],[36.65544954650652,53.11806142071143],[36.65188035499777,53.108543576688106],[36.667346851535484,53.10140519367088],[36.65307008550069,53.088318158138456],[36.64593170248328,53.078800314115135],[36.65544954650652,53.062144087074586],[36.679244156564465,53.072851661600914],[36.7042284971255,53.07404139210303],[36.70184903611967,53.053815973553384],[36.688762000587786,53.04191866852396],[36.68281334807321,53.02883163299341],[36.69590038360509,53.02288298047732],[36.74229987321914,53.01812405846611],[36.747058795230714,53.00741648394067],[36.73992041221331,52.999088370419464],[36.7113668801437,52.993139717904356],[36.69827984461092,52.97053483835039],[36.68519280907904,52.94317103678263],[36.68757227008487,52.91580723521656],[36.65663927700943,52.900340738678125],[36.67448523455289,52.89320235566082],[36.68757227008487,52.87654612862027],[36.684003078576126,52.853941249064526],[36.68995173109061,52.826577447496675],[36.71731553265819,52.80397256794093],[36.75181771724229,52.79445472391761],[36.757766369756865,52.75519361732221],[36.81606316439979,52.74329631229377],[36.83390912194334,52.748055234304985],[36.8529448099906,52.746865503801004],[36.87198049803698,52.738537390281664],[36.88863672507762,52.746865503801004],[36.917190257147226,52.76828065285375],[36.989763817825846,52.761142269836434],[37.057578456491214,52.758762808830426],[37.09089091057328,52.72545035474924],[37.10754713761392,52.708794127708614],[37.132531478175665,52.72545035474924],[37.16584393225685,52.73020927676046],[37.218192074385385,52.762332000339526],[37.27054021651382,52.76709092235163],[37.29195536556603,52.77898822738007],[37.39784138032503,52.80873148995393],[37.489450629050125,52.82419798649058],[37.54655769318934,52.834905561017884],[37.56559338123661,52.855130979567534],[37.59890583531788,52.853941249064526],[37.62507990638245,52.847992596550306],[37.6631512824753,52.836095291519996],[37.69567058288822,52.84257271314707],[37.730172767473206,52.84257271314707],[37.78727983161251,52.84138298264496],[37.82059228569449,52.83662406063285],[37.88245827184616,52.8116397200711],[37.9062528819042,52.82353702510043],[37.93480641397461,52.82710621660864],[37.97287779006754,52.81877810308832],[37.991913478113915,52.81520891158109],[38.06686649979757,52.83900352163894],[38.09898922337672,52.83900352163894],[38.13349140796082,52.84495217415228],[38.15966547902539,52.8616084011946],[38.18464981958644,52.878264628235236],[38.20844442964447,52.88183381974345],[38.23223903970322,52.927043578853954],[38.24532607523511,52.943699805894504],[38.26198230227574,52.943699805894504],[38.27863852931647,52.90324896879521],[38.29172556484916,52.89730031628188],[38.342883976473885,52.943699805894504],[38.37381696955012,52.9936684870172],[38.455908374251095,52.9948582175211],[38.485651636823704,53.04363716813991],[38.49754894185348,53.091226388257404],[38.51896409090577,53.087657196747415],[38.523723012917344,53.05791393417436],[38.5629841195139,53.06386258668955],[38.59391711258934,53.07932908322799],[38.641506332706214,53.10669288479406],[38.65578309874101,53.12453884233858],[38.68195716980479,53.13524641686402],[38.70813124086946,53.126918303344596],[38.73549504243624,53.13524641686402],[38.75809992199136,53.1257285728407],[38.799740489593745,53.12453884233858],[38.82472483015461,53.13048749485192],[38.843760518201876,53.13881560837312],[38.836622135183674,53.14952318289856],[38.81996590814304,53.159041026921884],[38.803309681102405,53.159041026921884],[38.797361028587915,53.174507523460306],[38.78070480154729,53.19711240301605],[38.77356641852988,53.20425078603328],[38.794981567582084,53.2101994385475],[38.809258333616896,53.21852755206871],[38.785463723558856,53.26611677218442],[38.76047938299719,53.264927041682306],[38.749771808471046,53.27206542469962],[38.75809992199136,53.28753192123716],[38.73549504243624,53.31489572280403],[38.691475013828025,53.338690332863756],[38.690285283325196,53.35891575141251],[38.70099285785206,53.36724386493372],[38.77237668802697,53.36843359543583],[38.769997227020426,53.3981768580088],[38.73549504243624,53.43386877309608],[38.721218276401345,53.483837454217806],[38.73668477293907,53.50882179477956],[38.7390642339449,53.517149908300766],[38.75809992199136,53.5314266743353],[38.77951507104437,53.53380613534139],[38.82591456065752,53.549272631878054],[38.883021624797635,53.55046236238194],[38.890160007815034,53.558790475901375],[38.88421135530055,53.569498050428585],[38.91990327038836,53.5742569724398],[38.954405454972544,53.584964546967015],[38.95559518547546,53.599241313001556],[38.95559518547546,53.6182770010482],[38.916334078879615,53.67300460418211],[38.962733568492766,53.67419433468512],[38.990097370060354,53.68728137021665],[38.97938979553349,53.706317058263295],[38.96035410748703,53.720593824297836],[38.94012868893773,53.75390627838079],[38.93061084491441,53.77294196642743],[38.952025993966714,53.80149549849651],[38.9508362634638,53.83837714408767],[38.96154383798985,53.85741283213334],[38.97938979553349,53.868120406660644],[39.0150817106213,53.88001771168997],[39.04839416470257,53.87882798118608],[39.09598338481945,53.8835869031973],[39.145952065942055,53.92284800979448],[39.079327157778806,53.92284800979448],[38.965113029498596,53.92284800979448],[38.8877805468092,53.94545288935022],[38.85803728423668,53.95259127236753],[38.839001596189505,53.944263158846326],[38.81044806411981,53.941883697840225],[38.78665345406177,53.96091938588687],[38.78665345406177,53.96924749940808],[38.77713561003854,53.97757561292751],[38.77951507104437,53.99185237896382],[38.79141237607334,54.00255995348925],[38.80449941160532,54.014457258518675],[38.80568914210815,54.029923755057105],[38.794981567582084,54.033492946566206],[38.7818945320502,54.029923755057105],[38.77832534054146,54.04539025159376],[38.767617766014595,54.03230321606311],[38.752151269476784,54.059667017630076],[38.731925850927496,54.06680540064641],[38.71883881539561,54.07513351416762],[38.69715928178667,54.073018437717096],[38.6995387427925,54.08253628174042],[38.7423690408978,54.11108981381038],[38.78638906950512,54.145591998396434],[38.76616365095583,54.19437094901515],[38.73404092737748,54.18723256599695],[38.69834901228958,54.19318121851304],[38.70905658681573,54.20388879303847],[38.720953891844786,54.20864771504969],[38.724523083353446,54.218165559073014],[38.72928200536511,54.23125259460544],[38.73404092737748,54.249098552149874],[38.71262577832438,54.2538574741602],[38.69121062927226,54.2514780131542],[38.67812359374029,54.2598061266754],[38.68407224625477,54.26813424019652],[38.72809227486219,54.26932397069872],[38.751886884920935,54.28716992824227],[38.75307661542385,54.29668777226559],[38.74474850190363,54.303826155283794],[38.72571281385636,54.295498041762585],[38.72809227486219,54.32762076534165],[38.70905658681573,54.371640793949155],[38.73523065788039,54.415660822557555],[38.75783553743551,54.42636839708299],[38.756645806932596,54.44540408512963],[38.76854311196158,54.47038842569147],[38.780440416990636,54.47990626971479],[38.795906913528356,54.47276788669659],[38.80304529654656,54.49775222725843],[38.82208098459293,54.51083926278987],[38.823270715095845,54.51797764580719],[38.836357750627826,54.526305759328395],[38.86610101320035,54.529874950836515],[38.86610101320035,54.54534144737504],[38.85420370817128,54.54772090838016],[38.8482550556568,54.54296198636894],[38.83159882861625,54.54534144737504],[38.83159882861625,54.559618213409486],[38.849444786159715,54.5715155184389],[38.80542475755239,54.57389497944589],[38.7974491567732,54.61548495494115],[38.78674158224705,54.65236660053054],[38.78674158224705,54.674971480086285],[38.78555185174414,54.688058515617726],[38.771275085709334,54.70114555115015],[38.73082424860995,54.7320785442271],[38.697511794528594,54.73683746623734],[38.653491765920464,54.72969908322011],[38.62374850334794,54.73802719674132],[38.592815510271706,54.74873477126765],[38.5642619782021,54.761821806799176],[38.584487396751385,54.770149920320385],[38.60709227630651,54.770149920320385],[38.61304092882099,54.78204722534794],[38.582107935745555,54.78561641685704],[38.54522629015483,54.80822129641278],[38.557123595184606,54.822498062448204],[38.59043604926596,54.82130833194422],[38.593787559724014,54.83426297371714],[38.55928537513983,54.83664243472323],[38.502178310999724,54.85091920075777],[38.42603555881324,54.8663856972962],[38.38320526070803,54.860437044781094],[38.351082537129585,54.85567812276987],[38.30111385600698,54.874713810815635],[38.2749397849432,54.864006236289214],[38.24757598337561,54.865195966792314],[38.21307379879143,54.865195966792314],[38.1547770041485,54.83426297371714],[38.126223472078806,54.82831432120203],[38.038183414862544,54.84616027874655],[37.97988662022033,54.84259108723657],[37.931107669600536,54.85329866176378],[37.86448276143729,54.84021162623233],[37.82998057685239,54.83783216522535],[37.749078902654254,54.84259108723657],[37.65033127091256,54.84735000924867],[37.59441393727546,54.84616027874655],[37.53730687313536,54.87233434981042],[37.466153975315734,54.88208132211383],[37.45045654642273,54.884231654838956],[37.40881597882043,54.879472732827736],[37.35884729769853,54.881852193832856],[37.326724574119375,54.8628165057871],[37.30636042621168,54.84756833504256],[37.27423770263253,54.82853264699592],[37.26234039760355,54.805927767440174],[37.256391745088976,54.77737423537021],[37.2088025249722,54.74049258977993],[37.22783821301937,54.733354206762705],[37.24925336207158,54.73811312877383],[37.25996093659772,54.726215823743615],[37.24687390106575,54.70123148318275],[37.224269021510715,54.6857649866461],[37.205233333463454,54.665539568096364],[37.19452575893739,54.63817576652852],[37.17786953189667,54.62032980898586],[37.16240303535895,54.577499510879576],[37.086260283172464,54.55132543981562],[37.081501361160896,54.54418705679839],[37.09815758820153,54.510874602717216],[37.088639744178295,54.500167028189914],[37.0541375595934,54.49183891467057],[37.02439429702079,54.49183891467057],[37.00773806998016,54.48470053165326],[36.99940995645913,54.46804430461272],[37.00358135723495,54.440264342169954],[36.98811486069714,54.41884919311632],[36.99049432170297,54.40100323557366],[36.977407286171086,54.3724497035037],[36.958371598124614,54.35698320696518],[36.96669971164502,54.34032697992463],[36.9857353996914,54.33913724942065],[36.9928737827088,54.3224810223801],[36.98930459120024,54.304635064837356],[36.977407286171086,54.29273775980714],[36.95480240661596,54.30225560383046],[36.939335910077446,54.28440964628771],[36.91078237800784,54.27489180226439],[36.90007480348169,54.24276907868533],[36.87390073241702,54.22968204315388],[36.8441574698445,54.22611285164478],[36.8096552852596,54.22611285164478],[36.79299905821897,54.1904209365575],[36.78467094469865,54.18328255354028],[36.71328711452374,54.17852363152817],[36.67759519943664,54.152349560464216],[36.71209738402082,54.14997009945732],[36.75849687363478,54.15591875197243],[36.80608609375086,54.16424686549364],[36.817983398780626,54.176144170521184],[36.83107043431261,54.17257497901298],[36.84296773934158,54.17852363152817],[36.85010612235898,54.152349560464216],[36.82512178179812,54.123796028393365],[36.77872229218407,54.10000141833551],[36.73589199407886,54.08810411330617],[36.693061695974365,54.08572465230008],[36.659749241892385,54.07858626928285],[36.64071355384591,54.03218677966925],[36.61334975227922,53.981028368043546],[36.597883255740705,53.971510524020225],[36.580037298197155,53.972700254524206],[36.56576053216235,53.98340782904964],[36.54196592210431,53.975079715529326],[36.538396730595565,53.9584234884878],[36.51460212053682,53.95604402748357],[36.457495056396716,53.959613218990896],[36.40871610577773,53.93343914792694],[36.356367963649284,53.908454807366965],[36.3290041620825,53.901316424347876],[36.28379440297146,53.907265076863965],[36.23263599134593,53.907265076863965],[36.22668733883144,53.93462887843092],[36.21716949480812,53.961992679996904],[36.201702998270406,53.97032079351811],[36.189805693241425,53.98340782904964],[36.14340620362747,53.98459755955265],[36.16720081368551,53.95366456647756],[36.149354856141954,53.93462887843092],[36.106524558036746,53.89536777183454],[36.1386472816159,53.89060884982155],[36.17077000519426,53.88228073630212],[36.17195973569717,53.87038343127279],[36.14816512563904,53.86562450926158],[36.10771428853966,53.86324504825548],[36.108904019042576,53.84182989920283],[36.06131479892642,53.8311223246765],[36.06845318194391,53.77639472154259],[36.0541764159091,53.76925633852536],[36.032761266856006,53.76687687751837],[36.03199000666749,53.75530797469039],[36.063180178850274,53.75085223580756],[36.05009314331848,53.70683220719907],[36.09530290242898,53.70445274619306],[36.09292344142342,53.6794684056322],[36.04771368231282,53.67708894462611],[36.023919072254074,53.66281217859068],[36.038195838289056,53.64377649054492],[36.05961098734153,53.63425864652071],[36.12147697349347,53.65210460406435],[36.10601047695522,53.6378278380307],[36.077456944885256,53.6259305330004],[36.00607311471114,53.61403322797196],[36.027271840967316,53.59676719579693],[36.02370264945857,53.581300699258506],[36.04154860700211,53.570593124733065],[36.07367133058038,53.58011096875639],[36.09032755762182,53.58011096875639],[36.10698378466245,53.561075280708764],[36.137916777737885,53.55512662819454],[36.17241896232287,53.54798824517732],[36.249751445012265,53.563454741713976],[36.25094117551518,53.55512662819454],[36.26640767205291,53.55274716718854],[36.26997686356156,53.563454741713976],[36.3080482396552,53.55988555020665],[36.3151866226726,53.54917797567944],[36.3009098566378,53.5265730961237],[36.311617431163945,53.51705525210038],[36.33184284971324,53.508727138580944],[36.33184284971324,53.47898387600709],[36.34433534728555,53.47604446481415]]]]}},{"type":"Feature","properties":{"kind":"district","id":"uyezd-1897-300","name":"Каширский","provinceId":"tula"},"geometry":{"type":"MultiPolygon","coordinates":[[[[38.24757598337561,54.865195966792314],[38.21307379879143,54.865195966792314],[38.1547770041485,54.83426297371714],[38.126223472078806,54.82831432120203],[38.038183414862544,54.84616027874655],[37.97988662022033,54.84259108723657],[37.931107669600536,54.85329866176378],[37.86448276143729,54.84021162623233],[37.82998057685239,54.83783216522535],[37.749078902654254,54.84259108723657],[37.65033127091256,54.84735000924867],[37.59441393727546,54.84616027874655],[37.53730687313536,54.87233434981042],[37.46615397531564,54.88208132211365],[37.469709915519886,54.84986186401508],[37.529196440665736,54.81298021842488],[37.526816979659905,54.80227264389758],[37.544662937203455,54.79870345238946],[37.582734313297095,54.77728830333761],[37.58154458279418,54.73802719674132],[37.61604676737828,54.73683746623734],[37.63508245542474,54.74992450176976],[37.65887706548358,54.752303962775855],[37.67910248403295,54.73326827472921],[37.71241493811493,54.71899150869468],[37.79212688181016,54.674971480086285],[37.79212688181016,54.64522821751323],[37.804024186839136,54.64284875650722],[37.804024186839136,54.634520642987795],[37.768332271751326,54.63214118198178],[37.768332271751326,54.61905414644936],[37.79807553432465,54.613105493934164],[37.79212688181016,54.58931088387728],[37.83019825790301,54.59763899739662],[37.857562059470496,54.590500614379394],[37.92775615914249,54.596449266893615],[37.91585885411271,54.57979303985307],[37.939653464171556,54.56313681281244],[37.95393023020635,54.55123950778311],[37.99200160629999,54.55361896878912],[38.006278372334805,54.532203819736466],[38.01222702484929,54.522685975713145],[38.02174486887252,54.50365028766739],[38.039590826416074,54.50602974867251],[38.0491086704393,54.519116784204044],[38.07171354999522,54.517927053701925],[38.077662202509714,54.528634628227366],[38.12049250061421,54.53815247225069],[38.12525142262578,54.55123950778311],[38.16570225972525,54.55361896878912],[38.19663525280069,54.555998429794236],[38.195445522297774,54.57622384834486],[38.22756824587693,54.58574169236818],[38.23470662889433,54.5952595363915],[38.285865040519866,54.61191576343205],[38.3108493810809,54.62381306846058],[38.331074799630194,54.60953630242604],[38.36200779270634,54.617864415947246],[38.40126889930219,54.60596711091783],[38.4440991974074,54.5988287279006],[38.45480677193355,54.5845519618642],[38.48573976500978,54.58098277035607],[38.52143168009688,54.5952595363915],[38.577349013733986,54.600018458402715],[38.61185119831817,54.608346571923924],[38.59757443228328,54.62381306846058],[38.572590091722326,54.63927956499812],[38.60352308479786,54.64522821751323],[38.670147992961105,54.64522821751323],[38.74867020615341,54.64760767852022],[38.7974491567732,54.61548495494115],[38.78674158224705,54.65236660053054],[38.78674158224705,54.674971480086285],[38.78555185174414,54.688058515617726],[38.771275085709334,54.70114555115015],[38.73082424860995,54.7320785442271],[38.697511794528594,54.73683746623734],[38.653491765920464,54.72969908322011],[38.62374850334794,54.73802719674132],[38.592815510271706,54.74873477126765],[38.5642619782021,54.761821806799176],[38.584487396751385,54.770149920320385],[38.60709227630651,54.770149920320385],[38.61304092882099,54.78204722534794],[38.582107935745555,54.78561641685704],[38.54522629015483,54.80822129641278],[38.557123595184606,54.822498062448204],[38.59043604926596,54.82130833194422],[38.593787559724014,54.83426297371714],[38.55928537513983,54.83664243472323],[38.502178310999724,54.85091920075777],[38.42603555881324,54.8663856972962],[38.38320526070803,54.860437044781094],[38.351082537129585,54.85567812276987],[38.30111385600698,54.874713810815635],[38.2749397849432,54.864006236289214],[38.24757598337561,54.865195966792314]]]]}},{"type":"Feature","properties":{"kind":"district","id":"uyezd-1897-301","name":"Алексинский","provinceId":"tula"},"geometry":{"type":"MultiPolygon","coordinates":[[[[36.98811486069714,54.41884919311632],[36.99049432170297,54.40100323557366],[36.977407286171086,54.3724497035037],[36.958371598124614,54.35698320696518],[36.96669971164502,54.34032697992463],[36.9857353996914,54.33913724942065],[36.9928737827088,54.3224810223801],[36.98930459120005,54.304635064837356],[37.00214582787432,54.29901664116554],[37.072339927546054,54.282360414124014],[37.08304750207229,54.26927337859249],[37.088996154587484,54.24904796004284],[37.11754968665745,54.23477119400741],[37.13539564420037,54.25975553456827],[37.16275944576796,54.25856580406527],[37.17108755928783,54.24071984652252],[37.19964109135788,54.232391733001315],[37.2507995029835,54.22287388897897],[37.301957914609204,54.224063619481086],[37.285301687567866,54.25380688205405],[37.33764982969666,54.29901664116554],[37.348357404222185,54.29901664116554],[37.3614444397547,54.29544744965733],[37.36977255327466,54.284739875130114],[37.38999797182466,54.285929605633115],[37.429259078420955,54.30496529367976],[37.40546446836211,54.32519071222852],[37.424500156409024,54.35374424429937],[37.45305368847907,54.37753885435812],[37.48755587306335,54.39300535089566],[37.49350452557846,54.4144204999484],[37.52086832714524,54.43464591849805],[37.51729913563649,54.460819989561024],[37.516109405133314,54.50602974867251],[37.54228347619771,54.50246055716341],[37.54228347619771,54.51078867068372],[37.570837008267766,54.51554759269494],[37.575595930279604,54.51911678420493],[37.594631618325806,54.51792705370095],[37.61485703687589,54.529824358730366],[37.63627218592765,54.57384438733787],[37.6791024840326,54.57503411784088],[37.692189519565204,54.58574169236818],[37.71122520761131,54.58574169236818],[37.731450626161404,54.57503411784088],[37.75762469722509,54.57741357884787],[37.79212688181016,54.58931088387728],[37.79807553432465,54.613105493934164],[37.768332271751326,54.61905414644936],[37.768332271751326,54.63214118198178],[37.804024186839136,54.634520642987795],[37.804024186839136,54.64284875650722],[37.79212688181016,54.64522821751323],[37.79212688181016,54.674971480086285],[37.71241493811493,54.71899150869468],[37.67910248403295,54.73326827472921],[37.65887706548358,54.752303962775855],[37.63508245542474,54.74992450176976],[37.61604676737828,54.73683746623734],[37.58154458279418,54.73802719674132],[37.582734313297095,54.77728830333761],[37.544662937203455,54.79870345238946],[37.526816979659905,54.80227264389758],[37.529196440665736,54.81298021842488],[37.469709915519886,54.84986186401508],[37.46615397531564,54.88208132211365],[37.45045654642273,54.884231654838956],[37.40881597882043,54.879472732827736],[37.35884729769853,54.881852193832856],[37.326724574119375,54.8628165057871],[37.30636042621168,54.84756833504256],[37.27423770263253,54.82853264699592],[37.26234039760355,54.805927767440174],[37.256391745088976,54.77737423537021],[37.2088025249722,54.74049258977993],[37.22783821301937,54.733354206762705],[37.24925336207158,54.73811312877383],[37.25996093659772,54.726215823743615],[37.24687390106575,54.70123148318275],[37.224269021510715,54.6857649866461],[37.205233333463454,54.665539568096364],[37.19452575893739,54.63817576652852],[37.17786953189667,54.62032980898586],[37.16240303535895,54.577499510879576],[37.086260283172464,54.55132543981562],[37.081501361160896,54.54418705679839],[37.09815758820153,54.510874602717216],[37.088639744178295,54.500167028189914],[37.0541375595934,54.49183891467057],[37.02439429702079,54.49183891467057],[37.00773806998016,54.48470053165326],[36.99940995645913,54.46804430461272],[37.00358135723495,54.440264342169954],[36.98811486069714,54.41884919311632]]]]}},{"type":"Feature","properties":{"kind":"district","id":"uyezd-1897-302","name":"Епифанский","provinceId":"tula"},"geometry":{"type":"MultiPolygon","coordinates":[[[[38.73668477293907,53.50882179477956],[38.7390642339449,53.517149908300766],[38.75809992199136,53.5314266743353],[38.77951507104437,53.53380613534139],[38.82591456065752,53.549272631878054],[38.883021624797635,53.55046236238194],[38.890160007815034,53.558790475901375],[38.88421135530055,53.569498050428585],[38.91990327038836,53.5742569724398],[38.954405454972544,53.584964546967015],[38.95559518547546,53.599241313001556],[38.95559518547546,53.6182770010482],[38.916334078879615,53.67300460418211],[38.962733568492766,53.67419433468512],[38.990097370060354,53.68728137021665],[38.97938979553349,53.706317058263295],[38.96035410748703,53.720593824297836],[38.94012868893773,53.75390627838079],[38.93061084491441,53.77294196642743],[38.952025993966714,53.80149549849651],[38.9508362634638,53.83837714408767],[38.96154383798985,53.85741283213334],[38.97938979553349,53.868120406660644],[39.0150817106213,53.88001771168997],[39.04839416470257,53.87882798118608],[39.09598338481945,53.8835869031973],[39.145952065942055,53.92284800979448],[39.079327157778806,53.92284800979448],[38.965113029498596,53.92284800979448],[38.8877805468092,53.94545288935022],[38.85803728423668,53.95259127236753],[38.839001596189505,53.944263158846326],[38.81044806411981,53.941883697840225],[38.78665345406177,53.96091938588687],[38.78665345406177,53.96924749940808],[38.77713561003854,53.97757561292751],[38.77951507104437,53.99185237896382],[38.79141237607334,54.00255995348925],[38.80449941160532,54.014457258518675],[38.80568914210815,54.029923755057105],[38.794981567582084,54.033492946566206],[38.7818945320502,54.029923755057105],[38.77832534054146,54.04539025159376],[38.767617766014595,54.03230321606311],[38.752151269476784,54.059667017630076],[38.731925850927496,54.06680540064641],[38.71883881539561,54.07513351416762],[38.69715928178667,54.073018437717096],[38.68764143776352,54.065880054699875],[38.68407224625477,54.04565463615111],[38.66622628871123,54.0408957141399],[38.644811139658216,54.04922382765924],[38.560340273951425,54.05755194118045],[38.50442294031423,54.061121132688655],[38.48062833025628,54.07420816822108],[38.447315876174216,54.077777359729204],[38.41995207460744,54.07182870721498],[38.408054769578456,54.05755194118045],[38.37712177650222,54.05160328866533],[38.3461887834267,54.055172480174434],[38.31049686833897,54.073018437717096],[38.291461180292416,54.10514116129616],[38.27480495325187,54.096813047776735],[38.256958995708324,54.08253628174042],[38.24413634473228,54.06680540064641],[38.216772543165504,54.026354563547116],[38.20725469914156,53.975196151923186],[38.19297793310666,53.94545288935022],[38.2024957771299,53.931176123313904],[38.19773685511832,53.91570962677636],[38.21201362115393,53.89786366923272],[38.210823890651014,53.88477663370119],[38.19654712461541,53.87882798118608],[38.194167663609576,53.862171754145535],[38.23223903970322,53.852653910122214],[38.23461850070905,53.81101334251983],[38.25722338026417,53.81101334251983],[38.29767421736364,53.80030576799439],[38.29886394786656,53.782459810449865],[38.260792571772825,53.77532142743255],[38.25960284127,53.76818304441532],[38.28815637334041,53.76342412240411],[38.29410502585499,53.75390627838079],[38.34645316798263,53.74081924284748],[38.37143750854429,53.72892193781904],[38.37619643055595,53.706317058263295],[38.39285265759659,53.67776352619333],[38.39404238809951,53.65039972462726],[38.44044187771337,53.60994888752699],[38.50468732487097,53.594482390990336],[38.52491274342026,53.573067241937686],[38.61771172264737,53.559980206405264],[38.652213907232266,53.54689317087284],[38.65697282924393,53.53618559634741],[38.6403166022033,53.51952936930686],[38.683146900307705,53.50644233377355],[38.73668477293907,53.50882179477956]]]]}},{"type":"Feature","properties":{"kind":"district","id":"uyezd-1897-303","name":"Ефремовский","provinceId":"tula"},"geometry":{"type":"MultiPolygon","coordinates":[[[[38.6403166022033,53.51952936930686],[38.64269606320913,53.490975837236896],[38.61057333962997,53.49454502874502],[38.60581441761831,53.47669907120049],[38.57369169404005,53.49216556773901],[38.55703546699861,53.479078532206586],[38.50706678587671,53.48859637622991],[38.43092403369023,53.490975837236896],[38.40950888463722,53.47669907120049],[38.34883262898846,53.45171473064052],[38.31076125289553,53.41483308504944],[38.29172556484916,53.40412551052302],[38.24413634473228,53.401746049517016],[38.181080628077694,53.37676170895704],[38.1323016774579,53.36605413442974],[38.07876380482735,53.361295212418526],[38.05140000325976,53.37081305644185],[37.99786213062849,53.36962332593795],[37.9133912649216,53.37319251744705],[37.868181505811364,53.38271036147037],[37.84200743474669,53.40412551052302],[37.82442586176015,53.40412551052302],[37.81583336368291,53.40412551052302],[37.80512578915677,53.37676170895704],[37.761105760548645,53.36605413442974],[37.73136249797612,53.35058763789131],[37.668306781321526,53.33274168034856],[37.64927109327506,53.29348057375227],[37.60882025617559,53.28396272972895],[37.58264618511181,53.22566593508601],[37.59097429863213,53.182835636981515],[37.62190729170757,53.1209696508286],[37.62071756120466,53.09836477127463],[37.62666621371914,53.06743177819768],[37.66235812880704,53.042447437637705],[37.68258354735633,53.01984255808107],[37.69091166087665,52.98534037349689],[37.70994734892302,52.96868414645634],[37.70042950489979,52.956786841426926],[37.68258354735633,52.95559711092481],[37.67663489484184,52.941320344888496],[37.684963008362075,52.92823330935696],[37.681393816853415,52.89135166376677],[37.692101391379566,52.87231597572013],[37.69567058288822,52.84257271314707],[37.730172767473206,52.84257271314707],[37.78727983161251,52.84138298264496],[37.82059228569449,52.83662406063285],[37.88245827184616,52.8116397200711],[37.9062528819042,52.82353702510043],[37.93480641397461,52.82710621660864],[37.97287779006754,52.81877810308832],[37.991913478113915,52.81520891158109],[38.06686649979757,52.83900352163894],[38.09898922337672,52.83900352163894],[38.13349140796082,52.84495217415228],[38.15966547902539,52.8616084011946],[38.18464981958644,52.878264628235236],[38.20844442964447,52.88183381974345],[38.23223903970322,52.927043578853954],[38.24532607523511,52.943699805894504],[38.26198230227574,52.943699805894504],[38.27863852931647,52.90324896879521],[38.29172556484916,52.89730031628188],[38.342883976473885,52.943699805894504],[38.37381696955012,52.9936684870172],[38.455908374251095,52.9948582175211],[38.485651636823704,53.04363716813991],[38.49754894185348,53.091226388257404],[38.51896409090577,53.087657196747415],[38.523723012917344,53.05791393417436],[38.5629841195139,53.06386258668955],[38.59391711258934,53.07932908322799],[38.641506332706214,53.10669288479406],[38.65578309874101,53.12453884233858],[38.68195716980479,53.13524641686402],[38.70813124086946,53.126918303344596],[38.73549504243624,53.13524641686402],[38.75809992199136,53.1257285728407],[38.799740489593745,53.12453884233858],[38.82472483015461,53.13048749485192],[38.843760518201876,53.13881560837312],[38.836622135183674,53.14952318289856],[38.81996590814304,53.159041026921884],[38.803309681102405,53.159041026921884],[38.797361028587915,53.174507523460306],[38.78070480154729,53.19711240301605],[38.77356641852988,53.20425078603328],[38.794981567582084,53.2101994385475],[38.809258333616896,53.21852755206871],[38.785463723558856,53.26611677218442],[38.76047938299719,53.264927041682306],[38.749771808471046,53.27206542469962],[38.75809992199136,53.28753192123716],[38.73549504243624,53.31489572280403],[38.691475013828025,53.338690332863756],[38.690285283325196,53.35891575141251],[38.70099285785206,53.36724386493372],[38.77237668802697,53.36843359543583],[38.769997227020426,53.3981768580088],[38.73549504243624,53.43386877309608],[38.721218276401345,53.483837454217806],[38.73668477293907,53.50882179477956],[38.683146900307705,53.50644233377355],[38.6403166022033,53.51952936930686]]]]}},{"type":"Feature","properties":{"kind":"district","id":"uyezd-1897-304","name":"Одоевский","provinceId":"tula"},"geometry":{"type":"MultiPolygon","coordinates":[[[[37.11230605962575,53.656480569419756],[37.07542441403503,53.69931086752426],[37.054009264982554,53.725484938588124],[37.05281953448018,53.743330896132655],[37.0575784564913,53.77069469769961],[37.058768186994484,53.79329957725527],[37.061147648000045,53.823042839828325],[37.07899360554377,53.83850933636498],[37.04806061246825,53.83850933636498],[37.02069681090147,53.84088879737099],[37.02069681090147,53.85278610239952],[37.05995791749767,53.855165563406416],[37.09802929359077,53.855165563406416],[37.12539309515746,53.87182179044616],[37.1289622866663,53.884908825979466],[37.11944444264324,53.890857478493686],[37.11825471213997,53.90156505301913],[37.10397794610499,53.90275478352213],[37.101598485099515,53.88609855648247],[37.058768186994484,53.895616400504906],[37.06709630051516,53.95153373414174],[37.0837525275557,53.953913195147834],[37.12301363415199,53.95153373414174],[37.177741237285645,53.97651807470358],[37.217002343881845,53.9824667272178],[37.24555587595181,54.02172783381498],[37.21819207438503,54.0264867558262],[37.20391530835005,54.041953252363825],[37.21105369136754,54.063368401416476],[37.23127910991683,54.07288624543891],[37.25507371997566,54.10025004700587],[37.287196443554464,54.132372770584844],[37.28005806053697,54.17520306869032],[37.30266294009182,54.17758252969544],[37.31931916713317,54.200187409251185],[37.301957914609204,54.224063619481086],[37.2507995029835,54.22287388897897],[37.19964109135788,54.232391733001315],[37.17108755928783,54.24071984652252],[37.16275944576796,54.25856580406527],[37.13539564420037,54.25975553456827],[37.11754968665745,54.23477119400741],[37.088996154587484,54.24904796004284],[37.08304750207229,54.26927337859249],[37.072339927546054,54.282360414124014],[37.00214582787432,54.29901664116554],[36.98930459120005,54.304635064837356],[36.977407286171086,54.29273775980714],[36.95480240661596,54.30225560383046],[36.939335910077446,54.28440964628771],[36.91078237800784,54.27489180226439],[36.90007480348169,54.24276907868533],[36.87390073241702,54.22968204315388],[36.8441574698445,54.22611285164478],[36.8096552852596,54.22611285164478],[36.79299905821897,54.1904209365575],[36.78467094469865,54.18328255354028],[36.71328711452374,54.17852363152817],[36.67759519943664,54.152349560464216],[36.71209738402082,54.14997009945732],[36.75849687363478,54.15591875197243],[36.80608609375086,54.16424686549364],[36.817983398780626,54.176144170521184],[36.83107043431261,54.17257497901298],[36.84296773934158,54.17852363152817],[36.85010612235898,54.152349560464216],[36.82512178179812,54.123796028393365],[36.77872229218407,54.10000141833551],[36.73589199407886,54.08810411330617],[36.693061695974365,54.08572465230008],[36.659749241892385,54.07858626928285],[36.64071355384591,54.03218677966925],[36.61334975227922,53.981028368043546],[36.597883255740705,53.971510524020225],[36.580037298197155,53.972700254524206],[36.56576053216235,53.98340782904964],[36.54196592210431,53.975079715529326],[36.538396730595565,53.9584234884878],[36.51460212053682,53.95604402748357],[36.457495056396716,53.959613218990896],[36.40871610577773,53.93343914792694],[36.356367963649284,53.908454807366965],[36.36396557329239,53.893010091022006],[36.38181153083594,53.872784672473244],[36.42107263743169,53.82281599134966],[36.46033374402825,53.81448787783032],[36.513871616659614,53.810918686321216],[36.54242514872922,53.78117542374913],[36.59120409934901,53.801400842297895],[36.637603588962165,53.826385182859646],[36.6685365820384,53.816867338836325],[36.68995173109061,53.799021381291794],[36.65307008550069,53.78117542374913],[36.61499870940705,53.76332946620372],[36.56503002828434,53.73477593413376],[36.55194299275245,53.716929976591004],[36.555512184261104,53.7086018630698],[36.58287598582869,53.70265321055647],[36.6114295178983,53.70503267156168],[36.66377766002674,53.72525809011044],[36.681623617570295,53.72525809011044],[36.70065930561675,53.71811970709312],[36.722074454669766,53.7121710545789],[36.73873068171039,53.70027374955046],[36.77680205780324,53.69551482753836],[36.80535558987364,53.70384294105858],[36.824391277920114,53.70503267156168],[36.8446166964694,53.6764791394926],[36.91243133513565,53.67885860049684],[36.94217459770898,53.66934075647352],[36.98143570430473,53.646735876918655],[36.97667678229307,53.634838571890214],[37.00404058386012,53.6326859593619],[37.017127619392724,53.62792703734979],[37.0385427684452,53.62316811533858],[37.06233737850323,53.6291167678528],[37.0837525275557,53.63625515087003],[37.09802929359077,53.65172164740854],[37.11230605962575,53.656480569419756]]]]}},{"type":"Feature","properties":{"kind":"district","id":"uyezd-1897-305","name":"Чернский","provinceId":"tula"},"geometry":{"type":"MultiPolygon","coordinates":[[[[36.97667678229307,53.634838571890214],[36.95288217223512,53.60271584831115],[36.913621065638566,53.58011096875639],[36.85294480998981,53.5729725857373],[36.80773505087947,53.570593124733065],[36.73873068171039,53.576541777247286],[36.72683337668143,53.553936897690654],[36.679244156564465,53.54203959266212],[36.6114295178983,53.53609094014702],[36.61737817041288,53.51943471310638],[36.560271106272765,53.51943471310638],[36.52338946068275,53.508727138580944],[36.48293862358337,53.48850172003041],[36.46747212704565,53.45875845745744],[36.48293862358337,53.43020492538748],[36.46628239654274,53.40002754990294],[36.47342077956014,53.39407889738774],[36.493646198109516,53.403596741411064],[36.50316404213346,53.398837819398956],[36.49840512012109,53.383371322860526],[36.51030242515087,53.371474017832085],[36.53052784370024,53.369094556825985],[36.55670191476402,53.36433563481477],[36.6542598160036,53.41549404644048],[36.708987419137074,53.39288916688385],[36.69471065310218,53.34648967727024],[36.755386908751035,53.34411021626602],[36.77085340528875,53.3334026417388],[36.75419717824812,53.30841830117696],[36.747058795230714,53.27510584709578],[36.77204313579166,53.260829081061246],[36.77323286629458,53.2441728540207],[36.7458690647278,53.246552315026705],[36.73873068171039,53.22870635748227],[36.7042284971255,53.209670669435624],[36.72564364617851,53.19539390340108],[36.73992041221331,53.178737676360456],[36.7601458307626,53.1965836339032],[36.77561232730032,53.19182471189288],[36.79940693735916,53.2013425559162],[36.829150199931775,53.22751662698006],[36.84342696596657,53.226326896476166],[36.84699615747523,53.207291208429524],[36.86960103703115,53.206101477926524],[36.88387780306604,53.19539390340108],[36.90172376060951,53.1965836339032],[36.90529295211816,53.22156797446495],[36.970728129778585,53.22394743547007],[37.02783519391869,53.231085818488275],[37.063527109006586,53.20848093893342],[37.09446010208194,53.20253228641831],[37.146808244210476,53.214429591447725],[37.1551363577307,53.24893177603191],[37.17417204577717,53.242983123516716],[37.18963854231488,53.251311237037925],[37.203915308350574,53.24060366251071],[37.27886833003414,53.24893177603191],[37.29076563506312,53.27391611659367],[37.30861159260667,53.2846236911191],[37.35025216020897,53.28224423011309],[37.371667309261255,53.304849109669725],[37.44424086993908,53.297710726650635],[37.50729658659358,53.27748530810187],[37.54060904067485,53.260829081061246],[37.58343933878015,53.27629557759976],[37.60882025617559,53.28396272972895],[37.64927109327506,53.29348057375227],[37.668306781321526,53.33274168034856],[37.73136249797612,53.35058763789131],[37.761105760548645,53.36605413442974],[37.80512578915677,53.37676170895704],[37.81583336368291,53.40412551052302],[37.82442586176015,53.40412551052302],[37.799970290310625,53.4285810819729],[37.75832972270824,53.43690919549224],[37.717878885609565,53.451185961526775],[37.677428048510095,53.45475515303677],[37.6857561620305,53.477360032592514],[37.70241238907185,53.50115464265037],[37.677428048510095,53.55469251528031],[37.69527400605445,53.57491793383085],[37.688135623036246,53.58919469986538],[37.67028966549279,53.58800496936327],[37.64173613342309,53.58086658634604],[37.55726526771629,53.58086658634604],[37.54060904067485,53.58919469986538],[37.55369607620763,53.60704065740991],[37.55488580671046,53.62250715394656],[37.51086577810233,53.63797365048508],[37.446620330944825,53.65225041651953],[37.415687337869386,53.64392230300019],[37.38951326680481,53.646301764006196],[37.3526316212148,53.62607634545566],[37.32526781964721,53.62488661495266],[37.29195536556603,53.63321472847386],[37.259832641986876,53.64392230300019],[37.24198668444333,53.66890664356016],[37.20986396086498,53.65938879953684],[37.19558719482937,53.66057853004074],[37.17179258477134,53.67604502657925],[37.16108501024527,53.678424487583484],[37.151567166222044,53.66295799104683],[37.13491093918141,53.65819906903384],[37.11230605962575,53.656480569419756],[37.09802929359077,53.65172164740854],[37.0837525275557,53.63625515087003],[37.06233737850323,53.6291167678528],[37.0385427684452,53.62316811533858],[37.017127619392724,53.62792703734979],[37.00404058386012,53.6326859593619],[36.97667678229307,53.634838571890214]]]]}},{"type":"Feature","properties":{"kind":"district","id":"uyezd-1897-306","name":"Тульский","provinceId":"tula"},"geometry":{"type":"MultiPolygon","coordinates":[[[[37.24555587595181,54.02172783381498],[37.302662940092176,54.04605121298569],[37.32050889763564,54.04843067399179],[37.359770004232196,54.029394985945146],[37.42996410390419,54.072225284049644],[37.47874305452318,54.066276631534535],[37.500158203576184,54.0876917805863],[37.57154203375109,54.093640433102294],[37.62507990638245,54.06151770952234],[37.64530532493174,54.04248202147667],[37.67147939599561,54.02820525544125],[37.70479185007768,54.02344633343003],[37.7059815805806,54.035343638459366],[37.72382753812414,54.04724094348789],[37.73929403466187,54.05913824851722],[37.76784756673227,54.06865609254054],[37.761898914216985,54.107917199136836],[37.79640109880188,54.09958908561563],[37.82376490036866,54.080553397568984],[37.85707735445064,54.080553397568984],[37.874923311994195,54.08531231958118],[37.90109738305806,54.12814261768559],[37.92370226261398,54.12814261768559],[37.946307142169104,54.13290153969867],[37.946307142169104,54.15074749724133],[37.957014716695156,54.17216264629319],[37.984378518262744,54.19238806484372],[38.0165012418411,54.20666483087825],[38.05695207894057,54.19714698685493],[38.0593315399464,54.18405995132251],[38.095023455033406,54.19357779534583],[38.116570796364336,54.23125259460544],[38.13679621491363,54.2514780131542],[38.15583190296009,54.25504720466321],[38.15464217245717,54.27884181472204],[38.14393459793112,54.3014466942777],[38.076119959264865,54.32286184332955],[38.07017130675038,54.33713860936497],[38.04994588820109,54.35260510590341],[38.045186966189426,54.381158637972476],[38.054704810212655,54.39186621249969],[38.04042804417786,54.4382657021124],[38.065412384738806,54.45492192915295],[38.12251944887882,54.49061384424112],[38.118950257370166,54.50489061027655],[38.10705295234111,54.51202899329385],[38.078499420270695,54.51202899329385],[38.07171354999522,54.517927053701925],[38.0491086704393,54.519116784204044],[38.039590826416074,54.50602974867251],[38.02174486887252,54.50365028766739],[38.01222702484929,54.522685975713145],[38.006278372334805,54.532203819736466],[37.99200160629999,54.55361896878912],[37.95393023020635,54.55123950778311],[37.939653464171556,54.56313681281244],[37.91585885411271,54.57979303985307],[37.92775615914249,54.596449266893615],[37.857562059470496,54.590500614379394],[37.83019825790301,54.59763899739662],[37.79212688181016,54.58931088387728],[37.75762469722509,54.57741357884787],[37.731450626161404,54.57503411784088],[37.71122520761131,54.58574169236818],[37.692189519565204,54.58574169236818],[37.6791024840326,54.57503411784088],[37.63627218592765,54.57384438733787],[37.61485703687589,54.529824358730366],[37.594631618325806,54.51792705370095],[37.575595930279604,54.51911678420493],[37.570837008267766,54.51554759269494],[37.54228347619771,54.51078867068372],[37.54228347619771,54.50246055716341],[37.516109405133314,54.50602974867251],[37.51729913563649,54.460819989561024],[37.52086832714524,54.43464591849805],[37.49350452557846,54.4144204999484],[37.48755587306335,54.39300535089566],[37.45305368847907,54.37753885435812],[37.424500156409024,54.35374424429937],[37.40546446836211,54.32519071222852],[37.429259078420955,54.30496529367976],[37.38999797182466,54.285929605633115],[37.36977255327466,54.284739875130114],[37.3614444397547,54.29544744965733],[37.348357404222185,54.29901664116554],[37.33764982969666,54.29901664116554],[37.285301687567866,54.25380688205405],[37.301957914609204,54.224063619481086],[37.31931916713317,54.200187409251185],[37.30266294009182,54.17758252969544],[37.28005806053697,54.17520306869032],[37.287196443554464,54.132372770584844],[37.25507371997566,54.10025004700587],[37.23127910991683,54.07288624543891],[37.21105369136754,54.063368401416476],[37.20391530835005,54.041953252363825],[37.21819207438503,54.0264867558262],[37.24555587595181,54.02172783381498]]]]}},{"type":"Feature","properties":{"kind":"district","id":"uyezd-1897-307","name":"Крапивенский","provinceId":"tula"},"geometry":{"type":"MultiPolygon","coordinates":[[[[37.76784756673227,54.06865609254054],[37.73929403466187,54.05913824851722],[37.72382753812414,54.04724094348789],[37.7059815805806,54.035343638459366],[37.70479185007768,54.02344633343003],[37.67147939599561,54.02820525544125],[37.64530532493174,54.04248202147667],[37.62507990638245,54.06151770952234],[37.57154203375109,54.093640433102294],[37.500158203576184,54.0876917805863],[37.47874305452318,54.066276631534535],[37.42996410390419,54.072225284049644],[37.359770004232196,54.029394985945146],[37.32050889763564,54.04843067399179],[37.302662940092176,54.04605121298569],[37.24555587595181,54.02172783381498],[37.217002343881845,53.9824667272178],[37.177741237285645,53.97651807470358],[37.12301363415199,53.95153373414174],[37.0837525275557,53.953913195147834],[37.06709630051516,53.95153373414174],[37.058768186994484,53.895616400504906],[37.101598485099515,53.88609855648247],[37.10397794610499,53.90275478352213],[37.11825471213997,53.90156505301913],[37.11944444264324,53.890857478493686],[37.1289622866663,53.884908825979466],[37.12539309515746,53.87182179044616],[37.09802929359077,53.855165563406416],[37.05995791749767,53.855165563406416],[37.02069681090147,53.85278610239952],[37.02069681090147,53.84088879737099],[37.04806061246825,53.83850933636498],[37.07899360554377,53.83850933636498],[37.061147648000045,53.823042839828325],[37.058768186994484,53.79329957725527],[37.0575784564913,53.77069469769961],[37.05281953448018,53.743330896132655],[37.054009264982554,53.725484938588124],[37.07542441403503,53.69931086752426],[37.11230605962575,53.656480569419756],[37.13491093918141,53.65819906903384],[37.151567166222044,53.66295799104683],[37.16108501024527,53.678424487583484],[37.17179258477134,53.67604502657925],[37.19558719482937,53.66057853004074],[37.20986396086498,53.65938879953684],[37.24198668444333,53.66890664356016],[37.259832641986876,53.64392230300019],[37.29195536556603,53.63321472847386],[37.32526781964721,53.62488661495266],[37.3526316212148,53.62607634545566],[37.38951326680481,53.646301764006196],[37.415687337869386,53.64392230300019],[37.446620330944825,53.65225041651953],[37.51086577810233,53.63797365048508],[37.55488580671046,53.62250715394656],[37.55369607620763,53.60704065740991],[37.54060904067485,53.58919469986538],[37.55726526771629,53.58086658634604],[37.64173613342309,53.58086658634604],[37.67028966549279,53.58800496936327],[37.688135623036246,53.58919469986538],[37.72144807711831,53.61893796243844],[37.763088644720696,53.65225041651953],[37.79045244628739,53.66652718255504],[37.77855514125842,53.67485529607616],[37.74048376516478,53.678424487583484],[37.69646373655736,53.68080394858949],[37.713119963598,53.71292667216856],[37.72977619063863,53.7355315517243],[37.753570800696664,53.748618587255834],[37.77736541075551,53.77241319731547],[37.77379621924676,53.785500232846026],[37.78569352427573,53.798587268379336],[37.81662651735117,53.79620780737333],[37.828523822380234,53.80215645988666],[37.85707735445064,53.82476133944329],[37.84874924093042,53.847366218999035],[37.86421573746813,53.86878136804991],[37.89157953903482,53.877109481572006],[37.907046035573345,53.90090409162897],[37.89157953903482,53.95682142526581],[37.8546978934449,53.97585711331245],[37.84042112741001,53.994892801360066],[37.851128701936155,54.007979836891515],[37.82138543936283,54.02225660292605],[37.791642176790305,54.04486148248179],[37.76784756673227,54.06865609254054]]]]}},{"type":"Feature","properties":{"kind":"district","id":"uyezd-1897-308","name":"Богородицкий","provinceId":"tula"},"geometry":{"type":"MultiPolygon","coordinates":[[[[37.688135623036246,53.58919469986538],[37.69527400605445,53.57491793383085],[37.677428048510095,53.55469251528031],[37.70241238907185,53.50115464265037],[37.6857561620305,53.477360032592514],[37.677428048510095,53.45475515303677],[37.717878885609565,53.451185961526775],[37.75832972270824,53.43690919549224],[37.799970290310625,53.4285810819729],[37.82442586176015,53.40412551052302],[37.84200743474669,53.40412551052302],[37.868181505811364,53.38271036147037],[37.9133912649216,53.37319251744705],[37.99786213062849,53.36962332593795],[38.05140000325976,53.37081305644185],[38.07876380482735,53.361295212418526],[38.1323016774579,53.36605413442974],[38.181080628077694,53.37676170895704],[38.24413634473228,53.401746049517016],[38.29172556484916,53.40412551052302],[38.31076125289553,53.41483308504944],[38.34883262898846,53.45171473064052],[38.40950888463722,53.47669907120049],[38.43092403369023,53.490975837236896],[38.50706678587671,53.48859637622991],[38.55703546699861,53.479078532206586],[38.57369169404005,53.49216556773901],[38.60581441761831,53.47669907120049],[38.61057333962997,53.49454502874502],[38.64269606320913,53.490975837236896],[38.6403166022033,53.51952936930686],[38.65697282924393,53.53618559634741],[38.652213907232266,53.54689317087284],[38.61771172264737,53.559980206405264],[38.52491274342026,53.573067241937686],[38.50468732487097,53.594482390990336],[38.44044187771337,53.60994888752699],[38.39404238809951,53.65039972462726],[38.39285265759659,53.67776352619333],[38.37619643055595,53.706317058263295],[38.37143750854429,53.72892193781904],[38.34645316798263,53.74081924284748],[38.29410502585499,53.75390627838079],[38.28815637334041,53.76342412240411],[38.25960284127,53.76818304441532],[38.260792571772825,53.77532142743255],[38.29886394786656,53.782459810449865],[38.29767421736364,53.80030576799439],[38.25722338026417,53.81101334251983],[38.23461850070905,53.81101334251983],[38.23223903970322,53.852653910122214],[38.194167663609576,53.862171754145535],[38.19654712461541,53.87882798118608],[38.210823890651014,53.88477663370119],[38.21201362115393,53.89786366923272],[38.19773685511832,53.91570962677636],[38.2024957771299,53.931176123313904],[38.19297793310666,53.94545288935022],[38.20725469914156,53.975196151923186],[38.216772543165504,54.026354563547116],[38.24413634473228,54.06680540064641],[38.256958995708324,54.08253628174042],[38.2343541161524,54.09324385626772],[38.24506169067935,54.11227954431339],[38.21531842810603,54.12893577135402],[38.20818004508854,54.153920111915774],[38.197472470562474,54.16581741694519],[38.1915238180479,54.20269906253636],[38.172488130001526,54.21340663706091],[38.16891893849207,54.225303942090235],[38.116570796364336,54.23125259460544],[38.095023455033406,54.19357779534583],[38.0593315399464,54.18405995132251],[38.05695207894057,54.19714698685493],[38.0165012418411,54.20666483087825],[37.984378518262744,54.19238806484372],[37.957014716695156,54.17216264629319],[37.946307142169104,54.15074749724133],[37.946307142169104,54.13290153969867],[37.92370226261398,54.12814261768559],[37.90109738305806,54.12814261768559],[37.874923311994195,54.08531231958118],[37.85707735445064,54.080553397568984],[37.82376490036866,54.080553397568984],[37.79640109880188,54.09958908561563],[37.761898914216985,54.107917199136836],[37.76784756673227,54.06865609254054],[37.791642176790305,54.04486148248179],[37.82138543936283,54.02225660292605],[37.851128701936155,54.007979836891515],[37.84042112741001,53.994892801360066],[37.8546978934449,53.97585711331245],[37.89157953903482,53.95682142526581],[37.907046035573345,53.90090409162897],[37.89157953903482,53.877109481572006],[37.86421573746813,53.86878136804991],[37.84874924093042,53.847366218999035],[37.85707735445064,53.82476133944329],[37.828523822380234,53.80215645988666],[37.81662651735117,53.79620780737333],[37.78569352427573,53.798587268379336],[37.77379621924676,53.785500232846026],[37.77736541075551,53.77241319731547],[37.753570800696664,53.748618587255834],[37.72977619063863,53.7355315517243],[37.713119963598,53.71292667216856],[37.69646373655736,53.68080394858949],[37.74048376516478,53.678424487583484],[37.77855514125842,53.67485529607616],[37.79045244628739,53.66652718255504],[37.763088644720696,53.65225041651953],[37.72144807711831,53.61893796243844],[37.688135623036246,53.58919469986538]]]]}},{"type":"Feature","properties":{"kind":"district","id":"uyezd-1897-355","name":"Веневский","provinceId":"tula"},"geometry":{"type":"MultiPolygon","coordinates":[[[[38.86610101320035,54.54534144737504],[38.85420370817128,54.54772090838016],[38.8482550556568,54.54296198636894],[38.83159882861625,54.54534144737504],[38.83159882861625,54.559618213409486],[38.849444786159715,54.5715155184389],[38.80542475755239,54.57389497944589],[38.7974491567732,54.61548495494115],[38.74867020615341,54.64760767852022],[38.670147992961105,54.64522821751323],[38.60352308479786,54.64522821751323],[38.572590091722326,54.63927956499812],[38.59757443228328,54.62381306846058],[38.61185119831817,54.608346571923924],[38.577349013733986,54.600018458402715],[38.52143168009688,54.5952595363915],[38.48573976500978,54.58098277035607],[38.45480677193355,54.5845519618642],[38.4440991974074,54.5988287279006],[38.40126889930219,54.60596711091783],[38.36200779270634,54.617864415947246],[38.331074799630194,54.60953630242604],[38.3108493810809,54.62381306846058],[38.285865040519866,54.61191576343205],[38.23470662889433,54.5952595363915],[38.22756824587693,54.58574169236818],[38.195445522297774,54.57622384834486],[38.19663525280069,54.555998429794236],[38.16570225972525,54.55361896878912],[38.12525142262578,54.55123950778311],[38.12049250061421,54.53815247225069],[38.077662202509714,54.528634628227366],[38.07171354999522,54.517927053701925],[38.078499420270695,54.51202899329385],[38.10705295234111,54.51202899329385],[38.118950257370166,54.50489061027655],[38.12251944887882,54.49061384424112],[38.065412384738806,54.45492192915295],[38.04042804417786,54.4382657021124],[38.054704810212655,54.39186621249969],[38.045186966189426,54.381158637972476],[38.04994588820109,54.35260510590341],[38.07017130675038,54.33713860936497],[38.076119959264865,54.32286184332955],[38.14393459793112,54.3014466942777],[38.15464217245717,54.27884181472204],[38.15583190296009,54.25504720466321],[38.13679621491363,54.2514780131542],[38.116570796364336,54.23125259460544],[38.16891893849207,54.225303942090235],[38.172488130001526,54.21340663706091],[38.1915238180479,54.20269906253636],[38.197472470562474,54.16581741694519],[38.20818004508854,54.153920111915774],[38.21531842810603,54.12893577135402],[38.24506169067935,54.11227954431339],[38.2343541161524,54.09324385626772],[38.256958995708324,54.08253628174042],[38.27480495325187,54.096813047776735],[38.291461180292416,54.10514116129616],[38.31049686833897,54.073018437717096],[38.3461887834267,54.055172480174434],[38.37712177650222,54.05160328866533],[38.408054769578456,54.05755194118045],[38.41995207460744,54.07182870721498],[38.447315876174216,54.077777359729204],[38.48062833025628,54.07420816822108],[38.50442294031423,54.061121132688655],[38.560340273951425,54.05755194118045],[38.644811139658216,54.04922382765924],[38.66622628871123,54.0408957141399],[38.68407224625477,54.04565463615111],[38.68764143776352,54.065880054699875],[38.69715928178667,54.073018437717096],[38.6995387427925,54.08253628174042],[38.7423690408978,54.11108981381038],[38.78638906950512,54.145591998396434],[38.76616365095583,54.19437094901515],[38.73404092737748,54.18723256599695],[38.69834901228958,54.19318121851304],[38.70905658681573,54.20388879303847],[38.720953891844786,54.20864771504969],[38.724523083353446,54.218165559073014],[38.72928200536511,54.23125259460544],[38.73404092737748,54.249098552149874],[38.71262577832438,54.2538574741602],[38.69121062927226,54.2514780131542],[38.67812359374029,54.2598061266754],[38.68407224625477,54.26813424019652],[38.72809227486219,54.26932397069872],[38.751886884920935,54.28716992824227],[38.75307661542385,54.29668777226559],[38.74474850190363,54.303826155283794],[38.72571281385636,54.295498041762585],[38.72809227486219,54.32762076534165],[38.70905658681573,54.371640793949155],[38.73523065788039,54.415660822557555],[38.75783553743551,54.42636839708299],[38.756645806932596,54.44540408512963],[38.76854311196158,54.47038842569147],[38.780440416990636,54.47990626971479],[38.795906913528356,54.47276788669659],[38.80304529654656,54.49775222725843],[38.82208098459293,54.51083926278987],[38.823270715095845,54.51797764580719],[38.836357750627826,54.526305759328395],[38.86610101320035,54.529874950836515],[38.86610101320035,54.54534144737504]]]]}},{"type":"Feature","properties":{"kind":"district","id":"uyezd-1897-748","name":"Белевский","provinceId":"tula"},"geometry":{"type":"MultiPolygon","coordinates":[[[[36.03199000666749,53.75530797469039],[36.063180178850274,53.75085223580756],[36.05009314331848,53.70683220719907],[36.09530290242898,53.70445274619306],[36.09292344142342,53.6794684056322],[36.04771368231282,53.67708894462611],[36.023919072254074,53.66281217859068],[36.038195838289056,53.64377649054492],[36.05961098734153,53.63425864652071],[36.12147697349347,53.65210460406435],[36.10601047695522,53.6378278380307],[36.077456944885256,53.6259305330004],[36.00607311471106,53.61403322797196],[36.027271840967316,53.59676719579693],[36.02370264945857,53.581300699258506],[36.04154860700211,53.570593124733065],[36.07367133058038,53.58011096875639],[36.09032755762182,53.58011096875639],[36.10698378466245,53.561075280708764],[36.137916777737885,53.55512662819454],[36.17241896232287,53.54798824517732],[36.249751445012265,53.563454741713976],[36.25094117551518,53.55512662819454],[36.26640767205291,53.55274716718854],[36.26997686356156,53.563454741713976],[36.3080482396552,53.55988555020665],[36.3151866226726,53.54917797567944],[36.3009098566378,53.5265730961237],[36.311617431163945,53.51705525210038],[36.33184284971324,53.508727138580944],[36.33184284971324,53.47898387600709],[36.34433534728555,53.47604446481415],[36.35206826826261,53.47422495399587],[36.37467314781854,53.47303522349375],[36.399657488379404,53.45399953544711],[36.430590481455724,53.44210223041681],[36.44843643899919,53.425446003376265],[36.4567645525195,53.426635733880154],[36.4567645525195,53.43615357790259],[36.46747212704565,53.43734330840657],[36.48293862358337,53.43020492538748],[36.46747212704565,53.45875845745744],[36.48293862358337,53.48850172003041],[36.52338946068275,53.508727138580944],[36.560271106272765,53.51943471310638],[36.61737817041288,53.51943471310638],[36.6114295178983,53.53609094014702],[36.679244156564465,53.54203959266212],[36.72683337668143,53.553936897690654],[36.73873068171039,53.576541777247286],[36.80773505087947,53.570593124733065],[36.85294480998981,53.5729725857373],[36.913621065638566,53.58011096875639],[36.95288217223512,53.60271584831115],[36.97667678229307,53.634838571890214],[36.98143570430473,53.646735876918655],[36.94217459770898,53.66934075647352],[36.91243133513565,53.67885860049684],[36.8446166964694,53.6764791394926],[36.824391277920114,53.70503267156168],[36.80535558987364,53.70384294105858],[36.77680205780324,53.69551482753836],[36.73873068171039,53.70027374955046],[36.722074454669766,53.7121710545789],[36.70065930561675,53.71811970709312],[36.681623617570295,53.72525809011044],[36.66377766002674,53.72525809011044],[36.6114295178983,53.70503267156168],[36.58287598582869,53.70265321055647],[36.555512184261104,53.7086018630698],[36.55194299275245,53.716929976591004],[36.56503002828434,53.73477593413376],[36.61499870940705,53.76332946620372],[36.65307008550069,53.78117542374913],[36.68995173109061,53.799021381291794],[36.6685365820384,53.816867338836325],[36.637603588962165,53.826385182859646],[36.59120409934901,53.801400842297895],[36.54242514872922,53.78117542374913],[36.513871616659614,53.810918686321216],[36.46033374402825,53.81448787783032],[36.42107263743169,53.82281599134966],[36.38181153083594,53.872784672473244],[36.36396557329239,53.893010091022006],[36.356367963649284,53.908454807366965],[36.3290041620825,53.901316424347876],[36.28379440297146,53.907265076863965],[36.23263599134593,53.907265076863965],[36.22668733883144,53.93462887843092],[36.21716949480812,53.961992679996904],[36.201702998270406,53.97032079351811],[36.189805693241425,53.98340782904964],[36.14340620362747,53.98459755955265],[36.16720081368551,53.95366456647756],[36.149354856141954,53.93462887843092],[36.106524558036746,53.89536777183454],[36.1386472816159,53.89060884982155],[36.17077000519426,53.88228073630212],[36.17195973569717,53.87038343127279],[36.14816512563904,53.86562450926158],[36.10771428853966,53.86324504825548],[36.108904019042576,53.84182989920283],[36.06131479892642,53.8311223246765],[36.06845318194391,53.77639472154259],[36.0541764159091,53.76925633852536],[36.032761266856006,53.76687687751837],[36.03199000666749,53.75530797469039]]]]}},{"type":"Feature","properties":{"kind":"district","id":"uyezd-1897-750","name":"Новосильский","provinceId":"tula"},"geometry":{"type":"MultiPolygon","coordinates":[[[[37.60882025617559,53.28396272972895],[37.58343933878015,53.27629557759976],[37.54060904067485,53.260829081061246],[37.50729658659358,53.27748530810187],[37.44424086993908,53.297710726650635],[37.371667309261255,53.304849109669725],[37.35025216020897,53.28224423011309],[37.30861159260667,53.2846236911191],[37.29076563506312,53.27391611659367],[37.27886833003414,53.24893177603191],[37.203915308350574,53.24060366251071],[37.18963854231488,53.251311237037925],[37.17417204577717,53.242983123516716],[37.1551363577307,53.24893177603191],[37.146808244210476,53.214429591447725],[37.09446010208194,53.20253228641831],[37.063527109006586,53.20848093893342],[37.02783519391869,53.231085818488275],[36.970728129778585,53.22394743547007],[36.90529295211816,53.22156797446495],[36.90172376060951,53.1965836339032],[36.88387780306604,53.19539390340108],[36.86960103703115,53.206101477926524],[36.84699615747523,53.207291208429524],[36.84342696596657,53.226326896476166],[36.829150199931775,53.22751662698006],[36.79940693735916,53.2013425559162],[36.77561232730032,53.19182471189288],[36.7601458307626,53.1965836339032],[36.73992041221331,53.178737676360456],[36.72564364617851,53.19539390340108],[36.716125802155275,53.178737676360456],[36.72564364617851,53.15970198831381],[36.70779768863416,53.152563605296585],[36.693520922599355,53.15018414429049],[36.684003078576126,53.144235491775376],[36.684003078576126,53.131148456242954],[36.669726312541314,53.131148456242954],[36.661398199021,53.11925115121354],[36.65544954650652,53.11806142071143],[36.65188035499777,53.108543576688106],[36.667346851535484,53.10140519367088],[36.65307008550069,53.088318158138456],[36.64593170248328,53.078800314115135],[36.65544954650652,53.062144087074586],[36.679244156564465,53.072851661600914],[36.7042284971255,53.07404139210303],[36.70184903611967,53.053815973553384],[36.688762000587786,53.04191866852396],[36.68281334807321,53.02883163299341],[36.69590038360509,53.02288298047732],[36.74229987321914,53.01812405846611],[36.747058795230714,53.00741648394067],[36.73992041221331,52.999088370419464],[36.7113668801437,52.993139717904356],[36.69827984461092,52.97053483835039],[36.68519280907904,52.94317103678263],[36.68757227008487,52.91580723521656],[36.65663927700943,52.900340738678125],[36.67448523455289,52.89320235566082],[36.68757227008487,52.87654612862027],[36.684003078576126,52.853941249064526],[36.68995173109061,52.826577447496675],[36.71731553265819,52.80397256794093],[36.75181771724229,52.79445472391761],[36.757766369756865,52.75519361732221],[36.81606316439979,52.74329631229377],[36.83390912194334,52.748055234304985],[36.8529448099906,52.746865503801004],[36.87198049803698,52.738537390281664],[36.88863672507762,52.746865503801004],[36.917190257147226,52.76828065285375],[36.989763817825846,52.761142269836434],[37.057578456491214,52.758762808830426],[37.09089091057328,52.72545035474924],[37.10754713761392,52.708794127708614],[37.132531478175665,52.72545035474924],[37.16584393225685,52.73020927676046],[37.218192074385385,52.762332000339526],[37.27054021651382,52.76709092235163],[37.29195536556603,52.77898822738007],[37.39784138032503,52.80873148995393],[37.489450629050125,52.82419798649058],[37.54655769318934,52.834905561017884],[37.56559338123661,52.855130979567534],[37.59890583531788,52.853941249064526],[37.62507990638245,52.847992596550306],[37.6631512824753,52.836095291519996],[37.69567058288822,52.84257271314707],[37.692101391379566,52.87231597572013],[37.681393816853415,52.89135166376677],[37.684963008362075,52.92823330935696],[37.67663489484184,52.941320344888496],[37.68258354735633,52.95559711092481],[37.70042950489979,52.956786841426926],[37.70994734892302,52.96868414645634],[37.69091166087665,52.98534037349689],[37.68258354735633,53.01984255808107],[37.66235812880704,53.042447437637705],[37.62666621371914,53.06743177819768],[37.62071756120466,53.09836477127463],[37.62190729170757,53.1209696508286],[37.59097429863213,53.182835636981515],[37.58264618511181,53.22566593508601],[37.60882025617559,53.28396272972895]]]]}}]}
