{"type":"FeatureCollection","features":[{"type":"Feature","properties":{"kind":"province","id":"voronezh","name":"Воронежская губерния"},"geometry":{"type":"MultiPolygon","coordinates":[[[[38.682742707457585,52.34432913695943],[38.6767940549431,52.31815506589557],[38.62444591281465,52.31577560488858],[38.60659995527111,52.301498838854926],[38.58161561471015,52.295550186339824],[38.557821004651316,52.28008368980139],[38.51737016755264,52.232494469685676],[38.538785316604944,52.18847444107719],[38.61492806879133,52.13374683794247],[38.66013782790246,52.117090610902814],[38.720814083551225,52.11114195838762],[38.78149033919919,52.108762497381605],[38.8100438712696,52.08734734832976],[38.80885414076677,52.07188085179133],[38.7969568357377,52.06593219927622],[38.78624926121156,52.052845163744685],[38.78386980020502,52.03975812821226],[38.76483411215864,52.01834297915961],[38.74579842411218,52.01239432664628],[38.72914219707154,52.02548136217861],[38.72438327505988,52.04213758921925],[38.694640012486644,52.04570678072737],[38.651809714382146,52.02548136217861],[38.637532948346546,52.03143001469292],[38.630394565329055,52.043327319721364],[38.59827184175079,52.061173277265894],[38.56376965716581,52.05522462475069],[38.52450855057005,52.027860823182934],[38.49595501849964,52.02429163167472],[38.47691933045317,52.006445674131086],[38.43289930184505,51.995738099605646],[38.34604897513242,51.995738099605646],[38.298459755016346,51.96956402854178],[38.322254365074386,51.952907801499364],[38.33891059211501,51.9303029219454],[38.298459755016346,51.9279234609394],[38.267526761940104,51.926733730435416],[38.24254242137924,51.93149265244752],[38.236593768864665,51.918405616916075],[38.21398888930875,51.917215886412095],[38.18543535723914,51.9279234609394],[38.1473639811455,51.93149265244752],[38.1188104490758,51.93744130496272],[38.11762071857298,51.925543999933296],[38.13308721511069,51.917215886412095],[38.124759101590286,51.90293912037755],[38.04861634940381,51.88628289333701],[38.012924434316,51.896990467862445],[37.954627639673774,51.89936992886943],[37.935591951626606,51.891041815348224],[37.918935724585964,51.89461100685644],[37.9284535686092,51.916026155909975],[37.92250491609471,51.9303029219454],[37.885623270504695,51.9303029219454],[37.868967043463265,51.911267233898755],[37.84636216390814,51.88628289333701],[37.82375728435302,51.87319585780459],[37.78925509976804,51.86962666629646],[37.72167914328336,51.86019953614236],[37.72709902668535,51.835171131489034],[37.748514175737554,51.77925379785122],[37.74018606221724,51.754269457291244],[37.72828875718827,51.71262888968797],[37.71877091316503,51.694782932145216],[37.70568387763315,51.690024010133115],[37.69973522511866,51.65671155605193],[37.70806333863889,51.615070988449546],[37.72471956567952,51.56986122933815],[37.743755253725986,51.5555844633045],[37.74613471473182,51.58175853436846],[37.73661687070859,51.619829910460766],[37.73661687070859,51.63529640699831],[37.755652558755045,51.62339910196898],[37.76517040277899,51.5877071868817],[37.779447168813796,51.57105095984116],[37.784715755669026,51.548922895050346],[37.78539582132837,51.54606661928118],[37.78777528233411,51.51751308721033],[37.80086231786609,51.49728766866157],[37.79015474333994,51.48776982463825],[37.822277466918294,51.462785484076406],[37.848451537982875,51.450888179047965],[37.84488234647422,51.441370335024644],[37.8781948005554,51.43185249100132],[37.95195809173614,51.42828329949134],[38.02096246090522,51.42352437748012],[38.0626030285076,51.43185249100132],[38.05665437599312,51.396160575912276],[38.053085184484374,51.36284812183109],[38.02691111341979,51.33191512875601],[38.02334192191105,51.31763836272059],[38.07331060303366,51.311689710205385],[38.07806952504532,51.302171866182064],[38.053085184484374,51.28551563914152],[38.04475707096405,51.26529022059187],[38.030480304928446,51.24625453254523],[38.05903383699886,51.24863399355124],[38.055464645490204,51.215321539470054],[38.032859765934276,51.18438854639409],[37.99954731185301,51.16654258885045],[37.986460276321125,51.10943552470963],[37.99240892883561,51.08802037565876],[38.021094653183226,51.062639458262346],[38.038940610727494,51.053121614239025],[38.06273522078553,51.05074215323293],[38.06868387330002,51.063829188766235],[38.06630441229427,51.079295685302895],[38.05559683776812,51.10190056485864],[38.06154549028261,51.10665948687074],[38.0746325258145,51.10546975636676],[38.09842713587334,51.086434068320116],[38.129360128948775,51.063829188766235],[38.156723930515554,51.043603770215704],[38.19122611510054,51.06620864977047],[38.218589916667234,51.08167514630899],[38.254281831755044,51.08286487681288],[38.31376835690098,51.08167514630899],[38.31545067965302,51.074945855300406],[38.31733754840964,51.067398380273474],[38.30544024338066,51.043603770215704],[38.312578626398064,51.009101585630546],[38.29830186036246,50.982927514567564],[38.25071264024639,50.96389182652092],[38.18646719308888,50.917492336906435],[38.125790937440115,50.87942096081403],[38.085340100340645,50.84610850673108],[38.03656114972175,50.834211201703525],[38.04488926324198,50.8127960526499],[38.094857944364676,50.817554974661114],[38.1246012069372,50.78305279007782],[38.13292932045752,50.76758629353939],[38.116273093416886,50.74617114448753],[38.10913471039949,50.71166895990247],[38.0674941427971,50.675977044815184],[38.01276653966282,50.6367159382189],[38.018715192177396,50.608162406148935],[37.97469516356998,50.62005971117836],[37.91401890792122,50.640285129728],[37.847393999757884,50.62243917218436],[37.7498360985192,50.596265101120494],[37.70224687840232,50.592695909610505],[37.62015547370136,50.58555752659319],[37.593981402636686,50.536778575973585],[37.533305146988724,50.5034661218924],[37.509510536929895,50.47491258982244],[37.464300777819645,50.445169327249474],[37.45576836641796,50.44300007011315],[37.45845702295786,50.42624693279051],[37.463224535357476,50.396540353044614],[37.47393210988362,50.364417629465635],[37.51795213849175,50.334674366892585],[37.55721324508751,50.333484636390466],[37.577438663637594,50.320397600857156],[37.64049438029228,50.32872571437747],[37.62502788375376,50.290654338284185],[37.63097653626825,50.246634309677574],[37.626217614256674,50.22402943012183],[37.644063571800935,50.18357859302156],[37.66904791236189,50.15978398296379],[37.69522198342575,50.14550721692827],[37.705929557952615,50.11695368485928],[37.73448309002222,50.083641230778106],[37.795238076165546,50.084740494820835],[37.836878643766866,50.06808426777931],[37.86900136734593,50.06570480677419],[37.903503551930115,50.05261777124177],[37.940385197521195,50.030012891687],[37.953472233053,50.001459359616064],[38.00582037518109,49.9372139124598],[38.027235524233475,49.916988493910154],[38.08077339686492,49.85869169926722],[38.12479342547233,49.853932777255025],[38.14739830502817,49.8456046637348],[38.18903887263046,49.842035472225696],[38.2330589012378,49.85869169926722],[38.250904858781695,49.849173855242924],[38.269940546828074,49.842035472225696],[38.29611461789247,49.82062032317296],[38.33061680247651,49.812292209653656],[38.34727302951818,49.81705113166483],[38.457917966288576,49.826568975688154],[38.46624607980898,49.83489708920936],[38.46505634930661,49.86464035178144],[38.47457419332957,49.90509118888073],[38.46148715779759,49.915798763407146],[38.41032874617224,49.94554202597922],[38.37225737007887,49.94554202597922],[38.36511898706155,49.9859928630794],[38.39724171064026,49.996700437605824],[38.42698497321314,49.9871825935825],[38.41865685969273,49.98123394106828],[38.43174389522463,49.96695717503188],[38.46862554081481,49.97528528855308],[38.52454287445245,49.96814690553488],[38.54238883199582,49.96933663603886],[38.563803981048295,49.96933663603886],[38.57808074708355,49.988372324084615],[38.59592670462692,49.99194151559274],[38.61377266217117,49.99075178509062],[38.62804942820563,49.98361340207251],[38.65422349927029,49.98242367156942],[38.66374134329325,49.99313124609583],[38.67563864832276,50.014546395148486],[38.71014083290713,49.994320976598836],[38.686346222849,49.98361340207251],[38.682777031339896,49.96576744452887],[38.70062298888336,49.94197283447102],[38.720848407433365,49.932454990448576],[38.73393544296525,49.918178224412266],[38.76010951402921,49.90628091938285],[38.829113883198815,49.87653765681077],[38.858857145771694,49.88010684831898],[38.89454906085862,49.88010684831898],[38.907636096390505,49.8491738552439],[38.90525663538486,49.826568975688154],[38.91953340142001,49.81586140116174],[38.9813993875716,49.82418951468294],[39.07657782780508,49.83489708920936],[39.10275189886904,49.86939927379265],[39.136064352950925,49.88010684831898],[39.147961657979636,49.88843496184019],[39.16580761552309,49.89676307535953],[39.168187076529634,49.90390145837773],[39.17532545954677,49.91103984139593],[39.186033034073006,49.90033226686951],[39.216966027148445,49.83370735870538],[39.221724949160645,49.8099127486485],[39.26931416927707,49.771841372555215],[39.31809311989659,49.7551851455128],[39.388287219568674,49.74804676249637],[39.42159967364985,49.76946191154823],[39.44420455320551,49.775410564063336],[39.53938299343899,49.756374876015805],[39.58578248305214,49.74804676249637],[39.58221329154394,49.72782134394673],[39.60243871009305,49.696888350869784],[39.65240739121593,49.620745598683214],[39.69880688082979,49.613607215666875],[39.72855014340196,49.60527910214567],[39.77494963301584,49.57791530057969],[39.836815619167425,49.56363853454426],[39.88559456978703,49.56601799555027],[39.912958371354165,49.58148449208781],[39.941511903423866,49.610038024158754],[39.99980869806724,49.60884829365477],[40.075951450253186,49.60646883264867],[40.09379740779745,49.612417485163874],[40.108074173831895,49.63026344270751],[40.13855255371651,49.64438272869031],[40.261094795517394,49.64200326768422],[40.28845859708444,49.622967579637574],[40.338427278206524,49.636054615169996],[40.37649865429981,49.5896551255555],[40.472866825035666,49.59084485605851],[40.50855874012321,49.608690813602145],[40.54544038571358,49.596793508572816],[40.555236696728855,49.601691664080676],[40.55733769074327,49.602742161087924],[40.571614456777894,49.63367515416301],[40.59065014482445,49.64795192019844],[40.63348044292975,49.670556799753285],[40.65846478349043,49.688402757298704],[40.6739312800286,49.69554114031602],[40.725089691654304,49.68364383528571],[40.75245349322135,49.676505452269375],[40.772678911770825,49.684833565788715],[40.79647352182868,49.700300062327145],[40.84882166395721,49.72171521137899],[40.93091306865845,49.71814601987079],[40.96541525324325,49.740750899425635],[40.998727707324434,49.7728736230047],[41.024901778388745,49.80737580758978],[41.04750665794378,49.82403203462943],[41.06059369347629,49.866862332734826],[41.071301268002436,49.91207209184542],[41.072490998505174,49.93705643240628],[41.10580345258715,49.95966131196292],[41.18670512678485,50.00011214906132],[41.25214030444509,50.02628622012617],[41.3116268295913,50.02747595062917],[41.34731874467893,50.060788404709456],[41.36159551071347,50.072685709739766],[41.39490796479545,50.078634362254874],[41.39371823429262,50.11432627734118],[41.39014904278334,50.1345516958918],[41.33780090065561,50.15596684494267],[41.308057638082104,50.17381280248809],[41.33066251763794,50.19046902952872],[41.35207766669015,50.20950471757536],[41.40442580881886,50.24400690215866],[41.457963681450124,50.29040639177306],[41.482948022010724,50.310631810322796],[41.525778320116025,50.358221030438514],[41.510311823577865,50.43079459111776],[41.45082529843246,50.46648650620406],[41.452015028935286,50.515265456823755],[41.494845327040494,50.56285467694126],[41.551952391180336,50.5747519819697],[41.535296164139346,50.60449524454266],[41.471050716981836,50.60092605303454],[41.4567739509465,50.61044389705697],[41.42346149686532,50.66279203918568],[41.39014904278334,50.70562233729018],[41.37111335473679,50.73179640835494],[41.335421439649245,50.75440128790979],[41.24143272991895,50.782954819980645],[41.20931000634069,50.788903472494866],[41.30686790757928,50.81031862154761],[41.36754416322831,50.83146938604388],[41.42676630381751,50.83146938604388],[41.448181452870514,50.8386077690611],[41.46245821890514,50.87548941465138],[41.46602741041433,50.89928402470924],[41.47673498494048,50.93021701778521],[41.5029090560047,50.952821897340066],[41.51123716952439,50.968288393878495],[41.53860097109153,50.973047315889715],[41.58975938271724,50.97780623790093],[41.621882106295594,50.98970354293124],[41.694455666973596,50.99089327343335],[41.75632165312536,50.98970354293124],[41.82056710028296,51.0218262665103],[41.82056710028296,51.08607171366656],[41.83008494430619,51.114625245737415],[41.85982820687889,51.155076082835905],[41.89552012196653,51.184819345409764],[41.9324017675569,51.201475572449425],[42.00973425024611,51.187198806413996],[42.027580207789924,51.169352848871334],[42.12751757003498,51.15031716082469],[42.17986571216271,51.1479376998177],[42.227454932280025,51.1443685083095],[42.29289010994036,51.14912743032071],[42.32620256402154,51.14555823881348],[42.41662208224327,51.16459392686012],[42.43803723129548,51.16459392686012],[42.455883188839294,51.14912743032071],[42.49871348694451,51.13604039478926],[42.539164324043355,51.13841985579528],[42.610548154218534,51.15626581333891],[42.63315303377357,51.20742422496462],[42.692639558919765,51.24668533156091],[42.692639558919765,51.266910750110554],[42.72714174350377,51.26215182809756],[42.775920694123826,51.245495601057904],[42.80804341770218,51.245495601057904],[42.85444290731587,51.25263398407513],[42.881806708883005,51.25025452306912],[42.96032892207505,51.20504476395763],[42.9876927236421,51.19909611144341],[43.007918142192366,51.19195772842708],[43.013866794706416,51.209803685970655],[43.035281943759415,51.22408045200431],[43.06264574532575,51.24549560105794],[43.06502520633221,51.25620317558337],[42.998400298169045,51.26572101960758],[42.94843161704617,51.277618324637004],[42.921067815479034,51.289515629665445],[42.862771020836455,51.32401781424963],[42.86158129033354,51.345432963302365],[42.86871967335129,51.375176225875336],[42.892514283409156,51.407298949453505],[42.872288864859684,51.42038598498584],[42.84135587178416,51.4001605664362],[42.82826883625165,51.41681679347772],[42.811612609210655,51.439421673032484],[42.7878179991528,51.452508708564906],[42.775920694123826,51.47630331862277],[42.74855689255678,51.49890819817939],[42.70334713344592,51.51913361672727],[42.63553249477921,51.53935903527692],[42.59151246617189,51.55601526231932],[42.55463082058152,51.57862014187418],[42.542240012488975,51.584450672264225],[42.50178917539013,51.555897140193345],[42.47442537382308,51.541620374157915],[42.458958877284914,51.52258468611127],[42.44944103326159,51.49046196253221],[42.41255938767122,51.48451331001799],[42.376867472584394,51.46904681348134],[42.359021515040666,51.4512008559377],[42.34593447950806,51.41193974934052],[42.32808852196425,51.37148891224114],[42.316191216935366,51.339366188662076],[42.27336091883015,51.33222780564574],[42.24837657826937,51.33460726665086],[42.23409981223413,51.317951039610314],[42.22815115972,51.297725621060664],[42.20911547167336,51.302484543071884],[42.204356549661426,51.31676130910731],[42.17937220909985,51.31676130910731],[42.14487002451594,51.30843319558788],[42.09133215188457,51.28225912452215],[42.079434846855605,51.29534616005457],[42.03660454875039,51.29058723804246],[41.98068721511338,51.31557157860422],[41.971169371090056,51.32984834463964],[42.01518939969819,51.333417536147856],[42.030655896235544,51.347694302183285],[42.06634781132309,51.347694302183285],[42.07467592484359,51.36435052922481],[42.05088131478493,51.389334869784776],[42.01043047768608,51.41669867135174],[41.96641044907804,51.4440624729195],[41.9521336830435,51.4428727424165],[41.941426108517355,51.429785706884076],[41.93904664751099,51.413129479844415],[41.904544462926985,51.413129479844415],[41.88312931387398,51.4428727424165],[41.851006590295626,51.464287891468345],[41.80103790917346,51.499979806556425],[41.757017880565414,51.51901549460307],[41.720136234975044,51.55351767918725],[41.689203241899435,51.572553367233894],[41.64756267429705,51.59991716880085],[41.61781941172434,51.59872743829784],[41.603542645689004,51.565414984217554],[41.605922106695374,51.51306684208885],[41.57498911361913,51.51425657259185],[41.54048692903504,51.51663603359705],[41.48337986489449,51.51068738108186],[41.423893339749085,51.51782576410006],[41.387011694158716,51.51782576410006],[41.342991665550585,51.5297230691285],[41.27517702688469,51.53924091315271],[41.2501926863232,51.5297230691285],[41.22044942375051,51.547569026672136],[41.18118831715448,51.54281010466092],[41.1859472391657,51.51663603359705],[41.106235295470825,51.52020522510607],[41.07649203289813,51.505928459070645],[41.10980448697931,51.48094411850978],[41.08244068541226,51.465477621971345],[41.05745634485078,51.4428727424165],[41.083630415914996,51.407180827329306],[41.0967174514475,51.38219648676844],[40.9777444011559,51.38219648676844],[40.86828919488753,51.38338621727145],[40.837356201812,51.42026786286173],[40.832597279799984,51.46071869996013],[40.84925350684089,51.535671721643695],[40.87066865589318,51.56898417572577],[40.85520215935573,51.61062474332718],[40.85520215935573,51.66892153797019],[40.8754275779052,51.69747507004105],[40.91468868450122,51.74982321216798],[40.93253464204504,51.799791893290596],[40.9555518744681,51.8405593390562],[40.928188072900966,51.84293880006229],[40.90082427133392,51.86316421861194],[40.869891278258386,51.84888745257651],[40.848476129205295,51.84888745257651],[40.84133774618842,51.867923140623155],[40.82230205814187,51.873871793138264],[40.83419936317084,51.90480478621335],[40.79969717858604,51.91551236073976],[40.74853876696104,51.966670772364495],[40.68429331980362,51.9809475384009],[40.608150567616434,52.00474214845778],[40.55461269498578,52.010690800972974],[40.51892077989824,52.0178291839902],[40.44396775821467,52.04876217706626],[40.379722311057165,51.99046538242324],[40.41065530413269,51.97261942487969],[40.390429885583316,51.954773467336054],[40.35711743150134,51.97261942487969],[40.338081743454694,51.961911850353275],[40.301200097864324,51.93335831828429],[40.279784948812114,51.91908155224886],[40.258369799759905,51.91670209124277],[40.21316004064896,51.926219935265195],[40.157242707011946,51.93097885727819],[40.11441240890673,51.940496701300624],[40.071582110802225,51.963101580857256],[40.037079926217515,51.94882481482183],[39.9680755570487,51.91789182174577],[39.969265287551615,51.88814855917191],[39.94666040799578,51.87268206263437],[39.926434989446314,51.86673341012006],[39.877656038827055,51.86554367961706],[39.85029223725992,51.87268206263437],[39.79556463412574,51.90718424721855],[39.77414948507353,51.92384047425999],[39.76820083255869,51.93692750979241],[39.78485705959967,51.94525562331184],[39.782477598593935,51.95834265884426],[39.7812878680904,51.99165511292633],[39.76701110205586,52.00355241795477],[39.75511379702689,52.02139837549841],[39.73131918696823,52.022588106001415],[39.71585269043007,52.0178291839902],[39.671832661822826,52.01901891449418],[39.653986704279006,52.010690800972974],[39.62067425019703,51.996414034937544],[39.59687964013917,51.99165511292633],[39.555239072536786,51.99284484342934],[39.50764985242027,51.97023996387448],[39.47909632035039,51.973809155382696],[39.493373086384935,52.010690800972974],[39.51478823543793,52.02853675851652],[39.49932173889977,52.038054602540825],[39.444594135765584,52.0178291839902],[39.39343572414068,51.99046538242324],[39.36964111408202,51.99522430443446],[39.36369246156718,52.0249675670084],[39.36607192257354,52.052331368574386],[39.34941569553256,52.08564382265645],[39.35298488704103,52.1106281632174],[39.355364348047395,52.14513034780248],[39.37440003609404,52.17130441886732],[39.382728149614536,52.17725307138154],[39.39343572414068,52.190340106913965],[39.382728149614536,52.193909298422085],[39.37440003609404,52.20818606445751],[39.35417461754386,52.2414985185378],[39.34108758201215,52.24268824904081],[39.339897851509235,52.24982663205901],[39.34941569553256,52.254585554070225],[39.364882192070716,52.265293128597435],[39.38153841911091,52.266482859100535],[39.39819464615189,52.2878980081523],[39.43269683073662,52.29027746915839],[39.44340440526276,52.29384666066652],[39.44340440526276,52.31169261821015],[39.417230334198536,52.31407207921616],[39.410091951180874,52.3319180367598],[39.41247141218723,52.352143455309445],[39.42555844771894,52.36998941285309],[39.43626602224509,52.38545590939063],[39.450542788280515,52.39378402291094],[39.46838874582424,52.386645639893715],[39.49456281688847,52.392594292407935],[39.4493530577776,52.437804051519336],[39.407712490175214,52.45921920057208],[39.37796922760252,52.46397812258329],[39.330380007486,52.48063434962384],[39.27089348234051,52.48777273264115],[39.219735070714805,52.52465437823321],[39.21021722669148,52.55201817979919],[39.21259668769713,52.57343332885104],[39.23639129775579,52.586520364384356],[39.26256536882001,52.60674578293311],[39.27327294334616,52.61626362695732],[39.26851402133414,52.650765811540616],[39.29111890088998,52.655524733553605],[39.289929170387154,52.67693988260546],[39.29944701441038,52.69002691813691],[39.27446267384899,52.726908563727186],[39.26137563831648,52.72809829423019],[39.2494783332875,52.747133982276836],[39.24590914177911,52.76973886183346],[39.21497614870279,52.76854913133046],[39.170956120095454,52.77211832283867],[39.140023127019134,52.861348110557664],[39.02223980723106,52.86610703256879],[39.0151014242134,52.85539945804335],[38.990117083651995,52.84826107502524],[38.994452099221,52.838067295669134],[39.02538509229724,52.829739182147925],[39.04561051084653,52.81189322460429],[39.03252347531464,52.79523699756374],[38.995641829724626,52.80237538058097],[38.98493425519777,52.79404726706163],[38.975416411174535,52.7797705010262],[38.94329368759627,52.772632118008886],[38.93139638256721,52.744078585938034],[38.91117096401703,52.738129933423814],[38.91117096401703,52.683402330290875],[38.936155304578776,52.66198718123813],[38.95994991463691,52.6465206846997],[38.95757045363108,52.63224391866517],[38.93139638256721,52.606069847601205],[38.90165311999388,52.55372170547161],[38.924257999549006,52.51089140736711],[38.94805260960784,52.48590706680535],[38.95519099262525,52.46806110926172],[38.93496557407586,52.43712811618575],[38.91949907753744,52.38477997405792],[38.88380716245034,52.36574428601217],[38.84692551685961,52.35027778947365],[38.818371984790005,52.34670859796553],[38.813613062778344,52.372882669029394],[38.79457737473187,52.375262130035495],[38.769593034170214,52.35027778947365],[38.73152165807737,52.360985364000065],[38.706537317515625,52.35622644198885],[38.682742707457585,52.34432913695943]]]]}},{"type":"Feature","properties":{"kind":"district","id":"uyezd-1897-367","name":"Землянский","provinceId":"voronezh"},"geometry":{"type":"MultiPolygon","coordinates":[[[[37.72167914328336,51.86019953614236],[37.72709902668535,51.835171131489034],[37.748514175737554,51.77925379785122],[37.74018606221724,51.754269457291244],[37.72828875718827,51.71262888968797],[37.71877091316503,51.694782932145216],[37.70568387763315,51.690024010133115],[37.69973522511866,51.65671155605193],[37.70806333863889,51.615070988449546],[37.72471956567952,51.56986122933815],[37.743755253725986,51.5555844633045],[37.74613471473182,51.58175853436846],[37.73661687070859,51.619829910460766],[37.73661687070859,51.63529640699831],[37.755652558755045,51.62339910196898],[37.76517040277899,51.5877071868817],[37.779447168813796,51.57105095984116],[37.784715755669026,51.548922895050346],[37.83094539505062,51.556470591276586],[37.86306811862906,51.56479870479602],[37.886862728687454,51.57788574032932],[37.93683140980963,51.57907547083233],[37.95824655886254,51.58383439284266],[37.992748743446455,51.59692142837499],[38.0391482330605,51.58740358435264],[38.074840148147956,51.58026520133444],[38.10220394971465,51.608818733404405],[38.1307574817848,51.634992804468276],[38.14741370882578,51.6516490315098],[38.153362361340356,51.67425391106554],[38.14741370882578,51.696858790619416],[38.12837802077932,51.7016177126325],[38.11648071575017,51.71351501766094],[38.12004990725838,51.73374043621148],[38.19857212045078,51.72065340067914],[38.26995595062587,51.70756636514584],[38.38535980940864,51.688530677100076],[38.48172798014477,51.67068471955555],[38.54954261881075,51.65759768402491],[38.59475237792206,51.66473606704133],[38.641151867535214,51.67068471955555],[38.69944866217833,51.68377175508886],[38.733950846763136,51.690910138105195],[38.78510925838813,51.68496148559187],[38.80652440744096,51.67544364156855],[38.81961144297284,51.66235660603613],[38.86363147158053,51.66592579754433],[38.9207385357209,51.66711552804734],[38.989742904889624,51.66949498905255],[39.02186562846806,51.673064180562534],[39.02186562846806,51.68972040760308],[39.03019374198901,51.71113555665582],[39.05636781305287,51.749206932749104],[39.08730080612858,51.78846803934451],[39.10990568568423,51.83129833744901],[39.13726948725083,51.842005911975335],[39.1360797567481,51.86461079153108],[39.162253827811966,51.90030270661826],[39.16344355831551,51.916958933659785],[39.15511544479456,51.93123569969433],[39.13013110423353,51.94551246572975],[39.122587890339474,51.96140157728041],[39.10593166329929,51.9994729533737],[39.097603549778796,52.0399237904721],[39.132105734362796,52.04587244298632],[39.16660791894752,52.04587244298632],[39.17374630196518,52.03278540745576],[39.18683333749689,52.03040594644976],[39.192781990011824,52.048251903993304],[39.18445387649133,52.06609786153606],[39.15471061391854,52.07918489706848],[39.14638250039813,52.10060004612024],[39.15471061391854,52.12201519517289],[39.153520883415716,52.137481691712296],[39.11782896832817,52.146999535734736],[39.078567861732154,52.15651737975894],[39.0595321736856,52.19220929484524],[39.03454783312411,52.206486060880664],[38.99528672652809,52.19220929484524],[38.970302385966605,52.20053740836644],[38.923902896352914,52.202916869371656],[38.941748853896726,52.218383365910086],[38.93817966238825,52.24217797596795],[38.91557478283242,52.25526501150037],[38.87631367623639,52.25764447250637],[38.816827151090195,52.23503959294975],[38.78113523600345,52.23147040144251],[38.790653080026686,52.25288555049338],[38.78351469700901,52.27430069954701],[38.77756604449417,52.30404396211909],[38.75734062594479,52.32070018915964],[38.733546015886844,52.32070018915964],[38.706182214319796,52.33735641620116],[38.682742707457585,52.34432913695943],[38.6767940549431,52.31815506589557],[38.62444591281465,52.31577560488858],[38.60659995527111,52.301498838854926],[38.58161561471015,52.295550186339824],[38.557821004651316,52.28008368980139],[38.51737016755264,52.232494469685676],[38.538785316604944,52.18847444107719],[38.61492806879133,52.13374683794247],[38.66013782790246,52.117090610902814],[38.720814083551225,52.11114195838762],[38.78149033919919,52.108762497381605],[38.8100438712696,52.08734734832976],[38.80885414076677,52.07188085179133],[38.7969568357377,52.06593219927622],[38.78624926121156,52.052845163744685],[38.78386980020502,52.03975812821226],[38.76483411215864,52.01834297915961],[38.74579842411218,52.01239432664628],[38.72914219707154,52.02548136217861],[38.72438327505988,52.04213758921925],[38.694640012486644,52.04570678072737],[38.651809714382146,52.02548136217861],[38.637532948346546,52.03143001469292],[38.630394565329055,52.043327319721364],[38.59827184175079,52.061173277265894],[38.56376965716581,52.05522462475069],[38.52450855057005,52.027860823182934],[38.49595501849964,52.02429163167472],[38.47691933045317,52.006445674131086],[38.43289930184505,51.995738099605646],[38.34604897513242,51.995738099605646],[38.298459755016346,51.96956402854178],[38.322254365074386,51.952907801499364],[38.33891059211501,51.9303029219454],[38.298459755016346,51.9279234609394],[38.267526761940104,51.926733730435416],[38.24254242137924,51.93149265244752],[38.236593768864665,51.918405616916075],[38.21398888930875,51.917215886412095],[38.18543535723914,51.9279234609394],[38.1473639811455,51.93149265244752],[38.1188104490758,51.93744130496272],[38.11762071857298,51.925543999933296],[38.13308721511069,51.917215886412095],[38.124759101590286,51.90293912037755],[38.04861634940381,51.88628289333701],[38.012924434316,51.896990467862445],[37.954627639673774,51.89936992886943],[37.935591951626606,51.891041815348224],[37.918935724585964,51.89461100685644],[37.9284535686092,51.916026155909975],[37.92250491609471,51.9303029219454],[37.885623270504695,51.9303029219454],[37.868967043463265,51.911267233898755],[37.84636216390814,51.88628289333701],[37.82375728435302,51.87319585780459],[37.78925509976804,51.86962666629646],[37.72167914328336,51.86019953614236]]]]}},{"type":"Feature","properties":{"kind":"district","id":"uyezd-1897-369","name":"Нижнедевицкий","provinceId":"voronezh"},"geometry":{"type":"MultiPolygon","coordinates":[[[[38.31545067965302,51.074945855300406],[38.340150050297865,51.084147581619625],[38.35918573834451,51.09128596463685],[38.365134390859346,51.09961407815628],[38.38773927041438,51.10199353916229],[38.409154419467384,51.096044886648066],[38.42581064650757,51.096044886648066],[38.44008741254291,51.10675246117448],[38.47221013612126,51.10794219167748],[38.492435554670735,51.10080380865928],[38.52098908674141,51.10675246117448],[38.55787073233178,51.10199353916229],[38.574526959371966,51.11508057469471],[38.574526959371966,51.12935734073014],[38.55906046283461,51.151962220284986],[38.53288639177029,51.160290333806195],[38.51147124271809,51.17694656084585],[38.51860962573495,51.186464404870065],[38.545973427302,51.19479251838949],[38.57333722886914,51.19717197939647],[38.59356264741852,51.18884386587527],[38.611408604962335,51.168618447325535],[38.63282375401535,51.155531411793206],[38.654238903067636,51.15315195078799],[38.682792435137515,51.160290333806195],[38.75060707380341,51.160290333806195],[38.81723198196657,51.1614800643092],[38.83269847850474,51.180515752355845],[38.85768281906613,51.20906928442491],[38.88147742912399,51.232863894482776],[38.874339046107124,51.26260715705574],[38.845785514037246,51.27331473158304],[38.87552877660995,51.303057994155125],[38.883856890130446,51.320903951698675],[38.88623635113609,51.343508831255306],[38.88028769862116,51.36373424980317],[38.873149315603584,51.3875288598629],[38.873149315603584,51.41132346992076],[38.86839039359228,51.42916942746431],[38.883856890130446,51.44820511551095],[38.90051311717063,51.46248188154638],[38.910030961193954,51.4755689170788],[38.874339046107124,51.47913810858701],[38.841026592025145,51.48627649160424],[38.82199090397859,51.49936352713666],[38.81842171247011,51.521968406691514],[38.82556009548706,51.53981436423506],[38.8564930885634,51.542193825241156],[38.874339046107124,51.55528086077358],[38.882667159626905,51.57193708781413],[38.87909796811843,51.58740358435264],[38.841026592025145,51.60049061988498],[38.81961144297303,51.617146846924726],[38.81961144297284,51.66235660603613],[38.80652440744096,51.67544364156855],[38.78510925838813,51.68496148559187],[38.733950846763136,51.690910138105195],[38.69944866217833,51.68377175508886],[38.641151867535214,51.67068471955555],[38.59475237792206,51.66473606704133],[38.54954261881075,51.65759768402491],[38.48172798014477,51.67068471955555],[38.38535980940864,51.688530677100076],[38.26995595062587,51.70756636514584],[38.19857212045078,51.72065340067914],[38.12004990725838,51.73374043621148],[38.11648071575017,51.71351501766094],[38.12837802077932,51.7016177126325],[38.14741370882578,51.696858790619416],[38.153362361340356,51.67425391106554],[38.14741370882578,51.6516490315098],[38.1307574817848,51.634992804468276],[38.10220394971465,51.608818733404405],[38.074840148147956,51.58026520133444],[38.0391482330605,51.58740358435264],[37.992748743446455,51.59692142837499],[37.95824655886254,51.58383439284266],[37.93683140980963,51.57907547083233],[37.886862728687454,51.57788574032932],[37.86306811862906,51.56479870479602],[37.83094539505062,51.556470591276586],[37.784715755669026,51.548922895050346],[37.78539582132837,51.54606661928118],[37.78777528233411,51.51751308721033],[37.80086231786609,51.49728766866157],[37.79015474333994,51.48776982463825],[37.822277466918294,51.462785484076406],[37.848451537982875,51.450888179047965],[37.84488234647422,51.441370335024644],[37.8781948005554,51.43185249100132],[37.95195809173614,51.42828329949134],[38.02096246090522,51.42352437748012],[38.0626030285076,51.43185249100132],[38.05665437599312,51.396160575912276],[38.053085184484374,51.36284812183109],[38.02691111341979,51.33191512875601],[38.02334192191105,51.31763836272059],[38.07331060303366,51.311689710205385],[38.07806952504532,51.302171866182064],[38.053085184484374,51.28551563914152],[38.04475707096405,51.26529022059187],[38.030480304928446,51.24625453254523],[38.05903383699886,51.24863399355124],[38.055464645490204,51.215321539470054],[38.032859765934276,51.18438854639409],[37.99954731185301,51.16654258885045],[37.986460276321125,51.10943552470963],[37.99240892883561,51.08802037565876],[38.021094653183226,51.062639458262346],[38.038940610727494,51.053121614239025],[38.06273522078553,51.05074215323293],[38.06868387330002,51.063829188766235],[38.06630441229427,51.079295685302895],[38.05559683776812,51.10190056485864],[38.06154549028261,51.10665948687074],[38.0746325258145,51.10546975636676],[38.09842713587334,51.086434068320116],[38.129360128948775,51.063829188766235],[38.156723930515554,51.043603770215704],[38.19122611510054,51.06620864977047],[38.218589916667234,51.08167514630899],[38.254281831755044,51.08286487681288],[38.31376835690098,51.08167514630899],[38.31545067965302,51.074945855300406]]]]}},{"type":"Feature","properties":{"kind":"district","id":"uyezd-1897-371","name":"Воронежский","provinceId":"voronezh"},"geometry":{"type":"MultiPolygon","coordinates":[[[[38.883856890130446,51.320903951698675],[38.91716934421162,51.31376556868145],[38.9588099118141,51.31138610767633],[38.99569155740447,51.32328341270566],[39.08730080612902,51.36373424980317],[39.1075262246784,51.383959668352915],[39.180099785356404,51.41608239193189],[39.17415113284156,51.452964037522165],[39.20151493440861,51.42560023595618],[39.237206849496246,51.44344619349974],[39.25981172905128,51.4303591579674],[39.2907447221268,51.43511807997853],[39.3240571762087,51.368493171816255],[39.3585593607935,51.370872632821374],[39.38592316236064,51.39466724287924],[39.43232265197433,51.40775427841166],[39.483481063599235,51.41489266142888],[39.465635106055416,51.373252093827475],[39.48110160259358,51.33874990924231],[39.489429716114074,51.307816916166345],[39.53107028371575,51.30186826365203],[39.534639475225035,51.267366079068736],[39.58817734785559,51.2459509300152],[39.600074652885276,51.26022769605062],[39.63576656797282,51.27688392309117],[39.644094681492604,51.2459509300152],[39.65599198652229,51.22572551146546],[39.71547851166769,51.31019637717324],[39.75592934876734,51.3339909872311],[39.80708776039225,51.370872632821374],[39.84040021447423,51.405374817406454],[39.82612344843889,51.4303591579674],[39.855866711011586,51.458912690036385],[39.916542966660614,51.50650191015397],[39.943906768227755,51.545763016749376],[39.961752725771575,51.604059811392304],[40.02004952041415,51.623095499438946],[40.07596685405116,51.64094145698259],[40.117607421652835,51.65402849251492],[40.165196641770066,51.69566906011819],[40.19731936534842,51.690910138105195],[40.2306318194304,51.66711552804734],[40.273462117534805,51.63737226547437],[40.319861607148496,51.69566906011819],[40.23895993295089,51.7361198972158],[40.261564812505924,51.74920693274813],[40.281790231055304,51.75158639375512],[40.33056918167465,51.7384993582227],[40.355553522236136,51.73374043621148],[40.39957355084417,51.73968908872578],[40.38648651531166,51.77776046481907],[40.36983028827147,51.790847500351404],[40.35793298324178,51.78608857833841],[40.371020018774296,51.769432351297866],[40.342466486704424,51.77062208180176],[40.29606699709073,51.78013992582419],[40.3032053801076,51.80512426638505],[40.29963618859912,51.82178049342569],[40.26751346502077,51.81345237990626],[40.24014966345372,51.81345237990626],[40.21992424490354,51.81821130191747],[40.21992424490354,51.86223133052498],[40.263944273511484,51.864610791531966],[40.30439511061114,51.864610791531966],[40.3032053801076,51.88602594058462],[40.28297996155813,51.89911297611526],[40.26751346502077,51.90625135913248],[40.258369799759905,51.91670209124277],[40.21316004064896,51.926219935265195],[40.157242707011946,51.93097885727819],[40.11441240890673,51.940496701300624],[40.071582110802225,51.963101580857256],[40.037079926217515,51.94882481482183],[39.9680755570487,51.91789182174577],[39.969265287551615,51.88814855917191],[39.94666040799578,51.87268206263437],[39.926434989446314,51.86673341012006],[39.877656038827055,51.86554367961706],[39.85029223725992,51.87268206263437],[39.79556463412574,51.90718424721855],[39.77414948507353,51.92384047425999],[39.76820083255869,51.93692750979241],[39.78485705959967,51.94525562331184],[39.782477598593935,51.95834265884426],[39.7812878680904,51.99165511292633],[39.76701110205586,52.00355241795477],[39.75511379702689,52.02139837549841],[39.73131918696823,52.022588106001415],[39.71585269043007,52.0178291839902],[39.671832661822826,52.01901891449418],[39.653986704279006,52.010690800972974],[39.62067425019703,51.996414034937544],[39.59687964013917,51.99165511292633],[39.555239072536786,51.99284484342934],[39.50764985242027,51.97023996387448],[39.47909632035039,51.973809155382696],[39.493373086384935,52.010690800972974],[39.51478823543793,52.02853675851652],[39.49932173889977,52.038054602540825],[39.444594135765584,52.0178291839902],[39.39343572414068,51.99046538242324],[39.36964111408202,51.99522430443446],[39.322462614829576,52.00066268387582],[39.279632316724275,52.00423187538492],[39.21062794755555,52.00304214488191],[39.19873064252667,51.982816726332175],[39.18445387649133,51.96972969079975],[39.122587890339474,51.96140157728041],[39.13013110423353,51.94551246572975],[39.15511544479456,51.93123569969433],[39.16344355831551,51.916958933659785],[39.162253827811966,51.90030270661826],[39.1360797567481,51.86461079153108],[39.13726948725083,51.842005911975335],[39.10990568568423,51.83129833744901],[39.08730080612858,51.78846803934451],[39.05636781305287,51.749206932749104],[39.03019374198901,51.71113555665582],[39.02186562846806,51.68972040760308],[39.02186562846806,51.673064180562534],[38.989742904889624,51.66949498905255],[38.9207385357209,51.66711552804734],[38.86363147158053,51.66592579754433],[38.81961144297284,51.66235660603613],[38.81961144297303,51.617146846924726],[38.841026592025145,51.60049061988498],[38.87909796811843,51.58740358435264],[38.882667159626905,51.57193708781413],[38.874339046107124,51.55528086077358],[38.8564930885634,51.542193825241156],[38.82556009548706,51.53981436423506],[38.81842171247011,51.521968406691514],[38.82199090397859,51.49936352713666],[38.841026592025145,51.48627649160424],[38.874339046107124,51.47913810858701],[38.910030961193954,51.4755689170788],[38.90051311717063,51.46248188154638],[38.883856890130446,51.44820511551095],[38.86839039359228,51.42916942746431],[38.873149315603584,51.41132346992076],[38.873149315603584,51.3875288598629],[38.88028769862116,51.36373424980317],[38.88623635113609,51.343508831255306],[38.883856890130446,51.320903951698675]]]]}},{"type":"Feature","properties":{"kind":"district","id":"uyezd-1897-372","name":"Задонский","provinceId":"voronezh"},"geometry":{"type":"MultiPolygon","coordinates":[[[[39.36964111408202,51.99522430443446],[39.36369246156718,52.0249675670084],[39.36607192257354,52.052331368574386],[39.34941569553256,52.08564382265645],[39.35298488704103,52.1106281632174],[39.355364348047395,52.14513034780248],[39.37440003609404,52.17130441886732],[39.382728149614536,52.17725307138154],[39.39343572414068,52.190340106913965],[39.382728149614536,52.193909298422085],[39.37440003609404,52.20818606445751],[39.35417461754386,52.2414985185378],[39.34108758201215,52.24268824904081],[39.339897851509235,52.24982663205901],[39.34941569553256,52.254585554070225],[39.364882192070716,52.265293128597435],[39.38153841911091,52.266482859100535],[39.39819464615189,52.2878980081523],[39.43269683073662,52.29027746915839],[39.44340440526276,52.29384666066652],[39.44340440526276,52.31169261821015],[39.417230334198536,52.31407207921616],[39.410091951180874,52.3319180367598],[39.41247141218723,52.352143455309445],[39.42555844771894,52.36998941285309],[39.43626602224509,52.38545590939063],[39.450542788280515,52.39378402291094],[39.46838874582424,52.386645639893715],[39.49456281688847,52.392594292407935],[39.4493530577776,52.437804051519336],[39.407712490175214,52.45921920057208],[39.37796922760252,52.46397812258329],[39.330380007486,52.48063434962384],[39.27089348234051,52.48777273264115],[39.219735070714805,52.52465437823321],[39.21021722669148,52.55201817979919],[39.21259668769713,52.57343332885104],[39.23639129775579,52.586520364384356],[39.26256536882001,52.60674578293311],[39.27327294334616,52.61626362695732],[39.26851402133414,52.650765811540616],[39.29111890088998,52.655524733553605],[39.289929170387154,52.67693988260546],[39.29944701441038,52.69002691813691],[39.27446267384899,52.726908563727186],[39.26137563831648,52.72809829423019],[39.2494783332875,52.747133982276836],[39.24590914177911,52.76973886183346],[39.21497614870279,52.76854913133046],[39.170956120095454,52.77211832283867],[39.140023127019134,52.861348110557664],[39.02223980723106,52.86610703256879],[39.0151014242134,52.85539945804335],[38.990117083651995,52.84826107502524],[38.994452099221,52.838067295669134],[39.02538509229724,52.829739182147925],[39.04561051084653,52.81189322460429],[39.03252347531464,52.79523699756374],[38.995641829724626,52.80237538058097],[38.98493425519777,52.79404726706163],[38.975416411174535,52.7797705010262],[38.94329368759627,52.772632118008886],[38.93139638256721,52.744078585938034],[38.91117096401703,52.738129933423814],[38.91117096401703,52.683402330290875],[38.936155304578776,52.66198718123813],[38.95994991463691,52.6465206846997],[38.95757045363108,52.63224391866517],[38.93139638256721,52.606069847601205],[38.90165311999388,52.55372170547161],[38.924257999549006,52.51089140736711],[38.94805260960784,52.48590706680535],[38.95519099262525,52.46806110926172],[38.93496557407586,52.43712811618575],[38.91949907753744,52.38477997405792],[38.88380716245034,52.36574428601217],[38.84692551685961,52.35027778947365],[38.818371984790005,52.34670859796553],[38.813613062778344,52.372882669029394],[38.79457737473187,52.375262130035495],[38.769593034170214,52.35027778947365],[38.73152165807737,52.360985364000065],[38.706537317515625,52.35622644198885],[38.682742707457585,52.34432913695943],[38.706182214319796,52.33735641620116],[38.733546015886844,52.32070018915964],[38.75734062594479,52.32070018915964],[38.77756604449417,52.30404396211909],[38.78351469700901,52.27430069954701],[38.790653080026686,52.25288555049338],[38.78113523600345,52.23147040144251],[38.816827151090195,52.23503959294975],[38.87631367623639,52.25764447250637],[38.91557478283242,52.25526501150037],[38.93817966238825,52.24217797596795],[38.941748853896726,52.218383365910086],[38.923902896352914,52.202916869371656],[38.970302385966605,52.20053740836644],[38.99528672652809,52.19220929484524],[39.03454783312411,52.206486060880664],[39.0595321736856,52.19220929484524],[39.078567861732154,52.15651737975894],[39.11782896832817,52.146999535734736],[39.153520883415716,52.137481691712296],[39.15471061391854,52.12201519517289],[39.14638250039813,52.10060004612024],[39.15471061391854,52.07918489706848],[39.18445387649133,52.06609786153606],[39.192781990011824,52.048251903993304],[39.18683333749689,52.03040594644976],[39.17374630196518,52.03278540745576],[39.16660791894752,52.04587244298632],[39.132105734362796,52.04587244298632],[39.097603549778796,52.0399237904721],[39.10593166329929,51.9994729533737],[39.122587890339474,51.96140157728041],[39.18445387649133,51.96972969079975],[39.19873064252667,51.982816726332175],[39.21062794755555,52.00304214488191],[39.279632316724275,52.00423187538492],[39.322462614829576,52.00066268387582],[39.36964111408202,51.99522430443446]]]]}},{"type":"Feature","properties":{"kind":"district","id":"uyezd-1897-374","name":"Бобровский","provinceId":"voronezh"},"geometry":{"type":"MultiPolygon","coordinates":[[[[40.9555518744681,51.8405593390562],[40.928188072900966,51.84293880006229],[40.90082427133392,51.86316421861194],[40.869891278258386,51.84888745257651],[40.848476129205295,51.84888745257651],[40.84133774618842,51.867923140623155],[40.82230205814187,51.873871793138264],[40.83419936317084,51.90480478621335],[40.79969717858604,51.91551236073976],[40.74853876696104,51.966670772364495],[40.68429331980362,51.9809475384009],[40.608150567616434,52.00474214845778],[40.55461269498578,52.010690800972974],[40.51892077989824,52.0178291839902],[40.44396775821467,52.04876217706626],[40.379722311057165,51.99046538242324],[40.41065530413269,51.97261942487969],[40.390429885583316,51.954773467336054],[40.35711743150134,51.97261942487969],[40.338081743454694,51.961911850353275],[40.301200097864324,51.93335831828429],[40.279784948812114,51.91908155224886],[40.258369799759905,51.91670209124277],[40.26751346502077,51.90625135913248],[40.28297996155813,51.89911297611526],[40.3032053801076,51.88602594058462],[40.30439511061114,51.864610791531966],[40.263944273511484,51.864610791531966],[40.21992424490354,51.86223133052498],[40.21992424490354,51.81821130191747],[40.24014966345372,51.81345237990626],[40.26751346502077,51.81345237990626],[40.29963618859912,51.82178049342569],[40.3032053801076,51.80512426638505],[40.29606699709073,51.78013992582419],[40.342466486704424,51.77062208180176],[40.371020018774296,51.769432351297866],[40.35793298324178,51.78608857833841],[40.36983028827147,51.790847500351404],[40.38648651531166,51.77776046481907],[40.39957355084417,51.73968908872578],[40.355553522236136,51.73374043621148],[40.33056918167465,51.7384993582227],[40.281790231055304,51.75158639375512],[40.261564812505924,51.74920693274813],[40.23895993295089,51.7361198972158],[40.319861607148496,51.69566906011819],[40.273462117534805,51.63737226547437],[40.2306318194304,51.66711552804734],[40.19731936534842,51.690910138105195],[40.165196641770066,51.69566906011819],[40.117607421652835,51.65402849251492],[40.07596685405116,51.64094145698259],[40.02004952041415,51.623095499438946],[39.961752725771575,51.604059811392304],[39.943906768227755,51.545763016749376],[39.916542966660614,51.50650191015397],[39.855866711011586,51.458912690036385],[39.82612344843889,51.4303591579674],[39.84040021447423,51.405374817406454],[39.80708776039225,51.370872632821374],[39.75592934876734,51.3339909872311],[39.71547851166769,51.31019637717324],[39.65599198652229,51.22572551146546],[39.631859551752754,51.20094680333657],[39.59735736716884,51.15335758322085],[39.56047572157847,51.11409647662457],[39.53906057252537,51.0819737530455],[39.54500922504022,51.045092107455304],[39.50812757944985,51.045092107455304],[39.45815889832777,51.049851029466524],[39.42603617474862,51.045092107455304],[39.370118841111605,51.04747156846132],[39.364170188597555,51.04271264644921],[39.37368803262079,51.01891803639046],[39.364170188597555,50.98560558231017],[39.39748264267874,50.980846660297175],[39.448641054304446,50.96656989426353],[39.533111920011336,50.9582417807433],[39.59140871465391,50.96062124174931],[39.61639305521548,50.947534206216886],[39.65327470080585,50.939206092695684],[39.709192034442864,50.946344475713886],[39.749642871541624,50.95467258923331],[39.77700667310867,50.96775962476565],[39.80437047467581,50.97132881627475],[39.81150885769348,50.96181097225053],[39.78890397813765,50.9511033977251],[39.784145056126434,50.94515474521088],[39.82578562372802,50.93682663168967],[39.85195969479233,50.92730878766724],[39.89003107088553,50.898755255596384],[39.94594840452254,50.8606838795031],[40.00355309093554,50.85335237396044],[40.01138358218278,50.852355765983674],[40.036367922744354,50.852355765983674],[40.086336603866435,50.83332007793703],[40.09823390889612,50.83926873045125],[40.094664717386934,50.84640711346945],[40.112510674930746,50.84759684397068],[40.112510674930746,50.8594941490001],[40.10061336990177,50.87852983704674],[40.130356632474474,50.87615037604154],[40.18984315761996,50.87496064553853],[40.2421912997485,50.87377091503552],[40.32666216545539,50.865442801516096],[40.38020003808674,50.84640711346945],[40.40994330065945,50.80714600687227],[40.43730710222658,50.786920588322545],[40.446824946249905,50.79762816284985],[40.42065087518559,50.82023304240461],[40.41351249216872,50.83926873045125],[40.43254818021528,50.84640711346945],[40.44087629373506,50.85354549648677],[40.495603896869156,50.857114687994894],[40.49798335787561,50.88209902855576],[40.53248554245962,50.88447848956274],[40.53367527296244,50.8606838795031],[40.54319311698576,50.85473522698888],[40.52534715944266,50.82499196441583],[40.49679362737207,50.81428438989039],[40.482516861337444,50.79762816284985],[40.513449854412976,50.78454112731653],[40.56103907452949,50.76312597826468],[40.61933586917296,50.72981352418262],[40.72522188393205,50.68341403456999],[40.84300520372092,50.682224304066985],[40.84895385623496,50.71910594965718],[40.87869711880846,50.8178535813986],[40.98339340306482,50.8178535813986],[41.001239360608544,50.79762816284985],[40.995290708093705,50.772643822287115],[40.977444750549886,50.73695190719992],[40.99885989960298,50.72267514116539],[41.019085318152364,50.72029568016027],[41.027413431672855,50.73338271569082],[41.0464491197195,50.73695190719992],[41.060725885753946,50.76193624776168],[41.12973025492356,50.80952546787739],[41.12907839000533,50.82908141543427],[41.12854052442073,50.84521738296556],[41.13210971592921,50.86782226252033],[41.09165887883036,50.89994498609939],[41.03455181468972,50.94515474521088],[40.98696259457321,50.947534206216886],[40.953650140492115,50.97132881627475],[40.90011226786066,51.024866688905576],[40.927476069427804,51.080784022542495],[40.92628633892498,51.10457863260035],[40.977444750549886,51.18429057629692],[40.981013942059164,51.20570572534965],[41.001239360608544,51.21760303037898],[40.97863448105271,51.230690065910515],[40.92390687791861,51.25091548445927],[40.91795822540448,51.27114090300892],[40.91319930339247,51.29850470457677],[40.90606092037551,51.33419661966307],[40.88702523232895,51.365129612739125],[40.86828919488753,51.38338621727145],[40.837356201812,51.42026786286173],[40.832597279799984,51.46071869996013],[40.84925350684089,51.535671721643695],[40.87066865589318,51.56898417572577],[40.85520215935573,51.61062474332718],[40.85520215935573,51.66892153797019],[40.8754275779052,51.69747507004105],[40.91468868450122,51.74982321216798],[40.93253464204504,51.799791893290596],[40.9555518744681,51.8405593390562]]]]}},{"type":"Feature","properties":{"kind":"district","id":"uyezd-1897-375","name":"Новохоперский","provinceId":"voronezh"},"geometry":{"type":"MultiPolygon","coordinates":[[[[41.36754416322831,50.83146938604388],[41.42676630381751,50.83146938604388],[41.448181452870514,50.8386077690611],[41.46245821890514,50.87548941465138],[41.46602741041433,50.89928402470924],[41.47673498494048,50.93021701778521],[41.5029090560047,50.952821897340066],[41.51123716952439,50.968288393878495],[41.53860097109153,50.973047315889715],[41.58975938271724,50.97780623790093],[41.621882106295594,50.98970354293124],[41.694455666973596,50.99089327343335],[41.75632165312536,50.98970354293124],[41.82056710028296,51.0218262665103],[41.82056710028296,51.08607171366656],[41.83008494430619,51.114625245737415],[41.85982820687889,51.155076082835905],[41.89552012196653,51.184819345409764],[41.9324017675569,51.201475572449425],[42.00973425024611,51.187198806413996],[42.027580207789924,51.169352848871334],[42.12751757003498,51.15031716082469],[42.17986571216271,51.1479376998177],[42.227454932280025,51.1443685083095],[42.29289010994036,51.14912743032071],[42.32620256402154,51.14555823881348],[42.41662208224327,51.16459392686012],[42.43803723129548,51.16459392686012],[42.455883188839294,51.14912743032071],[42.49871348694451,51.13604039478926],[42.539164324043355,51.13841985579528],[42.610548154218534,51.15626581333891],[42.63315303377357,51.20742422496462],[42.692639558919765,51.24668533156091],[42.692639558919765,51.266910750110554],[42.72714174350377,51.26215182809756],[42.775920694123826,51.245495601057904],[42.80804341770218,51.245495601057904],[42.85444290731587,51.25263398407513],[42.881806708883005,51.25025452306912],[42.96032892207505,51.20504476395763],[42.9876927236421,51.19909611144341],[43.007918142192366,51.191957728426104],[43.013866794706416,51.20980368597063],[43.035281943759415,51.22408045200427],[43.06264574532575,51.245495601057904],[43.06502520633221,51.25620317558334],[42.998400298169045,51.265721019607554],[42.94843161704617,51.27761832463697],[42.921067815479034,51.28951562966541],[42.862771020836455,51.32401781424959],[42.86158129033354,51.34543296330233],[42.86871967335129,51.3751762258753],[42.892514283409156,51.40729894945348],[42.872288864859684,51.42038598498581],[42.84135587178416,51.40016056643616],[42.82826883625165,51.416816793477686],[42.811612609210655,51.439421673032456],[42.7878179991528,51.45250870856488],[42.775920694123826,51.47630331862273],[42.74855689255678,51.498908198179365],[42.70334713344592,51.51913361672723],[42.63553249477921,51.53935903527688],[42.59151246617189,51.55601526231929],[42.55463082058152,51.57862014187415],[42.542240012488975,51.5844506722642],[42.50178917539013,51.555897140193345],[42.47442537382308,51.541620374157915],[42.458958877284914,51.52258468611127],[42.44944103326159,51.49046196253221],[42.41255938767122,51.48451331001799],[42.376867472584394,51.46904681348134],[42.359021515040666,51.4512008559377],[42.34593447950806,51.41193974934052],[42.32808852196425,51.37148891224114],[42.316191216935366,51.339366188662076],[42.27336091883015,51.33222780564574],[42.24837657826937,51.33460726665086],[42.23409981223413,51.317951039610314],[42.22815115972,51.297725621060664],[42.20911547167336,51.302484543071884],[42.204356549661426,51.31676130910731],[42.17937220909985,51.31676130910731],[42.14487002451594,51.30843319558788],[42.09133215188457,51.28225912452215],[42.079434846855605,51.29534616005457],[42.03660454875039,51.29058723804246],[41.98068721511338,51.31557157860422],[41.971169371090056,51.32984834463964],[42.01518939969819,51.333417536147856],[42.030655896235544,51.347694302183285],[42.06634781132309,51.347694302183285],[42.07467592484359,51.36435052922481],[42.05088131478493,51.389334869784776],[42.01043047768608,51.41669867135174],[41.96641044907804,51.4440624729195],[41.9521336830435,51.4428727424165],[41.941426108517355,51.429785706884076],[41.93904664751099,51.413129479844415],[41.904544462926985,51.413129479844415],[41.88312931387398,51.4428727424165],[41.851006590295626,51.464287891468345],[41.80103790917346,51.499979806556425],[41.757017880565414,51.51901549460307],[41.720136234975044,51.55351767918725],[41.689203241899435,51.572553367233894],[41.64756267429705,51.59991716880085],[41.61781941172434,51.59872743829784],[41.603542645689004,51.565414984217554],[41.605922106695374,51.51306684208885],[41.57498911361913,51.51425657259185],[41.54048692903504,51.51663603359705],[41.48337986489449,51.51068738108186],[41.423893339749085,51.51782576410006],[41.387011694158716,51.51782576410006],[41.342991665550585,51.5297230691285],[41.27517702688469,51.53924091315271],[41.2501926863232,51.5297230691285],[41.22044942375051,51.547569026672136],[41.18118831715448,51.54281010466092],[41.1859472391657,51.51663603359705],[41.106235295470825,51.52020522510607],[41.07649203289813,51.505928459070645],[41.10980448697931,51.48094411850978],[41.08244068541226,51.465477621971345],[41.05745634485078,51.4428727424165],[41.083630415914996,51.407180827329306],[41.0967174514475,51.38219648676844],[40.9777444011559,51.38219648676844],[40.86828919488753,51.38338621727145],[40.88702523232895,51.365129612739125],[40.90606092037551,51.33419661966307],[40.91319930339247,51.29850470457677],[40.91795822540448,51.27114090300892],[40.92390687791861,51.25091548445927],[40.97863448105271,51.230690065910515],[41.001239360608544,51.21760303037898],[40.981013942059164,51.20570572534965],[40.977444750549886,51.18429057629692],[40.92628633892498,51.10457863260035],[40.927476069427804,51.080784022542495],[40.90011226786066,51.024866688905576],[40.953650140492115,50.97132881627475],[40.98696259457321,50.947534206216886],[41.03455181468972,50.94515474521088],[41.09165887883036,50.89994498609939],[41.13210971592921,50.86782226252033],[41.12854052442073,50.84521738296556],[41.12907839000533,50.82908141543427],[41.19833804725833,50.83146938604388],[41.32325975006398,50.83146938604388],[41.36754416322831,50.83146938604388]]]]}},{"type":"Feature","properties":{"kind":"district","id":"uyezd-1897-376","name":"Богучарский","provinceId":"voronezh"},"geometry":{"type":"MultiPolygon","coordinates":[[[[41.12907839000533,50.82908141543427],[41.12973025492356,50.80952546787739],[41.060725885753946,50.76193624776168],[41.0464491197195,50.73695190719992],[41.027413431672855,50.73338271569082],[41.019085318152364,50.72029568016027],[40.99885989960298,50.72267514116539],[40.977444750549886,50.73695190719992],[40.995290708093705,50.772643822287115],[41.001239360608544,50.79762816284985],[40.98339340306482,50.8178535813986],[40.87869711880846,50.8178535813986],[40.84895385623496,50.71910594965718],[40.84300520372092,50.682224304066985],[40.800835867005944,50.65142350326823],[40.74967745538095,50.61692131868404],[40.724693114819466,50.58122940359588],[40.686621738726274,50.551486141022906],[40.665206589674064,50.54672721901169],[40.643791440621854,50.51579422593661],[40.67591416420012,50.491999615878754],[40.67591416420012,50.45035904827547],[40.69851904375524,50.428943899223626],[40.693760121743935,50.40990821117698],[40.665206589674064,50.38611360111921],[40.64617090162742,50.34209357250984],[40.667586050679716,50.30878111842955],[40.674724433697385,50.264761089822045],[40.694949852246765,50.25167405428962],[40.71993419280825,50.25405351529572],[40.724693114819466,50.24453567127151],[40.71755473180188,50.22431025272178],[40.711606079287755,50.194566990149696],[40.700898504761696,50.16839291908494],[40.687811469229096,50.12794208198645],[40.66996551168528,50.113665315951025],[40.63903251860975,50.11247558544802],[40.61404817804836,50.11247558544802],[40.60096114251655,50.1065269329338],[40.56883841893749,50.11247558544802],[40.540284886867525,50.085111783880166],[40.50102378027151,50.06607609583352],[40.47603943971011,50.06250690432629],[40.45224482965225,50.06607609583352],[40.43796806361682,50.05536852130809],[40.40346587903291,50.04941986879387],[40.36301504193326,50.044660946782656],[40.339220431875404,50.03990202476966],[40.313046360811086,50.033953372255354],[40.276164715220716,50.032763641753235],[40.25038722099124,50.02390675911918],[40.21826449741209,50.00368134056953],[40.180193121318894,49.98940457453588],[40.1337936317052,49.9941634965471],[40.10286063862968,50.00011214906132],[40.08144548957667,49.9941634965471],[40.04456384398621,49.97155861699233],[40.00530273739028,49.95490238995081],[39.930349715706626,49.94181535441839],[39.87800157357809,49.94419481542448],[39.8316020839644,49.938246162910175],[39.80542801290089,49.94538454592749],[39.79828962988322,49.95728185095682],[39.80661774340372,49.97631753900346],[39.8316020839644,49.998922418558315],[39.84944804150822,50.02866568113226],[39.857776155028624,50.0477013691789],[39.826843161953185,50.05602948269824],[39.80899720440928,50.054839752195235],[39.76973609781335,50.03818352515461],[39.74237229624621,50.02985541163527],[39.68883442361485,50.04056298616159],[39.62577870696017,50.019147837107965],[39.54606676326539,49.990594305038975],[39.47944185510222,49.99178403554198],[39.43780128749975,49.96204077296804],[39.410437485932704,49.95847158145991],[39.36165853531336,49.97393807799745],[39.33191527274066,49.97869700000956],[39.302172010167155,49.97631753900346],[39.267669825583155,49.992973766044095],[39.266480095080325,50.00130187956441],[39.19866545641363,49.97988673051167],[39.197475725910806,49.940625623916276],[39.17532545954677,49.91103984139593],[39.186033034073006,49.90033226686951],[39.216966027148445,49.83370735870538],[39.221724949160645,49.8099127486485],[39.26931416927707,49.771841372555215],[39.31809311989659,49.7551851455128],[39.388287219568674,49.74804676249637],[39.42159967364985,49.76946191154823],[39.44420455320551,49.775410564063336],[39.53938299343899,49.756374876015805],[39.58578248305214,49.74804676249637],[39.58221329154394,49.72782134394673],[39.60243871009305,49.696888350869784],[39.65240739121593,49.620745598683214],[39.69880688082979,49.613607215666875],[39.72855014340196,49.60527910214567],[39.77494963301584,49.57791530057969],[39.836815619167425,49.56363853454426],[39.88559456978703,49.56601799555027],[39.912958371354165,49.58148449208781],[39.941511903423866,49.610038024158754],[39.99980869806724,49.60884829365477],[40.075951450253186,49.60646883264867],[40.09379740779745,49.612417485163874],[40.108074173831895,49.63026344270751],[40.13855255371651,49.64438272869031],[40.261094795517394,49.64200326768422],[40.28845859708444,49.622967579637574],[40.338427278206524,49.636054615169996],[40.37649865429981,49.5896551255555],[40.472866825035666,49.59084485605851],[40.50855874012321,49.608690813602145],[40.54544038571358,49.596793508572816],[40.555236696728855,49.601691664080676],[40.55733769074327,49.602742161087924],[40.571614456777894,49.63367515416301],[40.59065014482445,49.64795192019844],[40.63348044292975,49.670556799753285],[40.65846478349043,49.688402757298704],[40.6739312800286,49.69554114031602],[40.725089691654304,49.68364383528571],[40.75245349322135,49.676505452269375],[40.772678911770825,49.684833565788715],[40.79647352182868,49.700300062327145],[40.84882166395721,49.72171521137899],[40.93091306865845,49.71814601987079],[40.96541525324325,49.740750899425635],[40.998727707324434,49.7728736230047],[41.024901778388745,49.80737580758978],[41.04750665794378,49.82403203462943],[41.06059369347629,49.866862332734826],[41.071301268002436,49.91207209184542],[41.072490998505174,49.93705643240628],[41.10580345258715,49.95966131196292],[41.18670512678485,50.00011214906132],[41.25214030444509,50.02628622012617],[41.3116268295913,50.02747595062917],[41.34731874467893,50.060788404709456],[41.36159551071347,50.072685709739766],[41.39490796479545,50.078634362254874],[41.39371823429262,50.11432627734118],[41.39014904278334,50.1345516958918],[41.33780090065561,50.15596684494267],[41.308057638082104,50.17381280248809],[41.33066251763794,50.19046902952872],[41.35207766669015,50.20950471757536],[41.40442580881868,50.24400690215866],[41.457963681450124,50.29040639177306],[41.482948022010724,50.310631810322796],[41.525778320116025,50.358221030438514],[41.510311823577865,50.43079459111776],[41.45082529843246,50.46648650620406],[41.452015028935286,50.515265456823755],[41.494845327040494,50.56285467694126],[41.551952391180336,50.5747519819697],[41.535296164139346,50.60449524454266],[41.471050716981836,50.60092605303454],[41.4567739509465,50.61044389705697],[41.42346149686532,50.66279203918568],[41.39014904278334,50.70562233729018],[41.37111335473679,50.73179640835494],[41.335421439649245,50.75440128790979],[41.24143272991895,50.782954819980645],[41.20931000634069,50.788903472494866],[41.30686790757928,50.81031862154761],[41.36754416322831,50.83146938604388],[41.32325975006398,50.83146938604388],[41.19833804725833,50.83146938604388],[41.12907839000533,50.82908141543427]]]]}},{"type":"Feature","properties":{"kind":"district","id":"uyezd-1897-377","name":"Валуйский","provinceId":"voronezh"},"geometry":{"type":"MultiPolygon","coordinates":[[[[37.73448309002222,50.083641230778106],[37.795238076165546,50.084740494820835],[37.836878643766866,50.06808426777931],[37.86900136734593,50.06570480677419],[37.903503551930115,50.05261777124177],[37.940385197521195,50.030012891687],[37.953472233053,50.001459359616064],[38.00582037518109,49.9372139124598],[38.027235524233475,49.916988493910154],[38.08077339686492,49.85869169926722],[38.12479342547233,49.853932777255025],[38.14739830502817,49.8456046637348],[38.18903887263046,49.842035472225696],[38.2330589012378,49.85869169926722],[38.250904858781695,49.849173855242924],[38.269940546828074,49.842035472225696],[38.29611461789247,49.82062032317296],[38.330616802476655,49.81229220965362],[38.34727302951818,49.81705113166483],[38.457917966288576,49.826568975688154],[38.46624607980898,49.83489708920936],[38.46505634930661,49.86464035178144],[38.47457419332957,49.90509118888073],[38.46148715779759,49.915798763407146],[38.41032874617224,49.94554202597922],[38.37225737007887,49.94554202597922],[38.36511898706155,49.9859928630794],[38.39724171064026,49.996700437605824],[38.42698497321314,49.9871825935825],[38.41865685969273,49.98123394106828],[38.43174389522463,49.96695717503188],[38.46862554081481,49.97528528855308],[38.52454287445245,49.96814690553488],[38.54238883199582,49.96933663603886],[38.563803981048295,49.96933663603886],[38.57808074708355,49.988372324084615],[38.59592670462692,49.99194151559274],[38.61377266217117,49.99075178509062],[38.62804942820563,49.98361340207251],[38.65422349927029,49.98242367156942],[38.66374134329325,49.99313124609583],[38.67563864832276,50.014546395148486],[38.71014083290713,49.994320976598836],[38.72960318961657,49.99545604326707],[38.72960318961657,50.00616361779339],[38.75815672168645,50.037096610868474],[38.7950383672769,50.034717149862466],[38.82359189934678,50.057322029417236],[38.88545788549792,50.08587556148817],[38.9782568647253,50.12989559009568],[39.06510719143856,50.15844912216653],[39.07462503546188,50.16439777468075],[39.017517971322036,50.16915669669197],[39.006810396795885,50.2226945693228],[38.98539524774297,50.2238842998258],[38.97587740371965,50.265524867427295],[38.962790368187854,50.30954489603667],[38.954462254667355,50.341667619613865],[38.92233953108829,50.355944385649295],[38.886647616001454,50.363082768667496],[38.854524892422305,50.37260061268992],[38.817643246831935,50.37260061268992],[38.81407405532346,50.3595135771575],[38.78671025375641,50.35475465514629],[38.71294696257567,50.37379034319293],[38.67844477799086,50.37379034319293],[38.654650167933,50.39401576174258],[38.579697146249345,50.417810371800435],[38.56898957172249,50.432087137835865],[38.57255876323168,50.45469201739071],[38.57136903272894,50.47729689694735],[38.53805657864696,50.46420986141493],[38.507123585571435,50.46302013091192],[38.4928468195361,50.442794712362186],[38.471431670483895,50.433276868339846],[38.43336029439061,50.42851794632774],[38.3607867337126,50.420189832807424],[38.28226452052065,50.41662064129743],[38.2465726054331,50.411861719286215],[38.23467530040333,50.40353360576678],[38.21920880386597,50.408292527778],[38.2037423073278,50.40115414476078],[38.210880690345476,50.37735953470292],[38.201362846322155,50.3642724991705],[38.15734281771411,50.361893038163515],[38.115702250112435,50.355944385649295],[38.10261521457993,50.329770314585424],[38.0716822215044,50.30002705201237],[38.037180036919594,50.29169893849303],[38.011005965855375,50.29645786050425],[37.99434973881518,50.30954489603667],[37.97531405076854,50.32263193156722],[37.972934589762176,50.33690869760265],[37.95508863221836,50.34404708061996],[37.925345369645655,50.339288158609634],[37.90630968159901,50.35237519414117],[37.9098788731083,50.3666519601766],[37.926535100148485,50.38449791772014],[37.925345369645655,50.39877468375379],[37.8884637240552,50.41305144978922],[37.84920261745927,50.411861719286215],[37.817079893880916,50.4154309107962],[37.704055496103265,50.41067198878321],[37.688588999565894,50.41424118029222],[37.66955331151925,50.44517417336829],[37.57556460178914,50.44517417336829],[37.55295972223321,50.421379563310424],[37.53273430368384,50.41900010230344],[37.51131915463163,50.42970767682985],[37.498232119099114,50.42970767682985],[37.45845702295786,50.42624693279051],[37.463224535357476,50.396540353044614],[37.47393210988362,50.364417629465635],[37.51795213849175,50.334674366892585],[37.55721324508751,50.333484636390466],[37.577438663637594,50.320397600857156],[37.64049438029228,50.32872571437747],[37.62502788375376,50.290654338284185],[37.63097653626825,50.246634309677574],[37.626217614256674,50.22402943012183],[37.644063571800935,50.18357859302156],[37.66904791236189,50.15978398296379],[37.69522198342575,50.14550721692827],[37.705929557952615,50.11695368485928],[37.73448309002222,50.083641230778106]]]]}},{"type":"Feature","properties":{"kind":"district","id":"uyezd-1897-378","name":"Бирюченский","provinceId":"voronezh"},"geometry":{"type":"MultiPolygon","coordinates":[[[[37.45845702295786,50.42624693279051],[37.498232119099114,50.42970767682985],[37.51131915463163,50.42970767682985],[37.53273430368384,50.41900010230344],[37.55295972223321,50.421379563310424],[37.57556460178914,50.44517417336829],[37.66955331151925,50.44517417336829],[37.688588999565894,50.41424118029222],[37.704055496103265,50.41067198878321],[37.817079893880916,50.4154309107962],[37.84920261745927,50.411861719286215],[37.8884637240552,50.41305144978922],[37.925345369645655,50.39877468375379],[37.926535100148485,50.38449791772014],[37.9098788731083,50.3666519601766],[37.90630968159901,50.35237519414117],[37.925345369645655,50.339288158609634],[37.95508863221836,50.34404708061996],[37.972934589762176,50.33690869760265],[37.97531405076854,50.32263193156722],[37.99434973881518,50.30954489603667],[38.011005965855375,50.29645786050425],[38.037180036919594,50.29169893849303],[38.0716822215044,50.30002705201237],[38.10261521457993,50.329770314585424],[38.115702250112435,50.355944385649295],[38.15734281771411,50.361893038163515],[38.201362846322155,50.3642724991705],[38.210880690345476,50.37735953470292],[38.2037423073278,50.40115414476078],[38.21920880386597,50.408292527778],[38.23467530040333,50.40353360576678],[38.2465726054331,50.411861719286215],[38.28226452052065,50.41662064129743],[38.3607867337126,50.420189832807424],[38.43336029439061,50.42851794632774],[38.471431670483895,50.433276868339846],[38.4928468195361,50.442794712362186],[38.507123585571435,50.46302013091192],[38.53805657864696,50.46420986141493],[38.57136903272894,50.47729689694735],[38.57255876323168,50.45469201739071],[38.56898957172249,50.432087137835865],[38.579697146249345,50.417810371800435],[38.654650167933,50.39401576174258],[38.67844477799086,50.37379034319293],[38.71294696257567,50.37379034319293],[38.78671025375641,50.35475465514629],[38.81407405532346,50.3595135771575],[38.817643246831935,50.37260061268992],[38.854524892422305,50.37260061268992],[38.886647616001454,50.363082768667496],[38.92233953108829,50.355944385649295],[38.954462254667355,50.341667619613865],[38.962790368187854,50.30954489603667],[38.97587740371965,50.265524867427295],[38.98539524774297,50.2238842998258],[39.006810396795885,50.2226945693228],[39.017517971322036,50.16915669669197],[39.07462503546188,50.16439777468075],[39.11626560306355,50.16201831367474],[39.11983479457274,50.202469150774036],[39.11031695054942,50.232212413347],[39.11626560306355,50.25362756239974],[39.11507587256072,50.285750285976945],[39.07224557445622,50.285750285976945],[39.04964069490039,50.29050920799003],[39.04012285087707,50.29883732150937],[39.04369204238635,50.31073462653878],[39.13173209960162,50.355944385649295],[39.18408024173024,50.37854926520414],[39.15909590116876,50.39282603123957],[39.138870482619296,50.3999644142568],[39.13649102161373,50.427328215824645],[39.11626560306355,50.45945093940371],[39.092470993005605,50.50585042901642],[39.16861374519208,50.52607584756607],[39.203115929776885,50.54154234410361],[39.20073646877044,50.585562372712985],[39.15552670966028,50.60935698277084],[39.11031695054942,50.63315159282861],[39.06867638294703,50.64028997584681],[39.03655365936868,50.68787919596253],[39.03179473735666,50.7211916500446],[38.99967201377822,50.72476084155281],[38.987774708749335,50.75688356513277],[38.98658497824571,50.79019601921297],[38.95565198517018,50.787816558206956],[38.943754680141296,50.77353979217331],[38.94018548863202,50.75807329563488],[38.91044222605932,50.75926302613789],[38.86999138896047,50.77829871418453],[38.83548920437575,50.79257548021995],[38.79265890627125,50.80447278524839],[38.77600267923026,50.78424736669875],[38.74982860816604,50.78900628870996],[38.73242329154961,50.80238708486106],[38.71814652551427,50.78811031882563],[38.69673137646207,50.7774027443002],[38.65866000036878,50.776213013797104],[38.645572964836276,50.7678849002759],[38.62653727678972,50.75955678675656],[38.597983744719755,50.74052109870992],[38.57418913466118,50.75122867323624],[38.56348156013504,50.76193624776168],[38.57061994315271,50.7774027443002],[38.57061994315271,50.789300049329526],[38.540876680580006,50.80000762385497],[38.507564226498026,50.81309465938739],[38.470682580907656,50.83926873045125],[38.477820963925325,50.86187361000611],[38.46592365889635,50.86187361000611],[38.45045716235819,50.83569953894224],[38.431421474311634,50.82975088642704],[38.414765247270644,50.83569953894224],[38.41119605576216,50.84640711346945],[38.39216036771561,50.83926873045125],[38.371934949166146,50.84402765246247],[38.31601761552922,50.88447848956274],[38.29579219697975,50.9011347166024],[38.277946239435934,50.89637579459118],[38.26604893440625,50.87377091503552],[38.26961812591553,50.86782226252033],[38.30055111899097,50.830940616930135],[38.30531004100307,50.81309465938739],[38.27199758692109,50.79048977983075],[38.25296189887454,50.78573085781954],[38.244633785353955,50.79762816284985],[38.22916728881588,50.79524870184375],[38.21964944479256,50.80476654586618],[38.24344405485122,50.81904331190161],[38.250582437868886,50.834509808440124],[38.239874863342024,50.83807899994825],[38.2255980973074,50.83569953894224],[38.19942402624318,50.82023304240461],[38.156593728138674,50.80119735435797],[38.1246012069372,50.78305279007782],[38.13292932045752,50.76758629353939],[38.116273093416886,50.74617114448753],[38.10913471039949,50.71166895990247],[38.0674941427971,50.675977044815184],[38.01276653966282,50.6367159382189],[38.018715192177396,50.608162406148935],[37.97469516356998,50.62005971117836],[37.91401890792122,50.640285129728],[37.847393999757884,50.62243917218436],[37.7498360985192,50.596265101120494],[37.70224687840232,50.592695909610505],[37.62015547370136,50.58555752659319],[37.593981402636686,50.536778575973585],[37.533305146988724,50.5034661218924],[37.509510536929895,50.47491258982244],[37.464300777819645,50.445169327249474],[37.45576836641796,50.44300007011315],[37.45845702295786,50.42624693279051]]]]}},{"type":"Feature","properties":{"kind":"district","id":"uyezd-1897-379","name":"Острогожский","provinceId":"voronezh"},"geometry":{"type":"MultiPolygon","coordinates":[[[[39.364170188597555,50.98560558231017],[39.32015015998943,50.97965692979595],[39.29992474144005,50.98679531281229],[39.28207878389624,50.97251854677686],[39.26304309584968,50.98322612130416],[39.22497171975648,50.97608773828596],[39.19403872668007,50.94277528420389],[39.17381330813069,50.91779094364303],[39.141690584552336,50.911842291128806],[39.105998669464796,50.918980674146034],[39.069117023874426,50.924929326660255],[39.02866618677477,50.939206092695684],[38.90136502296339,50.93801636219268],[38.86924229938423,50.93563690118667],[38.84901688083485,50.89399633358517],[38.821653079267804,50.86663253201732],[38.78953035568945,50.84521738296556],[38.77049466764281,50.842837921959465],[38.75264871009908,50.85592495749189],[38.73837194406366,50.8594941490001],[38.740751405069304,50.84521738296556],[38.72766436953751,50.82975088642704],[38.73242329154961,50.80238708486106],[38.74982860816604,50.78900628870996],[38.77600267923026,50.78424736669875],[38.79265890627125,50.80447278524839],[38.83548920437575,50.79257548021995],[38.86999138896047,50.77829871418453],[38.91044222605932,50.75926302613789],[38.94018548863202,50.75807329563488],[38.943754680141296,50.77353979217331],[38.95565198517018,50.787816558206956],[38.98658497824571,50.79019601921297],[38.987774708749335,50.75688356513277],[38.99967201377822,50.72476084155281],[39.03179473735666,50.7211916500446],[39.03655365936868,50.68787919596253],[39.06867638294703,50.64028997584681],[39.11031695054942,50.63315159282861],[39.15552670966028,50.60935698277084],[39.20073646877044,50.585562372712985],[39.203115929776885,50.54154234410361],[39.16861374519208,50.52607584756607],[39.092470993005605,50.50585042901642],[39.11626560306355,50.45945093940371],[39.13649102161373,50.427328215824645],[39.138870482619296,50.3999644142568],[39.15909590116876,50.39282603123957],[39.18408024173024,50.37854926520414],[39.13173209960162,50.355944385649295],[39.04369204238635,50.31073462653878],[39.04012285087707,50.29883732150937],[39.04964069490039,50.29050920799003],[39.07224557445622,50.285750285976945],[39.11507587256072,50.285750285976945],[39.11626560306355,50.25362756239974],[39.11031695054942,50.232212413347],[39.11983479457274,50.202469150774036],[39.11626560306355,50.16201831367474],[39.07462503546188,50.16439777468075],[39.06510719143856,50.15844912216653],[38.9782568647253,50.12989559009568],[38.88545788549792,50.08587556148817],[38.82359189934678,50.057322029417236],[38.7950383672769,50.034717149862466],[38.75815672168645,50.037096610868474],[38.72960318961657,50.00616361779339],[38.72960318961657,49.99545604326707],[38.71014083290713,49.994320976598836],[38.686346222849,49.98361340207251],[38.682777031339896,49.96576744452887],[38.70062298888336,49.94197283447102],[38.720848407433365,49.932454990448576],[38.73393544296525,49.918178224412266],[38.76010951402921,49.90628091938285],[38.829113883198815,49.87653765681077],[38.858857145771694,49.88010684831898],[38.89454906085862,49.88010684831898],[38.907636096390505,49.8491738552439],[38.90525663538486,49.826568975688154],[38.91953340142001,49.81586140116174],[38.9813993875716,49.82418951468294],[39.07657782780508,49.83489708920936],[39.10275189886904,49.86939927379265],[39.136064352950925,49.88010684831898],[39.147961657979636,49.88843496184019],[39.16580761552309,49.89676307535953],[39.168187076529634,49.90390145837773],[39.17532545954677,49.91103984139593],[39.197475725910806,49.940625623916276],[39.19866545641363,49.97988673051167],[39.266480095080325,50.00130187956441],[39.267669825583155,49.992973766044095],[39.302172010167155,49.97631753900346],[39.33191527274066,49.97869700000956],[39.36165853531336,49.97393807799745],[39.410437485932704,49.95847158145991],[39.43780128749975,49.96204077296804],[39.47944185510222,49.99178403554198],[39.54606676326539,49.990594305038975],[39.62577870696017,50.019147837107965],[39.68883442361485,50.04056298616159],[39.74237229624621,50.02985541163527],[39.76973609781335,50.03818352515461],[39.80899720440928,50.054839752195235],[39.826843161953185,50.05602948269824],[39.857776155028624,50.0477013691789],[39.84944804150822,50.02866568113226],[39.8316020839644,49.998922418558315],[39.80661774340372,49.97631753900346],[39.79828962988322,49.95728185095682],[39.80542801290089,49.94538454592749],[39.8316020839644,49.938246162910175],[39.87800157357809,49.94419481542448],[39.930349715706626,49.94181535441839],[40.00530273739028,49.95490238995081],[40.04456384398621,49.97155861699233],[40.08144548957667,49.9941634965471],[40.10286063862968,50.00011214906132],[40.1337936317052,49.9941634965471],[40.180193121318894,49.98940457453588],[40.21826449741209,50.00368134056953],[40.25038722099124,50.02390675911918],[40.276164715220716,50.032763641753235],[40.247611183150845,50.038712294267455],[40.17979654448486,50.0601274433193],[40.11912028883583,50.07440420935473],[40.08461810425111,50.087491244887154],[40.04416726715226,50.09225016689837],[40.01680346558513,50.100578280419576],[40.02513157910562,50.12794208198645],[40.02751104011128,50.1505469615413],[40.05011591966711,50.16482372757673],[40.05606457218115,50.1933772596458],[40.077479721234155,50.21955133071056],[40.07391052972497,50.230258905236084],[40.04773645866065,50.240966479762406],[40.03464942312894,50.255243245797836],[40.00133696904696,50.26595082032327],[39.98468074200677,50.27784812535358],[39.98824993351525,50.317109231948976],[40.031080231620464,50.33852438100163],[40.04535699765509,50.3718368350837],[40.05963376369043,50.38611360111921],[40.066772146707294,50.413477402685196],[40.08342837374829,50.427754168720625],[40.076289990730615,50.44916931777247],[40.048926189163566,50.46582554481391],[40.039408345140245,50.489620154871766],[40.01323427407674,50.52412233945595],[39.97278343697709,50.54196829700048],[39.950178557422056,50.55029641052168],[39.910917450826034,50.576470481584664],[39.89902014579635,50.58598832560896],[39.903779067808365,50.5943164391283],[39.919245564346525,50.587178056111966],[39.928763408369846,50.5943164391283],[39.925194216860575,50.615731588181035],[39.89545095428787,50.63119808471858],[39.849051464674176,50.66213107779553],[39.80860062757533,50.67997703533908],[39.7859957480195,50.706151106403034],[39.78004709550545,50.737084099479006],[39.78242655651102,50.75017113501143],[39.79551359204282,50.76206844003987],[39.849051464674176,50.76801709255507],[39.929953138872676,50.78110412808651],[39.98349101150323,50.814416582167695],[39.98824993351525,50.82750361769922],[39.99776777753857,50.840590653231644],[40.00355309093554,50.85335237396044],[39.94594840452254,50.8606838795031],[39.89003107088553,50.898755255596384],[39.85195969479233,50.92730878766724],[39.82578562372802,50.93682663168967],[39.784145056126434,50.94515474521088],[39.78890397813765,50.9511033977251],[39.81150885769348,50.96181097225053],[39.80437047467581,50.97132881627475],[39.77700667310867,50.96775962476565],[39.749642871541624,50.95467258923331],[39.709192034442864,50.946344475713886],[39.65327470080585,50.939206092695684],[39.61639305521548,50.947534206216886],[39.59140871465391,50.96062124174931],[39.533111920011336,50.9582417807433],[39.448641054304446,50.96656989426353],[39.39748264267874,50.980846660297175],[39.364170188597555,50.98560558231017]]]]}},{"type":"Feature","properties":{"kind":"district","id":"uyezd-1897-770","name":"Коротоякский","provinceId":"voronezh"},"geometry":{"type":"MultiPolygon","coordinates":[[[[38.883856890130446,51.320903951698675],[38.87552877660995,51.303057994155125],[38.845785514037246,51.27331473158304],[38.874339046107124,51.26260715705574],[38.88147742912399,51.232863894482776],[38.85768281906613,51.20906928442491],[38.83269847850474,51.180515752355845],[38.81723198196657,51.1614800643092],[38.75060707380341,51.160290333806195],[38.682792435137515,51.160290333806195],[38.654238903067636,51.15315195078799],[38.63282375401535,51.155531411793206],[38.611408604962335,51.168618447325535],[38.59356264741852,51.18884386587527],[38.57333722886914,51.19717197939647],[38.545973427302,51.19479251838949],[38.51860962573495,51.186464404870065],[38.51147124271809,51.17694656084585],[38.53288639177029,51.160290333806195],[38.55906046283461,51.151962220284986],[38.574526959371966,51.12935734073014],[38.574526959371966,51.11508057469471],[38.55787073233178,51.10199353916229],[38.52098908674141,51.10675246117448],[38.492435554670735,51.10080380865928],[38.47221013612126,51.10794219167748],[38.44008741254291,51.10675246117448],[38.42581064650757,51.096044886648066],[38.409154419467384,51.096044886648066],[38.38773927041438,51.10199353916229],[38.365134390859346,51.09961407815628],[38.35918573834451,51.09128596463685],[38.340150050297865,51.084147581619625],[38.31545067965302,51.074945855300406],[38.31733754840964,51.067398380273474],[38.30544024338066,51.043603770215704],[38.312578626398064,51.009101585630546],[38.29830186036246,50.982927514567564],[38.25071264024639,50.96389182652092],[38.18646719308888,50.917492336906435],[38.125790937440115,50.87942096081403],[38.085340100340645,50.84610850673108],[38.03656114972175,50.834211201703525],[38.04488926324198,50.8127960526499],[38.094857944364676,50.817554974661114],[38.1246012069372,50.78305279007782],[38.156593728138674,50.80119735435797],[38.19942402624318,50.82023304240461],[38.2255980973074,50.83569953894224],[38.239874863342024,50.83807899994825],[38.250582437868886,50.834509808440124],[38.24344405485122,50.81904331190161],[38.21964944479256,50.80476654586618],[38.22916728881588,50.79524870184375],[38.244633785353955,50.79762816284985],[38.25296189887454,50.78573085781954],[38.27199758692109,50.79048977983075],[38.30531004100307,50.81309465938739],[38.30055111899097,50.830940616930135],[38.26961812591553,50.86782226252033],[38.26604893440625,50.87377091503552],[38.277946239435934,50.89637579459118],[38.29579219697975,50.9011347166024],[38.31601761552922,50.88447848956274],[38.371934949166146,50.84402765246247],[38.39216036771561,50.83926873045125],[38.41119605576216,50.84640711346945],[38.414765247270644,50.83569953894224],[38.431421474311634,50.82975088642704],[38.45045716235819,50.83569953894224],[38.46592365889635,50.86187361000611],[38.477820963925325,50.86187361000611],[38.470682580907656,50.83926873045125],[38.507564226498026,50.81309465938739],[38.540876680580006,50.80000762385497],[38.57061994315271,50.789300049329526],[38.57061994315271,50.7774027443002],[38.56348156013504,50.76193624776168],[38.57418913466118,50.75122867323624],[38.597983744719755,50.74052109870992],[38.62653727678972,50.75955678675656],[38.645572964836276,50.7678849002759],[38.65866000036878,50.776213013797104],[38.69673137646207,50.7774027443002],[38.71814652551427,50.78811031882563],[38.73242329154961,50.80238708486106],[38.72766436953751,50.82975088642704],[38.740751405069304,50.84521738296556],[38.73837194406366,50.8594941490001],[38.75264871009908,50.85592495749189],[38.77049466764281,50.842837921959465],[38.78953035568945,50.84521738296556],[38.821653079267804,50.86663253201732],[38.84901688083485,50.89399633358517],[38.86924229938423,50.93563690118667],[38.90136502296339,50.93801636219268],[39.02866618677477,50.939206092695684],[39.069117023874426,50.924929326660255],[39.105998669464796,50.918980674146034],[39.141690584552336,50.911842291128806],[39.17381330813069,50.91779094364303],[39.19403872668007,50.94277528420389],[39.22497171975648,50.97608773828596],[39.26304309584968,50.98322612130416],[39.28207878389624,50.97251854677686],[39.29992474144005,50.98679531281229],[39.32015015998943,50.97965692979595],[39.364170188597555,50.98560558231017],[39.37368803262079,51.01891803639046],[39.364170188597555,51.04271264644921],[39.370118841111605,51.04747156846132],[39.42603617474862,51.045092107455304],[39.45815889832777,51.049851029466524],[39.50812757944985,51.045092107455304],[39.54500922504022,51.045092107455304],[39.53906057252537,51.0819737530455],[39.56047572157847,51.11409647662457],[39.59735736716884,51.15335758322085],[39.631859551752754,51.20094680333657],[39.65599198652229,51.22572551146546],[39.644094681492604,51.2459509300152],[39.63576656797282,51.27688392309117],[39.600074652885276,51.26022769605062],[39.58817734785559,51.2459509300152],[39.534639475225035,51.267366079068736],[39.53107028371575,51.30186826365203],[39.489429716114074,51.307816916166345],[39.48110160259358,51.33874990924231],[39.465635106055416,51.373252093827475],[39.483481063599235,51.41489266142888],[39.43232265197433,51.40775427841166],[39.38592316236064,51.39466724287924],[39.3585593607935,51.370872632821374],[39.3240571762087,51.368493171816255],[39.2907447221268,51.43511807997853],[39.25981172905128,51.4303591579674],[39.237206849496246,51.44344619349974],[39.20151493440861,51.42560023595618],[39.17415113284156,51.452964037522165],[39.180099785356404,51.41608239193189],[39.1075262246784,51.383959668352915],[39.08730080612902,51.36373424980317],[38.99569155740447,51.32328341270566],[38.9588099118141,51.31138610767633],[38.91716934421162,51.31376556868145],[38.883856890130446,51.320903951698675]]]]}},{"type":"Feature","properties":{"kind":"district","id":"uyezd-1897-771","name":"Павловский","provinceId":"voronezh"},"geometry":{"type":"MultiPolygon","coordinates":[[[[40.00355309093554,50.85335237396044],[39.99776777753857,50.840590653231644],[39.98824993351525,50.82750361769922],[39.98349101150323,50.814416582167695],[39.929953138872676,50.78110412808651],[39.849051464674176,50.76801709255507],[39.79551359204282,50.76206844003987],[39.78242655651102,50.75017113501143],[39.78004709550545,50.737084099479006],[39.7859957480195,50.706151106403034],[39.80860062757533,50.67997703533908],[39.849051464674176,50.66213107779553],[39.89545095428787,50.63119808471858],[39.925194216860575,50.615731588181035],[39.928763408369846,50.5943164391283],[39.919245564346525,50.587178056111966],[39.903779067808365,50.5943164391283],[39.89902014579635,50.58598832560896],[39.910917450826034,50.576470481584664],[39.950178557422056,50.55029641052168],[39.97278343697709,50.54196829700048],[40.01323427407674,50.52412233945595],[40.039408345140245,50.489620154871766],[40.048926189163566,50.46582554481391],[40.076289990730615,50.44916931777247],[40.08342837374829,50.427754168720625],[40.066772146707294,50.413477402685196],[40.05963376369043,50.38611360111921],[40.04535699765509,50.3718368350837],[40.031080231620464,50.33852438100163],[39.98824993351525,50.317109231948976],[39.98468074200677,50.27784812535358],[40.00133696904696,50.26595082032327],[40.03464942312894,50.255243245797836],[40.04773645866065,50.240966479762406],[40.07391052972497,50.230258905236084],[40.077479721234155,50.21955133071056],[40.05606457218115,50.1933772596458],[40.05011591966711,50.16482372757673],[40.02751104011128,50.1505469615413],[40.02513157910562,50.12794208198645],[40.01680346558513,50.100578280419576],[40.04416726715226,50.09225016689837],[40.08461810425111,50.087491244887154],[40.11912028883583,50.07440420935473],[40.17979654448486,50.0601274433193],[40.247611183150845,50.038712294267455],[40.276164715220716,50.032763641753235],[40.313046360811086,50.033953372255354],[40.339220431875404,50.03990202476966],[40.36301504193326,50.044660946782656],[40.40346587903291,50.04941986879387],[40.43796806361682,50.05536852130809],[40.45224482965225,50.06607609583352],[40.47603943971011,50.06250690432629],[40.50102378027151,50.06607609583352],[40.540284886867525,50.085111783880166],[40.56883841893749,50.11247558544802],[40.60096114251655,50.1065269329338],[40.61404817804836,50.11247558544802],[40.63903251860975,50.11247558544802],[40.66996551168528,50.113665315951025],[40.687811469229096,50.12794208198645],[40.700898504761696,50.16839291908494],[40.711606079287755,50.194566990149696],[40.71755473180188,50.22431025272178],[40.724693114819466,50.24453567127151],[40.71993419280825,50.25405351529572],[40.694949852246765,50.25167405428962],[40.674724433697385,50.264761089822045],[40.667586050679716,50.30878111842955],[40.64617090162742,50.34209357250984],[40.665206589674064,50.38611360111921],[40.693760121743935,50.40990821117698],[40.69851904375524,50.428943899223626],[40.67591416420012,50.45035904827547],[40.67591416420012,50.491999615878754],[40.643791440621854,50.51579422593661],[40.665206589674064,50.54672721901169],[40.686621738726274,50.551486141022906],[40.724693114819466,50.58122940359588],[40.74967745538095,50.61692131868404],[40.800835867005944,50.65142350326823],[40.84300520372092,50.682224304066985],[40.72522188393205,50.68341403456999],[40.61933586917296,50.72981352418262],[40.56103907452949,50.76312597826468],[40.513449854412976,50.78454112731653],[40.482516861337444,50.79762816284985],[40.49679362737207,50.81428438989039],[40.52534715944266,50.82499196441583],[40.54319311698576,50.85473522698888],[40.53367527296244,50.8606838795031],[40.53248554245962,50.88447848956274],[40.49798335787561,50.88209902855576],[40.495603896869156,50.857114687994894],[40.44087629373506,50.85354549648677],[40.43254818021528,50.84640711346945],[40.41351249216872,50.83926873045125],[40.42065087518559,50.82023304240461],[40.446824946249905,50.79762816284985],[40.43730710222658,50.786920588322545],[40.40994330065945,50.80714600687227],[40.38020003808674,50.84640711346945],[40.32666216545539,50.865442801516096],[40.2421912997485,50.87377091503552],[40.18984315761996,50.87496064553853],[40.130356632474474,50.87615037604154],[40.10061336990177,50.87852983704674],[40.112510674930746,50.8594941490001],[40.112510674930746,50.84759684397068],[40.094664717386934,50.84640711346945],[40.09823390889612,50.83926873045125],[40.086336603866435,50.83332007793703],[40.036367922744354,50.852355765983674],[40.01138358218278,50.852355765983674],[40.00355309093554,50.85335237396044]]]]}}]}
